{
"type": "FeatureCollection",
"name": "003-paris-forest-of-fontainebleau",
"crs": { "type": "name", "properties": { "name": "urn:ogc:def:crs:OGC:1.3:CRS84" } },
"xy_coordinate_resolution": 1e-06,
"features": [
{ "type": "Feature", "properties": { "cls": "shared", "highway": "path", "name": null }, "geometry": { "type": "LineString", "coordinates": [ [ 2.772307, 48.334149 ], [ 2.772246, 48.334141 ], [ 2.771686, 48.33404 ], [ 2.770441, 48.333798 ], [ 2.76911, 48.333524 ], [ 2.76884, 48.333448 ], [ 2.768102, 48.333249 ], [ 2.767552, 48.333089 ], [ 2.766639, 48.332824 ], [ 2.764553, 48.332223 ], [ 2.762431, 48.331601 ], [ 2.759629, 48.330791 ], [ 2.756306, 48.329838 ], [ 2.753884, 48.32912 ], [ 2.75328, 48.328919 ], [ 2.753034, 48.328787 ], [ 2.752628, 48.328516 ], [ 2.752257, 48.328212 ], [ 2.752132, 48.328042 ], [ 2.751998, 48.327746 ], [ 2.75198, 48.327707 ], [ 2.75173, 48.327158 ] ] } },
{ "type": "Feature", "properties": { "cls": "shared", "highway": "path", "name": null }, "geometry": { "type": "MultiLineString", "coordinates": [ [ [ 2.727048, 48.315588 ], [ 2.72702, 48.315695 ], [ 2.727057, 48.315753 ], [ 2.727408, 48.315851 ], [ 2.727793, 48.31593 ], [ 2.728217, 48.316041 ], [ 2.728647, 48.316149 ], [ 2.729343, 48.316271 ], [ 2.73005, 48.316369 ], [ 2.731466, 48.316553 ], [ 2.732889, 48.31674 ], [ 2.733141, 48.316776 ] ], [ [ 2.73939, 48.318105 ], [ 2.739588, 48.318165 ], [ 2.739746, 48.318227 ], [ 2.739959, 48.318362 ], [ 2.741994, 48.319849 ], [ 2.74301, 48.320602 ], [ 2.743491, 48.320969 ], [ 2.744007, 48.321342 ], [ 2.744647, 48.321812 ], [ 2.744957, 48.322023 ], [ 2.745289, 48.322207 ], [ 2.745417, 48.322267 ] ], [ [ 2.747543, 48.323212 ], [ 2.747745, 48.323288 ] ] ] } },
{ "type": "Feature", "properties": { "cls": "shared", "highway": "path", "name": null }, "geometry": { "type": "LineString", "coordinates": [ [ 2.747745, 48.323288 ], [ 2.748083, 48.323447 ], [ 2.748454, 48.32356 ], [ 2.749477, 48.323963 ], [ 2.750259, 48.32426 ], [ 2.750495, 48.32437 ], [ 2.750609, 48.324471 ], [ 2.750674, 48.324582 ], [ 2.750909, 48.325124 ], [ 2.75112, 48.325667 ], [ 2.751289, 48.326059 ], [ 2.751475, 48.326504 ], [ 2.75173, 48.327158 ] ] } },
{ "type": "Feature", "properties": { "cls": "separated", "highway": "cycleway", "name": null }, "geometry": { "type": "Point", "coordinates": [ 2.734108, 48.414134 ] } },
{ "type": "Feature", "properties": { "cls": "separated", "highway": "cycleway", "name": null }, "geometry": { "type": "LineString", "coordinates": [ [ 2.738696, 48.415677 ], [ 2.738692, 48.41568 ], [ 2.738661, 48.415662 ], [ 2.738365, 48.415493 ], [ 2.738134, 48.415251 ], [ 2.737931, 48.415041 ], [ 2.737848, 48.414954 ], [ 2.737616, 48.414729 ], [ 2.737391, 48.41452 ], [ 2.737132, 48.414276 ], [ 2.736868, 48.414027 ], [ 2.736715, 48.413885 ], [ 2.736607, 48.413785 ], [ 2.736322, 48.413618 ], [ 2.736011, 48.413438 ], [ 2.735804, 48.413298 ] ] } },
{ "type": "Feature", "properties": { "cls": "shared", "highway": "path", "name": "Voie Douce" }, "geometry": { "type": "MultiLineString", "coordinates": [ [ [ 2.735706, 48.415459 ], [ 2.735743, 48.415543 ] ], [ [ 2.735743, 48.415543 ], [ 2.735792, 48.415652 ] ], [ [ 2.735792, 48.415652 ], [ 2.736352, 48.416901 ] ], [ [ 2.736352, 48.416901 ], [ 2.736513, 48.41725 ] ], [ [ 2.736513, 48.41725 ], [ 2.736601, 48.417442 ] ], [ [ 2.736601, 48.417442 ], [ 2.736803, 48.417627 ], [ 2.736972, 48.417726 ], [ 2.737305, 48.417921 ], [ 2.737596, 48.418055 ], [ 2.737637, 48.418075 ] ] ] } },
{ "type": "Feature", "properties": { "cls": "shared", "highway": "path", "name": null }, "geometry": { "type": "LineString", "coordinates": [ [ 2.737596, 48.418055 ], [ 2.738573, 48.416882 ], [ 2.73777, 48.416458 ], [ 2.738692, 48.41568 ] ] } },
{ "type": "Feature", "properties": { "cls": "painted", "highway": "residential", "name": "Route de la Bonne Dame" }, "geometry": { "type": "LineString", "coordinates": [ [ 2.725157, 48.417163 ], [ 2.724998, 48.417166 ], [ 2.724931, 48.417164 ], [ 2.723965, 48.417129 ], [ 2.723823, 48.417106 ], [ 2.723711, 48.417075 ], [ 2.72325, 48.416919 ], [ 2.723187, 48.4169 ], [ 2.722786, 48.416774 ], [ 2.721325, 48.416834 ], [ 2.720835, 48.416857 ], [ 2.720212, 48.416924 ], [ 2.71892, 48.417075 ] ] } },
{ "type": "Feature", "properties": { "cls": "shared", "highway": "path", "name": null }, "geometry": { "type": "MultiLineString", "coordinates": [ [ [ 2.703034, 48.312622 ], [ 2.703085, 48.312595 ], [ 2.703193, 48.312569 ], [ 2.703291, 48.312502 ], [ 2.703329, 48.312452 ], [ 2.703453, 48.312374 ], [ 2.703742, 48.312249 ], [ 2.704665, 48.311739 ], [ 2.704911, 48.311617 ], [ 2.705093, 48.31156 ], [ 2.705446, 48.311328 ], [ 2.705687, 48.311195 ], [ 2.70605, 48.311001 ], [ 2.706305, 48.310831 ] ], [ [ 2.706544, 48.310714 ], [ 2.706593, 48.310705 ], [ 2.706655, 48.310687 ], [ 2.706701, 48.310655 ], [ 2.706739, 48.310618 ], [ 2.707032, 48.310318 ], [ 2.707051, 48.310301 ] ] ] } },
{ "type": "Feature", "properties": { "cls": "shared", "highway": "path", "name": null }, "geometry": { "type": "MultiLineString", "coordinates": [ [ [ 2.709406, 48.310037 ], [ 2.709863, 48.310138 ], [ 2.711675, 48.310471 ], [ 2.712901, 48.310797 ] ], [ [ 2.714712, 48.311286 ], [ 2.715196, 48.311422 ], [ 2.715384, 48.311474 ], [ 2.715996, 48.311654 ], [ 2.716559, 48.311803 ], [ 2.716999, 48.311928 ], [ 2.718733, 48.312393 ], [ 2.719613, 48.312629 ], [ 2.719851, 48.312694 ], [ 2.720063, 48.312814 ], [ 2.722119, 48.314339 ], [ 2.722505, 48.314562 ], [ 2.722625, 48.314615 ], [ 2.722744, 48.314662 ], [ 2.722952, 48.314731 ], [ 2.723333, 48.314853 ], [ 2.724844, 48.315237 ], [ 2.725609, 48.315345 ], [ 2.726456, 48.315564 ], [ 2.726499, 48.315562 ], [ 2.726643, 48.3155 ], [ 2.726675, 48.315494 ], [ 2.727048, 48.315588 ] ] ] } },
{ "type": "Feature", "properties": { "cls": "shared", "highway": "path", "name": null }, "geometry": { "type": "LineString", "coordinates": [ [ 2.686801, 48.39529 ], [ 2.686749, 48.395257 ], [ 2.686695, 48.395234 ] ] } },
{ "type": "Feature", "properties": { "cls": "shared", "highway": "path", "name": null }, "geometry": { "type": "LineString", "coordinates": [ [ 2.687919, 48.395815 ], [ 2.687061, 48.395492 ], [ 2.686742, 48.395351 ] ] } },
{ "type": "Feature", "properties": { "cls": "sharrow", "highway": "unclassified", "name": "Route de Hurtault" }, "geometry": { "type": "LineString", "coordinates": [ [ 2.687694, 48.397022 ], [ 2.687793, 48.396495 ], [ 2.687911, 48.395862 ], [ 2.687919, 48.395815 ], [ 2.687934, 48.395734 ], [ 2.687955, 48.395618 ] ] } },
{ "type": "Feature", "properties": { "cls": "sharrow", "highway": "unclassified", "name": "Route de Hurtault" }, "geometry": { "type": "LineString", "coordinates": [ [ 2.687694, 48.397022 ], [ 2.687685, 48.397071 ] ] } },
{ "type": "Feature", "properties": { "cls": "sharrow", "highway": "unclassified", "name": "Route de Hurtault" }, "geometry": { "type": "LineString", "coordinates": [ [ 2.687685, 48.397071 ], [ 2.687599, 48.397534 ], [ 2.687583, 48.397615 ], [ 2.687572, 48.39767 ] ] } },
{ "type": "Feature", "properties": { "cls": "painted", "highway": "unclassified", "name": "Rue Duplessis Mornay" }, "geometry": { "type": "LineString", "coordinates": [ [ 2.682427, 48.407144 ], [ 2.683666, 48.406705 ] ] } },
{ "type": "Feature", "properties": { "cls": "shared", "highway": "path", "name": "Route de Deroy" }, "geometry": { "type": "LineString", "coordinates": [ [ 2.713399, 48.416234 ], [ 2.713446, 48.416222 ] ] } },
{ "type": "Feature", "properties": { "cls": "shared", "highway": "path", "name": "Route de Deroy" }, "geometry": { "type": "LineString", "coordinates": [ [ 2.714208, 48.416205 ], [ 2.714763, 48.416259 ], [ 2.715032, 48.416178 ], [ 2.715245, 48.416204 ], [ 2.716805, 48.416927 ], [ 2.716949, 48.416953 ] ] } },
{ "type": "Feature", "properties": { "cls": "shared", "highway": "path", "name": null }, "geometry": { "type": "LineString", "coordinates": [ [ 2.71059, 48.41697 ], [ 2.710863, 48.416878 ], [ 2.711649, 48.416542 ], [ 2.712455, 48.416325 ], [ 2.713036, 48.416236 ], [ 2.713399, 48.416234 ] ] } },
{ "type": "Feature", "properties": { "cls": "painted", "highway": "residential", "name": "Route de la Bonne Dame" }, "geometry": { "type": "MultiLineString", "coordinates": [ [ [ 2.71892, 48.417075 ], [ 2.718613, 48.417102 ], [ 2.718062, 48.417123 ], [ 2.71797, 48.417127 ] ], [ [ 2.717302, 48.41715 ], [ 2.717189, 48.417152 ], [ 2.716996, 48.417149 ], [ 2.716899, 48.417129 ] ] ] } },
{ "type": "Feature", "properties": { "cls": "shared", "highway": "path", "name": null }, "geometry": { "type": "LineString", "coordinates": [ [ 2.702691, 48.416833 ], [ 2.702829, 48.416903 ], [ 2.703476, 48.417017 ], [ 2.70391, 48.417093 ], [ 2.70408, 48.41716 ], [ 2.704269, 48.41716 ], [ 2.704689, 48.417207 ], [ 2.705038, 48.417278 ], [ 2.705255, 48.417339 ], [ 2.705611, 48.417394 ], [ 2.706019, 48.41739 ], [ 2.706411, 48.417424 ], [ 2.706728, 48.417459 ], [ 2.707166, 48.417436 ], [ 2.707329, 48.417404 ] ] } },
{ "type": "Feature", "properties": { "cls": "painted", "highway": "primary", "name": null }, "geometry": { "type": "LineString", "coordinates": [ [ 2.690158, 48.440327 ], [ 2.690268, 48.439922 ], [ 2.690343, 48.439652 ], [ 2.690511, 48.438978 ], [ 2.69061, 48.438737 ], [ 2.690713, 48.438536 ], [ 2.690822, 48.438371 ], [ 2.69094, 48.438195 ], [ 2.691103, 48.437997 ], [ 2.691278, 48.437837 ], [ 2.691471, 48.437657 ], [ 2.691677, 48.437513 ], [ 2.691916, 48.43735 ], [ 2.693115, 48.436551 ], [ 2.694266, 48.435773 ], [ 2.69621, 48.434465 ] ] } },
{ "type": "Feature", "properties": { "cls": "painted", "highway": "primary", "name": null }, "geometry": { "type": "LineString", "coordinates": [ [ 2.684234, 48.45604 ], [ 2.685004, 48.453466 ], [ 2.685101, 48.453138 ], [ 2.68517, 48.452945 ], [ 2.685251, 48.45275 ], [ 2.685311, 48.452616 ], [ 2.685403, 48.452444 ], [ 2.685486, 48.452291 ], [ 2.685631, 48.452063 ], [ 2.685876, 48.451726 ], [ 2.686557, 48.450818 ], [ 2.6872, 48.449977 ], [ 2.687535, 48.44952 ], [ 2.687662, 48.449313 ], [ 2.68778, 48.449077 ], [ 2.687869, 48.448874 ], [ 2.687998, 48.448531 ], [ 2.688216, 48.447722 ], [ 2.688445, 48.446868 ], [ 2.688697, 48.445867 ], [ 2.689124, 48.444271 ], [ 2.689576, 48.442562 ], [ 2.68974, 48.441943 ], [ 2.689797, 48.441699 ] ] } },
{ "type": "Feature", "properties": { "cls": "shared", "highway": "path", "name": null }, "geometry": { "type": "LineString", "coordinates": [ [ 2.707631, 48.417392 ], [ 2.708089, 48.417366 ], [ 2.709138, 48.417428 ], [ 2.70963, 48.417282 ], [ 2.710277, 48.417091 ] ] } },
{ "type": "Feature", "properties": { "cls": "painted", "highway": "primary", "name": null }, "geometry": { "type": "LineString", "coordinates": [ [ 2.698391, 48.433009 ], [ 2.698655, 48.432833 ] ] } },
{ "type": "Feature", "properties": { "cls": "painted", "highway": "primary", "name": null }, "geometry": { "type": "LineString", "coordinates": [ [ 2.697245, 48.433777 ], [ 2.698391, 48.433009 ] ] } },
{ "type": "Feature", "properties": { "cls": "painted", "highway": "primary", "name": null }, "geometry": { "type": "LineString", "coordinates": [ [ 2.697245, 48.433777 ], [ 2.697129, 48.433854 ], [ 2.696314, 48.434396 ], [ 2.69621, 48.434465 ] ] } },
{ "type": "Feature", "properties": { "cls": "painted", "highway": "residential", "name": "Rue de la République" }, "geometry": { "type": "LineString", "coordinates": [ [ 2.699715, 48.462506 ], [ 2.69982, 48.462571 ] ] } },
{ "type": "Feature", "properties": { "cls": "painted", "highway": "primary", "name": null }, "geometry": { "type": "LineString", "coordinates": [ [ 2.684157, 48.456301 ], [ 2.684234, 48.45604 ] ] } },
{ "type": "Feature", "properties": { "cls": "painted", "highway": "primary", "name": null }, "geometry": { "type": "LineString", "coordinates": [ [ 2.678955, 48.473731 ], [ 2.679832, 48.470788 ], [ 2.680295, 48.469241 ], [ 2.680351, 48.469056 ], [ 2.680438, 48.468768 ], [ 2.681019, 48.466817 ], [ 2.681033, 48.466768 ], [ 2.681971, 48.463621 ], [ 2.682855, 48.460669 ], [ 2.682881, 48.460583 ], [ 2.683042, 48.460082 ], [ 2.684157, 48.456301 ] ] } },
{ "type": "Feature", "properties": { "cls": "painted", "highway": "primary", "name": "Ancienne Route de Bourgogne" }, "geometry": { "type": "LineString", "coordinates": [ [ 2.675097, 48.477288 ], [ 2.675655, 48.476899 ], [ 2.676019, 48.476669 ], [ 2.677136, 48.47595 ], [ 2.677733, 48.475551 ], [ 2.677814, 48.475498 ] ] } },
{ "type": "Feature", "properties": { "cls": "shared", "highway": "path", "name": null }, "geometry": { "type": "LineString", "coordinates": [ [ 2.736803, 48.417627 ], [ 2.737, 48.418144 ], [ 2.7372, 48.4182 ] ] } },
{ "type": "Feature", "properties": { "cls": "shared", "highway": "path", "name": "Voie Douce" }, "geometry": { "type": "LineString", "coordinates": [ [ 2.737206, 48.418593 ], [ 2.737351, 48.418715 ], [ 2.737444, 48.418959 ], [ 2.737473, 48.419098 ], [ 2.737559, 48.419217 ], [ 2.737667, 48.41939 ], [ 2.737717, 48.419472 ], [ 2.737906, 48.419728 ], [ 2.738236, 48.420021 ], [ 2.738717, 48.42057 ], [ 2.738952, 48.42088 ], [ 2.739151, 48.421146 ], [ 2.739402, 48.421461 ], [ 2.73962, 48.421707 ], [ 2.739713, 48.421812 ] ] } },
{ "type": "Feature", "properties": { "cls": "shared", "highway": "path", "name": "Voie Douce" }, "geometry": { "type": "LineString", "coordinates": [ [ 2.739713, 48.421812 ], [ 2.739801, 48.421952 ], [ 2.74, 48.422235 ], [ 2.740148, 48.422451 ], [ 2.740359, 48.422747 ], [ 2.740556, 48.422978 ], [ 2.740764, 48.423182 ], [ 2.741042, 48.423489 ], [ 2.741463, 48.42383 ], [ 2.741894, 48.424139 ], [ 2.742145, 48.424267 ], [ 2.742411, 48.4244 ], [ 2.742603, 48.424484 ], [ 2.742639, 48.4245 ] ] } },
{ "type": "Feature", "properties": { "cls": "painted", "highway": "residential", "name": "Route de la Bonne Dame" }, "geometry": { "type": "LineString", "coordinates": [ [ 2.725249, 48.417143 ], [ 2.725157, 48.417163 ] ] } },
{ "type": "Feature", "properties": { "cls": "painted", "highway": "tertiary", "name": null }, "geometry": { "type": "LineString", "coordinates": [ [ 2.727671, 48.456163 ], [ 2.725512, 48.45727 ], [ 2.72538, 48.457337 ], [ 2.725148, 48.457453 ], [ 2.724921, 48.457567 ], [ 2.724714, 48.457674 ], [ 2.723669, 48.458217 ], [ 2.722036, 48.45905 ], [ 2.716028, 48.462137 ], [ 2.715024, 48.462652 ], [ 2.714231, 48.463038 ], [ 2.713517, 48.463424 ], [ 2.713214, 48.463633 ], [ 2.713063, 48.463764 ], [ 2.712931, 48.463889 ], [ 2.712789, 48.464061 ], [ 2.712696, 48.464179 ], [ 2.712582, 48.464408 ], [ 2.71252, 48.464595 ], [ 2.712493, 48.464768 ], [ 2.712485, 48.464804 ], [ 2.712452, 48.464928 ], [ 2.71242, 48.465093 ] ] } },
{ "type": "Feature", "properties": { "cls": "painted", "highway": "tertiary", "name": "Avenue de la Libération" }, "geometry": { "type": "LineString", "coordinates": [ [ 2.737157, 48.453362 ], [ 2.737039, 48.45336 ], [ 2.736058, 48.453415 ] ] } },
{ "type": "Feature", "properties": { "cls": "painted", "highway": "tertiary", "name": null }, "geometry": { "type": "LineString", "coordinates": [ [ 2.736058, 48.453415 ], [ 2.735165, 48.453473 ] ] } },
{ "type": "Feature", "properties": { "cls": "painted", "highway": "tertiary", "name": null }, "geometry": { "type": "LineString", "coordinates": [ [ 2.735165, 48.453473 ], [ 2.733938, 48.453557 ], [ 2.733071, 48.453618 ], [ 2.732821, 48.453646 ], [ 2.732591, 48.453699 ], [ 2.732358, 48.453779 ], [ 2.730686, 48.454622 ], [ 2.728052, 48.455968 ] ] } },
{ "type": "Feature", "properties": { "cls": "shared", "highway": "path", "name": null }, "geometry": { "type": "LineString", "coordinates": [ [ 2.727174, 48.483133 ], [ 2.727175, 48.483117 ] ] } },
{ "type": "Feature", "properties": { "cls": "shared", "highway": "path", "name": null }, "geometry": { "type": "LineString", "coordinates": [ [ 2.655797, 48.515171 ], [ 2.655866, 48.515211 ], [ 2.655911, 48.515217 ] ] } },
{ "type": "Feature", "properties": { "cls": "separated", "highway": "cycleway", "name": null }, "geometry": { "type": "LineString", "coordinates": [ [ 2.651251, 48.515256 ], [ 2.651271, 48.515121 ], [ 2.651255, 48.515094 ] ] } },
{ "type": "Feature", "properties": { "cls": "shared", "highway": "path", "name": null }, "geometry": { "type": "LineString", "coordinates": [ [ 2.634796, 48.498808 ], [ 2.634907, 48.498803 ] ] } },
{ "type": "Feature", "properties": { "cls": "shared", "highway": "path", "name": null }, "geometry": { "type": "LineString", "coordinates": [ [ 2.651257, 48.515025 ], [ 2.651335, 48.515022 ], [ 2.651557, 48.515032 ], [ 2.652435, 48.515037 ], [ 2.653644, 48.515042 ], [ 2.654899, 48.515056 ], [ 2.655546, 48.515061 ], [ 2.655662, 48.515064 ], [ 2.655771, 48.515108 ], [ 2.655797, 48.515171 ] ] } }
]
}
