{
"type": "FeatureCollection",
"name": "004-cape-town-table-mountain-national-park",
"crs": { "type": "name", "properties": { "name": "urn:ogc:def:crs:OGC:1.3:CRS84" } },
"xy_coordinate_resolution": 1e-06,
"features": [
{ "type": "Feature", "properties": { "cls": "shared", "highway": "path", "name": "Da Gama Park Path" }, "geometry": { "type": "LineString", "coordinates": [ [ 18.395822, -34.158041 ], [ 18.395613, -34.15805 ], [ 18.395518, -34.158034 ], [ 18.395407, -34.158015 ], [ 18.395353, -34.157955 ], [ 18.395292, -34.157847 ], [ 18.395194, -34.157708 ], [ 18.394841, -34.157417 ], [ 18.394673, -34.157319 ], [ 18.394512, -34.157265 ], [ 18.394479, -34.157172 ], [ 18.394489, -34.157038 ], [ 18.394551, -34.156961 ], [ 18.394632, -34.156909 ], [ 18.394725, -34.156893 ], [ 18.394918, -34.156857 ], [ 18.39497, -34.156803 ], [ 18.394988, -34.156711 ], [ 18.394883, -34.156294 ], [ 18.394826, -34.156175 ], [ 18.394786, -34.156114 ], [ 18.394637, -34.156083 ], [ 18.394394, -34.15607 ], [ 18.394275, -34.156028 ], [ 18.394168, -34.155942 ], [ 18.394064, -34.155853 ], [ 18.393959, -34.155835 ], [ 18.393879, -34.155801 ], [ 18.393728, -34.155648 ], [ 18.393603, -34.155532 ], [ 18.393261, -34.155366 ], [ 18.393145, -34.155281 ], [ 18.392998, -34.155059 ], [ 18.392862, -34.154931 ], [ 18.392661, -34.154837 ], [ 18.392514, -34.154806 ], [ 18.392158, -34.154794 ], [ 18.391914, -34.154753 ], [ 18.391627, -34.154633 ], [ 18.391464, -34.154556 ], [ 18.391376, -34.154433 ], [ 18.391293, -34.154306 ], [ 18.391123, -34.15424 ], [ 18.390961, -34.154172 ], [ 18.390813, -34.154054 ], [ 18.390665, -34.153924 ], [ 18.390622, -34.153857 ], [ 18.390624, -34.153784 ], [ 18.390643, -34.153621 ], [ 18.39062, -34.153541 ], [ 18.390549, -34.153457 ], [ 18.390356, -34.153304 ], [ 18.390231, -34.153186 ], [ 18.390074, -34.153033 ], [ 18.389857, -34.152894 ], [ 18.389727, -34.152839 ], [ 18.389494, -34.152794 ], [ 18.389338, -34.152799 ], [ 18.389037, -34.152917 ], [ 18.388927, -34.152966 ], [ 18.388866, -34.153053 ], [ 18.388857, -34.153155 ], [ 18.388863, -34.153337 ] ] } },
{ "type": "Feature", "properties": { "cls": "shared", "highway": "path", "name": "Glencairn Stables Pathway" }, "geometry": { "type": "MultiLineString", "coordinates": [ [ [ 18.407881, -34.150473 ], [ 18.407944, -34.150295 ], [ 18.408023, -34.150153 ], [ 18.408261, -34.149943 ], [ 18.408041, -34.149569 ], [ 18.407524, -34.149135 ], [ 18.407452, -34.148869 ], [ 18.407414, -34.148747 ], [ 18.407394, -34.14862 ], [ 18.407269, -34.148424 ], [ 18.406952, -34.148049 ], [ 18.406745, -34.147904 ], [ 18.406609, -34.147842 ], [ 18.406472, -34.147807 ], [ 18.406194, -34.147838 ], [ 18.405999, -34.147741 ], [ 18.405976, -34.147724 ], [ 18.405691, -34.147507 ], [ 18.40566, -34.147453 ], [ 18.405675, -34.147346 ], [ 18.405662, -34.147233 ], [ 18.40556, -34.147128 ], [ 18.40542, -34.146984 ], [ 18.405337, -34.146839 ], [ 18.405114, -34.146625 ], [ 18.405089, -34.146588 ] ], [ [ 18.404761, -34.14635 ], [ 18.404612, -34.146315 ], [ 18.404191, -34.14628 ], [ 18.403959, -34.146259 ], [ 18.40381, -34.146229 ], [ 18.403614, -34.146126 ], [ 18.403479, -34.146047 ], [ 18.403075, -34.14594 ], [ 18.402827, -34.145925 ], [ 18.402483, -34.14588 ], [ 18.401834, -34.145601 ], [ 18.401421, -34.14544 ], [ 18.401102, -34.145237 ], [ 18.400973, -34.145175 ], [ 18.400716, -34.144953 ], [ 18.400689, -34.144869 ], [ 18.399998, -34.144237 ], [ 18.399858, -34.144127 ] ] ] } },
{ "type": "Feature", "properties": { "cls": "shared", "highway": "path", "name": "Glencairn Stables Pathway" }, "geometry": { "type": "LineString", "coordinates": [ [ 18.399998, -34.144237 ], [ 18.400197, -34.144132 ] ] } },
{ "type": "Feature", "properties": { "cls": "shared", "highway": "path", "name": null }, "geometry": { "type": "LineString", "coordinates": [ [ 18.398608, -34.067639 ], [ 18.398695, -34.067792 ], [ 18.39856, -34.06772 ], [ 18.398414, -34.06768 ], [ 18.398385, -34.067653 ], [ 18.398299, -34.067593 ], [ 18.398051, -34.067472 ], [ 18.397829, -34.067322 ], [ 18.397625, -34.067238 ], [ 18.397398, -34.067159 ], [ 18.397221, -34.067059 ], [ 18.397159, -34.066981 ], [ 18.397008, -34.066906 ], [ 18.396781, -34.066591 ], [ 18.396755, -34.066503 ], [ 18.396843, -34.0662 ], [ 18.396777, -34.066114 ], [ 18.396777, -34.066045 ], [ 18.396604, -34.065901 ], [ 18.396561, -34.065853 ], [ 18.396289, -34.065722 ], [ 18.396219, -34.065707 ], [ 18.39607, -34.065603 ], [ 18.396073, -34.065538 ], [ 18.395984, -34.065405 ], [ 18.395949, -34.06528 ], [ 18.395879, -34.065209 ], [ 18.39585, -34.065217 ], [ 18.395874, -34.0653 ], [ 18.395882, -34.065392 ], [ 18.395893, -34.065454 ], [ 18.395938, -34.065511 ], [ 18.39595, -34.065624 ], [ 18.395957, -34.065678 ], [ 18.396078, -34.065799 ], [ 18.396164, -34.065862 ], [ 18.396179, -34.066324 ], [ 18.396135, -34.066405 ], [ 18.396132, -34.066489 ], [ 18.396159, -34.066534 ], [ 18.396159, -34.066613 ], [ 18.396211, -34.066764 ], [ 18.3962, -34.066883 ], [ 18.396238, -34.067033 ], [ 18.396316, -34.067108 ], [ 18.396391, -34.067229 ], [ 18.396364, -34.067227 ], [ 18.396316, -34.067168 ], [ 18.396292, -34.067128 ], [ 18.396203, -34.067041 ], [ 18.396116, -34.066904 ], [ 18.396094, -34.066815 ], [ 18.395982, -34.066755 ], [ 18.395925, -34.066694 ], [ 18.395893, -34.066604 ], [ 18.395847, -34.066538 ], [ 18.39582, -34.066522 ], [ 18.39579, -34.066597 ], [ 18.395753, -34.066651 ], [ 18.395726, -34.06672 ], [ 18.395733, -34.066839 ], [ 18.395709, -34.066931 ], [ 18.395857, -34.06716 ], [ 18.395882, -34.067233 ], [ 18.395858, -34.067281 ], [ 18.395787, -34.067299 ], [ 18.395583, -34.067101 ], [ 18.39543, -34.067059 ], [ 18.395247, -34.06693 ], [ 18.395122, -34.066855 ], [ 18.395104, -34.066817 ], [ 18.394974, -34.066718 ], [ 18.394872, -34.06661 ], [ 18.394829, -34.0665 ], [ 18.39485, -34.066429 ], [ 18.39491, -34.066373 ], [ 18.39509, -34.066328 ], [ 18.395146, -34.066281 ], [ 18.395087, -34.066285 ], [ 18.394899, -34.066239 ], [ 18.394676, -34.066204 ], [ 18.394559, -34.066203 ], [ 18.394527, -34.06623 ], [ 18.394513, -34.066269 ], [ 18.394495, -34.066302 ], [ 18.394483, -34.066338 ], [ 18.394483, -34.066408 ], [ 18.394505, -34.066465 ], [ 18.394512, -34.06648 ], [ 18.394529, -34.066516 ], [ 18.394526, -34.066537 ], [ 18.394509, -34.066555 ], [ 18.394462, -34.066598 ], [ 18.394414, -34.066639 ] ] } },
{ "type": "Feature", "properties": { "cls": "separated", "highway": "cycleway", "name": null }, "geometry": { "type": "LineString", "coordinates": [ [ 18.371578, -34.062877 ], [ 18.371666, -34.062956 ], [ 18.371746, -34.063059 ], [ 18.371771, -34.063084 ], [ 18.371791, -34.063122 ], [ 18.371833, -34.063182 ], [ 18.371859, -34.063238 ], [ 18.371869, -34.063272 ], [ 18.371869, -34.063371 ] ] } },
{ "type": "Feature", "properties": { "cls": "separated", "highway": "cycleway", "name": null }, "geometry": { "type": "LineString", "coordinates": [ [ 18.37137, -34.062819 ], [ 18.371364, -34.062862 ], [ 18.371403, -34.062944 ], [ 18.371444, -34.063002 ], [ 18.371581, -34.063197 ], [ 18.371619, -34.063243 ], [ 18.37173, -34.063357 ], [ 18.371799, -34.063396 ] ] } },
{ "type": "Feature", "properties": { "cls": "shared", "highway": "path", "name": null }, "geometry": { "type": "LineString", "coordinates": [ [ 18.412685, -34.05822 ], [ 18.41273, -34.058064 ], [ 18.412767, -34.057963 ], [ 18.412788, -34.057762 ], [ 18.412778, -34.057607 ], [ 18.412768, -34.057506 ], [ 18.412731, -34.057458 ], [ 18.412565, -34.057329 ], [ 18.412484, -34.0572 ], [ 18.412382, -34.05709 ], [ 18.412326, -34.056991 ] ] } },
{ "type": "Feature", "properties": { "cls": "shared", "highway": "path", "name": "Faerie Garden" }, "geometry": { "type": "LineString", "coordinates": [ [ 18.409748, -34.055902 ], [ 18.40969, -34.055934 ], [ 18.4096, -34.056044 ], [ 18.409607, -34.056097 ], [ 18.409638, -34.056132 ], [ 18.409682, -34.056151 ], [ 18.409746, -34.056189 ], [ 18.409807, -34.056193 ], [ 18.409854, -34.056206 ], [ 18.409872, -34.056227 ], [ 18.409876, -34.056251 ], [ 18.409865, -34.056295 ], [ 18.409824, -34.056372 ], [ 18.409811, -34.056414 ], [ 18.409792, -34.056453 ], [ 18.409738, -34.056464 ], [ 18.409673, -34.05645 ], [ 18.409627, -34.05645 ], [ 18.409584, -34.056466 ], [ 18.409537, -34.056469 ], [ 18.409489, -34.056456 ], [ 18.409419, -34.056454 ], [ 18.409389, -34.056471 ], [ 18.409381, -34.056489 ], [ 18.409384, -34.056508 ], [ 18.409455, -34.056558 ], [ 18.409494, -34.056586 ], [ 18.409529, -34.056619 ], [ 18.409532, -34.056648 ], [ 18.40954, -34.056668 ], [ 18.409561, -34.056679 ], [ 18.409603, -34.056666 ], [ 18.409618, -34.056655 ], [ 18.409639, -34.056652 ], [ 18.409768, -34.056681 ], [ 18.409906, -34.056721 ], [ 18.409957, -34.056729 ], [ 18.409989, -34.05677 ], [ 18.410031, -34.056798 ], [ 18.410051, -34.056841 ], [ 18.410077, -34.056905 ], [ 18.410095, -34.056951 ], [ 18.410106, -34.056963 ], [ 18.41012, -34.056964 ], [ 18.41014, -34.056953 ], [ 18.410165, -34.056919 ], [ 18.410188, -34.056856 ], [ 18.410207, -34.056806 ], [ 18.410189, -34.056763 ], [ 18.41018, -34.056715 ], [ 18.410194, -34.056668 ], [ 18.410228, -34.056648 ], [ 18.410266, -34.056649 ], [ 18.410292, -34.056657 ], [ 18.410318, -34.056678 ], [ 18.410355, -34.056715 ], [ 18.410378, -34.056827 ], [ 18.410424, -34.056931 ], [ 18.410481, -34.056962 ], [ 18.41052, -34.056983 ], [ 18.41056, -34.056965 ], [ 18.410578, -34.05693 ], [ 18.410577, -34.056891 ], [ 18.410584, -34.056812 ], [ 18.410563, -34.05678 ], [ 18.410569, -34.056752 ], [ 18.410606, -34.056733 ], [ 18.410644, -34.056756 ], [ 18.410708, -34.056801 ], [ 18.41073, -34.056849 ], [ 18.410738, -34.056898 ], [ 18.410783, -34.05697 ], [ 18.410816, -34.057043 ], [ 18.410812, -34.057087 ], [ 18.410815, -34.057126 ], [ 18.41085, -34.05719 ], [ 18.410866, -34.057234 ], [ 18.410905, -34.057258 ], [ 18.410933, -34.057252 ], [ 18.410951, -34.057235 ], [ 18.410955, -34.05719 ], [ 18.410957, -34.057115 ], [ 18.410949, -34.057047 ], [ 18.410949, -34.056994 ], [ 18.41093, -34.056964 ], [ 18.410905, -34.05696 ], [ 18.410895, -34.056941 ], [ 18.410901, -34.056905 ], [ 18.410925, -34.056877 ], [ 18.410953, -34.056873 ], [ 18.410993, -34.056899 ], [ 18.411036, -34.056943 ], [ 18.411069, -34.057016 ], [ 18.411058, -34.057092 ], [ 18.411089, -34.05717 ], [ 18.411102, -34.05724 ], [ 18.411081, -34.057305 ], [ 18.411102, -34.057318 ], [ 18.411117, -34.057348 ], [ 18.411101, -34.057391 ], [ 18.411075, -34.057403 ], [ 18.411047, -34.05741 ], [ 18.41097, -34.057411 ], [ 18.410887, -34.05738 ], [ 18.410843, -34.057365 ], [ 18.4108, -34.057354 ], [ 18.410773, -34.057367 ], [ 18.410772, -34.057403 ], [ 18.410799, -34.057435 ], [ 18.410802, -34.057471 ], [ 18.41079, -34.057538 ], [ 18.410775, -34.057569 ], [ 18.410743, -34.057599 ], [ 18.410694, -34.057647 ], [ 18.410595, -34.057706 ], [ 18.410583, -34.057736 ], [ 18.410583, -34.057774 ], [ 18.410599, -34.057837 ], [ 18.410586, -34.057898 ], [ 18.410625, -34.057962 ], [ 18.410668, -34.058022 ], [ 18.410657, -34.058066 ], [ 18.410622, -34.058111 ], [ 18.410622, -34.05818 ], [ 18.410695, -34.058228 ], [ 18.410767, -34.058295 ], [ 18.410774, -34.058342 ], [ 18.410788, -34.058365 ], [ 18.410814, -34.058365 ], [ 18.41087, -34.058336 ], [ 18.410898, -34.058354 ], [ 18.410898, -34.058399 ], [ 18.410919, -34.058427 ], [ 18.410944, -34.058451 ], [ 18.41098, -34.05847 ], [ 18.411014, -34.05847 ], [ 18.411043, -34.058454 ], [ 18.41115, -34.05847 ], [ 18.411191, -34.058476 ], [ 18.411233, -34.058471 ], [ 18.411313, -34.058455 ], [ 18.411441, -34.058478 ], [ 18.411485, -34.058494 ], [ 18.411529, -34.058497 ], [ 18.411632, -34.058502 ], [ 18.411751, -34.058512 ], [ 18.411832, -34.058524 ], [ 18.411897, -34.058548 ], [ 18.412017, -34.058598 ], [ 18.412076, -34.058674 ], [ 18.412115, -34.058711 ], [ 18.412239, -34.058751 ], [ 18.412358, -34.058797 ], [ 18.412396, -34.058817 ], [ 18.412427, -34.058845 ], [ 18.412474, -34.058885 ], [ 18.4125, -34.058889 ], [ 18.412523, -34.058881 ], [ 18.412551, -34.05886 ], [ 18.412566, -34.058833 ], [ 18.412575, -34.058793 ], [ 18.41257, -34.058752 ], [ 18.412542, -34.058698 ], [ 18.412503, -34.058645 ], [ 18.412511, -34.058584 ], [ 18.412468, -34.058526 ], [ 18.412453, -34.058482 ], [ 18.412471, -34.058457 ], [ 18.412509, -34.05844 ], [ 18.412553, -34.058449 ], [ 18.412594, -34.058444 ], [ 18.412603, -34.058396 ], [ 18.412631, -34.058361 ], [ 18.412693, -34.058369 ], [ 18.412723, -34.058364 ], [ 18.412779, -34.058346 ] ] } },
{ "type": "Feature", "properties": { "cls": "shared", "highway": "path", "name": null }, "geometry": { "type": "LineString", "coordinates": [ [ 18.412406, -34.055843 ], [ 18.412427, -34.055884 ], [ 18.412478, -34.055929 ], [ 18.412536, -34.055965 ], [ 18.412594, -34.05602 ], [ 18.412638, -34.056083 ], [ 18.412655, -34.056149 ], [ 18.412658, -34.056221 ], [ 18.412649, -34.056275 ], [ 18.412623, -34.056283 ], [ 18.412587, -34.0563 ], [ 18.412578, -34.05633 ], [ 18.412586, -34.056353 ], [ 18.412608, -34.056383 ], [ 18.412602, -34.056423 ], [ 18.412563, -34.056436 ], [ 18.412518, -34.056433 ], [ 18.412459, -34.056412 ], [ 18.412387, -34.056386 ], [ 18.412335, -34.056382 ], [ 18.412294, -34.056398 ], [ 18.412285, -34.056438 ], [ 18.412295, -34.056471 ], [ 18.412309, -34.056512 ], [ 18.412313, -34.056523 ], [ 18.412299, -34.056557 ], [ 18.41224, -34.056568 ], [ 18.412178, -34.056563 ], [ 18.412134, -34.056547 ], [ 18.41211, -34.056521 ], [ 18.412079, -34.056499 ], [ 18.412036, -34.056507 ], [ 18.412018, -34.056538 ], [ 18.412009, -34.056575 ], [ 18.412029, -34.05662 ], [ 18.412078, -34.056671 ], [ 18.412157, -34.056716 ], [ 18.412187, -34.056734 ], [ 18.412176, -34.05678 ], [ 18.412178, -34.056838 ], [ 18.412208, -34.056874 ], [ 18.412278, -34.056897 ] ] } },
{ "type": "Feature", "properties": { "cls": "shared", "highway": "path", "name": null }, "geometry": { "type": "LineString", "coordinates": [ [ 18.412326, -34.056991 ], [ 18.412278, -34.056897 ], [ 18.412282, -34.05684 ], [ 18.41231, -34.056781 ], [ 18.412274, -34.056711 ], [ 18.412287, -34.056672 ], [ 18.412327, -34.056649 ], [ 18.412585, -34.056669 ], [ 18.412641, -34.056658 ], [ 18.412635, -34.056555 ], [ 18.412712, -34.056511 ], [ 18.41277, -34.056425 ], [ 18.412809, -34.056339 ], [ 18.4128, -34.056257 ], [ 18.412754, -34.056149 ], [ 18.412694, -34.055898 ], [ 18.412566, -34.055692 ], [ 18.412488, -34.055573 ], [ 18.412387, -34.055506 ], [ 18.412379, -34.0555 ], [ 18.412234, -34.055394 ] ] } },
{ "type": "Feature", "properties": { "cls": "shared", "highway": "path", "name": null }, "geometry": { "type": "LineString", "coordinates": [ [ 18.412393, -34.055734 ], [ 18.412341, -34.055637 ], [ 18.412296, -34.055555 ], [ 18.412267, -34.055465 ], [ 18.412234, -34.055394 ], [ 18.412197, -34.055346 ], [ 18.412151, -34.055287 ], [ 18.412071, -34.055231 ], [ 18.411938, -34.055175 ], [ 18.411871, -34.055129 ], [ 18.411794, -34.055074 ], [ 18.411711, -34.055024 ], [ 18.411605, -34.054963 ], [ 18.411442, -34.054853 ], [ 18.411273, -34.054721 ], [ 18.411145, -34.054619 ] ] } },
{ "type": "Feature", "properties": { "cls": "shared", "highway": "path", "name": null }, "geometry": { "type": "LineString", "coordinates": [ [ 18.411159, -34.054272 ], [ 18.411196, -34.05428 ], [ 18.411252, -34.054291 ], [ 18.411363, -34.05428 ], [ 18.411466, -34.054291 ], [ 18.411555, -34.054353 ], [ 18.411614, -34.054399 ], [ 18.411663, -34.054459 ], [ 18.411694, -34.05454 ], [ 18.411724, -34.054614 ], [ 18.411787, -34.054641 ], [ 18.411836, -34.054683 ], [ 18.411866, -34.054732 ], [ 18.411929, -34.054793 ], [ 18.411988, -34.054818 ], [ 18.412032, -34.054861 ], [ 18.412048, -34.054928 ], [ 18.412079, -34.055 ], [ 18.412128, -34.055071 ], [ 18.412203, -34.055196 ], [ 18.412278, -34.055296 ], [ 18.412336, -34.055371 ], [ 18.412367, -34.055407 ], [ 18.412379, -34.055421 ], [ 18.412387, -34.055476 ], [ 18.412379, -34.0555 ], [ 18.412371, -34.055521 ], [ 18.412375, -34.05556 ], [ 18.412394, -34.055622 ], [ 18.412392, -34.055699 ], [ 18.412393, -34.055734 ], [ 18.412394, -34.055774 ], [ 18.412406, -34.055843 ], [ 18.412371, -34.055899 ], [ 18.41235, -34.055926 ], [ 18.412313, -34.055944 ], [ 18.412203, -34.055952 ], [ 18.412021, -34.055995 ], [ 18.411914, -34.056004 ], [ 18.411816, -34.055978 ], [ 18.411718, -34.055938 ], [ 18.41155, -34.055932 ], [ 18.41132, -34.055915 ], [ 18.411163, -34.05583 ], [ 18.411023, -34.055792 ], [ 18.410912, -34.055746 ], [ 18.4108, -34.055704 ], [ 18.410679, -34.055661 ], [ 18.41056, -34.055667 ], [ 18.410363, -34.055641 ], [ 18.410175, -34.055651 ], [ 18.410047, -34.055653 ], [ 18.409955, -34.055689 ], [ 18.409883, -34.055738 ], [ 18.409862, -34.055804 ], [ 18.409807, -34.05586 ], [ 18.409766, -34.055889 ], [ 18.409748, -34.055902 ] ] } },
{ "type": "Feature", "properties": { "cls": "shared", "highway": "path", "name": null }, "geometry": { "type": "LineString", "coordinates": [ [ 18.410808, -34.053965 ], [ 18.410863, -34.054065 ], [ 18.411016, -34.054184 ], [ 18.411159, -34.054272 ] ] } },
{ "type": "Feature", "properties": { "cls": "shared", "highway": "path", "name": "Vasbyt" }, "geometry": { "type": "LineString", "coordinates": [ [ 18.41112, -34.054813 ], [ 18.411145, -34.054619 ], [ 18.411159, -34.054367 ], [ 18.411159, -34.054272 ], [ 18.411159, -34.054217 ], [ 18.411167, -34.054061 ], [ 18.411159, -34.053926 ], [ 18.411099, -34.053884 ], [ 18.410947, -34.053882 ], [ 18.410808, -34.053965 ], [ 18.410814, -34.053762 ], [ 18.410832, -34.053606 ], [ 18.410787, -34.053425 ], [ 18.410798, -34.053257 ], [ 18.410712, -34.053115 ], [ 18.410635, -34.053015 ], [ 18.410421, -34.052852 ], [ 18.410331, -34.052802 ], [ 18.410275, -34.052717 ], [ 18.410141, -34.052602 ], [ 18.41012, -34.052582 ], [ 18.409981, -34.052519 ], [ 18.409923, -34.052454 ], [ 18.409772, -34.05229 ], [ 18.409725, -34.052183 ], [ 18.409622, -34.052048 ], [ 18.409532, -34.051934 ] ] } },
{ "type": "Feature", "properties": { "cls": "shared", "highway": "path", "name": null }, "geometry": { "type": "LineString", "coordinates": [ [ 18.404001, -34.050095 ], [ 18.404138, -34.050089 ], [ 18.404252, -34.050087 ], [ 18.40436, -34.050099 ], [ 18.40444, -34.050097 ], [ 18.404467, -34.050094 ], [ 18.404508, -34.050089 ], [ 18.404594, -34.050094 ], [ 18.404658, -34.050137 ], [ 18.40471, -34.050171 ], [ 18.404747, -34.050195 ], [ 18.404822, -34.050236 ], [ 18.404863, -34.050291 ], [ 18.404921, -34.050353 ], [ 18.404978, -34.050381 ], [ 18.405087, -34.050406 ], [ 18.405208, -34.050409 ], [ 18.405332, -34.050436 ], [ 18.405413, -34.050453 ], [ 18.405506, -34.050465 ], [ 18.405597, -34.050489 ], [ 18.405692, -34.050525 ], [ 18.405822, -34.050572 ], [ 18.405926, -34.050614 ], [ 18.406028, -34.050641 ], [ 18.406132, -34.050642 ], [ 18.406214, -34.050631 ], [ 18.406313, -34.050652 ], [ 18.406426, -34.050684 ], [ 18.406576, -34.050741 ], [ 18.406673, -34.050806 ], [ 18.406772, -34.050885 ], [ 18.406869, -34.050944 ], [ 18.406991, -34.051027 ], [ 18.407152, -34.05112 ], [ 18.407258, -34.051183 ], [ 18.407384, -34.051272 ], [ 18.407421, -34.051322 ], [ 18.407518, -34.051462 ], [ 18.407617, -34.051593 ], [ 18.407719, -34.051688 ], [ 18.407785, -34.051743 ], [ 18.407915, -34.051887 ], [ 18.40804, -34.051991 ], [ 18.408187, -34.05214 ], [ 18.408267, -34.052206 ], [ 18.408348, -34.052278 ], [ 18.408423, -34.052344 ], [ 18.40859, -34.052492 ], [ 18.408756, -34.05267 ], [ 18.408888, -34.052786 ], [ 18.409013, -34.052876 ], [ 18.409138, -34.052946 ], [ 18.409225, -34.052999 ], [ 18.409354, -34.053033 ], [ 18.409494, -34.053026 ], [ 18.409562, -34.053032 ], [ 18.409626, -34.053066 ], [ 18.409666, -34.053117 ], [ 18.409748, -34.053174 ], [ 18.409851, -34.053249 ], [ 18.409908, -34.053307 ], [ 18.409994, -34.053378 ], [ 18.410077, -34.053449 ], [ 18.410113, -34.053477 ], [ 18.410158, -34.053512 ], [ 18.410263, -34.05358 ], [ 18.410322, -34.053642 ], [ 18.41035, -34.053729 ], [ 18.410372, -34.053793 ], [ 18.410451, -34.05386 ], [ 18.410556, -34.053955 ], [ 18.410656, -34.054054 ], [ 18.410812, -34.054225 ], [ 18.411007, -34.054458 ], [ 18.411145, -34.054619 ] ] } },
{ "type": "Feature", "properties": { "cls": "shared", "highway": "path", "name": null }, "geometry": { "type": "LineString", "coordinates": [ [ 18.409031, -34.051479 ], [ 18.409026, -34.05164 ], [ 18.409055, -34.051824 ], [ 18.409053, -34.052054 ], [ 18.409073, -34.052231 ], [ 18.409074, -34.052407 ], [ 18.409145, -34.052513 ], [ 18.40916, -34.052561 ], [ 18.409184, -34.052596 ], [ 18.409233, -34.052596 ], [ 18.409262, -34.052552 ], [ 18.409277, -34.052418 ], [ 18.409313, -34.052261 ], [ 18.409395, -34.052062 ], [ 18.409431, -34.051982 ], [ 18.409449, -34.051943 ], [ 18.409486, -34.051917 ], [ 18.409532, -34.051934 ] ] } },
{ "type": "Feature", "properties": { "cls": "shared", "highway": "path", "name": "Lizard" }, "geometry": { "type": "LineString", "coordinates": [ [ 18.401485, -34.049949 ], [ 18.401555, -34.050008 ], [ 18.401725, -34.050164 ], [ 18.401831, -34.050337 ], [ 18.401863, -34.050551 ], [ 18.401774, -34.050739 ], [ 18.40182, -34.05088 ], [ 18.401785, -34.051013 ], [ 18.401798, -34.05113 ], [ 18.401911, -34.051238 ], [ 18.402008, -34.051387 ], [ 18.402092, -34.051644 ], [ 18.402056, -34.051858 ], [ 18.402162, -34.051999 ], [ 18.402164, -34.05227 ], [ 18.402164, -34.052415 ], [ 18.402136, -34.052549 ], [ 18.402135, -34.05258 ], [ 18.402155, -34.052582 ], [ 18.402206, -34.052561 ], [ 18.402277, -34.052514 ], [ 18.402338, -34.052465 ], [ 18.402453, -34.052377 ] ] } },
{ "type": "Feature", "properties": { "cls": "shared", "highway": "path", "name": "Vasbyt" }, "geometry": { "type": "MultiLineString", "coordinates": [ [ [ 18.403287, -34.049767 ], [ 18.40328, -34.049789 ] ], [ [ 18.403129, -34.050104 ], [ 18.40313, -34.050116 ], [ 18.403155, -34.050127 ], [ 18.403308, -34.050112 ], [ 18.403329, -34.050113 ], [ 18.403427, -34.050116 ], [ 18.40353, -34.050113 ], [ 18.403623, -34.050107 ], [ 18.403717, -34.050107 ], [ 18.403817, -34.050097 ], [ 18.403925, -34.050095 ], [ 18.404001, -34.050095 ], [ 18.404042, -34.050106 ], [ 18.404138, -34.050114 ], [ 18.404258, -34.050121 ], [ 18.404352, -34.050135 ], [ 18.404472, -34.050164 ], [ 18.404584, -34.050171 ], [ 18.404696, -34.050171 ], [ 18.40471, -34.050171 ], [ 18.404876, -34.050171 ], [ 18.405048, -34.050171 ], [ 18.405151, -34.050199 ], [ 18.405219, -34.050242 ], [ 18.405296, -34.050271 ], [ 18.405382, -34.05032 ], [ 18.40546, -34.050349 ], [ 18.405511, -34.050342 ], [ 18.405562, -34.050278 ], [ 18.40558, -34.050221 ], [ 18.405614, -34.050185 ], [ 18.405657, -34.050185 ], [ 18.4057, -34.050221 ], [ 18.405751, -34.050263 ], [ 18.405811, -34.05032 ], [ 18.405871, -34.050391 ], [ 18.405906, -34.050455 ], [ 18.405957, -34.050498 ], [ 18.406017, -34.050498 ], [ 18.406069, -34.050455 ], [ 18.406069, -34.050399 ], [ 18.406077, -34.050349 ], [ 18.406103, -34.050313 ], [ 18.406155, -34.050306 ], [ 18.406206, -34.05032 ], [ 18.406249, -34.050363 ], [ 18.406283, -34.050413 ], [ 18.406292, -34.050463 ], [ 18.406301, -34.050519 ], [ 18.406307, -34.050575 ], [ 18.406333, -34.05062 ], [ 18.406372, -34.050635 ], [ 18.406414, -34.050637 ], [ 18.406444, -34.050629 ], [ 18.406486, -34.050598 ], [ 18.406533, -34.050572 ], [ 18.406575, -34.050572 ], [ 18.406618, -34.050576 ], [ 18.406667, -34.050558 ], [ 18.406698, -34.050533 ], [ 18.406746, -34.050432 ], [ 18.406825, -34.050318 ], [ 18.406798, -34.050228 ], [ 18.406793, -34.050142 ], [ 18.406762, -34.050113 ], [ 18.406758, -34.050079 ], [ 18.406774, -34.050055 ], [ 18.406804, -34.050037 ], [ 18.406849, -34.050032 ], [ 18.406894, -34.050048 ], [ 18.406945, -34.050072 ], [ 18.407001, -34.050102 ], [ 18.407033, -34.050137 ], [ 18.407046, -34.050187 ], [ 18.407039, -34.050235 ], [ 18.407056, -34.050313 ], [ 18.407078, -34.05039 ], [ 18.407105, -34.05048 ], [ 18.407133, -34.050583 ], [ 18.407146, -34.050629 ], [ 18.407167, -34.050669 ], [ 18.407228, -34.050754 ], [ 18.407244, -34.050792 ], [ 18.407272, -34.050825 ], [ 18.407331, -34.050896 ], [ 18.407391, -34.050967 ], [ 18.407416, -34.051031 ], [ 18.407415, -34.051085 ], [ 18.407434, -34.051129 ], [ 18.407499, -34.051133 ], [ 18.407554, -34.051086 ], [ 18.407588, -34.051017 ], [ 18.407631, -34.05096 ], [ 18.40764, -34.050903 ], [ 18.407597, -34.050825 ], [ 18.40756, -34.050787 ], [ 18.407553, -34.050754 ], [ 18.407563, -34.050725 ], [ 18.407588, -34.050704 ], [ 18.407626, -34.050701 ], [ 18.407658, -34.050709 ], [ 18.407691, -34.050726 ], [ 18.407708, -34.050754 ], [ 18.407751, -34.050804 ], [ 18.40778, -34.050866 ], [ 18.407827, -34.050916 ], [ 18.40792, -34.05096 ], [ 18.407998, -34.051024 ], [ 18.408081, -34.051069 ], [ 18.408156, -34.051084 ], [ 18.408361, -34.051159 ], [ 18.408431, -34.051201 ], [ 18.408465, -34.051215 ], [ 18.408498, -34.051207 ], [ 18.408558, -34.051174 ], [ 18.40861, -34.051102 ], [ 18.408687, -34.051031 ], [ 18.40873, -34.050982 ], [ 18.40877, -34.050958 ], [ 18.408815, -34.050951 ], [ 18.408876, -34.050967 ], [ 18.408927, -34.05101 ], [ 18.40897, -34.051074 ], [ 18.409004, -34.051174 ], [ 18.409013, -34.051266 ], [ 18.409007, -34.051381 ], [ 18.409031, -34.051479 ], [ 18.409116, -34.051593 ], [ 18.409159, -34.051679 ], [ 18.409193, -34.051728 ], [ 18.409268, -34.051739 ], [ 18.409382, -34.051799 ], [ 18.409532, -34.051934 ] ] ] } },
{ "type": "Feature", "properties": { "cls": "shared", "highway": "path", "name": "Boulders" }, "geometry": { "type": "LineString", "coordinates": [ [ 18.399159, -34.051308 ], [ 18.39915, -34.051442 ], [ 18.399099, -34.051549 ], [ 18.399113, -34.051573 ], [ 18.399144, -34.051575 ], [ 18.39917, -34.051548 ], [ 18.399203, -34.051498 ], [ 18.399309, -34.051415 ], [ 18.399369, -34.051354 ], [ 18.399413, -34.051281 ], [ 18.399508, -34.05106 ], [ 18.399614, -34.050894 ], [ 18.399672, -34.050782 ], [ 18.399723, -34.050695 ], [ 18.399796, -34.050483 ], [ 18.39984, -34.050391 ], [ 18.399835, -34.050302 ], [ 18.399831, -34.050221 ], [ 18.399838, -34.050142 ], [ 18.399841, -34.050062 ], [ 18.399876, -34.049988 ], [ 18.39988, -34.049901 ], [ 18.399854, -34.049767 ], [ 18.399856, -34.049657 ], [ 18.399796, -34.049599 ], [ 18.399764, -34.049549 ], [ 18.399693, -34.049465 ], [ 18.399633, -34.049327 ], [ 18.399534, -34.04912 ], [ 18.399567, -34.049079 ], [ 18.399579, -34.048982 ], [ 18.399571, -34.048865 ], [ 18.399532, -34.048793 ], [ 18.39956, -34.048748 ], [ 18.3996, -34.048712 ], [ 18.399591, -34.048659 ], [ 18.399533, -34.048582 ] ] } },
{ "type": "Feature", "properties": { "cls": "shared", "highway": "path", "name": null }, "geometry": { "type": "LineString", "coordinates": [ [ 18.401434, -34.049851 ], [ 18.401533, -34.049863 ], [ 18.401581, -34.049879 ], [ 18.401597, -34.049896 ], [ 18.401608, -34.049917 ], [ 18.401616, -34.049944 ], [ 18.401645, -34.049966 ], [ 18.40167, -34.049972 ], [ 18.401694, -34.049966 ], [ 18.401754, -34.049895 ], [ 18.40179, -34.049846 ], [ 18.401832, -34.049832 ], [ 18.401888, -34.049832 ], [ 18.401942, -34.049854 ], [ 18.402038, -34.049886 ], [ 18.40216, -34.04991 ], [ 18.402218, -34.049895 ], [ 18.402267, -34.049876 ], [ 18.402311, -34.049846 ], [ 18.402328, -34.049812 ], [ 18.40236, -34.049781 ], [ 18.402399, -34.04976 ], [ 18.402619, -34.049695 ], [ 18.402704, -34.049679 ], [ 18.402792, -34.049679 ], [ 18.402875, -34.04968 ], [ 18.402961, -34.049696 ], [ 18.403004, -34.049733 ], [ 18.403024, -34.049778 ], [ 18.403021, -34.049846 ], [ 18.403007, -34.049913 ], [ 18.40299, -34.049944 ], [ 18.402983, -34.049977 ], [ 18.402987, -34.050016 ], [ 18.403001, -34.05005 ] ] } },
{ "type": "Feature", "properties": { "cls": "shared", "highway": "path", "name": null }, "geometry": { "type": "LineString", "coordinates": [ [ 18.399533, -34.048582 ], [ 18.399632, -34.048591 ], [ 18.399667, -34.048609 ], [ 18.399721, -34.048637 ], [ 18.399807, -34.048718 ], [ 18.399843, -34.04882 ], [ 18.399901, -34.048906 ], [ 18.399969, -34.049062 ], [ 18.400004, -34.049119 ], [ 18.400046, -34.049153 ], [ 18.400115, -34.049159 ], [ 18.400184, -34.049182 ], [ 18.400242, -34.049266 ], [ 18.400306, -34.049374 ], [ 18.400357, -34.049514 ], [ 18.400445, -34.049568 ], [ 18.40051, -34.049604 ], [ 18.400532, -34.049647 ], [ 18.400546, -34.049708 ], [ 18.400593, -34.049716 ], [ 18.400626, -34.049673 ], [ 18.400652, -34.049461 ], [ 18.400685, -34.049399 ], [ 18.400749, -34.049369 ], [ 18.400812, -34.049364 ], [ 18.400876, -34.049384 ], [ 18.40102, -34.049518 ], [ 18.401207, -34.049702 ], [ 18.401358, -34.049753 ] ] } },
{ "type": "Feature", "properties": { "cls": "shared", "highway": "path", "name": null }, "geometry": { "type": "LineString", "coordinates": [ [ 18.396977, -34.049107 ], [ 18.397008, -34.049095 ], [ 18.397045, -34.049073 ], [ 18.397093, -34.049034 ], [ 18.397133, -34.048988 ], [ 18.397156, -34.048953 ], [ 18.397178, -34.048938 ], [ 18.397209, -34.048951 ], [ 18.397241, -34.048962 ], [ 18.39727, -34.048938 ], [ 18.397287, -34.048898 ], [ 18.397288, -34.048835 ], [ 18.397287, -34.048716 ], [ 18.397285, -34.048707 ], [ 18.397276, -34.048645 ], [ 18.397271, -34.048568 ], [ 18.397338, -34.048487 ], [ 18.397433, -34.048451 ], [ 18.397564, -34.04845 ], [ 18.397672, -34.04851 ], [ 18.397834, -34.048637 ], [ 18.398014, -34.048761 ], [ 18.398118, -34.048814 ], [ 18.398177, -34.048836 ], [ 18.398222, -34.048827 ], [ 18.398237, -34.048792 ], [ 18.398236, -34.048754 ], [ 18.398211, -34.048674 ], [ 18.398181, -34.048588 ], [ 18.398219, -34.048551 ], [ 18.398275, -34.048566 ], [ 18.398329, -34.048638 ], [ 18.398373, -34.048673 ], [ 18.398418, -34.048672 ], [ 18.398516, -34.048634 ], [ 18.398577, -34.048561 ], [ 18.39867, -34.048537 ], [ 18.398676, -34.048631 ], [ 18.398753, -34.048679 ], [ 18.398947, -34.048804 ], [ 18.398985, -34.048838 ], [ 18.399035, -34.048847 ], [ 18.399166, -34.048751 ], [ 18.399349, -34.048628 ], [ 18.399533, -34.048582 ] ] } },
{ "type": "Feature", "properties": { "cls": "shared", "highway": "path", "name": "Contour Path" }, "geometry": { "type": "LineString", "coordinates": [ [ 18.421971, -33.995755 ], [ 18.422045, -33.995229 ], [ 18.422006, -33.995005 ], [ 18.421944, -33.9948 ], [ 18.421887, -33.994654 ], [ 18.421804, -33.994512 ], [ 18.421631, -33.994258 ], [ 18.421465, -33.994029 ], [ 18.421462, -33.993864 ], [ 18.421435, -33.993701 ], [ 18.421374, -33.993569 ], [ 18.421371, -33.993513 ], [ 18.421415, -33.993471 ], [ 18.421434, -33.993468 ], [ 18.421451, -33.993464 ], [ 18.421656, -33.993427 ] ] } },
{ "type": "Feature", "properties": { "cls": "shared", "highway": "path", "name": null }, "geometry": { "type": "LineString", "coordinates": [ [ 18.421656, -33.993427 ], [ 18.421723, -33.993423 ], [ 18.42181, -33.993398 ], [ 18.421988, -33.993288 ], [ 18.422086, -33.993201 ] ] } },
{ "type": "Feature", "properties": { "cls": "shared", "highway": "path", "name": "Boulders" }, "geometry": { "type": "LineString", "coordinates": [ [ 18.399533, -34.048582 ], [ 18.399628, -34.048502 ], [ 18.399699, -34.048492 ], [ 18.399762, -34.048457 ], [ 18.399847, -34.048428 ], [ 18.399935, -34.048424 ], [ 18.40004, -34.048398 ], [ 18.400099, -34.048364 ], [ 18.400086, -34.048309 ], [ 18.400028, -34.048278 ], [ 18.39993, -34.048278 ], [ 18.399774, -34.048235 ], [ 18.399703, -34.048197 ], [ 18.399597, -34.048188 ], [ 18.399519, -34.048182 ], [ 18.399518, -34.048135 ], [ 18.399556, -34.048089 ], [ 18.399599, -34.048012 ], [ 18.399622, -34.047921 ], [ 18.399517, -34.047842 ], [ 18.399514, -34.047754 ], [ 18.399353, -34.047597 ], [ 18.399291, -34.047462 ], [ 18.399333, -34.0472 ], [ 18.399518, -34.047126 ], [ 18.399675, -34.047102 ], [ 18.399783, -34.047097 ], [ 18.399844, -34.047103 ], [ 18.399887, -34.047085 ], [ 18.39993, -34.047101 ], [ 18.399971, -34.047123 ], [ 18.400039, -34.047212 ], [ 18.400082, -34.047297 ], [ 18.400121, -34.04735 ], [ 18.400143, -34.047395 ], [ 18.400182, -34.047394 ], [ 18.400228, -34.047312 ], [ 18.400251, -34.047263 ], [ 18.40026, -34.047182 ], [ 18.400226, -34.047105 ], [ 18.40019, -34.046993 ], [ 18.40012, -34.046903 ], [ 18.400029, -34.046796 ], [ 18.399971, -34.046802 ], [ 18.399766, -34.04677 ], [ 18.399612, -34.046698 ], [ 18.399389, -34.046642 ], [ 18.399273, -34.046596 ], [ 18.399125, -34.046511 ], [ 18.398855, -34.046373 ], [ 18.398785, -34.046245 ], [ 18.398657, -34.046112 ], [ 18.398694, -34.045961 ], [ 18.398609, -34.045752 ], [ 18.398419, -34.045604 ], [ 18.398428, -34.04535 ], [ 18.398508, -34.045299 ], [ 18.398698, -34.045464 ], [ 18.398825, -34.045552 ], [ 18.399074, -34.045687 ] ] } },
{ "type": "Feature", "properties": { "cls": "shared", "highway": "path", "name": "Mamba" }, "geometry": { "type": "LineString", "coordinates": [ [ 18.396952, -34.043141 ], [ 18.396983, -34.043165 ], [ 18.397018, -34.043225 ], [ 18.397021, -34.043283 ], [ 18.397059, -34.043331 ], [ 18.39709, -34.043371 ], [ 18.397126, -34.043359 ], [ 18.397152, -34.043332 ], [ 18.397209, -34.04328 ], [ 18.397258, -34.043247 ], [ 18.397313, -34.043205 ], [ 18.397354, -34.043143 ], [ 18.397352, -34.043081 ], [ 18.397365, -34.042963 ], [ 18.397393, -34.042945 ], [ 18.397428, -34.042941 ], [ 18.397476, -34.04296 ], [ 18.397511, -34.04301 ], [ 18.397603, -34.043153 ], [ 18.397612, -34.043187 ], [ 18.397646, -34.043213 ], [ 18.397693, -34.043236 ], [ 18.397738, -34.04323 ], [ 18.39779, -34.043076 ], [ 18.397811, -34.043027 ], [ 18.397852, -34.04299 ], [ 18.397893, -34.042961 ], [ 18.397924, -34.042924 ], [ 18.397998, -34.042717 ], [ 18.398012, -34.042646 ], [ 18.398005, -34.042569 ], [ 18.398005, -34.042518 ], [ 18.398031, -34.042493 ], [ 18.39806, -34.042482 ], [ 18.398109, -34.042512 ], [ 18.398137, -34.042534 ], [ 18.398172, -34.042535 ], [ 18.398198, -34.042492 ], [ 18.398194, -34.04244 ], [ 18.398184, -34.042393 ], [ 18.398246, -34.042313 ], [ 18.398264, -34.042232 ], [ 18.39823, -34.042173 ], [ 18.398224, -34.042147 ], [ 18.398216, -34.042113 ], [ 18.398236, -34.042077 ], [ 18.398288, -34.042069 ], [ 18.398335, -34.042098 ], [ 18.398426, -34.042259 ], [ 18.398559, -34.04239 ], [ 18.398636, -34.042462 ], [ 18.398718, -34.042494 ], [ 18.398792, -34.042546 ], [ 18.398866, -34.042587 ] ] } },
{ "type": "Feature", "properties": { "cls": "shared", "highway": "path", "name": "Snake Eyes" }, "geometry": { "type": "LineString", "coordinates": [ [ 18.400016, -34.041071 ], [ 18.400078, -34.041039 ], [ 18.400118, -34.040991 ], [ 18.400174, -34.040998 ], [ 18.400217, -34.04099 ], [ 18.400267, -34.041033 ], [ 18.400318, -34.041082 ], [ 18.400421, -34.041139 ], [ 18.400459, -34.041148 ], [ 18.400507, -34.041182 ], [ 18.400546, -34.041194 ], [ 18.400567, -34.041167 ], [ 18.400582, -34.041119 ], [ 18.400576, -34.041039 ], [ 18.400505, -34.040983 ], [ 18.400475, -34.040949 ], [ 18.400483, -34.040912 ], [ 18.400512, -34.040898 ], [ 18.400584, -34.040947 ], [ 18.400636, -34.040954 ], [ 18.400726, -34.040961 ], [ 18.400773, -34.040967 ], [ 18.400818, -34.041002 ], [ 18.400842, -34.041061 ], [ 18.400852, -34.041161 ], [ 18.400852, -34.041319 ], [ 18.400928, -34.041419 ], [ 18.400943, -34.041467 ], [ 18.400986, -34.041497 ] ] } },
{ "type": "Feature", "properties": { "cls": "shared", "highway": "path", "name": null }, "geometry": { "type": "LineString", "coordinates": [ [ 18.399763, -34.035449 ], [ 18.399892, -34.035371 ], [ 18.400235, -34.035186 ], [ 18.400286, -34.035122 ], [ 18.400286, -34.035086 ], [ 18.400235, -34.035079 ], [ 18.400175, -34.035108 ], [ 18.399814, -34.035172 ], [ 18.399471, -34.035257 ], [ 18.399385, -34.035399 ], [ 18.399334, -34.035428 ], [ 18.399325, -34.035392 ], [ 18.39942, -34.035193 ], [ 18.399711, -34.035065 ], [ 18.399694, -34.03503 ], [ 18.3996, -34.035044 ], [ 18.399239, -34.035143 ], [ 18.399162, -34.035257 ], [ 18.399016, -34.035307 ], [ 18.398793, -34.035314 ], [ 18.398621, -34.035357 ], [ 18.398501, -34.035307 ], [ 18.398458, -34.035287 ], [ 18.398446, -34.035256 ], [ 18.398484, -34.035257 ], [ 18.398544, -34.035286 ], [ 18.398639, -34.03525 ], [ 18.398724, -34.035193 ], [ 18.398844, -34.035115 ], [ 18.398922, -34.03498 ], [ 18.399042, -34.034809 ], [ 18.399196, -34.034681 ], [ 18.399256, -34.034667 ], [ 18.399317, -34.034695 ], [ 18.399368, -34.034688 ], [ 18.39948, -34.034503 ], [ 18.399437, -34.034503 ], [ 18.399394, -34.03456 ], [ 18.399299, -34.034589 ], [ 18.398827, -34.034688 ], [ 18.398467, -34.03483 ], [ 18.398244, -34.03483 ], [ 18.398081, -34.03488 ], [ 18.398063, -34.034852 ], [ 18.398115, -34.034816 ], [ 18.398209, -34.034738 ], [ 18.39851, -34.034574 ], [ 18.39875, -34.034475 ], [ 18.398973, -34.034297 ], [ 18.399076, -34.034261 ], [ 18.399248, -34.034105 ], [ 18.399342, -34.033941 ], [ 18.399325, -34.033913 ], [ 18.399299, -34.033955 ], [ 18.399248, -34.034041 ], [ 18.399059, -34.03419 ], [ 18.398415, -34.034411 ], [ 18.397952, -34.034603 ], [ 18.3979, -34.034596 ], [ 18.397909, -34.034553 ], [ 18.397995, -34.034503 ], [ 18.398664, -34.034055 ], [ 18.399025, -34.033913 ], [ 18.399068, -34.033891 ], [ 18.399051, -34.033863 ], [ 18.398965, -34.03387 ], [ 18.39857, -34.033884 ], [ 18.398055, -34.034048 ], [ 18.397892, -34.034076 ], [ 18.39736, -34.034233 ], [ 18.397317, -34.034219 ], [ 18.397317, -34.03419 ], [ 18.39748, -34.034084 ], [ 18.397686, -34.033899 ], [ 18.397943, -34.033728 ], [ 18.398149, -34.033522 ], [ 18.398381, -34.033273 ], [ 18.39839, -34.033216 ], [ 18.398372, -34.03318 ], [ 18.398329, -34.033209 ], [ 18.398304, -34.033251 ], [ 18.398218, -34.033273 ], [ 18.398072, -34.033294 ], [ 18.397952, -34.033351 ], [ 18.397849, -34.033372 ], [ 18.397797, -34.033358 ], [ 18.397787, -34.033283 ] ] } },
{ "type": "Feature", "properties": { "cls": "shared", "highway": "path", "name": null }, "geometry": { "type": "LineString", "coordinates": [ [ 18.445042, -33.97509 ], [ 18.445214, -33.974972 ], [ 18.445314, -33.974884 ], [ 18.445526, -33.974778 ], [ 18.445711, -33.974712 ], [ 18.445876, -33.974512 ], [ 18.445985, -33.974407 ], [ 18.44609, -33.974299 ], [ 18.446199, -33.974213 ], [ 18.446308, -33.974032 ], [ 18.446639, -33.973771 ], [ 18.447319, -33.974004 ], [ 18.447547, -33.973868 ] ] } },
{ "type": "Feature", "properties": { "cls": "shared", "highway": "path", "name": null }, "geometry": { "type": "LineString", "coordinates": [ [ 18.44476, -33.97357 ], [ 18.444828, -33.973675 ], [ 18.444749, -33.974164 ], [ 18.4448, -33.974486 ], [ 18.444803, -33.974595 ], [ 18.444781, -33.974763 ], [ 18.444799, -33.974926 ], [ 18.444848, -33.974995 ], [ 18.445042, -33.97509 ] ] } },
{ "type": "Feature", "properties": { "cls": "shared", "highway": "path", "name": null }, "geometry": { "type": "LineString", "coordinates": [ [ 18.45606, -33.963504 ], [ 18.456159, -33.963723 ], [ 18.456323, -33.963922 ], [ 18.456475, -33.964193 ], [ 18.456716, -33.964457 ], [ 18.456823, -33.964597 ], [ 18.456887, -33.964637 ], [ 18.456948, -33.964631 ], [ 18.457359, -33.964402 ], [ 18.457631, -33.964219 ], [ 18.4578, -33.964142 ], [ 18.457871, -33.964069 ], [ 18.457919, -33.963961 ], [ 18.457981, -33.963893 ], [ 18.458437, -33.963549 ], [ 18.458481, -33.963457 ], [ 18.458471, -33.963338 ] ] } },
{ "type": "Feature", "properties": { "cls": "shared", "highway": "path", "name": null }, "geometry": { "type": "LineString", "coordinates": [ [ 18.452895, -33.963625 ], [ 18.452948, -33.963707 ], [ 18.453039, -33.963821 ], [ 18.453254, -33.964147 ], [ 18.453342, -33.9642 ], [ 18.453437, -33.964272 ], [ 18.453817, -33.964403 ], [ 18.453985, -33.964433 ], [ 18.454049, -33.964423 ], [ 18.45414, -33.964408 ], [ 18.454217, -33.96435 ], [ 18.454339, -33.964109 ], [ 18.454415, -33.964014 ], [ 18.454751, -33.963726 ], [ 18.455526, -33.963532 ], [ 18.45606, -33.963504 ] ] } },
{ "type": "Feature", "properties": { "cls": "separated", "highway": "cycleway", "name": "Lions Head Path" }, "geometry": { "type": "LineString", "coordinates": [ [ 18.399669, -33.913336 ], [ 18.399514, -33.913524 ], [ 18.399015, -33.913723 ], [ 18.398895, -33.913738 ], [ 18.398613, -33.913907 ], [ 18.398463, -33.913931 ], [ 18.398267, -33.914032 ], [ 18.398162, -33.914188 ], [ 18.398071, -33.914201 ], [ 18.397843, -33.914066 ], [ 18.397804, -33.914071 ], [ 18.397552, -33.914161 ], [ 18.397346, -33.914304 ], [ 18.397272, -33.914385 ], [ 18.397248, -33.91484 ], [ 18.397203, -33.914865 ], [ 18.397109, -33.914884 ], [ 18.396967, -33.914913 ], [ 18.396923, -33.914954 ], [ 18.396882, -33.914977 ], [ 18.396866, -33.915008 ], [ 18.396843, -33.915021 ], [ 18.396812, -33.915047 ], [ 18.396777, -33.9151 ], [ 18.396756, -33.915146 ], [ 18.396764, -33.915171 ], [ 18.396751, -33.915207 ], [ 18.396704, -33.915312 ], [ 18.396663, -33.915456 ], [ 18.396634, -33.915541 ], [ 18.396636, -33.91558 ], [ 18.396611, -33.915625 ], [ 18.396599, -33.915671 ], [ 18.396601, -33.915747 ], [ 18.396652, -33.916323 ], [ 18.396691, -33.916391 ], [ 18.396694, -33.916492 ], [ 18.396782, -33.916673 ], [ 18.396811, -33.916738 ], [ 18.39684, -33.91683 ] ] } },
{ "type": "Feature", "properties": { "cls": "separated", "highway": "cycleway", "name": "Lions Head Path" }, "geometry": { "type": "LineString", "coordinates": [ [ 18.399671, -33.91325 ], [ 18.399669, -33.913336 ] ] } }
]
}
