{
"type": "FeatureCollection",
"name": "005-paris-forest-of-rambouillet",
"crs": { "type": "name", "properties": { "name": "urn:ogc:def:crs:OGC:1.3:CRS84" } },
"xy_coordinate_resolution": 1e-06,
"features": [
{ "type": "Feature", "properties": { "cls": "shared", "highway": "path", "name": "Route de l'Étang d'Or" }, "geometry": { "type": "LineString", "coordinates": [ [ 1.861177, 48.619183 ], [ 1.857719, 48.620654 ], [ 1.853593, 48.622375 ], [ 1.85219, 48.622931 ], [ 1.849643, 48.623941 ], [ 1.84794, 48.624615 ], [ 1.844053, 48.626168 ], [ 1.843784, 48.626275 ] ] } },
{ "type": "Feature", "properties": { "cls": "shared", "highway": "path", "name": null }, "geometry": { "type": "LineString", "coordinates": [ [ 1.843784, 48.626275 ], [ 1.843807, 48.6263 ], [ 1.843929, 48.626431 ], [ 1.844075, 48.627003 ], [ 1.844139, 48.627203 ], [ 1.844345, 48.627623 ], [ 1.844586, 48.627799 ], [ 1.844923, 48.627956 ], [ 1.845171, 48.628002 ], [ 1.845591, 48.62805 ], [ 1.845884, 48.628088 ], [ 1.846913, 48.628606 ], [ 1.847815, 48.629222 ], [ 1.848825, 48.629644 ], [ 1.849708, 48.629975 ], [ 1.850055, 48.63001 ], [ 1.850487, 48.630353 ], [ 1.850629, 48.6305 ] ] } },
{ "type": "Feature", "properties": { "cls": "shared", "highway": "path", "name": null }, "geometry": { "type": "LineString", "coordinates": [ [ 1.850629, 48.6305 ], [ 1.850658, 48.630557 ], [ 1.850668, 48.630601 ] ] } },
{ "type": "Feature", "properties": { "cls": "shared", "highway": "path", "name": null }, "geometry": { "type": "LineString", "coordinates": [ [ 1.850668, 48.630601 ], [ 1.850319, 48.630886 ], [ 1.850259, 48.630936 ] ] } },
{ "type": "Feature", "properties": { "cls": "shared", "highway": "path", "name": "Route Forestière des Evreuses" }, "geometry": { "type": "LineString", "coordinates": [ [ 1.846236, 48.633763 ], [ 1.847816, 48.632632 ], [ 1.850259, 48.630936 ] ] } },
{ "type": "Feature", "properties": { "cls": "painted", "highway": "primary", "name": null }, "geometry": { "type": "LineString", "coordinates": [ [ 1.904479, 48.657981 ], [ 1.908837, 48.657832 ], [ 1.908979, 48.65784 ], [ 1.909302, 48.657919 ], [ 1.909602, 48.65799 ] ] } },
{ "type": "Feature", "properties": { "cls": "shared", "highway": "path", "name": "Route de l'Étang d'Or" }, "geometry": { "type": "LineString", "coordinates": [ [ 1.874989, 48.613626 ], [ 1.874143, 48.613964 ] ] } },
{ "type": "Feature", "properties": { "cls": "shared", "highway": "path", "name": "Route de l'Étang d'Or" }, "geometry": { "type": "LineString", "coordinates": [ [ 1.873967, 48.614035 ], [ 1.871177, 48.615156 ], [ 1.869195, 48.61596 ], [ 1.869099, 48.615998 ], [ 1.861361, 48.619102 ], [ 1.861339, 48.619113 ], [ 1.861325, 48.619119 ] ] } },
{ "type": "Feature", "properties": { "cls": "separated", "highway": "cycleway", "name": null }, "geometry": { "type": "LineString", "coordinates": [ [ 1.873001, 48.651198 ], [ 1.873044, 48.651212 ], [ 1.873121, 48.651237 ], [ 1.873105, 48.651268 ] ] } },
{ "type": "Feature", "properties": { "cls": "shared", "highway": "path", "name": null }, "geometry": { "type": "LineString", "coordinates": [ [ 1.873002, 48.651316 ], [ 1.872974, 48.651307 ] ] } },
{ "type": "Feature", "properties": { "cls": "shared", "highway": "path", "name": null }, "geometry": { "type": "LineString", "coordinates": [ [ 1.873105, 48.651268 ], [ 1.87306, 48.65132 ], [ 1.87302, 48.651322 ], [ 1.873002, 48.651316 ] ] } },
{ "type": "Feature", "properties": { "cls": "painted", "highway": "primary", "name": "Route Départementale de Chartres à Saclay" }, "geometry": { "type": "LineString", "coordinates": [ [ 1.873023, 48.651241 ], [ 1.873105, 48.651268 ], [ 1.874406, 48.651681 ], [ 1.875017, 48.651923 ], [ 1.875904, 48.652367 ], [ 1.876332, 48.652566 ], [ 1.876645, 48.652692 ], [ 1.876975, 48.652805 ], [ 1.877399, 48.652916 ], [ 1.878287, 48.653118 ], [ 1.878546, 48.653162 ], [ 1.878739, 48.653196 ], [ 1.879121, 48.653244 ], [ 1.87952, 48.653271 ], [ 1.879871, 48.65329 ], [ 1.88013, 48.653292 ], [ 1.880689, 48.653268 ], [ 1.884167, 48.653085 ], [ 1.884585, 48.653085 ], [ 1.884884, 48.6531 ], [ 1.88518, 48.65311 ], [ 1.885498, 48.653133 ], [ 1.885748, 48.653157 ] ] } },
{ "type": "Feature", "properties": { "cls": "painted", "highway": "primary", "name": null }, "geometry": { "type": "LineString", "coordinates": [ [ 1.885748, 48.653157 ], [ 1.8859, 48.653183 ], [ 1.886202, 48.65325 ], [ 1.888771, 48.653822 ], [ 1.889911, 48.654068 ], [ 1.890783, 48.654267 ], [ 1.891532, 48.654477 ], [ 1.892192, 48.654735 ], [ 1.892861, 48.654998 ], [ 1.893258, 48.655135 ], [ 1.893506, 48.655219 ] ] } },
{ "type": "Feature", "properties": { "cls": "painted", "highway": "primary", "name": null }, "geometry": { "type": "LineString", "coordinates": [ [ 1.893506, 48.655219 ], [ 1.893817, 48.655307 ], [ 1.894721, 48.655508 ] ] } },
{ "type": "Feature", "properties": { "cls": "painted", "highway": "primary", "name": null }, "geometry": { "type": "LineString", "coordinates": [ [ 1.894721, 48.655508 ], [ 1.895516, 48.65574 ], [ 1.896115, 48.655968 ], [ 1.896639, 48.656193 ], [ 1.896973, 48.656376 ], [ 1.897313, 48.656562 ], [ 1.897606, 48.656718 ], [ 1.897917, 48.656851 ], [ 1.898361, 48.656984 ], [ 1.900131, 48.657496 ] ] } },
{ "type": "Feature", "properties": { "cls": "painted", "highway": "primary", "name": null }, "geometry": { "type": "LineString", "coordinates": [ [ 1.900131, 48.657496 ], [ 1.90038, 48.65756 ] ] } },
{ "type": "Feature", "properties": { "cls": "painted", "highway": "primary", "name": null }, "geometry": { "type": "LineString", "coordinates": [ [ 1.923198, 48.661789 ], [ 1.923269, 48.661806 ], [ 1.923724, 48.661962 ], [ 1.924253, 48.662163 ], [ 1.925083, 48.662483 ], [ 1.925532, 48.66265 ], [ 1.92601, 48.662806 ], [ 1.926488, 48.662943 ], [ 1.927427, 48.663183 ] ] } },
{ "type": "Feature", "properties": { "cls": "painted", "highway": "primary", "name": null }, "geometry": { "type": "LineString", "coordinates": [ [ 1.927427, 48.663183 ], [ 1.929116, 48.663609 ], [ 1.929466, 48.663701 ] ] } },
{ "type": "Feature", "properties": { "cls": "painted", "highway": "primary", "name": null }, "geometry": { "type": "LineString", "coordinates": [ [ 1.929466, 48.663701 ], [ 1.929563, 48.663726 ] ] } },
{ "type": "Feature", "properties": { "cls": "painted", "highway": "primary", "name": null }, "geometry": { "type": "LineString", "coordinates": [ [ 1.929563, 48.663726 ], [ 1.929663, 48.663742 ] ] } },
{ "type": "Feature", "properties": { "cls": "painted", "highway": "primary", "name": null }, "geometry": { "type": "LineString", "coordinates": [ [ 1.929663, 48.663742 ], [ 1.929965, 48.663792 ], [ 1.930296, 48.663815 ] ] } },
{ "type": "Feature", "properties": { "cls": "separated", "highway": "cycleway", "name": null }, "geometry": { "type": "LineString", "coordinates": [ [ 1.929816, 48.663817 ], [ 1.929563, 48.663726 ] ] } },
{ "type": "Feature", "properties": { "cls": "painted", "highway": "primary", "name": null }, "geometry": { "type": "LineString", "coordinates": [ [ 1.90038, 48.65756 ], [ 1.901312, 48.657827 ], [ 1.901833, 48.657935 ], [ 1.902104, 48.658004 ], [ 1.902427, 48.658042 ], [ 1.902876, 48.658049 ], [ 1.904479, 48.657981 ] ] } },
{ "type": "Feature", "properties": { "cls": "separated", "highway": "path", "name": "Chemin des Mulets" }, "geometry": { "type": "LineString", "coordinates": [ [ 1.855188, 48.659026 ], [ 1.855623, 48.659227 ], [ 1.855965, 48.659385 ], [ 1.85648, 48.659646 ], [ 1.857295, 48.660061 ] ] } },
{ "type": "Feature", "properties": { "cls": "separated", "highway": "cycleway", "name": null }, "geometry": { "type": "LineString", "coordinates": [ [ 1.821118, 48.65719 ], [ 1.821134, 48.657189 ] ] } },
{ "type": "Feature", "properties": { "cls": "separated", "highway": "cycleway", "name": null }, "geometry": { "type": "MultiLineString", "coordinates": [ [ [ 1.801877, 48.667593 ], [ 1.80203, 48.667703 ], [ 1.802245, 48.667815 ], [ 1.802506, 48.66779 ], [ 1.802774, 48.667746 ], [ 1.803128, 48.667562 ], [ 1.803226, 48.667471 ], [ 1.803322, 48.667339 ], [ 1.80346, 48.667071 ], [ 1.80353, 48.66684 ], [ 1.803558, 48.666571 ], [ 1.805636, 48.665654 ], [ 1.805925, 48.665527 ], [ 1.807266, 48.664948 ], [ 1.807322, 48.664924 ] ], [ [ 1.81679, 48.660776 ], [ 1.819996, 48.659402 ], [ 1.82027, 48.659247 ], [ 1.820415, 48.659051 ], [ 1.82052, 48.658846 ], [ 1.820572, 48.658671 ], [ 1.82074, 48.657944 ] ] ] } },
{ "type": "Feature", "properties": { "cls": "painted", "highway": "primary", "name": null }, "geometry": { "type": "LineString", "coordinates": [ [ 1.984702, 48.57595 ], [ 1.984868, 48.575833 ] ] } },
{ "type": "Feature", "properties": { "cls": "painted", "highway": "primary", "name": null }, "geometry": { "type": "LineString", "coordinates": [ [ 1.984584, 48.576037 ], [ 1.984702, 48.57595 ] ] } },
{ "type": "Feature", "properties": { "cls": "painted", "highway": "primary", "name": null }, "geometry": { "type": "MultiLineString", "coordinates": [ [ [ 1.982414, 48.577818 ], [ 1.982536, 48.577689 ] ], [ [ 1.9834, 48.576908 ], [ 1.983419, 48.576892 ], [ 1.984584, 48.576037 ] ] ] } },
{ "type": "Feature", "properties": { "cls": "painted", "highway": "primary", "name": null }, "geometry": { "type": "LineString", "coordinates": [ [ 1.981497, 48.579425 ], [ 1.981554, 48.579242 ], [ 1.981679, 48.578945 ], [ 1.981914, 48.578511 ], [ 1.98215, 48.578164 ], [ 1.982414, 48.577818 ] ] } },
{ "type": "Feature", "properties": { "cls": "separated", "highway": "cycleway", "name": null }, "geometry": { "type": "LineString", "coordinates": [ [ 1.847976, 48.667605 ], [ 1.848933, 48.667548 ], [ 1.849013, 48.667295 ], [ 1.849517, 48.667124 ], [ 1.85022, 48.667073 ], [ 1.850826, 48.666981 ], [ 1.851078, 48.666824 ], [ 1.851253, 48.666657 ], [ 1.851343, 48.666537 ], [ 1.851347, 48.666452 ], [ 1.851426, 48.666349 ], [ 1.851584, 48.666219 ], [ 1.851825, 48.666002 ], [ 1.852137, 48.665675 ], [ 1.852328, 48.665152 ], [ 1.852655, 48.665014 ], [ 1.852723, 48.664941 ], [ 1.852919, 48.664507 ], [ 1.853397, 48.664246 ], [ 1.853758, 48.664146 ], [ 1.854706, 48.664157 ], [ 1.855261, 48.663891 ], [ 1.855391, 48.663546 ], [ 1.855635, 48.663124 ], [ 1.856108, 48.662886 ], [ 1.857151, 48.662405 ], [ 1.858183, 48.661985 ], [ 1.858255, 48.661949 ] ] } },
{ "type": "Feature", "properties": { "cls": "separated", "highway": "cycleway", "name": null }, "geometry": { "type": "LineString", "coordinates": [ [ 1.846496, 48.678619 ], [ 1.846525, 48.678472 ], [ 1.846408, 48.678272 ], [ 1.84613, 48.677849 ], [ 1.845755, 48.677741 ], [ 1.845329, 48.677519 ], [ 1.84495, 48.677273 ], [ 1.844852, 48.676952 ], [ 1.844832, 48.676836 ], [ 1.844732, 48.676601 ], [ 1.844836, 48.676359 ], [ 1.845027, 48.676161 ], [ 1.845169, 48.676017 ], [ 1.845362, 48.675425 ], [ 1.845445, 48.675296 ], [ 1.845529, 48.675149 ], [ 1.845596, 48.674876 ], [ 1.845361, 48.67425 ], [ 1.845128, 48.673189 ], [ 1.844737, 48.671819 ], [ 1.844809, 48.671588 ], [ 1.844829, 48.671247 ], [ 1.844402, 48.670465 ], [ 1.844206, 48.669897 ], [ 1.84431, 48.669289 ], [ 1.844255, 48.669031 ], [ 1.84403, 48.668664 ], [ 1.844048, 48.668253 ], [ 1.844292, 48.668084 ], [ 1.844627, 48.668023 ], [ 1.844798, 48.667939 ], [ 1.844939, 48.667761 ], [ 1.846815, 48.667677 ], [ 1.847679, 48.667627 ] ] } },
{ "type": "Feature", "properties": { "cls": "separated", "highway": "cycleway", "name": null }, "geometry": { "type": "LineString", "coordinates": [ [ 1.846211, 48.678629 ], [ 1.846496, 48.678619 ] ] } },
{ "type": "Feature", "properties": { "cls": "separated", "highway": "cycleway", "name": null }, "geometry": { "type": "LineString", "coordinates": [ [ 1.84349, 48.681334 ], [ 1.84354, 48.681234 ], [ 1.843583, 48.681147 ], [ 1.843632, 48.681083 ], [ 1.843703, 48.681005 ], [ 1.843815, 48.680902 ], [ 1.843907, 48.68082 ], [ 1.844039, 48.680726 ], [ 1.844153, 48.680639 ], [ 1.844452, 48.680393 ], [ 1.84451, 48.680351 ], [ 1.844558, 48.680321 ], [ 1.844621, 48.680298 ], [ 1.844739, 48.68026 ], [ 1.844894, 48.680222 ], [ 1.844971, 48.680193 ], [ 1.84503, 48.680148 ], [ 1.845089, 48.680087 ], [ 1.845183, 48.68002 ], [ 1.845282, 48.679964 ], [ 1.845359, 48.679935 ], [ 1.845419, 48.679897 ], [ 1.845623, 48.67952 ], [ 1.84566, 48.679472 ], [ 1.845723, 48.679429 ], [ 1.845924, 48.679315 ], [ 1.846016, 48.679257 ], [ 1.846088, 48.679184 ], [ 1.846191, 48.678937 ], [ 1.84623, 48.678849 ], [ 1.846238, 48.678797 ], [ 1.846237, 48.678737 ], [ 1.846211, 48.678629 ] ] } },
{ "type": "Feature", "properties": { "cls": "separated", "highway": "cycleway", "name": null }, "geometry": { "type": "LineString", "coordinates": [ [ 1.84284, 48.681717 ], [ 1.84349, 48.681334 ] ] } },
{ "type": "Feature", "properties": { "cls": "separated", "highway": "cycleway", "name": "Route de l'Étang du Roi" }, "geometry": { "type": "LineString", "coordinates": [ [ 1.745535, 48.683895 ], [ 1.744506, 48.685321 ], [ 1.74427, 48.685622 ], [ 1.744018, 48.685704 ], [ 1.743884, 48.685746 ], [ 1.743244, 48.685773 ], [ 1.742897, 48.685889 ], [ 1.742772, 48.685986 ], [ 1.742208, 48.687005 ] ] } },
{ "type": "Feature", "properties": { "cls": "shared", "highway": "path", "name": null }, "geometry": { "type": "LineString", "coordinates": [ [ 1.742208, 48.687005 ], [ 1.744744, 48.685527 ] ] } },
{ "type": "Feature", "properties": { "cls": "shared", "highway": "cycleway", "name": "Route de l'Étang du Roi" }, "geometry": { "type": "LineString", "coordinates": [ [ 1.736033, 48.690654 ], [ 1.740618, 48.687945 ], [ 1.742208, 48.687005 ] ] } },
{ "type": "Feature", "properties": { "cls": "shared", "highway": "cycleway", "name": null }, "geometry": { "type": "MultiLineString", "coordinates": [ [ [ 1.80787, 48.674491 ], [ 1.807962, 48.675014 ], [ 1.807924, 48.675502 ], [ 1.807966, 48.675735 ], [ 1.807846, 48.67612 ], [ 1.807885, 48.676503 ], [ 1.807666, 48.676895 ], [ 1.807573, 48.67741 ], [ 1.807383, 48.67771 ], [ 1.807104, 48.677971 ], [ 1.806827, 48.678215 ], [ 1.806639, 48.678582 ], [ 1.806476, 48.678839 ], [ 1.806103, 48.679137 ], [ 1.805764, 48.6795 ], [ 1.805404, 48.680219 ], [ 1.805294, 48.680423 ], [ 1.805206, 48.680665 ], [ 1.805165, 48.680854 ], [ 1.8051, 48.681228 ], [ 1.804835, 48.681916 ], [ 1.80433, 48.682745 ], [ 1.804026, 48.683313 ], [ 1.803869, 48.68394 ], [ 1.803739, 48.684239 ], [ 1.8035, 48.68457 ], [ 1.80346, 48.684626 ], [ 1.803383, 48.684996 ], [ 1.803326, 48.685348 ], [ 1.802909, 48.685887 ], [ 1.802607, 48.686063 ], [ 1.802732, 48.686138 ], [ 1.802927, 48.686461 ], [ 1.802997, 48.686677 ], [ 1.80296, 48.686902 ], [ 1.802904, 48.687118 ], [ 1.802824, 48.687369 ], [ 1.802648, 48.687553 ], [ 1.80248, 48.687688 ], [ 1.802276, 48.687864 ], [ 1.802127, 48.688069 ], [ 1.802058, 48.688318 ], [ 1.80204, 48.688518 ], [ 1.802087, 48.688767 ], [ 1.802097, 48.689018 ], [ 1.802051, 48.689257 ], [ 1.801877, 48.689569 ], [ 1.8017, 48.68994 ], [ 1.801562, 48.69025 ], [ 1.801432, 48.690558 ], [ 1.801304, 48.690751 ], [ 1.800978, 48.691033 ], [ 1.800669, 48.691308 ], [ 1.800553, 48.691575 ], [ 1.800525, 48.691827 ], [ 1.800461, 48.692062 ], [ 1.800155, 48.692445 ], [ 1.800055, 48.692638 ], [ 1.799981, 48.692947 ], [ 1.800007, 48.693158 ], [ 1.799973, 48.69337 ], [ 1.79989, 48.693578 ], [ 1.799826, 48.69381 ], [ 1.799698, 48.694058 ], [ 1.799526, 48.694354 ], [ 1.799335, 48.694708 ], [ 1.799192, 48.694915 ], [ 1.798832, 48.695246 ], [ 1.798653, 48.695449 ], [ 1.79848, 48.695724 ] ], [ [ 1.798415, 48.695845 ], [ 1.798099, 48.696605 ], [ 1.797714, 48.697395 ], [ 1.796938, 48.698232 ], [ 1.796221, 48.698893 ], [ 1.795477, 48.699657 ], [ 1.794921, 48.700243 ], [ 1.79393, 48.701306 ], [ 1.79343, 48.701944 ], [ 1.793141, 48.702441 ], [ 1.792988, 48.702687 ], [ 1.792803, 48.702982 ], [ 1.791984, 48.703845 ], [ 1.7916, 48.704269 ], [ 1.791165, 48.704967 ], [ 1.790568, 48.705506 ], [ 1.790018, 48.705901 ], [ 1.789127, 48.706763 ], [ 1.788599, 48.707204 ], [ 1.788082, 48.707452 ], [ 1.787627, 48.707729 ], [ 1.786963, 48.707957 ], [ 1.786539, 48.708044 ] ] ] } },
{ "type": "Feature", "properties": { "cls": "shared", "highway": "cycleway", "name": "Route de l'Étang du Roi" }, "geometry": { "type": "LineString", "coordinates": [ [ 1.727193, 48.695228 ], [ 1.736033, 48.690654 ] ] } },
{ "type": "Feature", "properties": { "cls": "separated", "highway": "cycleway", "name": "Route Hibou" }, "geometry": { "type": "LineString", "coordinates": [ [ 1.726964, 48.696161 ], [ 1.727342, 48.696508 ], [ 1.727924, 48.696822 ], [ 1.728242, 48.697117 ], [ 1.728483, 48.697746 ], [ 1.728716, 48.697854 ], [ 1.729631, 48.698125 ], [ 1.729911, 48.6982 ], [ 1.730105, 48.698231 ], [ 1.730282, 48.69827 ], [ 1.73038, 48.698293 ], [ 1.730529, 48.698312 ], [ 1.730709, 48.698303 ], [ 1.730893, 48.698297 ], [ 1.730977, 48.698297 ], [ 1.731067, 48.698324 ], [ 1.731114, 48.698355 ], [ 1.731214, 48.698366 ], [ 1.731328, 48.698356 ], [ 1.731375, 48.698355 ], [ 1.731457, 48.698386 ], [ 1.731516, 48.698394 ], [ 1.731597, 48.698383 ], [ 1.731696, 48.698352 ], [ 1.731737, 48.69834 ], [ 1.731778, 48.698334 ], [ 1.731976, 48.698363 ], [ 1.732141, 48.698394 ], [ 1.732208, 48.698428 ], [ 1.732303, 48.69848 ], [ 1.732552, 48.698522 ], [ 1.732707, 48.698564 ], [ 1.732843, 48.698617 ], [ 1.73291, 48.698675 ], [ 1.733012, 48.698701 ], [ 1.733132, 48.698719 ], [ 1.733415, 48.698713 ], [ 1.733559, 48.698699 ], [ 1.73375, 48.698689 ], [ 1.733957, 48.698686 ], [ 1.734114, 48.698713 ], [ 1.734232, 48.698757 ], [ 1.734272, 48.698789 ] ] } },
{ "type": "Feature", "properties": { "cls": "separated", "highway": "cycleway", "name": "Route de Rambouillet" }, "geometry": { "type": "LineString", "coordinates": [ [ 1.734272, 48.698789 ], [ 1.734141, 48.698857 ], [ 1.73384, 48.698997 ], [ 1.733706, 48.699082 ], [ 1.733567, 48.699147 ], [ 1.733264, 48.699241 ], [ 1.733135, 48.699275 ], [ 1.733013, 48.699309 ], [ 1.732946, 48.699312 ], [ 1.732832, 48.699383 ], [ 1.732762, 48.699461 ], [ 1.732639, 48.699568 ], [ 1.732452, 48.69967 ], [ 1.732381, 48.699728 ], [ 1.731649, 48.699939 ], [ 1.73135, 48.700002 ], [ 1.730894, 48.700073 ], [ 1.730419, 48.700303 ], [ 1.730125, 48.700674 ] ] } },
{ "type": "Feature", "properties": { "cls": "shared", "highway": "cycleway", "name": null }, "geometry": { "type": "LineString", "coordinates": [ [ 1.815399, 48.663632 ], [ 1.815192, 48.663857 ], [ 1.814523, 48.664582 ], [ 1.813535, 48.665712 ], [ 1.812684, 48.666594 ], [ 1.811878, 48.667422 ], [ 1.810795, 48.668534 ], [ 1.810432, 48.66893 ], [ 1.810106, 48.669257 ], [ 1.809902, 48.669496 ], [ 1.809868, 48.669593 ], [ 1.80944, 48.670587 ], [ 1.809151, 48.671282 ], [ 1.808511, 48.672821 ], [ 1.808443, 48.672986 ], [ 1.808164, 48.673628 ], [ 1.808098, 48.673806 ], [ 1.808017, 48.673998 ] ] } },
{ "type": "Feature", "properties": { "cls": "shared", "highway": "cycleway", "name": null }, "geometry": { "type": "LineString", "coordinates": [ [ 1.808017, 48.673998 ], [ 1.807807, 48.674483 ] ] } },
{ "type": "Feature", "properties": { "cls": "shared", "highway": "path", "name": "Route Goron" }, "geometry": { "type": "LineString", "coordinates": [ [ 1.826677, 48.736299 ], [ 1.825055, 48.736991 ], [ 1.824979, 48.737023 ], [ 1.823313, 48.737721 ], [ 1.821845, 48.738346 ], [ 1.817972, 48.74007 ], [ 1.81566, 48.741005 ], [ 1.81411, 48.741681 ], [ 1.807013, 48.74485 ] ] } },
{ "type": "Feature", "properties": { "cls": "separated", "highway": "cycleway", "name": null }, "geometry": { "type": "LineString", "coordinates": [ [ 1.800659, 48.74043 ], [ 1.800658, 48.740497 ], [ 1.800666, 48.740551 ], [ 1.800693, 48.740611 ], [ 1.800728, 48.740641 ], [ 1.800827, 48.740704 ], [ 1.800934, 48.740763 ], [ 1.800991, 48.740817 ], [ 1.801032, 48.740881 ], [ 1.801087, 48.740955 ], [ 1.801148, 48.740999 ], [ 1.801545, 48.741259 ], [ 1.802448, 48.741975 ], [ 1.803907, 48.743758 ], [ 1.804843, 48.744279 ], [ 1.805624, 48.744652 ], [ 1.806209, 48.744912 ], [ 1.806227, 48.745029 ], [ 1.806222, 48.745126 ], [ 1.806241, 48.745175 ], [ 1.806326, 48.745249 ], [ 1.80648, 48.745326 ], [ 1.806719, 48.745391 ], [ 1.806859, 48.745444 ] ] } },
{ "type": "Feature", "properties": { "cls": "separated", "highway": "cycleway", "name": null }, "geometry": { "type": "LineString", "coordinates": [ [ 1.806859, 48.745444 ], [ 1.807099, 48.746055 ], [ 1.80701, 48.746342 ], [ 1.806951, 48.746533 ], [ 1.807026, 48.746844 ], [ 1.806967, 48.747071 ], [ 1.806949, 48.747364 ], [ 1.807057, 48.747979 ], [ 1.80667, 48.74868 ], [ 1.806229, 48.749068 ], [ 1.80585, 48.749484 ], [ 1.804733, 48.750703 ], [ 1.803205, 48.751729 ], [ 1.802368, 48.752118 ], [ 1.80215, 48.752321 ] ] } },
{ "type": "Feature", "properties": { "cls": "shared", "highway": "cycleway", "name": null }, "geometry": { "type": "LineString", "coordinates": [ [ 1.80215, 48.752321 ], [ 1.802025, 48.752535 ], [ 1.802739, 48.754115 ], [ 1.803119, 48.754954 ], [ 1.803076, 48.755223 ], [ 1.803022, 48.75535 ], [ 1.802744, 48.755421 ], [ 1.802347, 48.755435 ], [ 1.801917, 48.755343 ], [ 1.801477, 48.755103 ], [ 1.80107, 48.754883 ], [ 1.800684, 48.754756 ], [ 1.800362, 48.754777 ], [ 1.799729, 48.755117 ], [ 1.799281, 48.755586 ], [ 1.799257, 48.755612 ], [ 1.799235, 48.755845 ], [ 1.799332, 48.75641 ], [ 1.799659, 48.756577 ], [ 1.800244, 48.756567 ], [ 1.800566, 48.756652 ], [ 1.800812, 48.756921 ], [ 1.800812, 48.757097 ], [ 1.800673, 48.757366 ], [ 1.800415, 48.757614 ], [ 1.800179, 48.758307 ], [ 1.800094, 48.758682 ], [ 1.799857, 48.758901 ], [ 1.79887, 48.759255 ], [ 1.79827, 48.759389 ], [ 1.797047, 48.759431 ], [ 1.796489, 48.75953 ], [ 1.796074, 48.759657 ], [ 1.795877, 48.759743 ], [ 1.795512, 48.760019 ], [ 1.795437, 48.760139 ], [ 1.79562, 48.760231 ], [ 1.795931, 48.760174 ], [ 1.796693, 48.760031 ], [ 1.797529, 48.760068 ], [ 1.797759, 48.760118 ] ] } },
{ "type": "Feature", "properties": { "cls": "shared", "highway": "path", "name": "Route Belsédene" }, "geometry": { "type": "LineString", "coordinates": [ [ 1.806836, 48.758874 ], [ 1.806909, 48.759052 ], [ 1.807109, 48.759456 ] ] } },
{ "type": "Feature", "properties": { "cls": "shared", "highway": "path", "name": "Route Belsédene" }, "geometry": { "type": "LineString", "coordinates": [ [ 1.807109, 48.759456 ], [ 1.807195, 48.7598 ] ] } },
{ "type": "Feature", "properties": { "cls": "separated", "highway": "cycleway", "name": null }, "geometry": { "type": "LineString", "coordinates": [ [ 1.797759, 48.760118 ], [ 1.79792, 48.760204 ], [ 1.798094, 48.760371 ], [ 1.798247, 48.760455 ], [ 1.798542, 48.760551 ], [ 1.798818, 48.760623 ], [ 1.799038, 48.760648 ], [ 1.79929, 48.760613 ], [ 1.799548, 48.760606 ], [ 1.799735, 48.760638 ], [ 1.80028, 48.760767 ], [ 1.800521, 48.760802 ], [ 1.800733, 48.760797 ], [ 1.801054, 48.760781 ], [ 1.801432, 48.76074 ], [ 1.802182, 48.760604 ], [ 1.802536, 48.760519 ], [ 1.802697, 48.76045 ], [ 1.802876, 48.760406 ], [ 1.803064, 48.760379 ], [ 1.803303, 48.760341 ], [ 1.803508, 48.760338 ], [ 1.803664, 48.760327 ], [ 1.803902, 48.760242 ], [ 1.804158, 48.760116 ], [ 1.804276, 48.760027 ], [ 1.804525, 48.759757 ], [ 1.80534, 48.759021 ], [ 1.805604, 48.758853 ], [ 1.805713, 48.758779 ], [ 1.805757, 48.758748 ], [ 1.805801, 48.758734 ], [ 1.805856, 48.758729 ], [ 1.805956, 48.758732 ], [ 1.806531, 48.758809 ], [ 1.806836, 48.758874 ] ] } },
{ "type": "Feature", "properties": { "cls": "shared", "highway": "path", "name": null }, "geometry": { "type": "LineString", "coordinates": [ [ 1.807466, 48.761612 ], [ 1.807199, 48.759859 ], [ 1.807195, 48.7598 ] ] } },
{ "type": "Feature", "properties": { "cls": "separated", "highway": "cycleway", "name": null }, "geometry": { "type": "LineString", "coordinates": [ [ 1.744524, 48.707052 ], [ 1.744394, 48.706744 ], [ 1.742637, 48.705146 ], [ 1.742393, 48.705001 ], [ 1.741015, 48.704165 ], [ 1.740069, 48.703095 ], [ 1.738981, 48.702453 ], [ 1.738446, 48.701793 ], [ 1.737447, 48.701098 ], [ 1.737243, 48.700886 ], [ 1.73693, 48.700562 ], [ 1.73677, 48.700223 ], [ 1.735361, 48.699349 ], [ 1.735075, 48.698904 ], [ 1.734616, 48.698838 ], [ 1.734443, 48.698814 ], [ 1.734272, 48.698789 ] ] } },
{ "type": "Feature", "properties": { "cls": "separated", "highway": "cycleway", "name": "Route Hibou" }, "geometry": { "type": "LineString", "coordinates": [ [ 1.730125, 48.700674 ], [ 1.730115, 48.700828 ], [ 1.730116, 48.701909 ], [ 1.730124, 48.703866 ], [ 1.73012, 48.704282 ], [ 1.730125, 48.70462 ], [ 1.730211, 48.704661 ], [ 1.730345, 48.704655 ], [ 1.73047, 48.70469 ], [ 1.730758, 48.704892 ], [ 1.730864, 48.705045 ], [ 1.730917, 48.705271 ], [ 1.730772, 48.705469 ], [ 1.730377, 48.706623 ], [ 1.730001, 48.707539 ], [ 1.730063, 48.707889 ], [ 1.729811, 48.708098 ], [ 1.729147, 48.709267 ], [ 1.728791, 48.709991 ], [ 1.728764, 48.710222 ], [ 1.728804, 48.710617 ], [ 1.728743, 48.710782 ], [ 1.728681, 48.710929 ], [ 1.728526, 48.711121 ], [ 1.728461, 48.711295 ], [ 1.728405, 48.711355 ], [ 1.72823, 48.71152 ], [ 1.72808, 48.711615 ], [ 1.727816, 48.71171 ], [ 1.726873, 48.71202 ], [ 1.726675, 48.712027 ], [ 1.726261, 48.712029 ], [ 1.725925, 48.712146 ], [ 1.725505, 48.712152 ], [ 1.725147, 48.712203 ], [ 1.724851, 48.712195 ], [ 1.724569, 48.712477 ], [ 1.724248, 48.712531 ], [ 1.723735, 48.712499 ], [ 1.72325, 48.712638 ], [ 1.722982, 48.712869 ], [ 1.722679, 48.71287 ], [ 1.722037, 48.712798 ], [ 1.721769, 48.712584 ], [ 1.721805, 48.712299 ], [ 1.722074, 48.711971 ], [ 1.722189, 48.711856 ], [ 1.722625, 48.711425 ], [ 1.722768, 48.710979 ], [ 1.722608, 48.710658 ], [ 1.722126, 48.710265 ], [ 1.72077, 48.709605 ], [ 1.720093, 48.709427 ], [ 1.718969, 48.709088 ], [ 1.71822, 48.709391 ], [ 1.717881, 48.709891 ], [ 1.718095, 48.710497 ], [ 1.718007, 48.710632 ], [ 1.717952, 48.710711 ], [ 1.717185, 48.710426 ], [ 1.716561, 48.710337 ], [ 1.716044, 48.70998 ] ] } },
{ "type": "Feature", "properties": { "cls": "separated", "highway": "cycleway", "name": null }, "geometry": { "type": "LineString", "coordinates": [ [ 1.703592, 48.707262 ], [ 1.703872, 48.707143 ], [ 1.704478, 48.706999 ], [ 1.705174, 48.70684 ], [ 1.705512, 48.706747 ], [ 1.705624, 48.706652 ] ] } },
{ "type": "Feature", "properties": { "cls": "separated", "highway": "cycleway", "name": null }, "geometry": { "type": "LineString", "coordinates": [ [ 1.785828, 48.708116 ], [ 1.784887, 48.708268 ], [ 1.782969, 48.708322 ], [ 1.782162, 48.708843 ], [ 1.781793, 48.709466 ], [ 1.781621, 48.709607 ], [ 1.78096, 48.709681 ], [ 1.780045, 48.709879 ] ] } },
{ "type": "Feature", "properties": { "cls": "separated", "highway": "cycleway", "name": "Route Hibou" }, "geometry": { "type": "LineString", "coordinates": [ [ 1.716044, 48.70998 ], [ 1.708962, 48.707646 ], [ 1.706482, 48.706829 ], [ 1.706028, 48.706775 ], [ 1.705624, 48.706652 ] ] } },
{ "type": "Feature", "properties": { "cls": "separated", "highway": "cycleway", "name": "Route Hibou" }, "geometry": { "type": "LineString", "coordinates": [ [ 1.703592, 48.707262 ], [ 1.703521, 48.707852 ], [ 1.70311, 48.708566 ], [ 1.702831, 48.708794 ], [ 1.702506, 48.708778 ], [ 1.701485, 48.708665 ], [ 1.701225, 48.70881 ], [ 1.700934, 48.708859 ], [ 1.700658, 48.708697 ], [ 1.700398, 48.708308 ], [ 1.700236, 48.707724 ], [ 1.70009, 48.707416 ], [ 1.699717, 48.707238 ], [ 1.698307, 48.707351 ], [ 1.69748, 48.707448 ], [ 1.696847, 48.70753 ], [ 1.695939, 48.707854 ], [ 1.69574, 48.70794 ], [ 1.694707, 48.708389 ], [ 1.69448, 48.708665 ], [ 1.69448, 48.70907 ], [ 1.69435, 48.709362 ], [ 1.693907, 48.709632 ], [ 1.693407, 48.709702 ], [ 1.691985, 48.709242 ] ] } },
{ "type": "Feature", "properties": { "cls": "separated", "highway": "cycleway", "name": null }, "geometry": { "type": "LineString", "coordinates": [ [ 1.691985, 48.709242 ], [ 1.691909, 48.709241 ], [ 1.691843, 48.709222 ], [ 1.691738, 48.709182 ], [ 1.691514, 48.709112 ], [ 1.6913, 48.709041 ], [ 1.691101, 48.708967 ], [ 1.690719, 48.708827 ], [ 1.690298, 48.708688 ], [ 1.689901, 48.708542 ], [ 1.689452, 48.708385 ], [ 1.689095, 48.708277 ], [ 1.688692, 48.708195 ], [ 1.688341, 48.708141 ], [ 1.688165, 48.708123 ], [ 1.68787, 48.708122 ], [ 1.687346, 48.708114 ], [ 1.686861, 48.708075 ], [ 1.686347, 48.708061 ], [ 1.685715, 48.708016 ], [ 1.685154, 48.707943 ], [ 1.684928, 48.707904 ], [ 1.6848, 48.707898 ], [ 1.68469, 48.707837 ], [ 1.684633, 48.707733 ], [ 1.684613, 48.70768 ] ] } },
{ "type": "Feature", "properties": { "cls": "separated", "highway": "cycleway", "name": null }, "geometry": { "type": "LineString", "coordinates": [ [ 1.77991, 48.709907 ], [ 1.779604, 48.709975 ], [ 1.778624, 48.710514 ] ] } },
{ "type": "Feature", "properties": { "cls": "separated", "highway": "cycleway", "name": "Route Hibou" }, "geometry": { "type": "LineString", "coordinates": [ [ 1.684613, 48.70768 ], [ 1.684524, 48.707886 ], [ 1.684362, 48.708211 ], [ 1.684443, 48.7086 ], [ 1.684783, 48.709183 ], [ 1.68514, 48.709475 ], [ 1.685205, 48.7098 ], [ 1.684881, 48.710335 ], [ 1.6848, 48.710854 ], [ 1.684719, 48.711097 ], [ 1.684216, 48.711745 ], [ 1.684216, 48.712572 ], [ 1.684531, 48.713062 ], [ 1.685116, 48.71313 ], [ 1.685975, 48.713213 ] ] } },
{ "type": "Feature", "properties": { "cls": "separated", "highway": "cycleway", "name": null }, "geometry": { "type": "MultiLineString", "coordinates": [ [ [ 1.778536, 48.710566 ], [ 1.778274, 48.710712 ], [ 1.777742, 48.711103 ], [ 1.777613, 48.711272 ], [ 1.777673, 48.711573 ], [ 1.778016, 48.712275 ], [ 1.778166, 48.71245 ], [ 1.778334, 48.712971 ], [ 1.778377, 48.71313 ], [ 1.778291, 48.713379 ], [ 1.777965, 48.71403 ], [ 1.777854, 48.714274 ] ], [ [ 1.777787, 48.714348 ], [ 1.777617, 48.714499 ], [ 1.777248, 48.714963 ], [ 1.776965, 48.715575 ], [ 1.777377, 48.716492 ], [ 1.777703, 48.71703 ], [ 1.777339, 48.717615 ], [ 1.776561, 48.718316 ], [ 1.77633, 48.718672 ], [ 1.776536, 48.719029 ], [ 1.777162, 48.719295 ], [ 1.77796, 48.719409 ], [ 1.778367, 48.719536 ], [ 1.778557, 48.719551 ], [ 1.778674, 48.7197 ], [ 1.778686, 48.719736 ], [ 1.778708, 48.719804 ], [ 1.778304, 48.720162 ], [ 1.777806, 48.720558 ], [ 1.777806, 48.720955 ], [ 1.779025, 48.72254 ], [ 1.779334, 48.722693 ], [ 1.77978, 48.722693 ], [ 1.78002, 48.722506 ], [ 1.780391, 48.72213 ], [ 1.780982, 48.722013 ], [ 1.782012, 48.721758 ], [ 1.782274, 48.72169 ], [ 1.783083, 48.721448 ], [ 1.783213, 48.721423 ], [ 1.783295, 48.72141 ], [ 1.783404, 48.721396 ], [ 1.783524, 48.721389 ], [ 1.783645, 48.721376 ], [ 1.783767, 48.721358 ], [ 1.783878, 48.721353 ], [ 1.783992, 48.72136 ], [ 1.784096, 48.721373 ], [ 1.784205, 48.721401 ], [ 1.784323, 48.721449 ], [ 1.784475, 48.721531 ], [ 1.784569, 48.721571 ], [ 1.784679, 48.721605 ], [ 1.784794, 48.721657 ], [ 1.784881, 48.721712 ], [ 1.784942, 48.72177 ], [ 1.784971, 48.721825 ], [ 1.784995, 48.721892 ], [ 1.784999, 48.721953 ], [ 1.785007, 48.722021 ], [ 1.785018, 48.722049 ], [ 1.785019, 48.722077 ], [ 1.784989, 48.72217 ], [ 1.784967, 48.722308 ], [ 1.784959, 48.722519 ], [ 1.784967, 48.722608 ], [ 1.784993, 48.722687 ], [ 1.785038, 48.722746 ], [ 1.785093, 48.722804 ], [ 1.785187, 48.722862 ], [ 1.785528, 48.723041 ], [ 1.785697, 48.723133 ], [ 1.785833, 48.723219 ], [ 1.785981, 48.723325 ], [ 1.786141, 48.723448 ], [ 1.786213, 48.723521 ], [ 1.786268, 48.723583 ], [ 1.786324, 48.72364 ], [ 1.786491, 48.723778 ], [ 1.786603, 48.723889 ], [ 1.786689, 48.72398 ], [ 1.786733, 48.724036 ], [ 1.786766, 48.724098 ], [ 1.786829, 48.72423 ], [ 1.786846, 48.724296 ], [ 1.786863, 48.724378 ], [ 1.786888, 48.724433 ], [ 1.786908, 48.724512 ], [ 1.786916, 48.724577 ], [ 1.786926, 48.724932 ], [ 1.786939, 48.724963 ], [ 1.786927, 48.725566 ], [ 1.786917, 48.725734 ], [ 1.786923, 48.725846 ], [ 1.786939, 48.725952 ], [ 1.786963, 48.726044 ], [ 1.787011, 48.726154 ], [ 1.787073, 48.726261 ], [ 1.787151, 48.726373 ], [ 1.7872, 48.726436 ], [ 1.787248, 48.726512 ], [ 1.787302, 48.726612 ], [ 1.787386, 48.726748 ], [ 1.787549, 48.727022 ], [ 1.78759, 48.727094 ], [ 1.787607, 48.727136 ], [ 1.787651, 48.727214 ], [ 1.787797, 48.727415 ], [ 1.787869, 48.727549 ], [ 1.787922, 48.727655 ], [ 1.787953, 48.727745 ], [ 1.787974, 48.727849 ], [ 1.787989, 48.728008 ], [ 1.787993, 48.728172 ], [ 1.787995, 48.728292 ], [ 1.787989, 48.728399 ], [ 1.787974, 48.728522 ], [ 1.787943, 48.728693 ], [ 1.787836, 48.728996 ], [ 1.787812, 48.729087 ], [ 1.787797, 48.729173 ], [ 1.787794, 48.729246 ], [ 1.787786, 48.729381 ], [ 1.787788, 48.729557 ], [ 1.787805, 48.729619 ], [ 1.787874, 48.729808 ], [ 1.787894, 48.729976 ], [ 1.78791, 48.730122 ], [ 1.787994, 48.730515 ], [ 1.788048, 48.730711 ], [ 1.788142, 48.731318 ], [ 1.788222, 48.73171 ], [ 1.788254, 48.731914 ], [ 1.788236, 48.732055 ] ] ] } },
{ "type": "Feature", "properties": { "cls": "separated", "highway": "cycleway", "name": "Chemin de Bazoches" }, "geometry": { "type": "LineString", "coordinates": [ [ 1.788236, 48.732055 ], [ 1.78828, 48.732081 ], [ 1.78863, 48.732276 ], [ 1.789058, 48.732526 ], [ 1.789311, 48.732657 ], [ 1.789489, 48.732748 ], [ 1.789658, 48.73284 ], [ 1.789944, 48.732959 ], [ 1.790254, 48.733085 ], [ 1.790538, 48.733203 ], [ 1.790886, 48.73333 ], [ 1.791162, 48.733417 ], [ 1.791498, 48.733512 ], [ 1.791693, 48.733576 ], [ 1.791891, 48.733653 ], [ 1.79252, 48.733916 ], [ 1.792802, 48.73404 ], [ 1.792991, 48.734145 ], [ 1.793126, 48.73424 ], [ 1.793251, 48.734336 ], [ 1.793346, 48.734439 ], [ 1.793432, 48.734558 ], [ 1.793496, 48.734661 ], [ 1.793668, 48.734906 ], [ 1.793856, 48.735176 ] ] } },
{ "type": "Feature", "properties": { "cls": "separated", "highway": "cycleway", "name": null }, "geometry": { "type": "LineString", "coordinates": [ [ 1.712204, 48.733429 ], [ 1.712204, 48.733416 ], [ 1.712027, 48.733236 ], [ 1.712052, 48.733073 ], [ 1.712147, 48.73282 ], [ 1.712236, 48.732662 ], [ 1.71234, 48.732543 ], [ 1.712397, 48.732434 ], [ 1.712372, 48.732313 ], [ 1.71229, 48.732225 ], [ 1.712255, 48.732102 ], [ 1.712235, 48.731901 ], [ 1.712147, 48.731791 ], [ 1.712027, 48.731682 ], [ 1.71177, 48.731565 ], [ 1.711532, 48.730915 ] ] } },
{ "type": "Feature", "properties": { "cls": "separated", "highway": "cycleway", "name": "Route de la Harasserie" }, "geometry": { "type": "LineString", "coordinates": [ [ 1.715039, 48.736017 ], [ 1.715111, 48.736055 ], [ 1.715243, 48.73613 ], [ 1.715414, 48.736187 ], [ 1.715561, 48.736214 ], [ 1.715725, 48.736225 ], [ 1.71582, 48.736247 ], [ 1.715967, 48.736299 ], [ 1.71609, 48.736344 ], [ 1.716181, 48.73634 ], [ 1.716563, 48.736324 ], [ 1.716922, 48.736369 ], [ 1.71704, 48.736353 ], [ 1.717263, 48.736237 ], [ 1.717476, 48.736276 ], [ 1.717683, 48.736301 ], [ 1.717795, 48.736326 ], [ 1.718198, 48.736557 ], [ 1.718305, 48.736637 ], [ 1.718424, 48.736687 ], [ 1.718733, 48.736863 ], [ 1.718822, 48.736902 ], [ 1.718909, 48.736922 ], [ 1.719036, 48.736902 ], [ 1.719116, 48.736899 ], [ 1.719506, 48.737073 ], [ 1.719633, 48.737091 ], [ 1.720018, 48.737122 ], [ 1.720423, 48.737161 ] ] } },
{ "type": "Feature", "properties": { "cls": "separated", "highway": "cycleway", "name": null }, "geometry": { "type": "LineString", "coordinates": [ [ 1.793953, 48.735251 ], [ 1.794103, 48.735352 ], [ 1.794964, 48.736022 ], [ 1.796533, 48.737203 ], [ 1.798362, 48.738586 ], [ 1.799039, 48.739102 ], [ 1.799454, 48.739415 ], [ 1.799697, 48.739591 ], [ 1.80032, 48.740062 ], [ 1.800382, 48.74012 ], [ 1.800424, 48.740225 ] ] } },
{ "type": "Feature", "properties": { "cls": "shared", "highway": "path", "name": "Route Goron" }, "geometry": { "type": "LineString", "coordinates": [ [ 1.806491, 48.745058 ], [ 1.806433, 48.74509 ], [ 1.806241, 48.745175 ], [ 1.803082, 48.746575 ], [ 1.799317, 48.74833 ], [ 1.795335, 48.75006 ], [ 1.792121, 48.751456 ], [ 1.79132, 48.751574 ] ] } },
{ "type": "Feature", "properties": { "cls": "shared", "highway": "path", "name": "Route Goron" }, "geometry": { "type": "LineString", "coordinates": [ [ 1.79132, 48.751574 ], [ 1.790995, 48.751795 ], [ 1.79072, 48.751973 ], [ 1.786106, 48.753596 ] ] } },
{ "type": "Feature", "properties": { "cls": "shared", "highway": "path", "name": null }, "geometry": { "type": "LineString", "coordinates": [ [ 1.778178, 48.75185 ], [ 1.780987, 48.752977 ], [ 1.782496, 48.753006 ], [ 1.783204, 48.753076 ], [ 1.78477, 48.753316 ], [ 1.785736, 48.753444 ], [ 1.786106, 48.753596 ] ] } },
{ "type": "Feature", "properties": { "cls": "shared", "highway": "path", "name": "Route Goron" }, "geometry": { "type": "LineString", "coordinates": [ [ 1.786106, 48.753596 ], [ 1.782709, 48.754949 ] ] } },
{ "type": "Feature", "properties": { "cls": "separated", "highway": "cycleway", "name": "Tronçon  Privé" }, "geometry": { "type": "LineString", "coordinates": [ [ 1.702556, 48.761853 ], [ 1.702243, 48.761619 ] ] } },
{ "type": "Feature", "properties": { "cls": "shared", "highway": "path", "name": null }, "geometry": { "type": "LineString", "coordinates": [ [ 1.682596, 48.778751 ], [ 1.682393, 48.778586 ], [ 1.682184, 48.778407 ] ] } },
{ "type": "Feature", "properties": { "cls": "shared", "highway": "path", "name": null }, "geometry": { "type": "LineString", "coordinates": [ [ 1.708482, 48.797026 ], [ 1.708462, 48.797012 ], [ 1.708155, 48.796866 ], [ 1.707831, 48.796764 ], [ 1.706971, 48.796592 ], [ 1.70517, 48.796232 ], [ 1.703771, 48.795945 ], [ 1.703329, 48.795859 ], [ 1.703003, 48.795773 ], [ 1.702857, 48.795696 ], [ 1.702672, 48.79559 ], [ 1.702244, 48.795249 ], [ 1.701753, 48.794817 ], [ 1.70093, 48.794122 ] ] } },
{ "type": "Feature", "properties": { "cls": "separated", "highway": "cycleway", "name": null }, "geometry": { "type": "LineString", "coordinates": [ [ 2.007026, 48.603065 ], [ 2.007335, 48.603198 ] ] } },
{ "type": "Feature", "properties": { "cls": "shared", "highway": "path", "name": null }, "geometry": { "type": "LineString", "coordinates": [ [ 2.010578, 48.622363 ], [ 2.010765, 48.622399 ], [ 2.010929, 48.622411 ], [ 2.011134, 48.622423 ], [ 2.011373, 48.622434 ], [ 2.011447, 48.622458 ], [ 2.011532, 48.622478 ], [ 2.011766, 48.622476 ], [ 2.016093, 48.622415 ], [ 2.016236, 48.62244 ], [ 2.016325, 48.62245 ], [ 2.016628, 48.622437 ], [ 2.017335, 48.622379 ] ] } }
]
}
