{
"type": "FeatureCollection",
"name": "006-islamabad-margalla-hills-national-park",
"crs": { "type": "name", "properties": { "name": "urn:ogc:def:crs:OGC:1.3:CRS84" } },
"xy_coordinate_resolution": 1e-06,
"features": [
{ "type": "Feature", "properties": { "cls": "shared", "highway": "cycleway", "name": "Trail 4" }, "geometry": { "type": "LineString", "coordinates": [ [ 73.049172, 33.73769 ], [ 73.049093, 33.737696 ], [ 73.048893, 33.737917 ], [ 73.048486, 33.738196 ] ] } },
{ "type": "Feature", "properties": { "cls": "shared", "highway": "cycleway", "name": "Trail 4" }, "geometry": { "type": "LineString", "coordinates": [ [ 73.048486, 33.738196 ], [ 73.04843, 33.738234 ] ] } },
{ "type": "Feature", "properties": { "cls": "shared", "highway": "cycleway", "name": null }, "geometry": { "type": "LineString", "coordinates": [ [ 73.023558, 33.729081 ], [ 73.023952, 33.729091 ], [ 73.024342, 33.729091 ], [ 73.02455, 33.729102 ], [ 73.024681, 33.72911 ], [ 73.024728, 33.729102 ], [ 73.024858, 33.729038 ], [ 73.024904, 33.729012 ], [ 73.024955, 33.729013 ], [ 73.025037, 33.729038 ], [ 73.025149, 33.729091 ], [ 73.025279, 33.729162 ], [ 73.025307, 33.729189 ], [ 73.025334, 33.729261 ], [ 73.025334, 33.729331 ], [ 73.025354, 33.729438 ], [ 73.02546, 33.729654 ], [ 73.025537, 33.729795 ], [ 73.025569, 33.72982 ], [ 73.025651, 33.729833 ], [ 73.02591, 33.72984 ], [ 73.026048, 33.729846 ], [ 73.026166, 33.729841 ], [ 73.026292, 33.72982 ], [ 73.026425, 33.729773 ], [ 73.02647, 33.729762 ], [ 73.026536, 33.729759 ], [ 73.026629, 33.729748 ], [ 73.026772, 33.729683 ], [ 73.026963, 33.729598 ], [ 73.027138, 33.729509 ], [ 73.027205, 33.729487 ], [ 73.027298, 33.729495 ], [ 73.027378, 33.729492 ], [ 73.027487, 33.729465 ], [ 73.027557, 33.729454 ], [ 73.027618, 33.729452 ], [ 73.027677, 33.72947 ], [ 73.027711, 33.729491 ], [ 73.027938, 33.729719 ], [ 73.02825, 33.730055 ], [ 73.0284, 33.730174 ], [ 73.028502, 33.730217 ], [ 73.02863, 33.730243 ], [ 73.028713, 33.730246 ], [ 73.028784, 33.730242 ], [ 73.028858, 33.730219 ], [ 73.029016, 33.730122 ], [ 73.029338, 33.729882 ], [ 73.029502, 33.729729 ], [ 73.029559, 33.729658 ], [ 73.029651, 33.729594 ], [ 73.029818, 33.729511 ], [ 73.029914, 33.729488 ], [ 73.029977, 33.729494 ], [ 73.030036, 33.729527 ], [ 73.030248, 33.729731 ], [ 73.030471, 33.729897 ], [ 73.030535, 33.72997 ], [ 73.030559, 33.730038 ], [ 73.030553, 33.73012 ], [ 73.030546, 33.730236 ], [ 73.030562, 33.730364 ], [ 73.030645, 33.730474 ], [ 73.030718, 33.730505 ], [ 73.030833, 33.730518 ], [ 73.030991, 33.730523 ], [ 73.031042, 33.730514 ], [ 73.031108, 33.730488 ], [ 73.031188, 33.730431 ], [ 73.031254, 33.730353 ], [ 73.031384, 33.73019 ], [ 73.031626, 33.729861 ], [ 73.032008, 33.729814 ], [ 73.032908, 33.730038 ], [ 73.032977, 33.730046 ], [ 73.033154, 33.730132 ] ] } },
{ "type": "Feature", "properties": { "cls": "shared", "highway": "cycleway", "name": null }, "geometry": { "type": "LineString", "coordinates": [ [ 73.033154, 33.730132 ], [ 73.033196, 33.730177 ] ] } },
{ "type": "Feature", "properties": { "cls": "shared", "highway": "cycleway", "name": null }, "geometry": { "type": "LineString", "coordinates": [ [ 73.033196, 33.730177 ], [ 73.033355, 33.730529 ], [ 73.033411, 33.731625 ], [ 73.033647, 33.732349 ], [ 73.034716, 33.732551 ], [ 73.035477, 33.732345 ], [ 73.035674, 33.732292 ], [ 73.035941, 33.732309 ], [ 73.036066, 33.732341 ], [ 73.036148, 33.73224 ] ] } },
{ "type": "Feature", "properties": { "cls": "shared", "highway": "cycleway", "name": null }, "geometry": { "type": "LineString", "coordinates": [ [ 73.036914, 33.733004 ], [ 73.037188, 33.733038 ], [ 73.03737, 33.733145 ], [ 73.037715, 33.733096 ], [ 73.038112, 33.733383 ], [ 73.038691, 33.733266 ], [ 73.039135, 33.733274 ], [ 73.03963, 33.733266 ], [ 73.0403, 33.733313 ], [ 73.0409, 33.733416 ], [ 73.040807, 33.733793 ], [ 73.041297, 33.733856 ], [ 73.042331, 33.734032 ], [ 73.042892, 33.734191 ], [ 73.043226, 33.734405 ], [ 73.043633, 33.734346 ], [ 73.043922, 33.734336 ], [ 73.044306, 33.734427 ], [ 73.044593, 33.734409 ], [ 73.045092, 33.734536 ] ] } },
{ "type": "Feature", "properties": { "cls": "shared", "highway": "cycleway", "name": null }, "geometry": { "type": "LineString", "coordinates": [ [ 73.047415, 33.738693 ], [ 73.047374, 33.738653 ], [ 73.046667, 33.737878 ], [ 73.046458, 33.737078 ], [ 73.045793, 33.736634 ], [ 73.045267, 33.736581 ], [ 73.045138, 33.736444 ], [ 73.045253, 33.735686 ], [ 73.045092, 33.734536 ] ] } },
{ "type": "Feature", "properties": { "cls": "shared", "highway": "cycleway", "name": "Trail 4" }, "geometry": { "type": "LineString", "coordinates": [ [ 73.04843, 33.738234 ], [ 73.048073, 33.738568 ], [ 73.047415, 33.738693 ] ] } }
]
}
