{
"type": "FeatureCollection",
"name": "008-scottsdale-mcdowell-sonoran-preserve",
"crs": { "type": "name", "properties": { "name": "urn:ogc:def:crs:OGC:1.3:CRS84" } },
"xy_coordinate_resolution": 1e-06,
"features": [
{ "type": "Feature", "properties": { "cls": "painted", "highway": "tertiary", "name": "North 124th Street" }, "geometry": { "type": "LineString", "coordinates": [ [ -111.813381, 33.597371 ], [ -111.813406, 33.597203 ] ] } },
{ "type": "Feature", "properties": { "cls": "painted", "highway": "tertiary", "name": "North 124th Street" }, "geometry": { "type": "LineString", "coordinates": [ [ -111.813349, 33.597204 ], [ -111.813381, 33.597371 ] ] } },
{ "type": "Feature", "properties": { "cls": "painted", "highway": "tertiary", "name": "North 124th Street" }, "geometry": { "type": "LineString", "coordinates": [ [ -111.813381, 33.597371 ], [ -111.813383, 33.597739 ], [ -111.813382, 33.597789 ] ] } },
{ "type": "Feature", "properties": { "cls": "painted", "highway": "tertiary", "name": "North 124th Street" }, "geometry": { "type": "LineString", "coordinates": [ [ -111.813417, 33.597971 ], [ -111.813414, 33.597873 ], [ -111.813382, 33.597789 ] ] } },
{ "type": "Feature", "properties": { "cls": "shared", "highway": "footway", "name": "Sonoran Connector" }, "geometry": { "type": "LineString", "coordinates": [ [ -111.787382, 33.636541 ], [ -111.787446, 33.636498 ], [ -111.787479, 33.636458 ], [ -111.787484, 33.636415 ], [ -111.787515, 33.636398 ] ] } },
{ "type": "Feature", "properties": { "cls": "shared", "highway": "path", "name": "Prospector" }, "geometry": { "type": "LineString", "coordinates": [ [ -111.808148, 33.657929 ], [ -111.808175, 33.657713 ], [ -111.808168, 33.657626 ], [ -111.808113, 33.657435 ], [ -111.808122, 33.657269 ], [ -111.808077, 33.657143 ], [ -111.807905, 33.656927 ], [ -111.807844, 33.656885 ], [ -111.807774, 33.656883 ], [ -111.807677, 33.656914 ], [ -111.807595, 33.65688 ], [ -111.807279, 33.656563 ], [ -111.807178, 33.65652 ], [ -111.807112, 33.656555 ], [ -111.807023, 33.656814 ], [ -111.806934, 33.656913 ], [ -111.806849, 33.656949 ], [ -111.806683, 33.656905 ], [ -111.806602, 33.656899 ], [ -111.806522, 33.656921 ], [ -111.806324, 33.657029 ], [ -111.80621, 33.657048 ], [ -111.805969, 33.656954 ], [ -111.805749, 33.65689 ], [ -111.80535, 33.656861 ], [ -111.80526, 33.656869 ], [ -111.804996, 33.656969 ], [ -111.804947, 33.656862 ], [ -111.804937, 33.656794 ], [ -111.804995, 33.656577 ], [ -111.804998, 33.656426 ], [ -111.804958, 33.656188 ], [ -111.804945, 33.655965 ], [ -111.804922, 33.65587 ], [ -111.80488, 33.655813 ], [ -111.804814, 33.655789 ], [ -111.804673, 33.655789 ], [ -111.804594, 33.655766 ], [ -111.804431, 33.655678 ], [ -111.804282, 33.655564 ], [ -111.804135, 33.65549 ], [ -111.803985, 33.65539 ], [ -111.803625, 33.655233 ], [ -111.803473, 33.655121 ], [ -111.803315, 33.655051 ], [ -111.8032, 33.65504 ], [ -111.802955, 33.65506 ], [ -111.802847, 33.655052 ], [ -111.802773, 33.655018 ], [ -111.802693, 33.655034 ], [ -111.802585, 33.655028 ], [ -111.80247, 33.655078 ], [ -111.802446, 33.655107 ], [ -111.802402, 33.655114 ], [ -111.802375, 33.655096 ], [ -111.802362, 33.655068 ], [ -111.802359, 33.655018 ], [ -111.802077, 33.654603 ], [ -111.801963, 33.654512 ], [ -111.80144, 33.654409 ], [ -111.80133, 33.654364 ], [ -111.801213, 33.65427 ], [ -111.801031, 33.654089 ], [ -111.80088, 33.654022 ], [ -111.800746, 33.653993 ], [ -111.800502, 33.653974 ], [ -111.800384, 33.653979 ], [ -111.800046, 33.653835 ], [ -111.799884, 33.653823 ], [ -111.799833, 33.653834 ], [ -111.799812, 33.653823 ], [ -111.799801, 33.653804 ], [ -111.799805, 33.653786 ], [ -111.799808, 33.653751 ], [ -111.799791, 33.653633 ], [ -111.799747, 33.653596 ], [ -111.799705, 33.653598 ], [ -111.799621, 33.653654 ], [ -111.799577, 33.653658 ], [ -111.799529, 33.653625 ], [ -111.799475, 33.653587 ], [ -111.799393, 33.65348 ], [ -111.799269, 33.653359 ], [ -111.799168, 33.653282 ], [ -111.798963, 33.653219 ], [ -111.798865, 33.653152 ], [ -111.798759, 33.653051 ], [ -111.798668, 33.652997 ], [ -111.79861, 33.652989 ], [ -111.798518, 33.653007 ], [ -111.798329, 33.653076 ], [ -111.798275, 33.653058 ], [ -111.798275, 33.652916 ], [ -111.798209, 33.652916 ], [ -111.798073, 33.652986 ], [ -111.797926, 33.653026 ], [ -111.797822, 33.653055 ], [ -111.797751, 33.65305 ], [ -111.797617, 33.652918 ], [ -111.797546, 33.652917 ], [ -111.797427, 33.653053 ], [ -111.797254, 33.653114 ], [ -111.797158, 33.653168 ], [ -111.797074, 33.653258 ], [ -111.797034, 33.653341 ], [ -111.797008, 33.653454 ], [ -111.796966, 33.653913 ], [ -111.796944, 33.653979 ], [ -111.796855, 33.654065 ], [ -111.796734, 33.654124 ], [ -111.796594, 33.654161 ], [ -111.796534, 33.654157 ], [ -111.796446, 33.654127 ], [ -111.796156, 33.653964 ], [ -111.796029, 33.65392 ], [ -111.795875, 33.653897 ], [ -111.79568, 33.653896 ], [ -111.795557, 33.653914 ], [ -111.795382, 33.65398 ], [ -111.795241, 33.653947 ], [ -111.794865, 33.653801 ], [ -111.794612, 33.653703 ], [ -111.794452, 33.653617 ], [ -111.794227, 33.653542 ], [ -111.794031, 33.653452 ], [ -111.793842, 33.653399 ], [ -111.79366, 33.653398 ], [ -111.793388, 33.653428 ], [ -111.792897, 33.653654 ], [ -111.792744, 33.653677 ], [ -111.792668, 33.653656 ], [ -111.792481, 33.653515 ], [ -111.792433, 33.653443 ], [ -111.792432, 33.653327 ], [ -111.792399, 33.653224 ], [ -111.792309, 33.65309 ] ] } },
{ "type": "Feature", "properties": { "cls": "shared", "highway": "path", "name": "Whiskey Bottle" }, "geometry": { "type": "LineString", "coordinates": [ [ -111.795691, 33.746544 ], [ -111.795566, 33.746378 ], [ -111.795502, 33.746267 ], [ -111.795231, 33.746233 ], [ -111.795159, 33.746243 ], [ -111.795125, 33.746269 ] ] } },
{ "type": "Feature", "properties": { "cls": "shared", "highway": "path", "name": "Whiskey Bottle" }, "geometry": { "type": "LineString", "coordinates": [ [ -111.795795, 33.74657 ], [ -111.795691, 33.746544 ] ] } },
{ "type": "Feature", "properties": { "cls": "shared", "highway": "path", "name": "Cow Poke Trail" }, "geometry": { "type": "LineString", "coordinates": [ [ -111.799277, 33.786796 ], [ -111.799137, 33.786945 ], [ -111.79894, 33.787158 ], [ -111.798857, 33.787194 ], [ -111.798686, 33.787135 ], [ -111.798576, 33.787159 ], [ -111.798463, 33.787126 ], [ -111.798312, 33.787013 ], [ -111.79816, 33.786949 ], [ -111.797871, 33.786887 ], [ -111.797782, 33.786848 ], [ -111.797695, 33.786691 ], [ -111.797602, 33.786624 ], [ -111.797323, 33.786508 ], [ -111.797055, 33.786448 ], [ -111.796712, 33.786442 ], [ -111.796522, 33.78636 ], [ -111.796436, 33.786379 ], [ -111.796209, 33.786546 ], [ -111.796103, 33.786597 ], [ -111.796019, 33.786603 ], [ -111.795819, 33.786569 ], [ -111.795738, 33.786513 ], [ -111.79574, 33.786325 ], [ -111.795525, 33.786134 ], [ -111.795432, 33.786079 ], [ -111.795217, 33.786021 ], [ -111.795121, 33.786012 ], [ -111.794831, 33.786012 ], [ -111.794656, 33.786061 ], [ -111.7946, 33.786061 ], [ -111.794473, 33.786019 ], [ -111.794358, 33.78601 ], [ -111.79398, 33.786067 ], [ -111.793876, 33.786107 ], [ -111.793587, 33.786277 ], [ -111.793458, 33.786461 ], [ -111.793376, 33.78654 ], [ -111.793153, 33.786629 ], [ -111.793033, 33.786652 ], [ -111.792888, 33.786639 ], [ -111.792839, 33.786647 ], [ -111.792769, 33.786684 ], [ -111.792658, 33.786784 ], [ -111.792553, 33.786841 ], [ -111.792449, 33.786863 ], [ -111.792301, 33.786858 ], [ -111.792066, 33.786803 ], [ -111.792019, 33.786808 ], [ -111.791971, 33.786859 ], [ -111.791971, 33.786991 ], [ -111.79195, 33.78704 ], [ -111.79187, 33.787109 ], [ -111.791814, 33.787124 ], [ -111.791739, 33.787108 ], [ -111.791682, 33.787057 ], [ -111.79162, 33.786952 ], [ -111.791586, 33.786927 ], [ -111.791513, 33.786919 ], [ -111.791331, 33.78695 ], [ -111.791107, 33.786956 ], [ -111.790977, 33.786978 ], [ -111.79091, 33.787031 ], [ -111.790838, 33.787154 ], [ -111.790696, 33.787231 ], [ -111.790586, 33.787328 ], [ -111.790559, 33.787395 ], [ -111.790558, 33.787483 ], [ -111.790584, 33.787585 ], [ -111.79055, 33.787666 ], [ -111.790397, 33.787793 ], [ -111.790233, 33.788004 ], [ -111.7902, 33.788068 ], [ -111.79022, 33.788228 ], [ -111.790183, 33.788321 ], [ -111.790067, 33.788426 ], [ -111.789983, 33.788449 ], [ -111.789632, 33.788444 ], [ -111.789529, 33.788478 ], [ -111.789502, 33.788521 ], [ -111.789512, 33.788555 ], [ -111.789646, 33.788648 ], [ -111.789726, 33.788874 ], [ -111.789709, 33.788923 ], [ -111.789584, 33.789005 ], [ -111.789595, 33.789062 ], [ -111.789696, 33.789173 ], [ -111.789643, 33.789334 ], [ -111.789679, 33.789366 ], [ -111.789828, 33.789415 ], [ -111.789853, 33.789469 ], [ -111.78979, 33.789547 ], [ -111.789713, 33.789575 ], [ -111.789573, 33.789572 ], [ -111.789303, 33.789516 ], [ -111.789106, 33.789521 ], [ -111.78899, 33.789495 ], [ -111.788925, 33.789446 ], [ -111.788931, 33.789505 ], [ -111.788918, 33.789594 ], [ -111.788826, 33.789624 ], [ -111.788727, 33.789609 ], [ -111.788679, 33.789671 ], [ -111.788654, 33.789732 ], [ -111.788615, 33.789773 ], [ -111.788586, 33.789774 ], [ -111.788555, 33.789761 ], [ -111.788506, 33.789611 ], [ -111.788376, 33.789535 ], [ -111.78831, 33.789539 ], [ -111.788306, 33.789624 ], [ -111.788275, 33.789868 ], [ -111.788278, 33.789974 ], [ -111.788315, 33.790153 ], [ -111.788276, 33.790199 ], [ -111.7882, 33.790209 ], [ -111.788058, 33.79019 ], [ -111.787942, 33.790194 ], [ -111.78784, 33.790236 ], [ -111.787752, 33.790303 ], [ -111.787672, 33.790341 ], [ -111.787611, 33.790331 ], [ -111.787528, 33.790263 ], [ -111.787491, 33.790261 ], [ -111.787454, 33.790299 ], [ -111.787445, 33.790368 ], [ -111.787494, 33.790444 ], [ -111.78761, 33.790674 ], [ -111.787671, 33.790897 ], [ -111.787639, 33.790975 ], [ -111.787509, 33.791115 ], [ -111.787423, 33.791202 ], [ -111.78735, 33.791281 ], [ -111.787167, 33.791201 ], [ -111.786943, 33.791143 ] ] } },
{ "type": "Feature", "properties": { "cls": "painted", "highway": "residential", "name": "Alma School Road" }, "geometry": { "type": "LineString", "coordinates": [ [ -111.84392, 33.755964 ], [ -111.843926, 33.75591 ] ] } },
{ "type": "Feature", "properties": { "cls": "painted", "highway": "tertiary", "name": "North Legend Trail Parkway" }, "geometry": { "type": "LineString", "coordinates": [ [ -111.872802, 33.806717 ], [ -111.873941, 33.807423 ], [ -111.874175, 33.807583 ], [ -111.874451, 33.807842 ], [ -111.874647, 33.808032 ], [ -111.8748, 33.808231 ], [ -111.874955, 33.80847 ], [ -111.875101, 33.808739 ], [ -111.875374, 33.809415 ], [ -111.87557, 33.809767 ], [ -111.87567, 33.809892 ], [ -111.875724, 33.809958 ], [ -111.875921, 33.81016 ], [ -111.876117, 33.81031 ], [ -111.876347, 33.810452 ], [ -111.876749, 33.810641 ], [ -111.87696, 33.810694 ], [ -111.877115, 33.810741 ], [ -111.877449, 33.810797 ], [ -111.877697, 33.810813 ], [ -111.877964, 33.810821 ], [ -111.878362, 33.810829 ], [ -111.87865, 33.810837 ], [ -111.878888, 33.810856 ], [ -111.879187, 33.810924 ], [ -111.879455, 33.811019 ], [ -111.879674, 33.811124 ], [ -111.879906, 33.811254 ], [ -111.880118, 33.811427 ], [ -111.880285, 33.811597 ], [ -111.880454, 33.811815 ], [ -111.880568, 33.812016 ], [ -111.880649, 33.812216 ], [ -111.8807, 33.81242 ], [ -111.880719, 33.812634 ], [ -111.880723, 33.812853 ], [ -111.880728, 33.813077 ], [ -111.880728, 33.813167 ] ] } },
{ "type": "Feature", "properties": { "cls": "painted", "highway": "tertiary", "name": "North Legend Trail Parkway" }, "geometry": { "type": "LineString", "coordinates": [ [ -111.880838, 33.813805 ], [ -111.880839, 33.813292 ], [ -111.880838, 33.813076 ], [ -111.880833, 33.812851 ], [ -111.880829, 33.81263 ], [ -111.880809, 33.812408 ], [ -111.880756, 33.812192 ], [ -111.88067, 33.811982 ], [ -111.880551, 33.811771 ], [ -111.880374, 33.811543 ], [ -111.880199, 33.811366 ], [ -111.879975, 33.811183 ], [ -111.879733, 33.811047 ], [ -111.879504, 33.810938 ], [ -111.879223, 33.810837 ], [ -111.878908, 33.810766 ], [ -111.878658, 33.810745 ], [ -111.878365, 33.810738 ], [ -111.877967, 33.810729 ], [ -111.877703, 33.810722 ], [ -111.877464, 33.810706 ], [ -111.877145, 33.810653 ], [ -111.876995, 33.810608 ], [ -111.876792, 33.810556 ], [ -111.876407, 33.810376 ], [ -111.876187, 33.81024 ], [ -111.876002, 33.810097 ], [ -111.875812, 33.809903 ], [ -111.875666, 33.809722 ], [ -111.875476, 33.809382 ], [ -111.875204, 33.808706 ], [ -111.875054, 33.80843 ], [ -111.874895, 33.808184 ], [ -111.874736, 33.807978 ], [ -111.874534, 33.807782 ], [ -111.874251, 33.807517 ], [ -111.87401, 33.807352 ], [ -111.872857, 33.806638 ], [ -111.872762, 33.806635 ] ] } },
{ "type": "Feature", "properties": { "cls": "painted", "highway": "tertiary", "name": "North Legend Trail Parkway" }, "geometry": { "type": "LineString", "coordinates": [ [ -111.872759, 33.806633 ], [ -111.872762, 33.806635 ] ] } },
{ "type": "Feature", "properties": { "cls": "painted", "highway": "tertiary", "name": "North Legend Trail Parkway" }, "geometry": { "type": "LineString", "coordinates": [ [ -111.872762, 33.806635 ], [ -111.872802, 33.806717 ] ] } },
{ "type": "Feature", "properties": { "cls": "painted", "highway": "tertiary", "name": "East Jomax Road" }, "geometry": { "type": "MultiLineString", "coordinates": [ [ [ -111.908665, 33.726714 ], [ -111.908543, 33.726716 ], [ -111.907981, 33.726715 ] ], [ [ -111.907981, 33.726715 ], [ -111.905823, 33.726717 ] ], [ [ -111.905823, 33.726717 ], [ -111.901457, 33.726722 ] ], [ [ -111.901457, 33.726722 ], [ -111.897154, 33.726726 ] ], [ [ -111.897154, 33.726726 ], [ -111.892631, 33.72673 ] ], [ [ -111.892631, 33.72673 ], [ -111.890843, 33.726732 ] ], [ [ -111.890843, 33.726732 ], [ -111.890637, 33.726732 ] ] ] } },
{ "type": "Feature", "properties": { "cls": "painted", "highway": "secondary", "name": "North Pima Road" }, "geometry": { "type": "LineString", "coordinates": [ [ -111.891069, 33.728636 ], [ -111.891112, 33.728815 ], [ -111.89113, 33.728934 ], [ -111.891156, 33.729158 ], [ -111.891165, 33.729373 ] ] } },
{ "type": "Feature", "properties": { "cls": "painted", "highway": "secondary", "name": "North Pima Road" }, "geometry": { "type": "LineString", "coordinates": [ [ -111.891165, 33.729373 ], [ -111.891175, 33.732184 ], [ -111.891185, 33.736896 ], [ -111.891175, 33.739409 ] ] } },
{ "type": "Feature", "properties": { "cls": "painted", "highway": "tertiary", "name": "East Dynamite Boulevard" }, "geometry": { "type": "LineString", "coordinates": [ [ -111.891153, 33.741236 ], [ -111.891054, 33.7412 ], [ -111.891042, 33.741196 ], [ -111.890177, 33.741193 ], [ -111.889972, 33.741192 ], [ -111.889557, 33.741199 ], [ -111.889168, 33.741217 ], [ -111.88871, 33.741255 ], [ -111.888267, 33.741298 ], [ -111.888115, 33.741309 ], [ -111.88807, 33.741313 ], [ -111.887998, 33.741318 ], [ -111.887702, 33.741342 ], [ -111.887356, 33.741367 ], [ -111.887023, 33.741367 ], [ -111.88686, 33.741367 ], [ -111.886359, 33.741369 ], [ -111.885726, 33.741366 ] ] } },
{ "type": "Feature", "properties": { "cls": "painted", "highway": "tertiary", "name": "East Dynamite Boulevard" }, "geometry": { "type": "LineString", "coordinates": [ [ -111.885511, 33.741365 ], [ -111.884972, 33.741362 ] ] } },
{ "type": "Feature", "properties": { "cls": "painted", "highway": "tertiary", "name": "East Dynamite Boulevard" }, "geometry": { "type": "LineString", "coordinates": [ [ -111.885726, 33.741366 ], [ -111.885511, 33.741365 ] ] } },
{ "type": "Feature", "properties": { "cls": "painted", "highway": "tertiary", "name": "East Dynamite Boulevard" }, "geometry": { "type": "LineString", "coordinates": [ [ -111.885651, 33.741482 ], [ -111.886156, 33.741483 ], [ -111.886918, 33.741482 ], [ -111.887371, 33.741478 ], [ -111.887709, 33.74146 ], [ -111.888011, 33.741441 ], [ -111.88809, 33.741436 ], [ -111.888126, 33.741432 ], [ -111.888487, 33.7414 ], [ -111.888623, 33.741386 ], [ -111.8889, 33.741358 ], [ -111.889301, 33.741326 ], [ -111.889583, 33.741312 ], [ -111.889815, 33.741306 ], [ -111.889915, 33.741304 ], [ -111.890275, 33.741301 ] ] } },
{ "type": "Feature", "properties": { "cls": "painted", "highway": "tertiary", "name": "East Dynamite Boulevard" }, "geometry": { "type": "LineString", "coordinates": [ [ -111.884962, 33.741482 ], [ -111.885404, 33.741482 ] ] } },
{ "type": "Feature", "properties": { "cls": "painted", "highway": "secondary", "name": "North Pima Road" }, "geometry": { "type": "Point", "coordinates": [ -111.890637, 33.726732 ] } },
{ "type": "Feature", "properties": { "cls": "painted", "highway": "secondary", "name": "North Pima Road" }, "geometry": { "type": "LineString", "coordinates": [ [ -111.890637, 33.726732 ], [ -111.890651, 33.72704 ] ] } },
{ "type": "Feature", "properties": { "cls": "painted", "highway": "secondary", "name": "North Pima Road" }, "geometry": { "type": "LineString", "coordinates": [ [ -111.890651, 33.72704 ], [ -111.890664, 33.727169 ], [ -111.890684, 33.727317 ], [ -111.890714, 33.72747 ], [ -111.890769, 33.727657 ], [ -111.890784, 33.727711 ], [ -111.890861, 33.727956 ], [ -111.891069, 33.728636 ] ] } },
{ "type": "Feature", "properties": { "cls": "painted", "highway": "tertiary", "name": "East Dynamite Boulevard" }, "geometry": { "type": "LineString", "coordinates": [ [ -111.890649, 33.7413 ], [ -111.891053, 33.741299 ], [ -111.891061, 33.741296 ], [ -111.891153, 33.74126 ] ] } },
{ "type": "Feature", "properties": { "cls": "painted", "highway": "tertiary", "name": "East Dynamite Boulevard" }, "geometry": { "type": "LineString", "coordinates": [ [ -111.890275, 33.741301 ], [ -111.890649, 33.7413 ] ] } },
{ "type": "Feature", "properties": { "cls": "painted", "highway": "secondary", "name": "North Pima Road" }, "geometry": { "type": "LineString", "coordinates": [ [ -111.891175, 33.739409 ], [ -111.891175, 33.73948 ], [ -111.89118, 33.740507 ] ] } },
{ "type": "Feature", "properties": { "cls": "painted", "highway": "secondary", "name": "North Pima Road" }, "geometry": { "type": "LineString", "coordinates": [ [ -111.89118, 33.740507 ], [ -111.89118, 33.74053 ], [ -111.891182, 33.740848 ] ] } },
{ "type": "Feature", "properties": { "cls": "painted", "highway": "secondary", "name": "North Pima Road" }, "geometry": { "type": "LineString", "coordinates": [ [ -111.891182, 33.740848 ], [ -111.891184, 33.741131 ], [ -111.891184, 33.741193 ] ] } },
{ "type": "Feature", "properties": { "cls": "painted", "highway": "secondary", "name": "North Pima Road" }, "geometry": { "type": "LineString", "coordinates": [ [ -111.891179, 33.746759 ], [ -111.891178, 33.746837 ] ] } },
{ "type": "Feature", "properties": { "cls": "painted", "highway": "secondary", "name": "North Pima Road" }, "geometry": { "type": "LineString", "coordinates": [ [ -111.891178, 33.746837 ], [ -111.891181, 33.747306 ] ] } },
{ "type": "Feature", "properties": { "cls": "painted", "highway": "secondary", "name": "North Pima Road" }, "geometry": { "type": "LineString", "coordinates": [ [ -111.891181, 33.747306 ], [ -111.891177, 33.748129 ], [ -111.891176, 33.748429 ], [ -111.891175, 33.748498 ], [ -111.891183, 33.749745 ] ] } },
{ "type": "Feature", "properties": { "cls": "painted", "highway": "tertiary", "name": "East Dynamite Boulevard" }, "geometry": { "type": "LineString", "coordinates": [ [ -111.885404, 33.741482 ], [ -111.885651, 33.741482 ] ] } },
{ "type": "Feature", "properties": { "cls": "painted", "highway": "tertiary", "name": "East Dynamite Boulevard" }, "geometry": { "type": "LineString", "coordinates": [ [ -111.883248, 33.741362 ], [ -111.882894, 33.741367 ] ] } },
{ "type": "Feature", "properties": { "cls": "painted", "highway": "tertiary", "name": "East Dynamite Boulevard" }, "geometry": { "type": "LineString", "coordinates": [ [ -111.884972, 33.741362 ], [ -111.883248, 33.741362 ] ] } },
{ "type": "Feature", "properties": { "cls": "painted", "highway": "tertiary", "name": "East Dynamite Boulevard" }, "geometry": { "type": "LineString", "coordinates": [ [ -111.882894, 33.741367 ], [ -111.882525, 33.741368 ] ] } },
{ "type": "Feature", "properties": { "cls": "painted", "highway": "tertiary", "name": "East Dynamite Boulevard" }, "geometry": { "type": "LineString", "coordinates": [ [ -111.882526, 33.741483 ], [ -111.882897, 33.74148 ] ] } },
{ "type": "Feature", "properties": { "cls": "painted", "highway": "tertiary", "name": "East Dynamite Boulevard" }, "geometry": { "type": "LineString", "coordinates": [ [ -111.882897, 33.74148 ], [ -111.884516, 33.741482 ] ] } },
{ "type": "Feature", "properties": { "cls": "painted", "highway": "tertiary", "name": "East Dynamite Boulevard" }, "geometry": { "type": "LineString", "coordinates": [ [ -111.884516, 33.741482 ], [ -111.884962, 33.741482 ] ] } },
{ "type": "Feature", "properties": { "cls": "painted", "highway": "tertiary", "name": "North Legend Trail Parkway" }, "geometry": { "type": "LineString", "coordinates": [ [ -111.890567, 33.792042 ], [ -111.890446, 33.792008 ], [ -111.890388, 33.791992 ], [ -111.890042, 33.791986 ], [ -111.889791, 33.791975 ], [ -111.889577, 33.791959 ], [ -111.88951, 33.791951 ], [ -111.889372, 33.791935 ], [ -111.889163, 33.791905 ], [ -111.888919, 33.791859 ], [ -111.888718, 33.791816 ], [ -111.888487, 33.791753 ], [ -111.888237, 33.791685 ], [ -111.888053, 33.79164 ], [ -111.887831, 33.791594 ], [ -111.887598, 33.791555 ], [ -111.887311, 33.791516 ], [ -111.887225, 33.791508 ], [ -111.887063, 33.791493 ], [ -111.886826, 33.791483 ], [ -111.886631, 33.79148 ], [ -111.886432, 33.791476 ], [ -111.886167, 33.791482 ], [ -111.885859, 33.791509 ], [ -111.88558, 33.791536 ], [ -111.884569, 33.791679 ], [ -111.884346, 33.791699 ], [ -111.88417, 33.791706 ], [ -111.883979, 33.791706 ], [ -111.883771, 33.791697 ], [ -111.883561, 33.791682 ], [ -111.883312, 33.791649 ], [ -111.883083, 33.791606 ], [ -111.88231, 33.791401 ], [ -111.882037, 33.791343 ], [ -111.881983, 33.791338 ], [ -111.881779, 33.791321 ], [ -111.881432, 33.791319 ], [ -111.881051, 33.791368 ], [ -111.880826, 33.791417 ], [ -111.880557, 33.791482 ], [ -111.879904, 33.791774 ], [ -111.879411, 33.791991 ], [ -111.879186, 33.792096 ], [ -111.879058, 33.792156 ] ] } },
{ "type": "Feature", "properties": { "cls": "painted", "highway": "tertiary", "name": "North Legend Trail Parkway" }, "geometry": { "type": "LineString", "coordinates": [ [ -111.87928, 33.792159 ], [ -111.879515, 33.792046 ], [ -111.880081, 33.791899 ], [ -111.880467, 33.791859 ], [ -111.881036, 33.79185 ], [ -111.881728, 33.791846 ], [ -111.883613, 33.791849 ], [ -111.883809, 33.791845 ], [ -111.884012, 33.791835 ], [ -111.88421, 33.791819 ], [ -111.884434, 33.791794 ], [ -111.884683, 33.791763 ], [ -111.88539, 33.791657 ], [ -111.885681, 33.791617 ], [ -111.885846, 33.7916 ], [ -111.88604, 33.791582 ], [ -111.886255, 33.791569 ], [ -111.886478, 33.791567 ], [ -111.886755, 33.791572 ], [ -111.887016, 33.791585 ], [ -111.887161, 33.7916 ], [ -111.887307, 33.791614 ], [ -111.887567, 33.791647 ], [ -111.887745, 33.791677 ], [ -111.887901, 33.791706 ], [ -111.888153, 33.791764 ], [ -111.888505, 33.791858 ], [ -111.888727, 33.791913 ], [ -111.88894, 33.791959 ], [ -111.889144, 33.791997 ], [ -111.889374, 33.792031 ], [ -111.8896, 33.792057 ], [ -111.889857, 33.792075 ], [ -111.890037, 33.792082 ], [ -111.890399, 33.792083 ], [ -111.890567, 33.792042 ] ] } },
{ "type": "Feature", "properties": { "cls": "painted", "highway": "tertiary", "name": "North Legend Trail Parkway" }, "geometry": { "type": "LineString", "coordinates": [ [ -111.880728, 33.813167 ], [ -111.880729, 33.813495 ], [ -111.880726, 33.813768 ], [ -111.880726, 33.813805 ] ] } },
{ "type": "Feature", "properties": { "cls": "painted", "highway": "tertiary", "name": "North Legend Trail Parkway" }, "geometry": { "type": "LineString", "coordinates": [ [ -111.890567, 33.792042 ], [ -111.89086, 33.792044 ] ] } },
{ "type": "Feature", "properties": { "cls": "painted", "highway": "tertiary", "name": "North Legend Trail Parkway" }, "geometry": { "type": "LineString", "coordinates": [ [ -111.89086, 33.792044 ], [ -111.891093, 33.792046 ], [ -111.891214, 33.792048 ] ] } },
{ "type": "Feature", "properties": { "cls": "painted", "highway": "secondary", "name": "North Pima Road" }, "geometry": { "type": "LineString", "coordinates": [ [ -111.891228, 33.811923 ], [ -111.891205, 33.812747 ], [ -111.89118, 33.813412 ] ] } },
{ "type": "Feature", "properties": { "cls": "painted", "highway": "secondary", "name": "North Pima Road" }, "geometry": { "type": "LineString", "coordinates": [ [ -111.89118, 33.813412 ], [ -111.891183, 33.813784 ] ] } }
]
}
