{
"type": "FeatureCollection",
"name": "011-el-paso-franklin-mountains-state-park",
"crs": { "type": "name", "properties": { "name": "urn:ogc:def:crs:OGC:1.3:CRS84" } },
"xy_coordinate_resolution": 1e-06,
"features": [
{ "type": "Feature", "properties": { "cls": "separated", "highway": "cycleway", "name": null }, "geometry": { "type": "LineString", "coordinates": [ [ -106.525677, 31.908084 ], [ -106.525774, 31.908106 ], [ -106.526643, 31.907954 ] ] } },
{ "type": "Feature", "properties": { "cls": "separated", "highway": "cycleway", "name": null }, "geometry": { "type": "LineString", "coordinates": [ [ -106.528442, 31.907418 ], [ -106.527948, 31.907409 ], [ -106.527287, 31.907428 ] ] } },
{ "type": "Feature", "properties": { "cls": "separated", "highway": "cycleway", "name": "Tom Mays Trail" }, "geometry": { "type": "MultiLineString", "coordinates": [ [ [ -106.527287, 31.907428 ], [ -106.527095, 31.907428 ], [ -106.526938, 31.907405 ], [ -106.525786, 31.907146 ], [ -106.525584, 31.907124 ], [ -106.52542, 31.90713 ], [ -106.525269, 31.907158 ], [ -106.52517, 31.907207 ] ], [ [ -106.524651, 31.907541 ], [ -106.524399, 31.907759 ], [ -106.523779, 31.908217 ], [ -106.523663, 31.908291 ], [ -106.523536, 31.908355 ], [ -106.523434, 31.908398 ], [ -106.523341, 31.908431 ], [ -106.523205, 31.90847 ], [ -106.523032, 31.908503 ] ] ] } },
{ "type": "Feature", "properties": { "cls": "separated", "highway": "cycleway", "name": null }, "geometry": { "type": "LineString", "coordinates": [ [ -106.523536, 31.908355 ], [ -106.523656, 31.90837 ], [ -106.523827, 31.908302 ], [ -106.52393, 31.908254 ], [ -106.524499, 31.907855 ], [ -106.524784, 31.907808 ], [ -106.525428, 31.907902 ], [ -106.525628, 31.90806 ], [ -106.525677, 31.908084 ] ] } },
{ "type": "Feature", "properties": { "cls": "separated", "highway": "cycleway", "name": null }, "geometry": { "type": "LineString", "coordinates": [ [ -106.52393, 31.908254 ], [ -106.524324, 31.90846 ] ] } },
{ "type": "Feature", "properties": { "cls": "separated", "highway": "cycleway", "name": "Tom Mays Trail" }, "geometry": { "type": "LineString", "coordinates": [ [ -106.523032, 31.908503 ], [ -106.522386, 31.908549 ], [ -106.522317, 31.90854 ], [ -106.522233, 31.90851 ], [ -106.52206, 31.908413 ], [ -106.521885, 31.908323 ], [ -106.521658, 31.908221 ], [ -106.521479, 31.908212 ], [ -106.521211, 31.908266 ], [ -106.520994, 31.908346 ], [ -106.520801, 31.90846 ], [ -106.520213, 31.908849 ], [ -106.520028, 31.90902 ], [ -106.519891, 31.909197 ], [ -106.519742, 31.909466 ], [ -106.519491, 31.909905 ], [ -106.518956, 31.910596 ], [ -106.518932, 31.910706 ] ] } }
]
}
