{
"type": "FeatureCollection",
"name": "015-toronto-rouge-national-urban-park",
"crs": { "type": "name", "properties": { "name": "urn:ogc:def:crs:OGC:1.3:CRS84" } },
"xy_coordinate_resolution": 1e-06,
"features": [
{ "type": "Feature", "properties": { "cls": "shared", "highway": "path", "name": null }, "geometry": { "type": "LineString", "coordinates": [ [ -79.121823, 43.790025 ], [ -79.121793, 43.790061 ], [ -79.121775, 43.790085 ], [ -79.12173, 43.790137 ], [ -79.121576, 43.79034 ], [ -79.121504, 43.790432 ], [ -79.121492, 43.79046 ] ] } },
{ "type": "Feature", "properties": { "cls": "shared", "highway": "path", "name": null }, "geometry": { "type": "LineString", "coordinates": [ [ -79.117362, 43.795172 ], [ -79.117314, 43.795096 ], [ -79.117295, 43.79501 ], [ -79.117299, 43.794967 ] ] } },
{ "type": "Feature", "properties": { "cls": "shared", "highway": "cycleway", "name": "Waterfront Trail" }, "geometry": { "type": "LineString", "coordinates": [ [ -79.116596, 43.796271 ], [ -79.116658, 43.796189 ], [ -79.116703, 43.795971 ], [ -79.116749, 43.795823 ], [ -79.116826, 43.795678 ], [ -79.116979, 43.795529 ], [ -79.117168, 43.795396 ], [ -79.117311, 43.795272 ], [ -79.117362, 43.795172 ], [ -79.117428, 43.795045 ], [ -79.117496, 43.79494 ], [ -79.117597, 43.794825 ] ] } },
{ "type": "Feature", "properties": { "cls": "shared", "highway": "cycleway", "name": null }, "geometry": { "type": "LineString", "coordinates": [ [ -79.173249, 43.813058 ], [ -79.173336, 43.812594 ], [ -79.173403, 43.812285 ] ] } },
{ "type": "Feature", "properties": { "cls": "shared", "highway": "cycleway", "name": null }, "geometry": { "type": "LineString", "coordinates": [ [ -79.172987, 43.81446 ], [ -79.173249, 43.813058 ] ] } },
{ "type": "Feature", "properties": { "cls": "shared", "highway": "cycleway", "name": null }, "geometry": { "type": "LineString", "coordinates": [ [ -79.174818, 43.818037 ], [ -79.17478, 43.818023 ], [ -79.174618, 43.817935 ], [ -79.174495, 43.81784 ], [ -79.174382, 43.81773 ], [ -79.174205, 43.817562 ], [ -79.173997, 43.817349 ], [ -79.173625, 43.81695 ], [ -79.173456, 43.816784 ], [ -79.173311, 43.816601 ], [ -79.173193, 43.816396 ], [ -79.173075, 43.81612 ], [ -79.172974, 43.815835 ], [ -79.172916, 43.815528 ], [ -79.172929, 43.815207 ], [ -79.172969, 43.814547 ], [ -79.172987, 43.81446 ] ] } },
{ "type": "Feature", "properties": { "cls": "shared", "highway": "path", "name": null }, "geometry": { "type": "LineString", "coordinates": [ [ -79.207278, 43.856534 ], [ -79.207412, 43.856646 ], [ -79.207474, 43.85667 ] ] } },
{ "type": "Feature", "properties": { "cls": "shared", "highway": "path", "name": null }, "geometry": { "type": "LineString", "coordinates": [ [ -79.207474, 43.85667 ], [ -79.207987, 43.856775 ] ] } },
{ "type": "Feature", "properties": { "cls": "shared", "highway": "path", "name": "Monarch Trail" }, "geometry": { "type": "LineString", "coordinates": [ [ -79.207278, 43.856534 ], [ -79.207213, 43.856521 ], [ -79.207166, 43.856534 ], [ -79.207103, 43.856568 ], [ -79.206987, 43.856624 ], [ -79.206758, 43.856737 ], [ -79.206069, 43.857097 ], [ -79.205972, 43.85715 ], [ -79.205877, 43.85715 ], [ -79.205795, 43.857134 ], [ -79.205716, 43.857106 ], [ -79.205653, 43.857057 ], [ -79.20557, 43.856958 ], [ -79.205535, 43.856904 ], [ -79.205501, 43.856865 ], [ -79.205461, 43.856829 ], [ -79.205443, 43.856799 ], [ -79.205351, 43.856766 ], [ -79.205178, 43.856773 ], [ -79.205003, 43.856781 ], [ -79.20476, 43.856833 ], [ -79.204533, 43.856885 ], [ -79.204455, 43.856898 ], [ -79.204397, 43.856914 ], [ -79.204343, 43.856933 ], [ -79.204276, 43.856971 ], [ -79.204158, 43.857037 ], [ -79.204063, 43.857074 ], [ -79.20389, 43.857096 ] ] } },
{ "type": "Feature", "properties": { "cls": "shared", "highway": "path", "name": "Reesor Way/Monarch Trail" }, "geometry": { "type": "LineString", "coordinates": [ [ -79.210328, 43.860518 ], [ -79.210303, 43.860505 ], [ -79.209659, 43.860416 ], [ -79.209035, 43.860306 ], [ -79.208949, 43.860283 ], [ -79.208904, 43.86024 ], [ -79.208902, 43.860184 ], [ -79.208932, 43.860127 ], [ -79.208988, 43.860061 ], [ -79.209015, 43.860025 ], [ -79.209023, 43.859983 ], [ -79.209006, 43.859827 ], [ -79.208962, 43.859686 ], [ -79.208939, 43.859638 ], [ -79.208869, 43.859589 ], [ -79.208821, 43.859537 ], [ -79.20879, 43.859479 ], [ -79.208781, 43.859331 ], [ -79.208792, 43.859255 ], [ -79.208831, 43.859178 ], [ -79.208887, 43.859101 ], [ -79.208954, 43.859028 ], [ -79.209025, 43.858957 ], [ -79.209056, 43.858877 ], [ -79.208914, 43.858163 ], [ -79.208932, 43.857871 ], [ -79.208547, 43.857518 ], [ -79.208518, 43.857449 ], [ -79.208427, 43.857371 ], [ -79.208359, 43.857284 ], [ -79.20835, 43.857204 ], [ -79.208377, 43.857126 ], [ -79.208411, 43.857048 ], [ -79.208414, 43.857008 ], [ -79.208402, 43.856968 ], [ -79.208363, 43.856945 ], [ -79.208093, 43.856821 ], [ -79.207987, 43.856775 ] ] } },
{ "type": "Feature", "properties": { "cls": "shared", "highway": "cycleway", "name": null }, "geometry": { "type": "LineString", "coordinates": [ [ -79.215436, 43.862112 ], [ -79.215215, 43.862072 ] ] } },
{ "type": "Feature", "properties": { "cls": "shared", "highway": "path", "name": null }, "geometry": { "type": "LineString", "coordinates": [ [ -79.215257, 43.862325 ], [ -79.215114, 43.862291 ] ] } },
{ "type": "Feature", "properties": { "cls": "shared", "highway": "cycleway", "name": "Monarch Trail" }, "geometry": { "type": "LineString", "coordinates": [ [ -79.205932, 43.865031 ], [ -79.205967, 43.865061 ], [ -79.206054, 43.865084 ], [ -79.206667, 43.865084 ], [ -79.206888, 43.865071 ], [ -79.207156, 43.865021 ], [ -79.207443, 43.86496 ], [ -79.207585, 43.864915 ], [ -79.207835, 43.864785 ], [ -79.207984, 43.864714 ], [ -79.208178, 43.864666 ], [ -79.208769, 43.864549 ], [ -79.208919, 43.864535 ], [ -79.209681, 43.864572 ], [ -79.209819, 43.864559 ], [ -79.209957, 43.864526 ], [ -79.210682, 43.86438 ], [ -79.210796, 43.86437 ], [ -79.210928, 43.864367 ], [ -79.211592, 43.864426 ], [ -79.211856, 43.864433 ], [ -79.21204, 43.864417 ], [ -79.212135, 43.864358 ], [ -79.212214, 43.864284 ], [ -79.212338, 43.864085 ], [ -79.212496, 43.863842 ], [ -79.212573, 43.863757 ], [ -79.212702, 43.863706 ], [ -79.212858, 43.863657 ], [ -79.213003, 43.863616 ], [ -79.213064, 43.863564 ], [ -79.213101, 43.863495 ], [ -79.213106, 43.863456 ], [ -79.213114, 43.863398 ], [ -79.21312, 43.863379 ], [ -79.213145, 43.863295 ], [ -79.213176, 43.863218 ], [ -79.213234, 43.863163 ], [ -79.213293, 43.863123 ], [ -79.213412, 43.863061 ], [ -79.213594, 43.862958 ], [ -79.213759, 43.862836 ], [ -79.214086, 43.86259 ], [ -79.214283, 43.862491 ], [ -79.214492, 43.862403 ], [ -79.21494, 43.862284 ], [ -79.215025, 43.862275 ], [ -79.215114, 43.862291 ] ] } },
{ "type": "Feature", "properties": { "cls": "shared", "highway": "cycleway", "name": null }, "geometry": { "type": "LineString", "coordinates": [ [ -79.205996, 43.864775 ], [ -79.205817, 43.864804 ] ] } },
{ "type": "Feature", "properties": { "cls": "shared", "highway": "path", "name": null }, "geometry": { "type": "LineString", "coordinates": [ [ -79.205996, 43.864775 ], [ -79.205936, 43.864851 ], [ -79.205891, 43.86491 ] ] } },
{ "type": "Feature", "properties": { "cls": "shared", "highway": "cycleway", "name": "Monarch Trail" }, "geometry": { "type": "LineString", "coordinates": [ [ -79.205665, 43.864828 ], [ -79.205372, 43.864858 ], [ -79.205214, 43.864862 ], [ -79.205127, 43.864854 ], [ -79.205046, 43.864831 ], [ -79.204724, 43.864715 ], [ -79.204493, 43.864568 ], [ -79.204404, 43.864481 ], [ -79.204318, 43.864291 ], [ -79.204255, 43.864121 ], [ -79.20403, 43.863826 ], [ -79.20393, 43.863508 ], [ -79.203888, 43.863336 ], [ -79.203797, 43.863248 ], [ -79.203612, 43.863139 ], [ -79.203458, 43.863085 ], [ -79.203187, 43.863045 ], [ -79.203033, 43.863045 ], [ -79.202861, 43.863091 ], [ -79.202722, 43.863196 ], [ -79.202565, 43.863344 ], [ -79.202435, 43.86341 ], [ -79.202307, 43.863453 ], [ -79.202146, 43.863434 ], [ -79.201984, 43.863374 ], [ -79.201824, 43.863331 ], [ -79.201678, 43.863322 ], [ -79.201471, 43.863351 ], [ -79.201171, 43.863425 ], [ -79.200878, 43.863511 ], [ -79.200733, 43.863575 ], [ -79.200595, 43.863649 ], [ -79.200369, 43.863787 ], [ -79.200273, 43.863831 ], [ -79.200131, 43.863866 ], [ -79.199978, 43.863881 ], [ -79.199817, 43.863873 ], [ -79.199692, 43.863906 ], [ -79.199592, 43.863967 ], [ -79.199521, 43.86399 ], [ -79.199477, 43.863982 ], [ -79.1993, 43.863898 ], [ -79.199131, 43.863833 ], [ -79.198861, 43.863787 ], [ -79.198704, 43.86377 ], [ -79.198628, 43.863765 ], [ -79.198571, 43.863816 ], [ -79.198517, 43.863887 ], [ -79.198425, 43.863929 ], [ -79.19816, 43.863985 ], [ -79.197889, 43.86408 ], [ -79.197724, 43.864125 ], [ -79.197567, 43.864141 ], [ -79.197052, 43.864105 ], [ -79.196974, 43.864127 ], [ -79.196753, 43.864306 ], [ -79.19656, 43.864351 ], [ -79.196331, 43.86436 ], [ -79.196232, 43.864381 ], [ -79.196096, 43.864451 ], [ -79.195668, 43.864708 ], [ -79.195543, 43.864758 ], [ -79.195186, 43.864821 ], [ -79.195078, 43.86486 ], [ -79.195027, 43.864937 ], [ -79.195003, 43.865309 ], [ -79.194959, 43.865481 ], [ -79.194887, 43.865717 ], [ -79.194779, 43.865781 ], [ -79.194645, 43.86582 ], [ -79.194349, 43.865998 ], [ -79.194109, 43.866147 ], [ -79.193744, 43.866298 ], [ -79.193446, 43.866437 ] ] } },
{ "type": "Feature", "properties": { "cls": "shared", "highway": "path", "name": null }, "geometry": { "type": "LineString", "coordinates": [ [ -79.193446, 43.866437 ], [ -79.193032, 43.86654 ] ] } },
{ "type": "Feature", "properties": { "cls": "shared", "highway": "path", "name": "Monarch Trail" }, "geometry": { "type": "LineString", "coordinates": [ [ -79.193032, 43.86654 ], [ -79.192991, 43.866542 ], [ -79.192955, 43.866491 ], [ -79.19291, 43.866447 ], [ -79.192783, 43.866405 ], [ -79.192625, 43.866341 ], [ -79.192538, 43.866273 ], [ -79.192299, 43.866152 ], [ -79.192135, 43.866116 ], [ -79.19201, 43.866169 ], [ -79.191952, 43.866235 ], [ -79.191855, 43.866477 ], [ -79.191782, 43.866555 ], [ -79.191706, 43.866605 ], [ -79.19158, 43.866666 ], [ -79.191615, 43.866789 ], [ -79.191608, 43.866894 ], [ -79.191506, 43.867152 ], [ -79.191525, 43.867278 ], [ -79.191458, 43.867362 ], [ -79.191352, 43.867468 ], [ -79.191334, 43.867569 ], [ -79.191363, 43.867651 ], [ -79.191498, 43.867723 ], [ -79.191686, 43.867828 ], [ -79.191782, 43.86792 ], [ -79.191823, 43.868103 ], [ -79.191837, 43.868286 ], [ -79.19182, 43.868476 ], [ -79.191826, 43.868568 ], [ -79.191845, 43.86866 ], [ -79.192036, 43.86909 ] ] } },
{ "type": "Feature", "properties": { "cls": "shared", "highway": "cycleway", "name": null }, "geometry": { "type": "LineString", "coordinates": [ [ -79.16455, 43.823712 ], [ -79.164118, 43.823321 ], [ -79.16387, 43.823062 ], [ -79.163585, 43.822674 ], [ -79.163333, 43.822311 ], [ -79.163078, 43.821978 ], [ -79.16296, 43.82186 ], [ -79.162837, 43.821704 ], [ -79.162475, 43.821426 ], [ -79.162203, 43.82131 ], [ -79.162035, 43.821275 ], [ -79.161864, 43.821267 ], [ -79.1617, 43.821279 ], [ -79.161535, 43.821311 ], [ -79.161312, 43.821363 ], [ -79.160952, 43.821513 ], [ -79.160322, 43.821852 ], [ -79.15944, 43.822419 ], [ -79.158549, 43.823059 ], [ -79.158166, 43.823342 ], [ -79.157886, 43.823549 ], [ -79.157515, 43.82391 ], [ -79.15726, 43.824113 ], [ -79.157101, 43.824301 ], [ -79.15701, 43.824499 ] ] } },
{ "type": "Feature", "properties": { "cls": "shared", "highway": "cycleway", "name": null }, "geometry": { "type": "LineString", "coordinates": [ [ -79.165053, 43.823416 ], [ -79.164859, 43.823524 ], [ -79.164591, 43.823698 ], [ -79.16455, 43.823712 ], [ -79.164264, 43.823885 ], [ -79.163956, 43.824048 ], [ -79.1637, 43.824151 ], [ -79.163369, 43.824201 ], [ -79.163082, 43.824199 ], [ -79.162869, 43.824178 ], [ -79.162641, 43.82414 ], [ -79.162391, 43.824049 ], [ -79.162247, 43.823988 ], [ -79.162064, 43.823965 ], [ -79.161851, 43.823929 ], [ -79.161628, 43.823846 ], [ -79.161526, 43.823759 ], [ -79.161479, 43.823669 ], [ -79.161439, 43.823559 ], [ -79.161407, 43.823379 ], [ -79.161381, 43.823184 ], [ -79.161325, 43.823009 ], [ -79.161144, 43.822868 ], [ -79.16091, 43.822798 ], [ -79.16074, 43.822768 ], [ -79.160632, 43.822785 ], [ -79.160507, 43.822849 ], [ -79.160313, 43.822978 ], [ -79.160233, 43.823045 ], [ -79.160081, 43.823226 ], [ -79.159721, 43.823526 ], [ -79.15934, 43.82388 ], [ -79.159102, 43.82414 ], [ -79.158879, 43.824448 ], [ -79.158809, 43.82457 ], [ -79.158772, 43.824767 ], [ -79.158802, 43.824827 ], [ -79.158844, 43.82492 ], [ -79.158965, 43.825014 ], [ -79.159096, 43.825094 ], [ -79.15924, 43.825168 ], [ -79.159393, 43.825173 ], [ -79.159645, 43.825092 ], [ -79.159777, 43.825005 ], [ -79.159856, 43.824888 ], [ -79.15986, 43.824774 ], [ -79.159783, 43.824593 ], [ -79.159772, 43.824383 ], [ -79.159828, 43.824288 ], [ -79.159956, 43.82417 ], [ -79.160093, 43.82406 ], [ -79.160242, 43.823981 ], [ -79.160381, 43.823966 ], [ -79.160488, 43.82397 ], [ -79.160582, 43.824012 ], [ -79.160667, 43.824078 ], [ -79.160728, 43.82419 ], [ -79.160774, 43.824301 ], [ -79.160818, 43.824368 ], [ -79.160852, 43.824402 ], [ -79.160888, 43.824437 ], [ -79.161, 43.824521 ], [ -79.161435, 43.824926 ], [ -79.161756, 43.82519 ], [ -79.1623, 43.825591 ], [ -79.162389, 43.825656 ], [ -79.16267, 43.8259 ], [ -79.162709, 43.825947 ], [ -79.162736, 43.826016 ], [ -79.162758, 43.826109 ], [ -79.162789, 43.826273 ], [ -79.162828, 43.826331 ], [ -79.162901, 43.826364 ], [ -79.162981, 43.826378 ], [ -79.162941, 43.826506 ], [ -79.162896, 43.826596 ], [ -79.162829, 43.826675 ], [ -79.162744, 43.826731 ], [ -79.162645, 43.826785 ], [ -79.162557, 43.826822 ], [ -79.162482, 43.826865 ], [ -79.162314, 43.827013 ], [ -79.162168, 43.827113 ], [ -79.162027, 43.827162 ], [ -79.161905, 43.827157 ], [ -79.161793, 43.82713 ], [ -79.161675, 43.827086 ], [ -79.161585, 43.827015 ], [ -79.161549, 43.826945 ], [ -79.161557, 43.826886 ], [ -79.16156, 43.826866 ], [ -79.161609, 43.826789 ], [ -79.161765, 43.826633 ], [ -79.161835, 43.826563 ], [ -79.161891, 43.826487 ], [ -79.161916, 43.826399 ], [ -79.161916, 43.82632 ], [ -79.161897, 43.826259 ], [ -79.161812, 43.826166 ], [ -79.161702, 43.826105 ], [ -79.161598, 43.826073 ], [ -79.161476, 43.826049 ], [ -79.161394, 43.826029 ], [ -79.161361, 43.826022 ], [ -79.161243, 43.825962 ], [ -79.16118, 43.82588 ], [ -79.161152, 43.825878 ] ] } },
{ "type": "Feature", "properties": { "cls": "shared", "highway": "cycleway", "name": null }, "geometry": { "type": "LineString", "coordinates": [ [ -79.162389, 43.825656 ], [ -79.162447, 43.825645 ], [ -79.162591, 43.825639 ], [ -79.16274, 43.82565 ], [ -79.162876, 43.825691 ], [ -79.162976, 43.82575 ], [ -79.163095, 43.82584 ], [ -79.163167, 43.825921 ], [ -79.163225, 43.826022 ], [ -79.16325, 43.826078 ], [ -79.163241, 43.826152 ], [ -79.163206, 43.826254 ], [ -79.163133, 43.826326 ], [ -79.163052, 43.826361 ], [ -79.162981, 43.826378 ] ] } },
{ "type": "Feature", "properties": { "cls": "shared", "highway": "cycleway", "name": null }, "geometry": { "type": "LineString", "coordinates": [ [ -79.16325, 43.826078 ], [ -79.163365, 43.826084 ], [ -79.163472, 43.826083 ], [ -79.16354, 43.826071 ] ] } },
{ "type": "Feature", "properties": { "cls": "separated", "highway": "cycleway", "name": null }, "geometry": { "type": "LineString", "coordinates": [ [ -79.169052, 43.829052 ], [ -79.168811, 43.828503 ], [ -79.168526, 43.82795 ], [ -79.168164, 43.827182 ], [ -79.167885, 43.826475 ], [ -79.167801, 43.826195 ], [ -79.167666, 43.825898 ], [ -79.167529, 43.825708 ], [ -79.167368, 43.825527 ], [ -79.166974, 43.825123 ], [ -79.166639, 43.824867 ], [ -79.166327, 43.82457 ], [ -79.166102, 43.824351 ], [ -79.165351, 43.823685 ], [ -79.165053, 43.823416 ] ] } },
{ "type": "Feature", "properties": { "cls": "painted", "highway": "secondary", "name": "Steeles Avenue East" }, "geometry": { "type": "LineString", "coordinates": [ [ -79.171026, 43.855274 ], [ -79.174301, 43.854551 ], [ -79.177584, 43.853786 ], [ -79.179991, 43.853147 ] ] } },
{ "type": "Feature", "properties": { "cls": "shared", "highway": "cycleway", "name": null }, "geometry": { "type": "LineString", "coordinates": [ [ -79.15701, 43.824499 ], [ -79.157011, 43.824549 ], [ -79.15704, 43.82465 ], [ -79.157107, 43.824876 ], [ -79.157267, 43.825296 ], [ -79.157448, 43.825627 ], [ -79.157711, 43.826012 ], [ -79.157879, 43.826287 ], [ -79.158016, 43.826622 ], [ -79.158219, 43.82716 ], [ -79.158426, 43.827646 ], [ -79.158505, 43.827921 ], [ -79.158618, 43.828274 ], [ -79.158847, 43.828802 ], [ -79.159016, 43.82922 ], [ -79.159295, 43.829827 ], [ -79.159604, 43.830459 ], [ -79.159714, 43.830602 ], [ -79.15977, 43.830675 ], [ -79.159886, 43.830732 ], [ -79.159869, 43.830929 ], [ -79.159694, 43.831106 ], [ -79.159675, 43.831183 ] ] } },
{ "type": "Feature", "properties": { "cls": "shared", "highway": "cycleway", "name": null }, "geometry": { "type": "LineString", "coordinates": [ [ -79.15924, 43.825168 ], [ -79.159201, 43.825203 ], [ -79.159118, 43.825243 ], [ -79.159025, 43.825278 ], [ -79.158976, 43.825317 ], [ -79.158942, 43.825363 ], [ -79.158927, 43.825421 ], [ -79.158923, 43.825494 ], [ -79.158936, 43.825651 ], [ -79.158978, 43.825805 ], [ -79.159025, 43.825931 ], [ -79.159111, 43.826121 ], [ -79.159162, 43.826326 ], [ -79.159176, 43.826412 ], [ -79.159164, 43.826522 ], [ -79.159132, 43.826644 ], [ -79.159148, 43.826741 ], [ -79.159179, 43.826839 ], [ -79.159261, 43.826967 ], [ -79.159413, 43.827189 ], [ -79.159599, 43.827456 ], [ -79.159652, 43.82754 ], [ -79.15967, 43.827603 ], [ -79.159668, 43.827697 ], [ -79.159675, 43.827768 ], [ -79.159732, 43.827943 ], [ -79.159823, 43.828231 ], [ -79.159897, 43.828485 ], [ -79.159953, 43.828712 ], [ -79.159973, 43.829008 ], [ -79.15998, 43.829311 ], [ -79.159993, 43.829654 ], [ -79.160008, 43.830007 ], [ -79.160003, 43.830186 ], [ -79.160014, 43.830318 ], [ -79.160042, 43.830472 ], [ -79.160041, 43.830611 ], [ -79.15999, 43.830678 ], [ -79.159886, 43.830732 ] ] } },
{ "type": "Feature", "properties": { "cls": "painted", "highway": "secondary", "name": "Elgin Mills Road East" }, "geometry": { "type": "LineString", "coordinates": [ [ -79.247751, 43.933279 ], [ -79.247855, 43.9333 ], [ -79.248149, 43.933268 ] ] } },
{ "type": "Feature", "properties": { "cls": "painted", "highway": "secondary", "name": "Ninth Line" }, "geometry": { "type": "LineString", "coordinates": [ [ -79.252526, 43.950362 ], [ -79.252487, 43.950482 ], [ -79.252518, 43.950641 ] ] } },
{ "type": "Feature", "properties": { "cls": "painted", "highway": "secondary", "name": "Major MacKenzie Drive East" }, "geometry": { "type": "LineString", "coordinates": [ [ -79.24331, 43.915662 ], [ -79.243456, 43.915684 ], [ -79.243788, 43.91565 ] ] } },
{ "type": "Feature", "properties": { "cls": "painted", "highway": "tertiary", "name": "19th Avenue" }, "geometry": { "type": "LineString", "coordinates": [ [ -79.253294, 43.950755 ], [ -79.253169, 43.950754 ], [ -79.25294, 43.950798 ] ] } }
]
}
