{
"type": "FeatureCollection",
"name": "017-phoenix-south-mountain-park",
"crs": { "type": "name", "properties": { "name": "urn:ogc:def:crs:OGC:1.3:CRS84" } },
"xy_coordinate_resolution": 1e-06,
"features": [
{ "type": "Feature", "properties": { "cls": "painted", "highway": "unclassified", "name": "South Central Avenue" }, "geometry": { "type": "LineString", "coordinates": [ [ -112.071836, 33.355431 ], [ -112.071787, 33.35532 ], [ -112.071742, 33.355217 ], [ -112.071726, 33.355145 ], [ -112.071721, 33.35508 ] ] } },
{ "type": "Feature", "properties": { "cls": "painted", "highway": "unclassified", "name": "South Central Avenue" }, "geometry": { "type": "LineString", "coordinates": [ [ -112.071964, 33.355635 ], [ -112.071836, 33.355431 ] ] } },
{ "type": "Feature", "properties": { "cls": "painted", "highway": "unclassified", "name": "South Central Avenue" }, "geometry": { "type": "LineString", "coordinates": [ [ -112.072209, 33.356011 ], [ -112.072064, 33.35579 ], [ -112.071964, 33.355635 ] ] } },
{ "type": "Feature", "properties": { "cls": "shared", "highway": "path", "name": "Degoba Loop" }, "geometry": { "type": "LineString", "coordinates": [ [ -112.034292, 33.319676 ], [ -112.034293, 33.319872 ], [ -112.034269, 33.319917 ], [ -112.034208, 33.319963 ], [ -112.034128, 33.319981 ], [ -112.033909, 33.319997 ], [ -112.033829, 33.320039 ], [ -112.033661, 33.320175 ], [ -112.033459, 33.320305 ], [ -112.033302, 33.320375 ], [ -112.032986, 33.32047 ], [ -112.03284, 33.320584 ], [ -112.032744, 33.320703 ], [ -112.032604, 33.32092 ], [ -112.03252, 33.320948 ], [ -112.032446, 33.320923 ], [ -112.03224, 33.320737 ], [ -112.03213, 33.320696 ], [ -112.032009, 33.320684 ] ] } },
{ "type": "Feature", "properties": { "cls": "shared", "highway": "path", "name": null }, "geometry": { "type": "LineString", "coordinates": [ [ -112.03592, 33.321599 ], [ -112.035914, 33.321627 ], [ -112.035908, 33.321647 ], [ -112.035895, 33.321678 ] ] } },
{ "type": "Feature", "properties": { "cls": "shared", "highway": "path", "name": null }, "geometry": { "type": "LineString", "coordinates": [ [ -112.04425, 33.342878 ], [ -112.044092, 33.342839 ] ] } },
{ "type": "Feature", "properties": { "cls": "shared", "highway": "path", "name": "National Trail" }, "geometry": { "type": "LineString", "coordinates": [ [ -112.044092, 33.342839 ], [ -112.044065, 33.342833 ], [ -112.043928, 33.342809 ], [ -112.043882, 33.342804 ], [ -112.043824, 33.342819 ], [ -112.043757, 33.342824 ], [ -112.043691, 33.342819 ], [ -112.043617, 33.342811 ], [ -112.043554, 33.342823 ], [ -112.043492, 33.34284 ], [ -112.043433, 33.342855 ], [ -112.0434, 33.342857 ], [ -112.043335, 33.342821 ], [ -112.043278, 33.342795 ], [ -112.043257, 33.342783 ], [ -112.043089, 33.342819 ], [ -112.043042, 33.342838 ], [ -112.042985, 33.342847 ], [ -112.042922, 33.342857 ], [ -112.042883, 33.342859 ], [ -112.042864, 33.342872 ], [ -112.042803, 33.342883 ], [ -112.042768, 33.3429 ], [ -112.042733, 33.34291 ], [ -112.042655, 33.342915 ], [ -112.042574, 33.342901 ], [ -112.042488, 33.342871 ], [ -112.042383, 33.342833 ], [ -112.04233, 33.342811 ], [ -112.042293, 33.342792 ], [ -112.042183, 33.342758 ], [ -112.042136, 33.342741 ], [ -112.042068, 33.342739 ], [ -112.042023, 33.342732 ], [ -112.041976, 33.34273 ], [ -112.041937, 33.342724 ], [ -112.041876, 33.34271 ], [ -112.041849, 33.342691 ], [ -112.041813, 33.342676 ], [ -112.041751, 33.342667 ], [ -112.04171, 33.342666 ], [ -112.041655, 33.342681 ], [ -112.041614, 33.342712 ], [ -112.041577, 33.342736 ], [ -112.041557, 33.342753 ], [ -112.041565, 33.342778 ], [ -112.041575, 33.342813 ], [ -112.041569, 33.342833 ], [ -112.041561, 33.342847 ], [ -112.041541, 33.342853 ], [ -112.041481, 33.34284 ], [ -112.041447, 33.342834 ], [ -112.041408, 33.34284 ], [ -112.041373, 33.342855 ], [ -112.041344, 33.34287 ], [ -112.041311, 33.342875 ], [ -112.041266, 33.342866 ], [ -112.041224, 33.342849 ], [ -112.041199, 33.34283 ], [ -112.041182, 33.342813 ], [ -112.041163, 33.342808 ], [ -112.041153, 33.342827 ], [ -112.041154, 33.342854 ], [ -112.04116, 33.342891 ], [ -112.041154, 33.342922 ], [ -112.041146, 33.342953 ], [ -112.041127, 33.342967 ], [ -112.041105, 33.342986 ], [ -112.041086, 33.34303 ], [ -112.041075, 33.343068 ], [ -112.041053, 33.343091 ], [ -112.041027, 33.343096 ], [ -112.040984, 33.34308 ], [ -112.040931, 33.343058 ], [ -112.040876, 33.343034 ], [ -112.040833, 33.34302 ], [ -112.040778, 33.342998 ], [ -112.04073, 33.342981 ], [ -112.040683, 33.342978 ], [ -112.040619, 33.342976 ], [ -112.040548, 33.342975 ], [ -112.04051, 33.342971 ], [ -112.04047, 33.342969 ], [ -112.040432, 33.342969 ], [ -112.040357, 33.342969 ], [ -112.040285, 33.342962 ], [ -112.040222, 33.342951 ], [ -112.040169, 33.342948 ], [ -112.04011, 33.342941 ], [ -112.040081, 33.342935 ], [ -112.040043, 33.342938 ], [ -112.040011, 33.342948 ], [ -112.039966, 33.342953 ], [ -112.039919, 33.342956 ], [ -112.039874, 33.34295 ], [ -112.039816, 33.342937 ], [ -112.039755, 33.342915 ], [ -112.039718, 33.342891 ], [ -112.039681, 33.342874 ], [ -112.039664, 33.34286 ], [ -112.039634, 33.342854 ], [ -112.039609, 33.342857 ], [ -112.039563, 33.342837 ], [ -112.039522, 33.34282 ], [ -112.039483, 33.342817 ], [ -112.03945, 33.342816 ], [ -112.039414, 33.342814 ], [ -112.039354, 33.3428 ], [ -112.039302, 33.342789 ], [ -112.039252, 33.342778 ], [ -112.039211, 33.342779 ], [ -112.039168, 33.342779 ], [ -112.039142, 33.342797 ], [ -112.03911, 33.342831 ], [ -112.039077, 33.342843 ], [ -112.039067, 33.342858 ], [ -112.039045, 33.342871 ], [ -112.038994, 33.342881 ], [ -112.038964, 33.342901 ], [ -112.038905, 33.342932 ], [ -112.038877, 33.342953 ], [ -112.038841, 33.34298 ], [ -112.0388, 33.343033 ], [ -112.038771, 33.343085 ], [ -112.038751, 33.343103 ], [ -112.038738, 33.343149 ], [ -112.038718, 33.343208 ], [ -112.038696, 33.343243 ], [ -112.038674, 33.343289 ], [ -112.038653, 33.343335 ], [ -112.03864, 33.343376 ], [ -112.038614, 33.343428 ], [ -112.038588, 33.343461 ], [ -112.038549, 33.343494 ], [ -112.03851, 33.343514 ], [ -112.038466, 33.343533 ], [ -112.038427, 33.343537 ], [ -112.038348, 33.34353 ], [ -112.038333, 33.343529 ], [ -112.038253, 33.343517 ], [ -112.038188, 33.343502 ], [ -112.038132, 33.343501 ], [ -112.0381, 33.343517 ], [ -112.038072, 33.343543 ], [ -112.038058, 33.343556 ], [ -112.038017, 33.343571 ], [ -112.037986, 33.343554 ], [ -112.037947, 33.343537 ], [ -112.037924, 33.343522 ], [ -112.037908, 33.343509 ], [ -112.037886, 33.343518 ], [ -112.037856, 33.343514 ], [ -112.037819, 33.343502 ], [ -112.037787, 33.343506 ], [ -112.037764, 33.343531 ], [ -112.037741, 33.343549 ], [ -112.037706, 33.343552 ], [ -112.037669, 33.343538 ], [ -112.037634, 33.343536 ], [ -112.037585, 33.343553 ], [ -112.037529, 33.343572 ], [ -112.037491, 33.343587 ], [ -112.03745, 33.343589 ], [ -112.037416, 33.343596 ], [ -112.03738, 33.34361 ], [ -112.03734, 33.343618 ], [ -112.037296, 33.343608 ], [ -112.037261, 33.343615 ], [ -112.037226, 33.343622 ], [ -112.037177, 33.343629 ], [ -112.037144, 33.343637 ], [ -112.037097, 33.34365 ], [ -112.037063, 33.343664 ], [ -112.037009, 33.343674 ], [ -112.036969, 33.343669 ], [ -112.036934, 33.343653 ], [ -112.036898, 33.343658 ], [ -112.036835, 33.343669 ], [ -112.036755, 33.343681 ], [ -112.036679, 33.343708 ], [ -112.03663, 33.343723 ], [ -112.03659, 33.343733 ], [ -112.036545, 33.343739 ], [ -112.036501, 33.343733 ], [ -112.036458, 33.343706 ], [ -112.036417, 33.34369 ], [ -112.036357, 33.343682 ], [ -112.036292, 33.343682 ], [ -112.036231, 33.34368 ], [ -112.036183, 33.343675 ], [ -112.036156, 33.343689 ], [ -112.036124, 33.3437 ], [ -112.03607, 33.343726 ], [ -112.036023, 33.343752 ], [ -112.035991, 33.343763 ], [ -112.035977, 33.343783 ], [ -112.035971, 33.343812 ], [ -112.035978, 33.343845 ], [ -112.035991, 33.34388 ], [ -112.036006, 33.343915 ], [ -112.036014, 33.343957 ], [ -112.036007, 33.343992 ], [ -112.035987, 33.344013 ], [ -112.035967, 33.344018 ], [ -112.035941, 33.344025 ], [ -112.03592, 33.344043 ], [ -112.035871, 33.344065 ], [ -112.035813, 33.344079 ], [ -112.03577, 33.34408 ], [ -112.03574, 33.344083 ], [ -112.035702, 33.344089 ], [ -112.03568, 33.344088 ], [ -112.035629, 33.344071 ], [ -112.035599, 33.344057 ], [ -112.035567, 33.344049 ], [ -112.035464, 33.344109 ] ] } },
{ "type": "Feature", "properties": { "cls": "shared", "highway": "path", "name": null }, "geometry": { "type": "LineString", "coordinates": [ [ -112.160494, 33.319561 ], [ -112.160459, 33.319564 ], [ -112.160393, 33.319591 ], [ -112.160266, 33.319639 ] ] } },
{ "type": "Feature", "properties": { "cls": "shared", "highway": "path", "name": "Connector (Moderate)" }, "geometry": { "type": "LineString", "coordinates": [ [ -112.03213, 33.320696 ], [ -112.032096, 33.320631 ], [ -112.032042, 33.320612 ], [ -112.031993, 33.32061 ] ] } },
{ "type": "Feature", "properties": { "cls": "shared", "highway": "path", "name": "Pima Canyon Loop" }, "geometry": { "type": "LineString", "coordinates": [ [ -111.995229, 33.356252 ], [ -111.995296, 33.356303 ], [ -111.995532, 33.356541 ], [ -111.995875, 33.356805 ], [ -111.996267, 33.357043 ], [ -111.996573, 33.357276 ], [ -111.996803, 33.357446 ], [ -111.996949, 33.357644 ], [ -111.997013, 33.357662 ], [ -111.997243, 33.357889 ], [ -111.997259, 33.358176 ], [ -111.997286, 33.358409 ], [ -111.997041, 33.358495 ], [ -111.997005, 33.358511 ], [ -111.996974, 33.358539 ], [ -111.996937, 33.358626 ], [ -111.996937, 33.358704 ], [ -111.996969, 33.35878 ], [ -111.996984, 33.358843 ], [ -111.996907, 33.359026 ], [ -111.996814, 33.359332 ], [ -111.996787, 33.359441 ], [ -111.996805, 33.359577 ], [ -111.996827, 33.35966 ], [ -111.996803, 33.359861 ], [ -111.996769, 33.359907 ], [ -111.996586, 33.360065 ], [ -111.996479, 33.36018 ], [ -111.99641, 33.360295 ], [ -111.996396, 33.360359 ], [ -111.996419, 33.360477 ], [ -111.996512, 33.36062 ], [ -111.996598, 33.360737 ], [ -111.996608, 33.360777 ], [ -111.996569, 33.360843 ], [ -111.996563, 33.361066 ], [ -111.996517, 33.361126 ], [ -111.996382, 33.361285 ], [ -111.996259, 33.361376 ], [ -111.996035, 33.361571 ], [ -111.995817, 33.36175 ] ] } },
{ "type": "Feature", "properties": { "cls": "painted", "highway": "unclassified", "name": "South Central Avenue" }, "geometry": { "type": "LineString", "coordinates": [ [ -112.072441, 33.356375 ], [ -112.072209, 33.356011 ] ] } },
{ "type": "Feature", "properties": { "cls": "painted", "highway": "unclassified", "name": "South Central Avenue" }, "geometry": { "type": "LineString", "coordinates": [ [ -112.07315, 33.357832 ], [ -112.073107, 33.357649 ], [ -112.073053, 33.357462 ], [ -112.072928, 33.357192 ], [ -112.072691, 33.356769 ], [ -112.072441, 33.356375 ] ] } },
{ "type": "Feature", "properties": { "cls": "painted", "highway": "residential", "name": "South Central Avenue" }, "geometry": { "type": "Point", "coordinates": [ -112.07315, 33.357832 ] } }
]
}
