{
"type": "FeatureCollection",
"name": "019-sydney-western-sydney-parklands",
"crs": { "type": "name", "properties": { "name": "urn:ogc:def:crs:OGC:1.3:CRS84" } },
"xy_coordinate_resolution": 1e-06,
"features": [
{ "type": "Feature", "properties": { "cls": "shared", "highway": "cycleway", "name": null }, "geometry": { "type": "LineString", "coordinates": [ [ 150.864986, -33.787014 ], [ 150.864946, -33.786998 ], [ 150.864914, -33.786993 ], [ 150.86445, -33.786953 ], [ 150.864036, -33.786907 ], [ 150.863969, -33.786898 ], [ 150.863927, -33.786886 ], [ 150.863876, -33.786861 ], [ 150.863827, -33.786836 ], [ 150.863786, -33.786826 ], [ 150.863743, -33.78682 ], [ 150.863092, -33.786757 ], [ 150.862674, -33.786722 ], [ 150.86265, -33.786818 ], [ 150.862702, -33.786862 ] ] } },
{ "type": "Feature", "properties": { "cls": "shared", "highway": "cycleway", "name": null }, "geometry": { "type": "LineString", "coordinates": [ [ 150.864986, -33.787014 ], [ 150.86502, -33.787037 ], [ 150.865093, -33.787115 ], [ 150.865112, -33.787126 ], [ 150.865132, -33.787134 ], [ 150.865162, -33.787141 ], [ 150.865435, -33.787169 ], [ 150.865485, -33.78717 ], [ 150.865574, -33.787165 ], [ 150.865652, -33.787154 ], [ 150.86569, -33.787145 ], [ 150.865938, -33.787059 ], [ 150.866004, -33.787043 ], [ 150.866063, -33.787034 ], [ 150.866119, -33.787028 ], [ 150.866172, -33.787028 ], [ 150.86659, -33.787074 ], [ 150.866903, -33.787104 ], [ 150.866977, -33.787115 ], [ 150.867044, -33.787129 ], [ 150.867096, -33.78715 ], [ 150.867152, -33.787178 ], [ 150.867196, -33.787207 ], [ 150.867236, -33.787238 ], [ 150.867282, -33.787282 ], [ 150.867326, -33.787317 ], [ 150.867385, -33.787353 ], [ 150.867431, -33.787374 ], [ 150.867503, -33.787401 ], [ 150.867578, -33.78742 ], [ 150.867634, -33.787428 ], [ 150.867687, -33.787427 ], [ 150.867742, -33.787421 ], [ 150.867797, -33.7874 ], [ 150.867849, -33.787375 ], [ 150.867908, -33.787335 ], [ 150.867948, -33.787305 ], [ 150.867992, -33.787267 ], [ 150.868047, -33.787213 ], [ 150.868126, -33.787141 ], [ 150.868227, -33.787074 ], [ 150.868297, -33.787039 ], [ 150.868351, -33.787014 ], [ 150.868396, -33.787 ], [ 150.868471, -33.786983 ], [ 150.868512, -33.786974 ], [ 150.868566, -33.786967 ], [ 150.868649, -33.78696 ], [ 150.868708, -33.786964 ], [ 150.869648, -33.787071 ], [ 150.869711, -33.787079 ], [ 150.86976, -33.787082 ], [ 150.86982, -33.787079 ], [ 150.869873, -33.787072 ], [ 150.869996, -33.787047 ], [ 150.870098, -33.787013 ], [ 150.870316, -33.786879 ], [ 150.870391, -33.786833 ], [ 150.870435, -33.786805 ], [ 150.87052, -33.786739 ], [ 150.870566, -33.786681 ], [ 150.870618, -33.786591 ], [ 150.870663, -33.786504 ], [ 150.870699, -33.78642 ], [ 150.870711, -33.786344 ], [ 150.870697, -33.786273 ], [ 150.870668, -33.786185 ], [ 150.870648, -33.786155 ], [ 150.870614, -33.786108 ], [ 150.87057, -33.786064 ], [ 150.870537, -33.786037 ], [ 150.870479, -33.785989 ], [ 150.870445, -33.785967 ], [ 150.870347, -33.785892 ] ] } },
{ "type": "Feature", "properties": { "cls": "shared", "highway": "cycleway", "name": null }, "geometry": { "type": "LineString", "coordinates": [ [ 150.870347, -33.785892 ], [ 150.870261, -33.785836 ], [ 150.870182, -33.785772 ], [ 150.870052, -33.785684 ], [ 150.869979, -33.785632 ], [ 150.869943, -33.785607 ], [ 150.869916, -33.785567 ], [ 150.869892, -33.78553 ], [ 150.869864, -33.78547 ], [ 150.86985, -33.785413 ], [ 150.869819, -33.785294 ], [ 150.869804, -33.785243 ], [ 150.869796, -33.785203 ], [ 150.869771, -33.785123 ], [ 150.869762, -33.785048 ], [ 150.869681, -33.784741 ], [ 150.869672, -33.784706 ], [ 150.869584, -33.784589 ], [ 150.869327, -33.784382 ], [ 150.869272, -33.784335 ], [ 150.868908, -33.784024 ], [ 150.868714, -33.783856 ], [ 150.868532, -33.783764 ] ] } },
{ "type": "Feature", "properties": { "cls": "shared", "highway": "cycleway", "name": null }, "geometry": { "type": "LineString", "coordinates": [ [ 150.868532, -33.783764 ], [ 150.869087, -33.783308 ] ] } },
{ "type": "Feature", "properties": { "cls": "shared", "highway": "path", "name": "Warmuli Trail" }, "geometry": { "type": "LineString", "coordinates": [ [ 150.869087, -33.783308 ], [ 150.868985, -33.783228 ], [ 150.868538, -33.782847 ], [ 150.868047, -33.782397 ] ] } },
{ "type": "Feature", "properties": { "cls": "shared", "highway": "cycleway", "name": null }, "geometry": { "type": "LineString", "coordinates": [ [ 150.865674, -33.781833 ], [ 150.865745, -33.781633 ] ] } },
{ "type": "Feature", "properties": { "cls": "shared", "highway": "cycleway", "name": "Warmuli Trail" }, "geometry": { "type": "LineString", "coordinates": [ [ 150.868047, -33.782397 ], [ 150.868133, -33.78206 ], [ 150.868144, -33.781877 ], [ 150.868128, -33.781726 ], [ 150.868099, -33.781575 ], [ 150.868066, -33.781415 ], [ 150.868013, -33.781258 ], [ 150.867923, -33.781092 ], [ 150.867843, -33.780943 ], [ 150.867812, -33.780874 ], [ 150.867794, -33.780807 ], [ 150.867801, -33.78074 ], [ 150.86784, -33.780637 ], [ 150.867903, -33.780547 ], [ 150.867987, -33.780469 ], [ 150.868097, -33.780383 ], [ 150.868176, -33.780344 ], [ 150.868294, -33.78032 ], [ 150.868398, -33.780315 ] ] } },
{ "type": "Feature", "properties": { "cls": "shared", "highway": "cycleway", "name": null }, "geometry": { "type": "LineString", "coordinates": [ [ 150.868532, -33.783764 ], [ 150.868228, -33.783684 ], [ 150.868136, -33.783659 ], [ 150.868009, -33.783628 ], [ 150.867897, -33.783576 ], [ 150.867708, -33.783428 ], [ 150.867361, -33.783124 ], [ 150.866685, -33.782542 ], [ 150.865814, -33.781787 ], [ 150.865752, -33.781672 ], [ 150.865745, -33.781633 ], [ 150.865704, -33.781418 ], [ 150.865652, -33.781275 ], [ 150.865576, -33.781197 ], [ 150.865483, -33.781129 ], [ 150.865362, -33.781088 ], [ 150.865206, -33.781048 ], [ 150.865105, -33.78102 ], [ 150.86505, -33.78097 ], [ 150.864852, -33.780261 ], [ 150.864791, -33.78019 ], [ 150.864711, -33.780148 ], [ 150.864337, -33.780057 ], [ 150.864186, -33.779967 ], [ 150.864112, -33.779842 ], [ 150.864126, -33.779042 ], [ 150.863807, -33.778819 ], [ 150.863788, -33.778743 ] ] } },
{ "type": "Feature", "properties": { "cls": "shared", "highway": "cycleway", "name": "Bungarribee Shared Path" }, "geometry": { "type": "LineString", "coordinates": [ [ 150.869022, -33.780369 ], [ 150.869012, -33.780366 ], [ 150.86896, -33.780349 ], [ 150.86892, -33.780337 ], [ 150.868875, -33.780325 ], [ 150.86883, -33.780316 ], [ 150.868779, -33.780311 ], [ 150.868593, -33.780307 ] ] } },
{ "type": "Feature", "properties": { "cls": "shared", "highway": "path", "name": null }, "geometry": { "type": "LineString", "coordinates": [ [ 150.87098, -33.78682 ], [ 150.871068, -33.786864 ], [ 150.871195, -33.786937 ], [ 150.871298, -33.786987 ], [ 150.871409, -33.787023 ], [ 150.871512, -33.787043 ], [ 150.871632, -33.787109 ], [ 150.871713, -33.787159 ] ] } },
{ "type": "Feature", "properties": { "cls": "shared", "highway": "path", "name": null }, "geometry": { "type": "LineString", "coordinates": [ [ 150.871249, -33.786205 ], [ 150.871209, -33.786294 ], [ 150.871198, -33.786318 ], [ 150.871184, -33.786357 ], [ 150.871182, -33.786405 ], [ 150.871181, -33.786457 ], [ 150.871181, -33.786505 ], [ 150.87117, -33.786555 ], [ 150.871131, -33.786628 ], [ 150.871074, -33.786708 ], [ 150.871034, -33.786753 ], [ 150.87098, -33.78682 ] ] } },
{ "type": "Feature", "properties": { "cls": "shared", "highway": "path", "name": null }, "geometry": { "type": "LineString", "coordinates": [ [ 150.87186, -33.785726 ], [ 150.871745, -33.785758 ], [ 150.871641, -33.785794 ], [ 150.871529, -33.785868 ], [ 150.87142, -33.785962 ], [ 150.871361, -33.786037 ], [ 150.871294, -33.78612 ], [ 150.871275, -33.786156 ], [ 150.871249, -33.786205 ] ] } },
{ "type": "Feature", "properties": { "cls": "shared", "highway": "path", "name": null }, "geometry": { "type": "LineString", "coordinates": [ [ 150.871807, -33.785647 ], [ 150.871834, -33.78568 ], [ 150.87186, -33.785726 ] ] } },
{ "type": "Feature", "properties": { "cls": "shared", "highway": "path", "name": "Warmuli Trail" }, "geometry": { "type": "LineString", "coordinates": [ [ 150.871807, -33.785647 ], [ 150.871508, -33.785394 ], [ 150.871237, -33.785162 ], [ 150.870044, -33.784154 ], [ 150.869789, -33.783934 ], [ 150.869769, -33.783916 ], [ 150.869384, -33.783543 ], [ 150.869087, -33.783308 ] ] } },
{ "type": "Feature", "properties": { "cls": "shared", "highway": "cycleway", "name": null }, "geometry": { "type": "LineString", "coordinates": [ [ 150.869272, -33.784335 ], [ 150.869389, -33.784248 ], [ 150.869639, -33.784059 ], [ 150.869789, -33.783934 ] ] } },
{ "type": "Feature", "properties": { "cls": "shared", "highway": "cycleway", "name": "Bungarribee Shared Path" }, "geometry": { "type": "LineString", "coordinates": [ [ 150.872569, -33.782585 ], [ 150.872122, -33.78254 ], [ 150.872042, -33.782525 ], [ 150.872036, -33.782523 ], [ 150.871978, -33.7825 ], [ 150.871919, -33.782463 ], [ 150.871795, -33.78239 ], [ 150.871643, -33.782292 ], [ 150.871372, -33.78211 ], [ 150.871271, -33.782041 ], [ 150.871159, -33.781974 ], [ 150.871024, -33.781915 ], [ 150.870885, -33.78186 ], [ 150.870603, -33.781767 ], [ 150.870537, -33.781741 ], [ 150.870476, -33.781712 ], [ 150.870414, -33.78168 ], [ 150.870357, -33.781646 ], [ 150.870297, -33.781608 ], [ 150.87024, -33.781577 ], [ 150.870202, -33.78156 ], [ 150.870161, -33.781549 ], [ 150.870091, -33.781537 ], [ 150.87002, -33.781517 ], [ 150.869984, -33.781505 ], [ 150.86995, -33.781487 ], [ 150.869876, -33.781447 ], [ 150.869778, -33.781391 ], [ 150.869734, -33.781365 ], [ 150.869697, -33.781337 ], [ 150.869631, -33.78128 ], [ 150.8696, -33.781241 ], [ 150.869577, -33.781203 ], [ 150.869539, -33.781133 ], [ 150.869524, -33.781103 ], [ 150.869501, -33.781073 ], [ 150.869474, -33.781049 ], [ 150.86942, -33.781019 ], [ 150.869357, -33.780992 ], [ 150.869298, -33.780965 ], [ 150.869242, -33.780932 ], [ 150.869196, -33.780895 ], [ 150.869155, -33.780844 ], [ 150.869124, -33.780792 ], [ 150.869106, -33.780726 ], [ 150.869096, -33.780662 ], [ 150.869094, -33.780603 ], [ 150.869102, -33.780545 ], [ 150.869126, -33.780448 ] ] } },
{ "type": "Feature", "properties": { "cls": "shared", "highway": "cycleway", "name": "Bungarribee Trail" }, "geometry": { "type": "LineString", "coordinates": [ [ 150.857669, -33.789236 ], [ 150.857711, -33.789171 ], [ 150.857785, -33.789059 ], [ 150.857822, -33.78899 ], [ 150.857821, -33.788858 ], [ 150.85787, -33.788773 ], [ 150.857942, -33.788738 ], [ 150.858038, -33.788732 ], [ 150.858462, -33.788732 ], [ 150.858672, -33.788718 ], [ 150.858867, -33.788687 ], [ 150.858942, -33.788663 ], [ 150.858995, -33.788634 ], [ 150.859058, -33.788591 ], [ 150.859117, -33.788543 ], [ 150.859179, -33.78846 ], [ 150.859228, -33.788361 ], [ 150.859269, -33.788264 ], [ 150.859294, -33.788162 ], [ 150.85931, -33.787932 ], [ 150.859321, -33.787711 ], [ 150.859335, -33.787474 ], [ 150.859358, -33.787101 ], [ 150.859372, -33.786723 ], [ 150.859386, -33.786332 ], [ 150.859398, -33.786136 ], [ 150.859405, -33.78604 ], [ 150.859437, -33.785957 ], [ 150.859517, -33.785802 ], [ 150.859628, -33.785652 ], [ 150.859742, -33.785505 ], [ 150.859828, -33.785357 ], [ 150.859988, -33.785112 ], [ 150.860097, -33.78499 ], [ 150.860213, -33.784877 ], [ 150.860372, -33.784668 ], [ 150.860463, -33.784566 ], [ 150.860565, -33.784467 ], [ 150.860725, -33.784337 ], [ 150.861056, -33.784146 ], [ 150.861381, -33.783938 ], [ 150.861431, -33.783879 ], [ 150.861457, -33.783819 ], [ 150.861485, -33.78373 ], [ 150.861485, -33.783636 ], [ 150.861473, -33.783542 ], [ 150.861415, -33.783225 ], [ 150.861351, -33.782905 ], [ 150.861251, -33.782603 ], [ 150.861116, -33.782307 ], [ 150.860994, -33.782122 ], [ 150.86086, -33.781945 ], [ 150.860718, -33.781741 ], [ 150.8606, -33.781535 ], [ 150.86016, -33.781179 ], [ 150.859666, -33.780798 ], [ 150.859465, -33.780654 ], [ 150.859444, -33.780603 ], [ 150.859441, -33.780559 ], [ 150.859449, -33.780522 ], [ 150.859477, -33.780488 ], [ 150.859535, -33.780424 ], [ 150.859744, -33.780227 ], [ 150.859984, -33.779997 ], [ 150.860405, -33.779591 ], [ 150.8606, -33.779413 ], [ 150.86068, -33.779306 ], [ 150.860747, -33.779197 ], [ 150.860866, -33.778863 ], [ 150.860902, -33.778718 ], [ 150.860944, -33.778598 ], [ 150.861038, -33.778364 ], [ 150.861113, -33.778135 ], [ 150.861154, -33.777878 ], [ 150.86117, -33.777696 ], [ 150.861193, -33.77752 ], [ 150.861194, -33.777474 ], [ 150.861184, -33.777162 ], [ 150.86117, -33.776927 ], [ 150.861147, -33.776524 ], [ 150.861149, -33.7764 ], [ 150.861165, -33.776305 ], [ 150.86119, -33.776216 ], [ 150.861226, -33.776132 ], [ 150.861301, -33.775953 ], [ 150.861322, -33.775867 ], [ 150.861333, -33.775784 ], [ 150.861277, -33.775543 ], [ 150.861236, -33.775438 ], [ 150.861231, -33.775313 ], [ 150.861238, -33.775125 ], [ 150.861209, -33.774922 ], [ 150.861122, -33.774671 ], [ 150.86102, -33.77443 ], [ 150.860942, -33.774313 ], [ 150.860838, -33.774209 ], [ 150.860688, -33.774118 ], [ 150.860474, -33.774082 ], [ 150.860102, -33.77406 ], [ 150.85977, -33.774069 ], [ 150.859489, -33.774123 ], [ 150.858382, -33.774344 ], [ 150.858151, -33.774425 ], [ 150.857977, -33.774494 ], [ 150.857917, -33.774504 ] ] } },
{ "type": "Feature", "properties": { "cls": "shared", "highway": "cycleway", "name": null }, "geometry": { "type": "LineString", "coordinates": [ [ 150.863788, -33.778743 ], [ 150.86374, -33.778346 ] ] } },
{ "type": "Feature", "properties": { "cls": "shared", "highway": "cycleway", "name": null }, "geometry": { "type": "LineString", "coordinates": [ [ 150.86374, -33.778346 ], [ 150.863732, -33.778282 ] ] } },
{ "type": "Feature", "properties": { "cls": "shared", "highway": "cycleway", "name": null }, "geometry": { "type": "LineString", "coordinates": [ [ 150.863732, -33.778282 ], [ 150.863322, -33.778157 ], [ 150.863088, -33.778103 ], [ 150.862832, -33.777971 ], [ 150.862022, -33.77768 ], [ 150.861285, -33.777498 ], [ 150.861194, -33.777474 ] ] } },
{ "type": "Feature", "properties": { "cls": "shared", "highway": "cycleway", "name": null }, "geometry": { "type": "LineString", "coordinates": [ [ 150.864416, -33.77487 ], [ 150.86414, -33.774895 ], [ 150.863913, -33.774911 ], [ 150.863786, -33.774921 ], [ 150.863368, -33.774965 ], [ 150.862839, -33.774998 ], [ 150.862635, -33.775014 ], [ 150.862477, -33.775028 ], [ 150.86239, -33.775041 ], [ 150.862314, -33.775066 ], [ 150.862276, -33.775083 ], [ 150.862168, -33.775136 ], [ 150.862095, -33.77518 ], [ 150.861999, -33.775238 ], [ 150.861891, -33.7753 ], [ 150.861817, -33.775359 ], [ 150.861717, -33.775412 ], [ 150.861648, -33.775449 ], [ 150.861558, -33.775483 ], [ 150.861458, -33.775509 ], [ 150.861373, -33.77552 ], [ 150.861277, -33.775543 ] ] } },
{ "type": "Feature", "properties": { "cls": "shared", "highway": "cycleway", "name": null }, "geometry": { "type": "LineString", "coordinates": [ [ 150.868978, -33.780334 ], [ 150.86896, -33.780349 ] ] } },
{ "type": "Feature", "properties": { "cls": "shared", "highway": "cycleway", "name": "Bunya shared path" }, "geometry": { "type": "LineString", "coordinates": [ [ 150.868593, -33.780307 ], [ 150.868398, -33.780315 ] ] } },
{ "type": "Feature", "properties": { "cls": "shared", "highway": "cycleway", "name": null }, "geometry": { "type": "LineString", "coordinates": [ [ 150.866493, -33.775957 ], [ 150.866495, -33.775969 ] ] } },
{ "type": "Feature", "properties": { "cls": "shared", "highway": "cycleway", "name": null }, "geometry": { "type": "LineString", "coordinates": [ [ 150.866464, -33.775663 ], [ 150.866493, -33.775957 ] ] } },
{ "type": "Feature", "properties": { "cls": "shared", "highway": "cycleway", "name": null }, "geometry": { "type": "LineString", "coordinates": [ [ 150.866447, -33.775494 ], [ 150.866453, -33.775546 ], [ 150.866464, -33.775663 ] ] } },
{ "type": "Feature", "properties": { "cls": "shared", "highway": "cycleway", "name": null }, "geometry": { "type": "LineString", "coordinates": [ [ 150.864748, -33.774897 ], [ 150.864572, -33.774881 ] ] } },
{ "type": "Feature", "properties": { "cls": "shared", "highway": "cycleway", "name": null }, "geometry": { "type": "LineString", "coordinates": [ [ 150.864572, -33.774881 ], [ 150.864416, -33.77487 ] ] } },
{ "type": "Feature", "properties": { "cls": "shared", "highway": "cycleway", "name": null }, "geometry": { "type": "LineString", "coordinates": [ [ 150.865802, -33.774614 ], [ 150.865366, -33.774686 ], [ 150.86531, -33.774697 ], [ 150.865262, -33.774719 ], [ 150.865211, -33.77474 ], [ 150.865162, -33.774766 ], [ 150.865103, -33.774797 ], [ 150.864952, -33.774879 ], [ 150.864917, -33.774897 ], [ 150.864874, -33.774904 ], [ 150.864828, -33.774904 ], [ 150.864748, -33.774897 ] ] } },
{ "type": "Feature", "properties": { "cls": "shared", "highway": "cycleway", "name": null }, "geometry": { "type": "LineString", "coordinates": [ [ 150.865677, -33.77325 ], [ 150.865663, -33.773279 ], [ 150.865652, -33.773308 ], [ 150.865641, -33.773344 ], [ 150.865634, -33.773379 ], [ 150.865626, -33.773446 ], [ 150.865624, -33.773514 ], [ 150.86563, -33.773582 ], [ 150.865631, -33.773589 ] ] } },
{ "type": "Feature", "properties": { "cls": "shared", "highway": "cycleway", "name": null }, "geometry": { "type": "LineString", "coordinates": [ [ 150.867614, -33.7738 ], [ 150.867283, -33.773739 ], [ 150.866925, -33.773674 ], [ 150.866867, -33.773658 ], [ 150.866822, -33.773638 ], [ 150.866754, -33.7736 ], [ 150.866699, -33.773553 ], [ 150.866654, -33.773504 ], [ 150.866629, -33.773482 ], [ 150.866607, -33.773463 ], [ 150.866581, -33.773445 ], [ 150.86654, -33.773422 ], [ 150.866484, -33.773399 ], [ 150.866395, -33.773367 ], [ 150.866332, -33.773349 ], [ 150.866259, -33.77333 ], [ 150.866182, -33.773315 ], [ 150.866119, -33.773303 ], [ 150.86604, -33.773291 ], [ 150.865677, -33.77325 ] ] } },
{ "type": "Feature", "properties": { "cls": "shared", "highway": "cycleway", "name": null }, "geometry": { "type": "LineString", "coordinates": [ [ 150.867387, -33.772809 ], [ 150.867346, -33.772868 ], [ 150.8673, -33.77294 ], [ 150.867271, -33.772982 ], [ 150.867243, -33.773019 ], [ 150.867208, -33.773056 ], [ 150.86718, -33.773077 ], [ 150.867145, -33.773095 ], [ 150.867115, -33.773107 ], [ 150.867085, -33.773116 ], [ 150.867018, -33.773122 ], [ 150.866956, -33.773115 ], [ 150.866872, -33.773084 ], [ 150.866777, -33.773039 ], [ 150.866692, -33.772992 ], [ 150.866638, -33.772973 ], [ 150.866583, -33.77296 ], [ 150.866487, -33.772947 ], [ 150.866405, -33.77294 ], [ 150.866301, -33.772934 ], [ 150.866242, -33.772939 ], [ 150.866165, -33.772948 ], [ 150.866091, -33.77296 ], [ 150.866024, -33.77298 ], [ 150.865945, -33.773006 ], [ 150.865875, -33.773038 ], [ 150.865835, -33.773061 ], [ 150.865773, -33.773116 ], [ 150.865729, -33.773169 ], [ 150.865703, -33.773208 ], [ 150.865677, -33.77325 ] ] } },
{ "type": "Feature", "properties": { "cls": "shared", "highway": "cycleway", "name": null }, "geometry": { "type": "MultiLineString", "coordinates": [ [ [ 150.867163, -33.772147 ], [ 150.86716, -33.772183 ] ], [ [ 150.86716, -33.772183 ], [ 150.867163, -33.772222 ] ], [ [ 150.867163, -33.772222 ], [ 150.867193, -33.772276 ] ], [ [ 150.867193, -33.772276 ], [ 150.867207, -33.772301 ], [ 150.867231, -33.772348 ], [ 150.867257, -33.772405 ], [ 150.867334, -33.772664 ], [ 150.867387, -33.772809 ] ] ] } }
]
}
