{
"type": "FeatureCollection",
"name": "021-rome-appian-way-regional-park",
"crs": { "type": "name", "properties": { "name": "urn:ogc:def:crs:OGC:1.3:CRS84" } },
"xy_coordinate_resolution": 1e-06,
"features": [
{ "type": "Feature", "properties": { "cls": "shared", "highway": "cycleway", "name": null }, "geometry": { "type": "LineString", "coordinates": [ [ 12.527125, 41.852655 ], [ 12.527066, 41.852545 ] ] } },
{ "type": "Feature", "properties": { "cls": "shared", "highway": "path", "name": null }, "geometry": { "type": "LineString", "coordinates": [ [ 12.513447, 41.858563 ], [ 12.513455, 41.858544 ], [ 12.513511, 41.858486 ], [ 12.514406, 41.857721 ], [ 12.514577, 41.857565 ], [ 12.514813, 41.857336 ], [ 12.514822, 41.857314 ], [ 12.514842, 41.857296 ], [ 12.514862, 41.857291 ], [ 12.515856, 41.856411 ], [ 12.516252, 41.856063 ], [ 12.516408, 41.855916 ], [ 12.516756, 41.855587 ], [ 12.51678, 41.855567 ], [ 12.516844, 41.855514 ], [ 12.517345, 41.85507 ], [ 12.5178, 41.854665 ], [ 12.51778, 41.854644 ] ] } },
{ "type": "Feature", "properties": { "cls": "shared", "highway": "path", "name": null }, "geometry": { "type": "LineString", "coordinates": [ [ 12.521579, 41.86556 ], [ 12.521699, 41.865643 ], [ 12.521735, 41.865684 ], [ 12.52175, 41.865735 ], [ 12.521762, 41.865868 ], [ 12.521748, 41.865939 ], [ 12.521753, 41.865977 ], [ 12.52183, 41.866127 ], [ 12.521843, 41.866178 ], [ 12.521874, 41.866326 ] ] } },
{ "type": "Feature", "properties": { "cls": "shared", "highway": "path", "name": null }, "geometry": { "type": "LineString", "coordinates": [ [ 12.521874, 41.866326 ], [ 12.521989, 41.866266 ], [ 12.522905, 41.866007 ], [ 12.52331, 41.865919 ], [ 12.523583, 41.865874 ], [ 12.523794, 41.865852 ], [ 12.523929, 41.865837 ], [ 12.524634, 41.865809 ], [ 12.525088, 41.865762 ], [ 12.525352, 41.865751 ], [ 12.525789, 41.865785 ], [ 12.52649, 41.865919 ], [ 12.526844, 41.865988 ], [ 12.527119, 41.866084 ], [ 12.527301, 41.866168 ], [ 12.527438, 41.866257 ] ] } },
{ "type": "Feature", "properties": { "cls": "shared", "highway": "cycleway", "name": null }, "geometry": { "type": "LineString", "coordinates": [ [ 12.530132, 41.854878 ], [ 12.528358, 41.853556 ], [ 12.527173, 41.852691 ], [ 12.527125, 41.852655 ] ] } },
{ "type": "Feature", "properties": { "cls": "shared", "highway": "cycleway", "name": null }, "geometry": { "type": "LineString", "coordinates": [ [ 12.530132, 41.854878 ], [ 12.530204, 41.854848 ] ] } },
{ "type": "Feature", "properties": { "cls": "shared", "highway": "cycleway", "name": null }, "geometry": { "type": "LineString", "coordinates": [ [ 12.531751, 41.856985 ], [ 12.53152, 41.856578 ], [ 12.531301, 41.856184 ], [ 12.531182, 41.855988 ], [ 12.531115, 41.855867 ] ] } },
{ "type": "Feature", "properties": { "cls": "shared", "highway": "cycleway", "name": null }, "geometry": { "type": "LineString", "coordinates": [ [ 12.532044, 41.857487 ], [ 12.531751, 41.856985 ] ] } },
{ "type": "Feature", "properties": { "cls": "shared", "highway": "cycleway", "name": null }, "geometry": { "type": "LineString", "coordinates": [ [ 12.532044, 41.857487 ], [ 12.532034, 41.857491 ], [ 12.532017, 41.857498 ] ] } },
{ "type": "Feature", "properties": { "cls": "shared", "highway": "cycleway", "name": null }, "geometry": { "type": "LineString", "coordinates": [ [ 12.533035, 41.859283 ], [ 12.532105, 41.857592 ], [ 12.532044, 41.857487 ] ] } },
{ "type": "Feature", "properties": { "cls": "shared", "highway": "cycleway", "name": null }, "geometry": { "type": "LineString", "coordinates": [ [ 12.533071, 41.859343 ], [ 12.533054, 41.859315 ], [ 12.533035, 41.859283 ] ] } },
{ "type": "Feature", "properties": { "cls": "shared", "highway": "cycleway", "name": null }, "geometry": { "type": "LineString", "coordinates": [ [ 12.533071, 41.859343 ], [ 12.533255, 41.859665 ] ] } },
{ "type": "Feature", "properties": { "cls": "shared", "highway": "cycleway", "name": null }, "geometry": { "type": "LineString", "coordinates": [ [ 12.533255, 41.859665 ], [ 12.533303, 41.859748 ] ] } },
{ "type": "Feature", "properties": { "cls": "shared", "highway": "cycleway", "name": null }, "geometry": { "type": "LineString", "coordinates": [ [ 12.533303, 41.859748 ], [ 12.533375, 41.859874 ] ] } },
{ "type": "Feature", "properties": { "cls": "shared", "highway": "cycleway", "name": null }, "geometry": { "type": "LineString", "coordinates": [ [ 12.533375, 41.859874 ], [ 12.53339, 41.859906 ], [ 12.5334, 41.859926 ] ] } },
{ "type": "Feature", "properties": { "cls": "shared", "highway": "cycleway", "name": null }, "geometry": { "type": "LineString", "coordinates": [ [ 12.5334, 41.859926 ], [ 12.533728, 41.860527 ] ] } },
{ "type": "Feature", "properties": { "cls": "shared", "highway": "cycleway", "name": null }, "geometry": { "type": "LineString", "coordinates": [ [ 12.533728, 41.860527 ], [ 12.533738, 41.860588 ], [ 12.533729, 41.860641 ], [ 12.533706, 41.860688 ], [ 12.533561, 41.860888 ] ] } },
{ "type": "Feature", "properties": { "cls": "shared", "highway": "cycleway", "name": null }, "geometry": { "type": "LineString", "coordinates": [ [ 12.533561, 41.860888 ], [ 12.533493, 41.860985 ] ] } },
{ "type": "Feature", "properties": { "cls": "shared", "highway": "cycleway", "name": null }, "geometry": { "type": "LineString", "coordinates": [ [ 12.533493, 41.860985 ], [ 12.533413, 41.861098 ] ] } },
{ "type": "Feature", "properties": { "cls": "shared", "highway": "cycleway", "name": null }, "geometry": { "type": "LineString", "coordinates": [ [ 12.533413, 41.861098 ], [ 12.533377, 41.861156 ] ] } },
{ "type": "Feature", "properties": { "cls": "shared", "highway": "cycleway", "name": null }, "geometry": { "type": "LineString", "coordinates": [ [ 12.533377, 41.861156 ], [ 12.533302, 41.86126 ] ] } },
{ "type": "Feature", "properties": { "cls": "shared", "highway": "cycleway", "name": null }, "geometry": { "type": "LineString", "coordinates": [ [ 12.533302, 41.86126 ], [ 12.533249, 41.86134 ] ] } },
{ "type": "Feature", "properties": { "cls": "shared", "highway": "cycleway", "name": null }, "geometry": { "type": "LineString", "coordinates": [ [ 12.533249, 41.86134 ], [ 12.533211, 41.861393 ] ] } },
{ "type": "Feature", "properties": { "cls": "shared", "highway": "cycleway", "name": null }, "geometry": { "type": "LineString", "coordinates": [ [ 12.53318, 41.861436 ], [ 12.533211, 41.861393 ] ] } },
{ "type": "Feature", "properties": { "cls": "shared", "highway": "path", "name": null }, "geometry": { "type": "LineString", "coordinates": [ [ 12.52649, 41.865919 ], [ 12.526528, 41.865957 ], [ 12.526559, 41.865989 ], [ 12.526624, 41.866032 ], [ 12.526779, 41.866101 ], [ 12.526833, 41.866167 ], [ 12.526858, 41.866257 ], [ 12.526874, 41.866375 ], [ 12.526865, 41.866429 ] ] } },
{ "type": "Feature", "properties": { "cls": "shared", "highway": "path", "name": null }, "geometry": { "type": "LineString", "coordinates": [ [ 12.522406, 41.866368 ], [ 12.522575, 41.866261 ], [ 12.522905, 41.866007 ] ] } },
{ "type": "Feature", "properties": { "cls": "shared", "highway": "path", "name": null }, "geometry": { "type": "LineString", "coordinates": [ [ 12.52019, 41.865457 ], [ 12.520185, 41.865673 ], [ 12.520187, 41.865879 ], [ 12.520216, 41.86606 ], [ 12.520224, 41.866209 ], [ 12.520246, 41.866325 ], [ 12.520266, 41.866414 ], [ 12.520244, 41.866515 ], [ 12.52025, 41.866606 ], [ 12.520284, 41.866725 ], [ 12.52032, 41.866825 ], [ 12.520362, 41.866964 ], [ 12.52038, 41.867033 ], [ 12.520414, 41.867099 ], [ 12.520454, 41.867122 ] ] } },
{ "type": "Feature", "properties": { "cls": "shared", "highway": "path", "name": null }, "geometry": { "type": "LineString", "coordinates": [ [ 12.521275, 41.866421 ], [ 12.521228, 41.866376 ], [ 12.521077, 41.866361 ], [ 12.520955, 41.866391 ], [ 12.52087, 41.866431 ], [ 12.520722, 41.866463 ], [ 12.520643, 41.866496 ], [ 12.520468, 41.866492 ], [ 12.520366, 41.86647 ], [ 12.520266, 41.866414 ] ] } },
{ "type": "Feature", "properties": { "cls": "shared", "highway": "path", "name": null }, "geometry": { "type": "LineString", "coordinates": [ [ 12.521874, 41.866326 ], [ 12.521914, 41.866391 ], [ 12.521976, 41.86645 ], [ 12.521997, 41.866475 ], [ 12.522009, 41.866509 ], [ 12.522019, 41.866564 ], [ 12.522018, 41.86663 ] ] } },
{ "type": "Feature", "properties": { "cls": "shared", "highway": "path", "name": null }, "geometry": { "type": "LineString", "coordinates": [ [ 12.524257, 41.866893 ], [ 12.524171, 41.866399 ], [ 12.52413, 41.866168 ] ] } },
{ "type": "Feature", "properties": { "cls": "shared", "highway": "path", "name": null }, "geometry": { "type": "LineString", "coordinates": [ [ 12.518892, 41.865849 ], [ 12.518922, 41.865933 ], [ 12.519166, 41.866229 ], [ 12.519259, 41.866269 ], [ 12.519414, 41.866378 ], [ 12.519408, 41.866486 ], [ 12.519403, 41.866583 ], [ 12.519329, 41.866661 ], [ 12.519346, 41.866699 ], [ 12.519451, 41.866769 ], [ 12.519536, 41.866809 ], [ 12.519686, 41.86691 ], [ 12.5198, 41.866971 ], [ 12.519954, 41.867075 ], [ 12.520043, 41.867155 ], [ 12.520167, 41.867205 ], [ 12.520238, 41.86726 ], [ 12.520321, 41.867305 ] ] } },
{ "type": "Feature", "properties": { "cls": "shared", "highway": "path", "name": null }, "geometry": { "type": "LineString", "coordinates": [ [ 12.522406, 41.866368 ], [ 12.522247, 41.86647 ], [ 12.522156, 41.86654 ], [ 12.522065, 41.866575 ], [ 12.522018, 41.86663 ], [ 12.52202, 41.866682 ], [ 12.522024, 41.866723 ], [ 12.522026, 41.866758 ], [ 12.522038, 41.866794 ], [ 12.522044, 41.86682 ], [ 12.522038, 41.866851 ], [ 12.52202, 41.866879 ], [ 12.522014, 41.866919 ], [ 12.522013, 41.867013 ] ] } },
{ "type": "Feature", "properties": { "cls": "shared", "highway": "path", "name": null }, "geometry": { "type": "LineString", "coordinates": [ [ 12.522018, 41.86663 ], [ 12.521745, 41.866773 ] ] } },
{ "type": "Feature", "properties": { "cls": "shared", "highway": "path", "name": null }, "geometry": { "type": "LineString", "coordinates": [ [ 12.525112, 41.867466 ], [ 12.525189, 41.867449 ], [ 12.525264, 41.867447 ], [ 12.525327, 41.867435 ], [ 12.525411, 41.867392 ], [ 12.525527, 41.867319 ], [ 12.525565, 41.867291 ], [ 12.525748, 41.867184 ], [ 12.526013, 41.867047 ] ] } },
{ "type": "Feature", "properties": { "cls": "shared", "highway": "footway", "name": null }, "geometry": { "type": "LineString", "coordinates": [ [ 12.563395, 41.847789 ], [ 12.563302, 41.847881 ], [ 12.563285, 41.847899 ] ] } },
{ "type": "Feature", "properties": { "cls": "shared", "highway": "path", "name": null }, "geometry": { "type": "LineString", "coordinates": [ [ 12.563266, 41.847918 ], [ 12.563285, 41.847899 ], [ 12.563264, 41.847884 ] ] } },
{ "type": "Feature", "properties": { "cls": "separated", "highway": "cycleway", "name": null }, "geometry": { "type": "LineString", "coordinates": [ [ 12.563266, 41.847918 ], [ 12.563151, 41.848039 ], [ 12.562957, 41.848243 ] ] } },
{ "type": "Feature", "properties": { "cls": "shared", "highway": "path", "name": null }, "geometry": { "type": "LineString", "coordinates": [ [ 12.557981, 41.850631 ], [ 12.558307, 41.850855 ], [ 12.55844, 41.850916 ], [ 12.558495, 41.850968 ], [ 12.558518, 41.851017 ], [ 12.558699, 41.851165 ] ] } },
{ "type": "Feature", "properties": { "cls": "shared", "highway": "path", "name": null }, "geometry": { "type": "LineString", "coordinates": [ [ 12.557796, 41.851308 ], [ 12.55784, 41.851333 ], [ 12.557868, 41.851347 ], [ 12.557882, 41.851355 ], [ 12.557892, 41.851361 ], [ 12.557945, 41.851385 ], [ 12.557996, 41.851387 ], [ 12.558252, 41.851504 ] ] } },
{ "type": "Feature", "properties": { "cls": "shared", "highway": "path", "name": null }, "geometry": { "type": "LineString", "coordinates": [ [ 12.553887, 41.853337 ], [ 12.553885, 41.853324 ], [ 12.553883, 41.853315 ] ] } },
{ "type": "Feature", "properties": { "cls": "shared", "highway": "path", "name": null }, "geometry": { "type": "LineString", "coordinates": [ [ 12.552688, 41.853508 ], [ 12.552685, 41.853497 ], [ 12.552684, 41.853487 ] ] } },
{ "type": "Feature", "properties": { "cls": "shared", "highway": "path", "name": null }, "geometry": { "type": "LineString", "coordinates": [ [ 12.552079, 41.853536 ], [ 12.552083, 41.853549 ], [ 12.552088, 41.853557 ] ] } },
{ "type": "Feature", "properties": { "cls": "shared", "highway": "path", "name": null }, "geometry": { "type": "LineString", "coordinates": [ [ 12.550916, 41.853652 ], [ 12.550918, 41.853644 ], [ 12.550922, 41.85363 ] ] } },
{ "type": "Feature", "properties": { "cls": "shared", "highway": "cycleway", "name": null }, "geometry": { "type": "LineString", "coordinates": [ [ 12.532882, 41.861875 ], [ 12.53318, 41.861436 ] ] } },
{ "type": "Feature", "properties": { "cls": "shared", "highway": "cycleway", "name": null }, "geometry": { "type": "LineString", "coordinates": [ [ 12.532864, 41.861904 ], [ 12.532882, 41.861875 ] ] } },
{ "type": "Feature", "properties": { "cls": "shared", "highway": "cycleway", "name": null }, "geometry": { "type": "LineString", "coordinates": [ [ 12.53285, 41.861925 ], [ 12.532864, 41.861904 ] ] } },
{ "type": "Feature", "properties": { "cls": "shared", "highway": "cycleway", "name": null }, "geometry": { "type": "LineString", "coordinates": [ [ 12.532825, 41.861965 ], [ 12.53285, 41.861925 ] ] } },
{ "type": "Feature", "properties": { "cls": "shared", "highway": "cycleway", "name": null }, "geometry": { "type": "LineString", "coordinates": [ [ 12.532665, 41.862236 ], [ 12.532648, 41.862226 ], [ 12.532825, 41.861965 ] ] } },
{ "type": "Feature", "properties": { "cls": "shared", "highway": "path", "name": null }, "geometry": { "type": "LineString", "coordinates": [ [ 12.532665, 41.862236 ], [ 12.53271, 41.862258 ], [ 12.532768, 41.862286 ] ] } },
{ "type": "Feature", "properties": { "cls": "shared", "highway": "cycleway", "name": null }, "geometry": { "type": "LineString", "coordinates": [ [ 12.532768, 41.862286 ], [ 12.532904, 41.862355 ] ] } },
{ "type": "Feature", "properties": { "cls": "shared", "highway": "footway", "name": null }, "geometry": { "type": "LineString", "coordinates": [ [ 12.532904, 41.862355 ], [ 12.532944, 41.862371 ], [ 12.532994, 41.862391 ] ] } },
{ "type": "Feature", "properties": { "cls": "shared", "highway": "footway", "name": null }, "geometry": { "type": "LineString", "coordinates": [ [ 12.532994, 41.862391 ], [ 12.533012, 41.862398 ] ] } },
{ "type": "Feature", "properties": { "cls": "shared", "highway": "cycleway", "name": null }, "geometry": { "type": "LineString", "coordinates": [ [ 12.533012, 41.862398 ], [ 12.533006, 41.862414 ], [ 12.532996, 41.862446 ], [ 12.532993, 41.862461 ] ] } },
{ "type": "Feature", "properties": { "cls": "shared", "highway": "cycleway", "name": null }, "geometry": { "type": "LineString", "coordinates": [ [ 12.533347, 41.86404 ], [ 12.533338, 41.864012 ], [ 12.53332, 41.86395 ], [ 12.533291, 41.863883 ], [ 12.533267, 41.863825 ], [ 12.533257, 41.863755 ], [ 12.533248, 41.863697 ], [ 12.533249, 41.863631 ], [ 12.533244, 41.863599 ], [ 12.53321, 41.863534 ], [ 12.533154, 41.86345 ], [ 12.53311, 41.863394 ], [ 12.533064, 41.863345 ], [ 12.533002, 41.863274 ], [ 12.532982, 41.863252 ] ] } },
{ "type": "Feature", "properties": { "cls": "shared", "highway": "path", "name": null }, "geometry": { "type": "LineString", "coordinates": [ [ 12.526817, 41.866471 ], [ 12.526865, 41.866429 ], [ 12.526968, 41.866391 ], [ 12.52719, 41.866337 ], [ 12.527438, 41.866257 ] ] } },
{ "type": "Feature", "properties": { "cls": "shared", "highway": "path", "name": "Circonvallazione Ardeatina" }, "geometry": { "type": "LineString", "coordinates": [ [ 12.499514, 41.866948 ], [ 12.499556, 41.866949 ], [ 12.499669, 41.866962 ], [ 12.499708, 41.866967 ], [ 12.49979, 41.866977 ], [ 12.499883, 41.866982 ] ] } },
{ "type": "Feature", "properties": { "cls": "shared", "highway": "path", "name": "Circonvallazione Ardeatina" }, "geometry": { "type": "LineString", "coordinates": [ [ 12.496962, 41.866977 ], [ 12.497004, 41.866989 ], [ 12.49716, 41.866998 ], [ 12.49738, 41.866979 ], [ 12.49795, 41.866962 ], [ 12.498858, 41.86696 ], [ 12.499472, 41.866948 ], [ 12.499514, 41.866948 ] ] } },
{ "type": "Feature", "properties": { "cls": "separated", "highway": "cycleway", "name": null }, "geometry": { "type": "MultiLineString", "coordinates": [ [ [ 12.496679, 41.867711 ], [ 12.496767, 41.867517 ], [ 12.496777, 41.867452 ], [ 12.496845, 41.866995 ] ], [ [ 12.496845, 41.866995 ], [ 12.496898, 41.866987 ], [ 12.496962, 41.866977 ], [ 12.496963, 41.866969 ] ] ] } },
{ "type": "Feature", "properties": { "cls": "shared", "highway": "path", "name": null }, "geometry": { "type": "LineString", "coordinates": [ [ 12.524351, 41.867835 ], [ 12.524399, 41.867807 ], [ 12.524454, 41.86776 ], [ 12.524527, 41.867723 ], [ 12.524646, 41.86768 ], [ 12.524745, 41.86763 ], [ 12.524929, 41.867562 ], [ 12.525112, 41.867466 ] ] } },
{ "type": "Feature", "properties": { "cls": "shared", "highway": "path", "name": null }, "geometry": { "type": "LineString", "coordinates": [ [ 12.52181, 41.867323 ], [ 12.52176, 41.867361 ], [ 12.521736, 41.867407 ], [ 12.521713, 41.867585 ], [ 12.521715, 41.867952 ], [ 12.521698, 41.868046 ] ] } },
{ "type": "Feature", "properties": { "cls": "shared", "highway": "path", "name": null }, "geometry": { "type": "LineString", "coordinates": [ [ 12.523214, 41.868684 ], [ 12.523195, 41.86866 ], [ 12.523808, 41.868311 ], [ 12.523911, 41.868287 ], [ 12.523917, 41.868234 ], [ 12.523943, 41.868187 ], [ 12.52404, 41.868073 ], [ 12.524157, 41.86799 ], [ 12.524262, 41.867922 ], [ 12.524322, 41.867865 ], [ 12.524351, 41.867835 ], [ 12.524356, 41.867784 ], [ 12.524455, 41.867621 ], [ 12.524519, 41.867483 ], [ 12.524549, 41.867381 ], [ 12.524524, 41.86728 ], [ 12.524426, 41.866998 ] ] } },
{ "type": "Feature", "properties": { "cls": "shared", "highway": "path", "name": null }, "geometry": { "type": "LineString", "coordinates": [ [ 12.5222, 41.868444 ], [ 12.52216, 41.868341 ], [ 12.522082, 41.868016 ], [ 12.52206, 41.867746 ], [ 12.522082, 41.867456 ], [ 12.522102, 41.867296 ], [ 12.522104, 41.867166 ] ] } },
{ "type": "Feature", "properties": { "cls": "shared", "highway": "path", "name": null }, "geometry": { "type": "LineString", "coordinates": [ [ 12.522765, 41.868852 ], [ 12.52265, 41.868757 ], [ 12.522476, 41.868685 ], [ 12.522417, 41.868625 ], [ 12.5222, 41.868444 ], [ 12.521973, 41.86827 ], [ 12.521698, 41.868046 ], [ 12.521636, 41.867974 ], [ 12.521525, 41.867812 ], [ 12.521479, 41.867742 ], [ 12.521457, 41.867686 ], [ 12.521449, 41.867633 ], [ 12.521452, 41.867579 ], [ 12.521462, 41.86753 ], [ 12.52148, 41.867499 ], [ 12.521505, 41.867468 ], [ 12.521527, 41.867447 ], [ 12.521576, 41.867412 ], [ 12.52164, 41.867372 ], [ 12.521743, 41.867331 ], [ 12.52181, 41.867323 ], [ 12.521867, 41.867305 ], [ 12.521956, 41.867274 ], [ 12.522037, 41.86723 ], [ 12.522104, 41.867166 ] ] } },
{ "type": "Feature", "properties": { "cls": "shared", "highway": "path", "name": null }, "geometry": { "type": "LineString", "coordinates": [ [ 12.520524, 41.868095 ], [ 12.520523, 41.868071 ], [ 12.520514, 41.867854 ] ] } },
{ "type": "Feature", "properties": { "cls": "shared", "highway": "path", "name": null }, "geometry": { "type": "LineString", "coordinates": [ [ 12.520478, 41.868096 ], [ 12.520524, 41.868095 ], [ 12.521033, 41.868045 ], [ 12.521205, 41.868035 ], [ 12.521334, 41.868013 ], [ 12.52144, 41.867987 ], [ 12.521509, 41.867967 ], [ 12.521552, 41.867957 ], [ 12.521592, 41.867956 ], [ 12.521636, 41.867974 ] ] } },
{ "type": "Feature", "properties": { "cls": "shared", "highway": "path", "name": null }, "geometry": { "type": "LineString", "coordinates": [ [ 12.523214, 41.868684 ], [ 12.523911, 41.868287 ], [ 12.523968, 41.868262 ] ] } },
{ "type": "Feature", "properties": { "cls": "shared", "highway": "path", "name": null }, "geometry": { "type": "LineString", "coordinates": [ [ 12.52265, 41.86886 ], [ 12.522603, 41.868815 ], [ 12.522525, 41.868742 ], [ 12.522476, 41.868685 ] ] } },
{ "type": "Feature", "properties": { "cls": "shared", "highway": "path", "name": null }, "geometry": { "type": "LineString", "coordinates": [ [ 12.521698, 41.868046 ], [ 12.521642, 41.868341 ], [ 12.521617, 41.868598 ], [ 12.521563, 41.868862 ], [ 12.521534, 41.86907 ], [ 12.521513, 41.869193 ], [ 12.52149, 41.869326 ], [ 12.521469, 41.869504 ], [ 12.521509, 41.869581 ] ] } },
{ "type": "Feature", "properties": { "cls": "shared", "highway": "path", "name": null }, "geometry": { "type": "LineString", "coordinates": [ [ 12.526817, 41.866471 ], [ 12.526813, 41.866509 ], [ 12.52682, 41.86661 ] ] } },
{ "type": "Feature", "properties": { "cls": "shared", "highway": "footway", "name": null }, "geometry": { "type": "Point", "coordinates": [ 12.52265, 41.86886 ] } },
{ "type": "Feature", "properties": { "cls": "shared", "highway": "path", "name": null }, "geometry": { "type": "LineString", "coordinates": [ [ 12.522476, 41.868685 ], [ 12.522398, 41.868686 ], [ 12.521973, 41.868882 ], [ 12.521534, 41.86907 ], [ 12.521423, 41.869086 ], [ 12.521325, 41.869137 ] ] } },
{ "type": "Feature", "properties": { "cls": "shared", "highway": "path", "name": null }, "geometry": { "type": "LineString", "coordinates": [ [ 12.52149, 41.869326 ], [ 12.521721, 41.869192 ], [ 12.521892, 41.869109 ], [ 12.521958, 41.869018 ], [ 12.521973, 41.868882 ] ] } },
{ "type": "Feature", "properties": { "cls": "shared", "highway": "path", "name": null }, "geometry": { "type": "LineString", "coordinates": [ [ 12.521513, 41.869193 ], [ 12.521325, 41.869137 ], [ 12.521219, 41.869116 ], [ 12.521123, 41.869098 ], [ 12.521009, 41.869091 ], [ 12.52095, 41.869096 ], [ 12.520905, 41.869113 ] ] } },
{ "type": "Feature", "properties": { "cls": "shared", "highway": "path", "name": null }, "geometry": { "type": "LineString", "coordinates": [ [ 12.521219, 41.869116 ], [ 12.521239, 41.869254 ], [ 12.521437, 41.869309 ], [ 12.52149, 41.869326 ] ] } },
{ "type": "Feature", "properties": { "cls": "shared", "highway": "footway", "name": null }, "geometry": { "type": "Point", "coordinates": [ 12.521509, 41.869581 ] } },
{ "type": "Feature", "properties": { "cls": "painted", "highway": "tertiary", "name": "Viale delle Mura Latine" }, "geometry": { "type": "LineString", "coordinates": [ [ 12.502871, 41.873682 ], [ 12.502904, 41.873705 ], [ 12.502995, 41.873778 ], [ 12.503262, 41.874013 ], [ 12.5034, 41.874136 ], [ 12.503515, 41.874233 ], [ 12.503632, 41.874338 ], [ 12.503683, 41.874397 ], [ 12.50371, 41.874434 ], [ 12.503736, 41.874478 ], [ 12.503754, 41.874526 ], [ 12.503762, 41.87456 ], [ 12.503765, 41.874597 ] ] } },
{ "type": "Feature", "properties": { "cls": "painted", "highway": "tertiary", "name": "Viale delle Mura Latine" }, "geometry": { "type": "LineString", "coordinates": [ [ 12.503765, 41.874597 ], [ 12.503763, 41.874607 ] ] } },
{ "type": "Feature", "properties": { "cls": "shared", "highway": "cycleway", "name": null }, "geometry": { "type": "LineString", "coordinates": [ [ 12.497151, 41.873033 ], [ 12.49716, 41.873042 ], [ 12.498334, 41.873059 ], [ 12.499086, 41.873056 ], [ 12.50089, 41.873067 ], [ 12.500963, 41.873073 ], [ 12.501038, 41.873084 ], [ 12.501417, 41.873164 ], [ 12.501463, 41.873161 ] ] } },
{ "type": "Feature", "properties": { "cls": "shared", "highway": "cycleway", "name": null }, "geometry": { "type": "LineString", "coordinates": [ [ 12.501416, 41.873291 ], [ 12.501389, 41.87328 ], [ 12.501363, 41.87327 ], [ 12.50128, 41.873249 ], [ 12.50119, 41.873227 ], [ 12.501087, 41.873205 ], [ 12.501043, 41.873195 ], [ 12.500998, 41.873188 ], [ 12.500943, 41.873182 ], [ 12.500871, 41.87318 ], [ 12.499821, 41.873174 ], [ 12.499081, 41.873168 ], [ 12.498333, 41.873162 ], [ 12.497235, 41.873152 ], [ 12.497175, 41.873154 ], [ 12.497143, 41.873156 ] ] } }
]
}
