{
"type": "FeatureCollection",
"name": "023-san-antonio-government-canyon-state-natural-area",
"crs": { "type": "name", "properties": { "name": "urn:ogc:def:crs:OGC:1.3:CRS84" } },
"xy_coordinate_resolution": 1e-06,
"features": [
{ "type": "Feature", "properties": { "cls": "shared", "highway": "path", "name": "Lytle's Loop" }, "geometry": { "type": "LineString", "coordinates": [ [ -98.757324, 29.547114 ], [ -98.757315, 29.547173 ], [ -98.757304, 29.547219 ], [ -98.757274, 29.547258 ], [ -98.75726, 29.547308 ], [ -98.757256, 29.54736 ], [ -98.757238, 29.547409 ], [ -98.757212, 29.547454 ], [ -98.757221, 29.547526 ], [ -98.757245, 29.547595 ], [ -98.757292, 29.547654 ], [ -98.757316, 29.547704 ], [ -98.75733, 29.547767 ], [ -98.757339, 29.547878 ], [ -98.757347, 29.547942 ], [ -98.757349, 29.547978 ], [ -98.757363, 29.548003 ], [ -98.757406, 29.548045 ], [ -98.757463, 29.548104 ], [ -98.75752, 29.54821 ], [ -98.757529, 29.548247 ], [ -98.757555, 29.548263 ], [ -98.757601, 29.548286 ], [ -98.75764, 29.548326 ], [ -98.757655, 29.548379 ], [ -98.757655, 29.548436 ], [ -98.757622, 29.548493 ], [ -98.757593, 29.54854 ], [ -98.757604, 29.548581 ], [ -98.757632, 29.548651 ], [ -98.757671, 29.548746 ], [ -98.75767, 29.548799 ], [ -98.757656, 29.548918 ], [ -98.757683, 29.548934 ], [ -98.757717, 29.548945 ], [ -98.757768, 29.548945 ], [ -98.75781, 29.548956 ], [ -98.757872, 29.548957 ], [ -98.757923, 29.548941 ], [ -98.75807, 29.548849 ], [ -98.75819, 29.548718 ], [ -98.758212, 29.5487 ], [ -98.758233, 29.548697 ], [ -98.758343, 29.548737 ], [ -98.75837, 29.548733 ], [ -98.758384, 29.548723 ], [ -98.758421, 29.548699 ], [ -98.758468, 29.548703 ], [ -98.758569, 29.548747 ], [ -98.758608, 29.548792 ], [ -98.758609, 29.548854 ], [ -98.758627, 29.548885 ], [ -98.758655, 29.548896 ], [ -98.758768, 29.548915 ] ] } },
{ "type": "Feature", "properties": { "cls": "shared", "highway": "path", "name": null }, "geometry": { "type": "LineString", "coordinates": [ [ -98.764631, 29.548795 ], [ -98.764679, 29.548776 ], [ -98.764701, 29.548749 ], [ -98.764734, 29.548697 ], [ -98.764742, 29.548633 ], [ -98.76475, 29.548588 ], [ -98.764776, 29.548531 ] ] } },
{ "type": "Feature", "properties": { "cls": "shared", "highway": "path", "name": null }, "geometry": { "type": "LineString", "coordinates": [ [ -98.765022, 29.548606 ], [ -98.764955, 29.548794 ], [ -98.764921, 29.548833 ], [ -98.764839, 29.548905 ], [ -98.764802, 29.548952 ], [ -98.764734, 29.54904 ], [ -98.764675, 29.549088 ] ] } },
{ "type": "Feature", "properties": { "cls": "shared", "highway": "path", "name": null }, "geometry": { "type": "LineString", "coordinates": [ [ -98.765217, 29.548563 ], [ -98.765332, 29.548597 ], [ -98.765326, 29.548613 ], [ -98.765403, 29.548636 ], [ -98.765459, 29.54864 ], [ -98.765477, 29.548634 ], [ -98.765514, 29.548634 ], [ -98.765542, 29.548644 ], [ -98.765762, 29.548792 ], [ -98.765765, 29.548803 ], [ -98.765708, 29.548881 ], [ -98.76569, 29.548893 ], [ -98.765668, 29.54889 ], [ -98.76551, 29.549014 ], [ -98.765422, 29.549104 ], [ -98.765404, 29.549116 ], [ -98.765374, 29.549122 ], [ -98.764905, 29.549159 ], [ -98.764911, 29.549229 ], [ -98.764863, 29.549228 ], [ -98.764766, 29.549269 ], [ -98.764427, 29.549424 ] ] } },
{ "type": "Feature", "properties": { "cls": "shared", "highway": "path", "name": null }, "geometry": { "type": "LineString", "coordinates": [ [ -98.764766, 29.549269 ], [ -98.764675, 29.549088 ], [ -98.764574, 29.54889 ], [ -98.764509, 29.548864 ] ] } },
{ "type": "Feature", "properties": { "cls": "shared", "highway": "path", "name": "Campground Access Trail" }, "geometry": { "type": "LineString", "coordinates": [ [ -98.756572, 29.549993 ], [ -98.756523, 29.549906 ], [ -98.756521, 29.549858 ], [ -98.756569, 29.549704 ], [ -98.756635, 29.549581 ], [ -98.756676, 29.549549 ], [ -98.756777, 29.549527 ], [ -98.756836, 29.549459 ], [ -98.756848, 29.549378 ], [ -98.75684, 29.549294 ], [ -98.75682, 29.549189 ], [ -98.756821, 29.549142 ], [ -98.756839, 29.549098 ], [ -98.756948, 29.549026 ], [ -98.757102, 29.548946 ], [ -98.757254, 29.548925 ], [ -98.757433, 29.548939 ], [ -98.757577, 29.548935 ], [ -98.757656, 29.548918 ] ] } },
{ "type": "Feature", "properties": { "cls": "shared", "highway": "path", "name": null }, "geometry": { "type": "LineString", "coordinates": [ [ -98.764427, 29.549424 ], [ -98.764361, 29.549468 ], [ -98.764216, 29.549623 ], [ -98.763836, 29.549734 ], [ -98.763809, 29.549737 ], [ -98.763784, 29.549732 ] ] } },
{ "type": "Feature", "properties": { "cls": "shared", "highway": "path", "name": null }, "geometry": { "type": "LineString", "coordinates": [ [ -98.763784, 29.549732 ], [ -98.762642, 29.550052 ] ] } },
{ "type": "Feature", "properties": { "cls": "shared", "highway": "path", "name": null }, "geometry": { "type": "LineString", "coordinates": [ [ -98.762642, 29.550052 ], [ -98.762602, 29.550064 ] ] } },
{ "type": "Feature", "properties": { "cls": "shared", "highway": "path", "name": "Recharge Trail" }, "geometry": { "type": "LineString", "coordinates": [ [ -98.761663, 29.549929 ], [ -98.761319, 29.55009 ], [ -98.761192, 29.55015 ], [ -98.761139, 29.550265 ] ] } },
{ "type": "Feature", "properties": { "cls": "shared", "highway": "path", "name": "Savannah Loop" }, "geometry": { "type": "LineString", "coordinates": [ [ -98.756915, 29.546809 ], [ -98.756889, 29.546844 ], [ -98.756881, 29.546878 ], [ -98.756899, 29.546914 ], [ -98.756919, 29.546954 ], [ -98.756952, 29.546995 ], [ -98.756999, 29.547036 ], [ -98.757018, 29.5471 ], [ -98.757007, 29.547169 ], [ -98.756983, 29.547204 ], [ -98.756954, 29.54721 ], [ -98.7569, 29.54723 ], [ -98.756817, 29.547265 ], [ -98.756656, 29.547328 ], [ -98.756562, 29.547375 ], [ -98.756495, 29.547383 ], [ -98.756453, 29.547389 ], [ -98.756409, 29.547414 ], [ -98.756392, 29.54746 ], [ -98.756366, 29.547457 ], [ -98.756315, 29.547444 ], [ -98.756259, 29.547444 ], [ -98.756208, 29.547471 ], [ -98.756153, 29.547516 ], [ -98.75611, 29.547552 ], [ -98.756061, 29.547589 ], [ -98.755886, 29.547689 ], [ -98.755673, 29.547756 ], [ -98.755564, 29.54778 ], [ -98.755338, 29.547742 ], [ -98.755217, 29.547772 ], [ -98.755089, 29.547848 ], [ -98.754986, 29.547915 ], [ -98.754917, 29.548053 ], [ -98.754807, 29.548213 ], [ -98.754454, 29.548533 ], [ -98.754252, 29.548695 ], [ -98.754112, 29.548837 ], [ -98.754069, 29.548884 ], [ -98.753996, 29.549069 ], [ -98.753952, 29.549143 ], [ -98.753885, 29.549221 ], [ -98.753872, 29.549312 ], [ -98.753887, 29.549646 ], [ -98.75387, 29.549769 ], [ -98.753878, 29.549814 ], [ -98.753911, 29.549896 ], [ -98.753938, 29.54997 ], [ -98.753961, 29.55011 ], [ -98.753936, 29.550183 ], [ -98.753857, 29.550266 ], [ -98.753808, 29.550295 ], [ -98.753683, 29.550393 ], [ -98.753666, 29.550454 ], [ -98.753673, 29.550539 ], [ -98.753681, 29.550594 ], [ -98.753663, 29.550769 ], [ -98.753607, 29.550854 ], [ -98.753556, 29.550916 ], [ -98.753511, 29.55095 ], [ -98.75343, 29.550962 ], [ -98.753366, 29.550934 ], [ -98.753353, 29.550897 ], [ -98.753352, 29.550874 ], [ -98.753337, 29.550827 ], [ -98.75333, 29.550804 ], [ -98.753334, 29.550748 ], [ -98.753354, 29.550508 ], [ -98.753366, 29.550379 ], [ -98.753356, 29.550267 ], [ -98.753359, 29.550187 ], [ -98.753374, 29.550121 ], [ -98.753388, 29.550031 ], [ -98.753412, 29.549614 ], [ -98.753423, 29.549496 ], [ -98.753441, 29.54936 ], [ -98.753451, 29.549279 ], [ -98.753455, 29.549209 ], [ -98.753442, 29.549119 ], [ -98.753435, 29.54906 ], [ -98.753494, 29.548654 ], [ -98.753523, 29.548463 ], [ -98.753514, 29.547978 ], [ -98.753502, 29.547495 ], [ -98.753491, 29.547224 ], [ -98.753437, 29.546988 ], [ -98.753343, 29.546612 ], [ -98.753327, 29.546555 ], [ -98.753324, 29.546495 ], [ -98.753322, 29.546443 ], [ -98.753303, 29.546352 ], [ -98.753298, 29.546342 ], [ -98.753268, 29.546277 ], [ -98.753177, 29.546113 ], [ -98.753133, 29.546038 ], [ -98.753038, 29.545809 ], [ -98.753016, 29.545757 ], [ -98.752975, 29.545702 ], [ -98.752908, 29.545631 ], [ -98.752719, 29.545365 ], [ -98.752674, 29.545284 ], [ -98.752626, 29.545208 ], [ -98.752417, 29.54497 ], [ -98.752359, 29.544901 ], [ -98.752054, 29.544603 ], [ -98.751737, 29.544311 ], [ -98.75166, 29.544241 ], [ -98.75154, 29.544104 ], [ -98.751173, 29.543745 ], [ -98.750998, 29.543528 ], [ -98.750845, 29.543392 ], [ -98.750737, 29.543305 ], [ -98.75068, 29.54323 ], [ -98.750586, 29.543032 ], [ -98.750439, 29.542812 ], [ -98.750411, 29.542751 ], [ -98.750406, 29.542717 ], [ -98.750426, 29.54268 ], [ -98.750472, 29.542659 ], [ -98.75054, 29.542651 ], [ -98.75063, 29.542654 ], [ -98.750704, 29.542676 ], [ -98.750777, 29.542688 ], [ -98.750953, 29.542688 ], [ -98.750996, 29.542689 ], [ -98.75107, 29.542717 ], [ -98.751109, 29.542722 ], [ -98.751141, 29.542723 ], [ -98.751189, 29.54271 ], [ -98.751263, 29.542665 ], [ -98.751313, 29.54264 ], [ -98.751394, 29.542644 ], [ -98.751473, 29.542654 ], [ -98.751497, 29.542652 ], [ -98.751519, 29.542629 ], [ -98.751591, 29.542511 ], [ -98.751627, 29.542426 ], [ -98.751695, 29.542325 ], [ -98.751734, 29.542266 ], [ -98.751792, 29.542213 ], [ -98.751836, 29.542166 ], [ -98.751861, 29.542123 ], [ -98.751877, 29.5421 ], [ -98.751962, 29.542036 ], [ -98.751998, 29.542002 ], [ -98.752027, 29.541963 ], [ -98.752065, 29.541917 ], [ -98.752082, 29.541893 ], [ -98.752092, 29.541865 ], [ -98.752087, 29.541842 ], [ -98.752057, 29.541801 ], [ -98.752044, 29.541768 ], [ -98.752041, 29.541718 ], [ -98.752049, 29.541643 ], [ -98.75206, 29.541614 ], [ -98.752081, 29.541593 ], [ -98.752146, 29.541561 ], [ -98.752184, 29.54155 ], [ -98.752199, 29.54154 ], [ -98.752216, 29.541523 ], [ -98.752274, 29.541394 ], [ -98.752289, 29.541358 ], [ -98.752289, 29.541318 ], [ -98.752278, 29.541255 ], [ -98.752282, 29.541221 ], [ -98.752298, 29.541164 ], [ -98.752314, 29.541122 ], [ -98.75232, 29.541033 ], [ -98.752312, 29.54098 ], [ -98.752266, 29.540831 ], [ -98.752267, 29.540805 ], [ -98.752277, 29.540786 ], [ -98.752315, 29.540768 ], [ -98.752341, 29.540768 ], [ -98.752349, 29.540764 ], [ -98.75236, 29.540755 ], [ -98.752374, 29.540728 ], [ -98.752397, 29.540681 ], [ -98.752403, 29.540643 ], [ -98.752392, 29.540578 ], [ -98.752382, 29.540544 ], [ -98.752364, 29.540518 ], [ -98.752348, 29.540487 ], [ -98.752344, 29.540458 ], [ -98.752318, 29.540401 ], [ -98.752307, 29.540362 ], [ -98.752267, 29.540229 ], [ -98.752258, 29.540198 ], [ -98.752264, 29.54016 ], [ -98.752272, 29.540123 ], [ -98.752291, 29.540096 ], [ -98.75231, 29.540091 ], [ -98.752352, 29.5401 ], [ -98.75242, 29.540139 ], [ -98.752455, 29.540153 ], [ -98.752489, 29.54016 ], [ -98.752513, 29.540156 ], [ -98.752544, 29.540156 ], [ -98.75257, 29.540162 ], [ -98.75259, 29.540166 ], [ -98.752655, 29.540159 ], [ -98.752691, 29.540166 ], [ -98.752711, 29.540176 ], [ -98.752735, 29.540199 ], [ -98.752774, 29.540257 ], [ -98.752802, 29.540292 ], [ -98.752869, 29.540357 ], [ -98.753031, 29.540483 ], [ -98.753231, 29.54066 ], [ -98.753247, 29.540679 ], [ -98.753259, 29.540704 ], [ -98.753298, 29.540739 ], [ -98.753345, 29.540781 ], [ -98.753357, 29.540804 ], [ -98.753363, 29.540841 ], [ -98.753381, 29.540873 ], [ -98.753387, 29.540902 ], [ -98.753383, 29.540928 ], [ -98.75336, 29.540952 ], [ -98.753309, 29.540979 ], [ -98.753268, 29.541021 ], [ -98.753256, 29.541051 ], [ -98.753256, 29.541071 ], [ -98.753265, 29.541095 ], [ -98.753258, 29.541117 ], [ -98.753257, 29.54115 ], [ -98.753268, 29.541172 ], [ -98.753319, 29.541208 ], [ -98.753526, 29.541355 ], [ -98.753549, 29.54138 ], [ -98.753564, 29.541431 ], [ -98.753559, 29.541526 ], [ -98.753575, 29.541576 ], [ -98.753579, 29.541613 ], [ -98.753564, 29.541638 ], [ -98.753516, 29.541677 ], [ -98.753485, 29.541703 ], [ -98.75348, 29.541749 ], [ -98.753496, 29.541793 ], [ -98.753527, 29.541832 ], [ -98.753596, 29.541872 ], [ -98.753625, 29.541903 ], [ -98.753637, 29.541957 ], [ -98.753659, 29.541985 ], [ -98.753688, 29.542002 ], [ -98.75372, 29.542021 ], [ -98.753728, 29.542039 ], [ -98.753721, 29.542069 ], [ -98.753699, 29.54211 ], [ -98.753686, 29.54214 ], [ -98.75369, 29.542159 ], [ -98.753703, 29.54217 ], [ -98.753727, 29.542188 ], [ -98.753765, 29.542201 ], [ -98.753807, 29.542202 ], [ -98.753861, 29.542193 ], [ -98.753921, 29.542178 ], [ -98.75395, 29.542174 ], [ -98.753975, 29.542146 ], [ -98.754009, 29.542097 ], [ -98.754046, 29.541994 ], [ -98.75405, 29.541961 ], [ -98.75406, 29.541925 ], [ -98.754103, 29.54191 ], [ -98.754147, 29.541909 ], [ -98.754197, 29.541934 ], [ -98.75423, 29.541972 ], [ -98.754258, 29.54203 ], [ -98.754283, 29.54206 ], [ -98.754328, 29.542078 ], [ -98.75438, 29.542096 ], [ -98.754458, 29.542144 ], [ -98.754486, 29.542177 ], [ -98.754521, 29.542247 ], [ -98.75454, 29.542296 ], [ -98.754546, 29.542392 ], [ -98.754552, 29.542433 ], [ -98.754567, 29.542463 ], [ -98.754583, 29.542482 ], [ -98.754603, 29.542503 ], [ -98.754619, 29.542532 ], [ -98.75464, 29.54256 ], [ -98.754702, 29.542587 ], [ -98.754747, 29.542611 ], [ -98.754765, 29.542631 ], [ -98.754779, 29.542681 ], [ -98.754785, 29.542737 ], [ -98.754797, 29.542771 ], [ -98.754827, 29.542808 ], [ -98.754931, 29.542879 ], [ -98.75497, 29.542899 ], [ -98.755035, 29.542922 ], [ -98.755072, 29.542946 ], [ -98.755136, 29.542992 ], [ -98.755206, 29.543027 ], [ -98.755272, 29.543077 ], [ -98.755325, 29.543101 ], [ -98.755364, 29.543122 ], [ -98.755426, 29.543187 ], [ -98.755442, 29.543214 ], [ -98.755442, 29.543249 ], [ -98.755426, 29.543311 ], [ -98.755376, 29.543398 ], [ -98.755366, 29.543432 ], [ -98.755376, 29.543461 ], [ -98.75543, 29.543524 ], [ -98.755438, 29.543554 ], [ -98.755446, 29.543663 ], [ -98.755452, 29.543732 ], [ -98.755467, 29.54377 ], [ -98.755493, 29.54382 ], [ -98.755508, 29.543856 ], [ -98.755515, 29.543899 ], [ -98.755519, 29.54394 ], [ -98.755534, 29.543972 ], [ -98.755575, 29.544001 ], [ -98.755756, 29.544049 ], [ -98.75579, 29.544049 ], [ -98.75582, 29.544043 ], [ -98.755845, 29.544017 ], [ -98.755867, 29.544011 ], [ -98.755898, 29.544011 ], [ -98.755942, 29.544028 ], [ -98.755975, 29.544048 ], [ -98.756005, 29.544075 ], [ -98.756033, 29.544119 ], [ -98.756139, 29.544218 ], [ -98.756166, 29.544253 ], [ -98.756181, 29.544319 ], [ -98.756124, 29.544492 ], [ -98.756106, 29.54457 ], [ -98.756114, 29.544616 ], [ -98.756151, 29.544667 ], [ -98.756238, 29.544713 ], [ -98.756294, 29.544731 ], [ -98.756346, 29.544734 ], [ -98.756384, 29.544739 ], [ -98.756466, 29.544777 ], [ -98.756529, 29.54482 ], [ -98.756602, 29.544923 ], [ -98.756658, 29.54499 ], [ -98.756737, 29.545052 ], [ -98.756786, 29.545143 ], [ -98.756787, 29.545179 ], [ -98.756777, 29.545214 ], [ -98.756786, 29.545238 ], [ -98.756821, 29.545277 ], [ -98.756883, 29.545377 ], [ -98.757001, 29.545488 ], [ -98.757038, 29.545509 ], [ -98.757112, 29.545533 ], [ -98.757169, 29.545577 ], [ -98.757202, 29.545683 ], [ -98.7572, 29.54576 ], [ -98.757136, 29.545939 ], [ -98.757091, 29.546106 ], [ -98.757108, 29.546202 ], [ -98.757086, 29.546296 ], [ -98.757042, 29.546345 ], [ -98.757011, 29.546509 ], [ -98.757026, 29.546628 ], [ -98.756995, 29.546688 ], [ -98.756926, 29.546773 ], [ -98.756915, 29.546809 ] ] } },
{ "type": "Feature", "properties": { "cls": "shared", "highway": "path", "name": "Lytle's Loop" }, "geometry": { "type": "LineString", "coordinates": [ [ -98.756915, 29.546809 ], [ -98.757142, 29.546865 ], [ -98.757204, 29.546897 ], [ -98.757219, 29.546927 ], [ -98.757227, 29.546982 ], [ -98.757255, 29.547035 ], [ -98.757285, 29.547065 ], [ -98.757306, 29.54709 ], [ -98.757324, 29.547114 ], [ -98.757373, 29.547162 ], [ -98.757437, 29.547179 ], [ -98.757491, 29.547183 ], [ -98.757594, 29.547171 ], [ -98.757671, 29.547198 ], [ -98.757758, 29.547312 ], [ -98.757815, 29.547471 ], [ -98.757879, 29.547548 ], [ -98.75797, 29.547586 ], [ -98.758057, 29.547581 ], [ -98.758183, 29.547524 ], [ -98.758361, 29.547402 ], [ -98.758399, 29.547383 ], [ -98.758414, 29.547355 ], [ -98.758402, 29.547307 ], [ -98.758404, 29.547201 ], [ -98.75841, 29.547172 ], [ -98.758468, 29.547039 ], [ -98.758523, 29.546876 ], [ -98.758569, 29.546762 ], [ -98.758661, 29.546584 ], [ -98.758692, 29.546534 ], [ -98.758697, 29.546478 ], [ -98.758705, 29.546391 ], [ -98.758723, 29.546317 ], [ -98.758724, 29.546245 ], [ -98.758694, 29.546156 ], [ -98.758536, 29.545856 ], [ -98.758489, 29.545788 ], [ -98.758335, 29.545627 ], [ -98.758206, 29.545403 ], [ -98.758071, 29.545056 ], [ -98.757847, 29.544544 ], [ -98.757669, 29.544248 ], [ -98.75747, 29.544011 ], [ -98.757396, 29.543895 ], [ -98.757315, 29.543748 ], [ -98.75727, 29.543611 ], [ -98.757205, 29.543501 ], [ -98.757104, 29.543399 ], [ -98.756888, 29.543234 ], [ -98.756836, 29.543182 ], [ -98.756792, 29.543092 ], [ -98.756636, 29.542833 ], [ -98.756542, 29.54274 ], [ -98.756439, 29.542621 ], [ -98.75636, 29.542555 ], [ -98.755794, 29.542283 ], [ -98.755702, 29.542213 ], [ -98.755627, 29.542122 ], [ -98.755427, 29.541807 ], [ -98.755334, 29.54172 ], [ -98.755184, 29.541601 ], [ -98.755152, 29.541545 ], [ -98.755139, 29.541487 ], [ -98.755048, 29.541342 ], [ -98.754988, 29.541205 ], [ -98.754839, 29.54105 ], [ -98.754747, 29.540915 ], [ -98.754647, 29.540681 ], [ -98.754568, 29.540607 ], [ -98.753934, 29.540202 ], [ -98.753874, 29.540168 ], [ -98.753169, 29.539735 ], [ -98.752882, 29.539553 ], [ -98.752681, 29.539415 ], [ -98.752373, 29.539225 ], [ -98.752143, 29.5391 ], [ -98.75207, 29.539058 ], [ -98.751993, 29.539008 ], [ -98.751945, 29.538992 ], [ -98.751831, 29.53898 ], [ -98.751785, 29.538971 ], [ -98.751724, 29.538968 ], [ -98.751666, 29.538946 ], [ -98.751603, 29.538895 ], [ -98.751465, 29.538794 ], [ -98.751397, 29.538774 ], [ -98.751328, 29.538766 ], [ -98.75121, 29.538776 ], [ -98.751086, 29.538829 ], [ -98.751062, 29.538882 ], [ -98.751055, 29.539081 ], [ -98.75103, 29.539118 ], [ -98.751023, 29.539157 ], [ -98.751035, 29.539188 ], [ -98.751065, 29.539234 ], [ -98.751091, 29.539252 ], [ -98.751103, 29.539274 ], [ -98.751088, 29.539311 ], [ -98.751028, 29.539362 ], [ -98.75102, 29.539392 ], [ -98.75101, 29.539416 ], [ -98.751021, 29.539435 ], [ -98.751021, 29.53945 ], [ -98.751013, 29.539502 ], [ -98.751026, 29.539548 ], [ -98.75108, 29.539631 ], [ -98.751107, 29.539694 ], [ -98.751119, 29.539746 ], [ -98.751143, 29.539793 ], [ -98.751138, 29.53983 ], [ -98.751107, 29.539855 ], [ -98.751062, 29.539876 ], [ -98.750909, 29.539871 ], [ -98.75079, 29.539857 ], [ -98.750679, 29.539805 ], [ -98.750493, 29.539732 ], [ -98.750432, 29.539718 ], [ -98.750334, 29.539656 ], [ -98.750266, 29.539605 ], [ -98.750219, 29.539562 ], [ -98.750159, 29.53952 ], [ -98.750099, 29.539474 ], [ -98.750034, 29.53946 ], [ -98.749928, 29.539474 ], [ -98.749808, 29.539515 ], [ -98.74976, 29.539515 ], [ -98.749736, 29.539511 ], [ -98.749668, 29.539445 ], [ -98.749596, 29.539414 ], [ -98.749548, 29.539403 ], [ -98.749508, 29.539375 ], [ -98.749486, 29.539329 ], [ -98.749397, 29.539122 ], [ -98.749358, 29.53905 ], [ -98.749308, 29.539003 ], [ -98.749029, 29.53882 ], [ -98.748977, 29.538781 ], [ -98.748906, 29.538752 ], [ -98.748783, 29.538717 ], [ -98.748754, 29.538702 ], [ -98.748678, 29.538637 ], [ -98.748616, 29.538602 ], [ -98.748515, 29.538585 ], [ -98.74841, 29.538608 ], [ -98.74838, 29.538616 ], [ -98.748332, 29.538618 ], [ -98.748287, 29.538598 ], [ -98.748241, 29.538551 ], [ -98.748129, 29.53847 ], [ -98.747978, 29.538383 ], [ -98.747879, 29.538336 ], [ -98.747696, 29.538232 ], [ -98.747636, 29.538218 ], [ -98.747567, 29.53822 ], [ -98.747503, 29.538205 ], [ -98.747401, 29.538158 ], [ -98.747339, 29.538137 ], [ -98.747284, 29.538127 ], [ -98.747231, 29.53812 ], [ -98.747207, 29.538119 ], [ -98.747184, 29.53814 ], [ -98.747177, 29.538188 ], [ -98.747164, 29.538242 ], [ -98.747174, 29.538311 ], [ -98.74714, 29.538363 ], [ -98.747109, 29.538399 ], [ -98.747096, 29.538435 ], [ -98.747111, 29.538498 ], [ -98.747126, 29.538564 ], [ -98.747123, 29.538636 ], [ -98.747092, 29.538722 ], [ -98.747087, 29.538771 ], [ -98.747111, 29.538838 ], [ -98.747136, 29.538941 ], [ -98.747142, 29.539013 ], [ -98.747113, 29.539084 ], [ -98.747046, 29.539125 ], [ -98.746981, 29.539172 ], [ -98.746934, 29.5392 ], [ -98.746868, 29.539205 ], [ -98.746841, 29.539194 ], [ -98.7468, 29.539179 ], [ -98.746749, 29.539185 ], [ -98.746729, 29.539213 ], [ -98.746739, 29.539242 ], [ -98.74676, 29.539288 ], [ -98.746774, 29.539323 ], [ -98.746774, 29.539433 ], [ -98.746692, 29.539536 ], [ -98.746601, 29.539574 ], [ -98.746547, 29.539593 ], [ -98.746484, 29.539699 ], [ -98.746442, 29.539737 ], [ -98.746405, 29.539787 ], [ -98.746403, 29.539834 ], [ -98.746431, 29.539901 ], [ -98.746445, 29.53995 ], [ -98.746469, 29.539982 ], [ -98.746527, 29.54002 ], [ -98.746583, 29.540041 ], [ -98.746612, 29.540062 ], [ -98.746629, 29.540099 ], [ -98.746648, 29.540198 ], [ -98.746627, 29.540292 ], [ -98.746595, 29.540348 ], [ -98.746584, 29.540414 ], [ -98.746584, 29.540459 ], [ -98.74657, 29.540487 ], [ -98.746554, 29.5405 ], [ -98.746521, 29.540517 ], [ -98.746495, 29.540536 ], [ -98.746481, 29.540552 ], [ -98.746477, 29.540574 ], [ -98.746474, 29.540641 ], [ -98.746469, 29.540682 ], [ -98.746454, 29.540712 ], [ -98.746428, 29.54073 ], [ -98.746412, 29.540737 ], [ -98.746374, 29.540737 ], [ -98.746335, 29.540722 ], [ -98.746302, 29.540703 ], [ -98.746275, 29.540697 ], [ -98.746242, 29.540696 ], [ -98.746221, 29.540702 ], [ -98.746113, 29.54083 ], [ -98.746092, 29.540869 ], [ -98.746076, 29.540916 ], [ -98.746062, 29.540998 ], [ -98.746045, 29.541047 ], [ -98.745963, 29.541179 ], [ -98.745921, 29.541244 ], [ -98.745889, 29.54127 ], [ -98.745801, 29.541319 ], [ -98.745751, 29.54134 ], [ -98.745708, 29.541369 ], [ -98.745595, 29.541479 ], [ -98.745571, 29.541535 ], [ -98.745578, 29.541584 ], [ -98.745602, 29.541611 ], [ -98.745623, 29.541656 ], [ -98.745622, 29.541719 ], [ -98.745605, 29.541777 ], [ -98.74562, 29.541821 ], [ -98.745631, 29.541843 ], [ -98.745623, 29.541892 ], [ -98.745605, 29.541947 ], [ -98.745596, 29.542027 ], [ -98.745591, 29.542131 ], [ -98.745578, 29.542159 ], [ -98.745563, 29.542175 ], [ -98.745519, 29.542197 ], [ -98.745485, 29.542221 ], [ -98.745472, 29.542248 ], [ -98.745473, 29.542297 ], [ -98.745489, 29.542385 ], [ -98.745483, 29.542478 ], [ -98.74543, 29.542591 ], [ -98.745406, 29.542632 ], [ -98.745394, 29.54268 ], [ -98.745381, 29.542714 ], [ -98.745344, 29.542751 ], [ -98.745285, 29.542809 ], [ -98.745274, 29.542836 ], [ -98.745268, 29.542894 ], [ -98.745247, 29.542943 ], [ -98.745159, 29.543088 ], [ -98.745145, 29.543119 ], [ -98.745119, 29.543146 ], [ -98.745095, 29.543182 ], [ -98.745086, 29.54324 ], [ -98.745064, 29.543284 ], [ -98.745001, 29.543367 ], [ -98.744974, 29.543385 ], [ -98.744917, 29.543409 ], [ -98.744887, 29.543442 ], [ -98.744852, 29.543515 ], [ -98.744841, 29.543576 ], [ -98.744836, 29.543623 ], [ -98.744797, 29.54372 ], [ -98.744793, 29.543761 ], [ -98.744787, 29.543801 ], [ -98.744775, 29.543846 ], [ -98.744683, 29.544021 ], [ -98.744669, 29.544074 ], [ -98.744648, 29.544235 ], [ -98.744633, 29.54427 ], [ -98.744597, 29.544328 ], [ -98.744581, 29.54436 ], [ -98.744561, 29.544403 ], [ -98.744494, 29.544457 ], [ -98.744468, 29.544493 ], [ -98.744402, 29.544593 ], [ -98.744367, 29.544616 ], [ -98.744262, 29.544676 ], [ -98.744201, 29.544734 ], [ -98.744128, 29.544845 ], [ -98.744067, 29.544903 ], [ -98.744034, 29.544936 ], [ -98.744025, 29.544952 ], [ -98.744025, 29.544972 ], [ -98.744027, 29.545021 ], [ -98.744005, 29.545067 ], [ -98.743947, 29.545141 ], [ -98.743911, 29.545161 ], [ -98.743896, 29.545172 ], [ -98.743875, 29.545207 ], [ -98.743872, 29.545254 ], [ -98.743875, 29.545295 ], [ -98.743865, 29.54533 ], [ -98.743845, 29.545367 ], [ -98.743784, 29.545422 ], [ -98.74375, 29.545438 ], [ -98.743706, 29.545456 ], [ -98.743678, 29.54548 ], [ -98.743638, 29.545529 ], [ -98.743612, 29.545582 ], [ -98.743586, 29.545662 ], [ -98.743584, 29.545695 ], [ -98.7436, 29.545729 ], [ -98.743602, 29.545751 ], [ -98.743593, 29.545788 ], [ -98.743579, 29.545865 ], [ -98.743551, 29.545894 ], [ -98.743506, 29.54592 ], [ -98.743484, 29.545938 ], [ -98.743458, 29.545995 ], [ -98.743398, 29.546155 ], [ -98.743368, 29.546188 ], [ -98.74336, 29.546214 ], [ -98.743368, 29.546237 ], [ -98.743393, 29.546261 ], [ -98.743434, 29.54628 ], [ -98.743482, 29.546284 ], [ -98.743767, 29.546321 ], [ -98.743802, 29.546334 ], [ -98.743836, 29.546375 ], [ -98.743897, 29.546523 ], [ -98.743902, 29.546568 ], [ -98.743881, 29.546614 ], [ -98.743778, 29.546706 ], [ -98.74375, 29.546739 ], [ -98.743729, 29.546762 ], [ -98.743705, 29.546778 ], [ -98.743659, 29.546789 ], [ -98.743606, 29.546801 ], [ -98.743551, 29.546856 ], [ -98.743494, 29.546887 ], [ -98.743446, 29.546895 ], [ -98.743415, 29.546896 ], [ -98.743333, 29.546878 ], [ -98.743283, 29.546883 ], [ -98.743211, 29.546913 ], [ -98.743138, 29.54695 ], [ -98.743044, 29.546999 ], [ -98.742972, 29.547025 ], [ -98.742882, 29.54708 ], [ -98.74282, 29.547136 ], [ -98.742534, 29.547359 ], [ -98.742467, 29.547384 ], [ -98.742397, 29.547414 ], [ -98.74233, 29.547484 ], [ -98.742181, 29.547639 ], [ -98.74212, 29.547729 ], [ -98.742043, 29.547891 ], [ -98.741998, 29.547988 ], [ -98.741956, 29.548104 ], [ -98.741945, 29.548174 ], [ -98.741909, 29.548252 ], [ -98.741883, 29.548337 ], [ -98.741859, 29.548416 ], [ -98.741831, 29.548505 ], [ -98.741787, 29.548561 ], [ -98.741653, 29.548728 ], [ -98.741526, 29.548916 ], [ -98.741378, 29.549183 ], [ -98.741329, 29.549283 ], [ -98.741314, 29.54939 ], [ -98.741334, 29.54953 ], [ -98.741329, 29.549625 ], [ -98.741296, 29.549773 ], [ -98.741213, 29.549911 ], [ -98.741178, 29.550004 ], [ -98.741157, 29.550106 ], [ -98.741082, 29.550253 ], [ -98.741035, 29.550314 ], [ -98.740953, 29.550449 ], [ -98.740903, 29.550514 ], [ -98.740853, 29.550566 ], [ -98.740802, 29.550619 ], [ -98.740782, 29.550674 ], [ -98.740793, 29.550779 ], [ -98.740802, 29.550859 ], [ -98.740781, 29.550918 ], [ -98.740771, 29.550961 ], [ -98.740779, 29.55101 ], [ -98.740772, 29.551067 ], [ -98.74078, 29.551105 ], [ -98.7408, 29.551136 ], [ -98.740831, 29.551193 ], [ -98.740823, 29.551347 ], [ -98.740823, 29.55141 ], [ -98.740835, 29.551432 ], [ -98.74084, 29.551457 ], [ -98.740832, 29.551475 ], [ -98.740803, 29.551487 ], [ -98.740782, 29.551487 ], [ -98.740759, 29.551478 ], [ -98.740688, 29.551454 ], [ -98.74057, 29.55144 ], [ -98.740502, 29.551469 ], [ -98.740452, 29.55152 ], [ -98.740411, 29.551576 ], [ -98.740361, 29.55166 ], [ -98.740351, 29.551693 ], [ -98.74034, 29.551769 ], [ -98.740324, 29.551813 ], [ -98.740319, 29.551857 ], [ -98.740327, 29.551951 ], [ -98.740347, 29.552036 ], [ -98.740382, 29.552146 ], [ -98.740398, 29.552218 ], [ -98.74039, 29.552293 ], [ -98.740385, 29.552379 ], [ -98.740376, 29.552452 ], [ -98.740334, 29.55253 ], [ -98.740302, 29.552621 ], [ -98.740222, 29.552742 ], [ -98.740207, 29.552773 ], [ -98.740201, 29.552802 ], [ -98.740195, 29.552834 ], [ -98.740177, 29.552865 ], [ -98.740161, 29.552899 ], [ -98.740153, 29.552924 ], [ -98.740156, 29.55295 ], [ -98.740191, 29.553006 ], [ -98.740213, 29.553062 ], [ -98.740245, 29.553137 ], [ -98.740281, 29.553152 ], [ -98.740319, 29.553148 ], [ -98.740353, 29.55311 ], [ -98.740451, 29.552994 ], [ -98.740491, 29.552951 ], [ -98.740503, 29.552907 ], [ -98.740572, 29.552799 ], [ -98.740671, 29.552658 ], [ -98.74073, 29.552578 ], [ -98.740746, 29.552543 ], [ -98.740776, 29.552455 ], [ -98.740786, 29.552428 ], [ -98.740801, 29.552406 ], [ -98.74086, 29.552369 ], [ -98.740896, 29.552332 ], [ -98.740928, 29.552258 ], [ -98.740926, 29.552208 ], [ -98.74093, 29.55218 ], [ -98.740944, 29.552167 ], [ -98.740965, 29.552177 ], [ -98.740981, 29.55219 ], [ -98.741007, 29.552139 ], [ -98.741066, 29.552081 ], [ -98.741163, 29.552002 ], [ -98.741294, 29.551974 ], [ -98.741622, 29.551969 ], [ -98.74176, 29.551959 ], [ -98.741793, 29.551953 ], [ -98.741817, 29.551955 ], [ -98.741861, 29.55201 ], [ -98.74189, 29.552035 ], [ -98.741928, 29.552032 ], [ -98.741988, 29.551972 ], [ -98.742022, 29.551833 ], [ -98.742063, 29.551763 ], [ -98.742109, 29.551728 ], [ -98.742123, 29.551692 ], [ -98.742149, 29.55156 ], [ -98.742143, 29.551422 ], [ -98.742088, 29.551306 ], [ -98.742088, 29.551253 ], [ -98.742121, 29.55117 ], [ -98.742207, 29.550969 ], [ -98.742198, 29.550891 ], [ -98.742208, 29.550811 ], [ -98.74223, 29.550738 ], [ -98.742253, 29.550706 ], [ -98.742456, 29.550667 ], [ -98.742667, 29.55069 ], [ -98.742875, 29.550678 ], [ -98.743026, 29.550598 ], [ -98.743038, 29.550555 ], [ -98.743048, 29.550515 ], [ -98.743078, 29.550482 ], [ -98.743138, 29.550449 ], [ -98.743173, 29.550403 ], [ -98.743175, 29.550346 ], [ -98.743156, 29.550297 ], [ -98.743081, 29.550227 ], [ -98.743045, 29.550178 ], [ -98.743014, 29.550107 ], [ -98.742983, 29.550073 ], [ -98.74291, 29.550038 ], [ -98.74287, 29.550016 ], [ -98.742833, 29.549965 ], [ -98.742746, 29.549864 ], [ -98.742723, 29.549807 ], [ -98.742725, 29.549784 ], [ -98.742747, 29.549749 ], [ -98.742753, 29.549726 ], [ -98.742758, 29.549705 ], [ -98.742795, 29.549683 ], [ -98.742817, 29.549666 ], [ -98.742872, 29.549641 ], [ -98.742907, 29.549635 ], [ -98.742936, 29.54963 ], [ -98.743004, 29.549609 ], [ -98.743048, 29.549558 ], [ -98.743073, 29.549536 ], [ -98.743081, 29.549509 ], [ -98.743066, 29.549474 ], [ -98.743036, 29.54934 ], [ -98.743022, 29.549291 ], [ -98.743002, 29.549261 ], [ -98.742927, 29.549169 ], [ -98.74291, 29.549142 ], [ -98.742922, 29.549112 ], [ -98.742948, 29.549097 ], [ -98.742977, 29.549068 ], [ -98.742984, 29.549045 ], [ -98.742973, 29.548937 ], [ -98.742983, 29.54886 ], [ -98.742996, 29.548825 ], [ -98.743134, 29.5487 ], [ -98.743205, 29.548658 ], [ -98.743254, 29.548644 ], [ -98.74329, 29.54864 ], [ -98.743344, 29.548627 ], [ -98.743413, 29.548606 ], [ -98.743457, 29.548594 ], [ -98.743496, 29.548571 ], [ -98.743522, 29.548526 ], [ -98.743578, 29.548437 ], [ -98.743623, 29.548377 ], [ -98.743692, 29.548344 ], [ -98.743796, 29.548339 ], [ -98.743873, 29.548337 ], [ -98.743956, 29.548344 ], [ -98.743998, 29.548339 ], [ -98.744033, 29.548321 ], [ -98.744118, 29.548219 ], [ -98.744156, 29.548182 ], [ -98.744217, 29.548159 ], [ -98.744327, 29.548128 ], [ -98.744398, 29.548087 ], [ -98.744466, 29.548066 ], [ -98.744555, 29.548055 ], [ -98.744634, 29.548047 ], [ -98.744668, 29.548033 ], [ -98.744687, 29.548011 ], [ -98.744695, 29.547971 ], [ -98.744688, 29.547935 ], [ -98.744695, 29.547908 ], [ -98.744709, 29.547878 ], [ -98.744793, 29.547789 ], [ -98.744815, 29.547753 ], [ -98.744827, 29.547708 ], [ -98.744827, 29.547671 ], [ -98.744809, 29.547601 ], [ -98.744802, 29.547541 ], [ -98.744807, 29.54743 ], [ -98.744818, 29.547383 ], [ -98.744836, 29.547339 ], [ -98.744875, 29.547307 ], [ -98.74495, 29.54727 ], [ -98.74498, 29.547238 ], [ -98.745024, 29.547221 ], [ -98.745063, 29.547215 ], [ -98.745089, 29.547212 ], [ -98.745114, 29.547201 ], [ -98.745126, 29.547176 ], [ -98.745131, 29.547135 ], [ -98.74511, 29.5471 ], [ -98.745088, 29.547064 ], [ -98.745084, 29.547036 ], [ -98.745095, 29.547002 ], [ -98.745114, 29.546962 ], [ -98.745127, 29.546894 ], [ -98.745108, 29.546841 ], [ -98.745078, 29.546809 ], [ -98.745066, 29.546774 ], [ -98.74503, 29.546728 ], [ -98.744999, 29.546713 ], [ -98.744906, 29.546675 ], [ -98.744878, 29.546652 ], [ -98.74487, 29.546621 ], [ -98.74487, 29.546572 ], [ -98.744868, 29.546503 ], [ -98.744844, 29.546458 ], [ -98.744833, 29.546433 ], [ -98.744836, 29.546408 ], [ -98.744843, 29.546386 ], [ -98.744861, 29.546376 ], [ -98.744883, 29.546375 ], [ -98.744911, 29.546378 ], [ -98.744937, 29.546386 ], [ -98.744967, 29.546386 ], [ -98.745023, 29.54638 ], [ -98.745092, 29.546383 ], [ -98.745131, 29.546379 ], [ -98.745141, 29.546359 ], [ -98.745177, 29.54632 ], [ -98.745198, 29.546306 ], [ -98.745208, 29.546272 ], [ -98.7452, 29.546215 ], [ -98.745197, 29.546163 ], [ -98.745205, 29.54612 ], [ -98.745225, 29.546096 ], [ -98.745257, 29.546079 ], [ -98.74532, 29.546059 ], [ -98.745344, 29.546036 ], [ -98.745352, 29.546017 ], [ -98.745345, 29.545988 ], [ -98.745339, 29.545963 ], [ -98.745348, 29.545938 ], [ -98.745369, 29.545913 ], [ -98.745379, 29.545884 ], [ -98.745385, 29.545824 ], [ -98.745383, 29.545782 ], [ -98.745397, 29.545757 ], [ -98.745421, 29.545733 ], [ -98.74546, 29.545695 ], [ -98.745472, 29.545672 ], [ -98.745471, 29.545651 ], [ -98.745453, 29.545628 ], [ -98.745437, 29.545592 ], [ -98.745432, 29.545553 ], [ -98.745459, 29.545446 ], [ -98.745464, 29.545415 ], [ -98.745457, 29.545391 ], [ -98.74546, 29.545365 ], [ -98.745475, 29.545338 ], [ -98.745495, 29.545322 ], [ -98.745525, 29.545312 ], [ -98.745577, 29.545318 ], [ -98.74562, 29.545317 ], [ -98.745699, 29.54528 ], [ -98.745737, 29.545256 ], [ -98.745758, 29.545229 ], [ -98.745791, 29.545136 ], [ -98.745818, 29.545092 ], [ -98.745854, 29.545067 ], [ -98.74592, 29.545026 ], [ -98.745946, 29.545005 ], [ -98.745983, 29.544953 ], [ -98.746017, 29.544921 ], [ -98.746076, 29.544906 ], [ -98.746107, 29.544906 ], [ -98.746157, 29.544913 ], [ -98.746202, 29.544905 ], [ -98.746319, 29.54487 ], [ -98.746349, 29.544853 ], [ -98.746376, 29.544802 ], [ -98.746421, 29.544734 ], [ -98.746435, 29.544695 ], [ -98.746451, 29.54465 ], [ -98.746464, 29.544618 ], [ -98.746479, 29.544598 ], [ -98.746505, 29.544557 ], [ -98.746519, 29.544514 ], [ -98.746526, 29.544464 ], [ -98.746526, 29.544366 ], [ -98.746537, 29.54433 ], [ -98.746563, 29.544294 ], [ -98.746601, 29.544256 ], [ -98.746619, 29.544225 ], [ -98.746626, 29.544198 ], [ -98.746632, 29.544158 ], [ -98.746637, 29.544124 ], [ -98.746648, 29.544098 ], [ -98.746641, 29.544064 ], [ -98.746623, 29.544028 ], [ -98.746595, 29.543989 ], [ -98.746595, 29.543969 ], [ -98.746607, 29.543948 ], [ -98.746643, 29.54393 ], [ -98.746689, 29.543933 ], [ -98.746737, 29.543942 ], [ -98.746814, 29.54398 ], [ -98.746871, 29.543989 ], [ -98.746941, 29.543987 ], [ -98.746989, 29.543989 ], [ -98.747038, 29.543998 ], [ -98.747071, 29.544015 ], [ -98.747119, 29.544049 ], [ -98.74715, 29.544061 ], [ -98.747197, 29.544063 ], [ -98.747223, 29.544054 ], [ -98.747256, 29.544017 ], [ -98.747357, 29.543836 ], [ -98.747441, 29.543633 ], [ -98.747581, 29.543384 ], [ -98.747679, 29.5432 ], [ -98.747711, 29.543166 ], [ -98.747736, 29.543161 ], [ -98.747771, 29.543161 ], [ -98.747794, 29.543168 ], [ -98.748259, 29.543343 ], [ -98.748278, 29.543364 ], [ -98.748275, 29.543404 ], [ -98.748253, 29.543481 ], [ -98.74825, 29.543525 ], [ -98.748263, 29.543556 ], [ -98.748283, 29.543582 ], [ -98.748331, 29.543611 ], [ -98.748366, 29.543643 ], [ -98.748404, 29.543681 ], [ -98.748458, 29.54373 ], [ -98.748505, 29.543811 ], [ -98.748541, 29.543865 ], [ -98.748542, 29.54392 ], [ -98.748542, 29.543989 ], [ -98.748536, 29.544036 ], [ -98.748521, 29.544065 ], [ -98.748511, 29.544108 ], [ -98.748521, 29.544142 ], [ -98.748547, 29.544172 ], [ -98.748593, 29.544197 ], [ -98.748683, 29.54426 ], [ -98.748756, 29.544323 ], [ -98.748799, 29.544341 ], [ -98.748915, 29.544397 ], [ -98.748953, 29.544431 ], [ -98.748986, 29.544503 ], [ -98.749018, 29.544547 ], [ -98.749051, 29.544567 ], [ -98.749146, 29.54461 ], [ -98.749205, 29.544658 ], [ -98.749234, 29.544691 ], [ -98.749245, 29.544736 ], [ -98.749238, 29.544789 ], [ -98.749204, 29.544825 ], [ -98.74916, 29.544846 ], [ -98.749122, 29.544858 ], [ -98.749053, 29.544869 ], [ -98.748955, 29.544877 ], [ -98.748894, 29.544898 ], [ -98.748846, 29.544942 ], [ -98.748644, 29.545201 ], [ -98.748544, 29.545327 ], [ -98.748496, 29.545418 ], [ -98.748492, 29.545458 ], [ -98.748504, 29.545497 ], [ -98.748565, 29.545609 ], [ -98.748591, 29.545629 ], [ -98.748635, 29.545639 ], [ -98.748681, 29.545635 ], [ -98.748723, 29.545628 ], [ -98.748788, 29.545638 ], [ -98.74884, 29.545651 ], [ -98.748888, 29.545656 ], [ -98.748928, 29.545649 ], [ -98.748964, 29.545649 ], [ -98.748997, 29.54566 ], [ -98.749061, 29.545715 ], [ -98.749089, 29.545727 ], [ -98.749114, 29.54573 ], [ -98.749284, 29.545742 ], [ -98.749331, 29.545754 ], [ -98.749363, 29.545775 ], [ -98.749389, 29.545797 ], [ -98.749415, 29.545808 ], [ -98.749453, 29.545808 ], [ -98.749497, 29.545798 ], [ -98.74956, 29.545782 ], [ -98.749624, 29.545793 ], [ -98.749684, 29.545811 ], [ -98.749714, 29.54582 ], [ -98.749755, 29.545815 ], [ -98.749788, 29.545788 ], [ -98.749843, 29.545738 ], [ -98.749904, 29.545719 ], [ -98.749935, 29.545718 ], [ -98.749974, 29.545727 ], [ -98.750004, 29.545731 ], [ -98.750057, 29.545723 ], [ -98.750092, 29.545721 ], [ -98.750124, 29.545728 ], [ -98.750184, 29.545764 ], [ -98.750236, 29.545786 ], [ -98.750392, 29.545842 ], [ -98.750412, 29.545863 ], [ -98.750415, 29.545884 ], [ -98.750419, 29.545919 ], [ -98.750435, 29.545936 ], [ -98.750453, 29.545939 ], [ -98.750495, 29.545939 ], [ -98.750534, 29.545948 ], [ -98.750584, 29.54596 ], [ -98.750627, 29.545954 ], [ -98.750711, 29.545935 ], [ -98.750755, 29.545922 ], [ -98.750792, 29.545913 ], [ -98.750838, 29.54592 ], [ -98.750938, 29.545966 ], [ -98.750974, 29.545974 ], [ -98.751007, 29.54597 ], [ -98.751026, 29.54596 ], [ -98.751051, 29.545918 ], [ -98.751063, 29.545893 ], [ -98.751079, 29.545882 ], [ -98.751104, 29.545884 ], [ -98.751142, 29.545903 ], [ -98.751155, 29.545945 ], [ -98.751189, 29.54599 ], [ -98.75122, 29.546016 ], [ -98.751265, 29.546026 ], [ -98.751321, 29.546024 ], [ -98.751377, 29.546032 ], [ -98.751461, 29.546062 ], [ -98.75151, 29.546078 ], [ -98.751547, 29.546087 ], [ -98.751579, 29.546094 ], [ -98.751705, 29.546101 ], [ -98.751772, 29.546102 ], [ -98.751839, 29.54609 ], [ -98.751931, 29.546054 ], [ -98.751969, 29.546026 ], [ -98.751982, 29.546006 ], [ -98.751999, 29.545981 ], [ -98.752036, 29.545915 ], [ -98.752084, 29.545885 ], [ -98.752138, 29.545857 ], [ -98.752182, 29.545857 ], [ -98.752233, 29.54587 ], [ -98.752269, 29.545896 ], [ -98.752365, 29.545948 ], [ -98.752407, 29.545959 ], [ -98.75244, 29.545963 ], [ -98.752568, 29.545992 ], [ -98.752617, 29.546017 ], [ -98.752644, 29.546054 ], [ -98.752656, 29.546091 ], [ -98.752661, 29.546115 ], [ -98.752661, 29.546157 ], [ -98.752655, 29.546201 ], [ -98.75267, 29.546234 ], [ -98.752702, 29.546282 ], [ -98.752771, 29.546327 ], [ -98.752821, 29.546343 ], [ -98.752902, 29.546356 ], [ -98.7531, 29.54637 ], [ -98.753149, 29.546376 ], [ -98.753209, 29.546376 ], [ -98.753253, 29.54637 ], [ -98.753298, 29.546342 ], [ -98.753338, 29.546317 ], [ -98.753367, 29.546314 ], [ -98.753413, 29.546328 ], [ -98.753568, 29.546438 ], [ -98.753615, 29.546483 ], [ -98.753617, 29.546521 ], [ -98.753619, 29.546594 ], [ -98.753631, 29.546635 ], [ -98.753668, 29.546664 ], [ -98.753751, 29.5467 ], [ -98.753802, 29.546726 ], [ -98.753873, 29.546758 ], [ -98.753911, 29.546805 ], [ -98.753923, 29.546828 ], [ -98.753938, 29.546888 ], [ -98.753968, 29.546917 ], [ -98.75402, 29.546908 ], [ -98.754081, 29.546893 ], [ -98.754129, 29.546896 ], [ -98.754171, 29.54691 ], [ -98.754245, 29.546934 ], [ -98.754296, 29.546957 ], [ -98.75432, 29.546981 ], [ -98.754345, 29.547033 ], [ -98.754359, 29.547047 ], [ -98.75438, 29.547056 ], [ -98.754415, 29.547058 ], [ -98.75446, 29.547043 ], [ -98.754501, 29.547029 ], [ -98.754537, 29.547023 ], [ -98.754595, 29.546986 ], [ -98.754674, 29.546954 ], [ -98.754799, 29.546963 ], [ -98.754844, 29.546931 ], [ -98.75488, 29.546927 ], [ -98.754921, 29.546951 ], [ -98.754958, 29.546962 ], [ -98.755011, 29.546975 ], [ -98.755058, 29.54697 ], [ -98.755103, 29.54696 ], [ -98.755168, 29.546898 ], [ -98.755211, 29.546901 ], [ -98.755278, 29.546922 ], [ -98.755343, 29.546947 ], [ -98.75539, 29.546981 ], [ -98.755435, 29.546997 ], [ -98.755556, 29.547002 ], [ -98.7556, 29.546978 ], [ -98.755662, 29.546986 ], [ -98.755704, 29.547009 ], [ -98.755777, 29.547004 ], [ -98.755834, 29.547001 ], [ -98.755892, 29.547002 ], [ -98.755952, 29.547034 ], [ -98.755977, 29.547041 ], [ -98.756016, 29.547035 ], [ -98.756075, 29.547001 ], [ -98.756136, 29.546997 ], [ -98.756207, 29.547012 ], [ -98.756268, 29.54701 ], [ -98.756366, 29.546983 ], [ -98.756417, 29.546993 ], [ -98.756446, 29.54702 ], [ -98.756497, 29.547033 ], [ -98.756548, 29.54702 ], [ -98.756605, 29.546975 ], [ -98.756623, 29.546936 ], [ -98.756599, 29.546866 ], [ -98.756617, 29.54685 ], [ -98.756655, 29.546844 ], [ -98.756681, 29.546848 ], [ -98.756761, 29.546872 ], [ -98.756832, 29.546881 ], [ -98.756881, 29.546878 ] ] } },
{ "type": "Feature", "properties": { "cls": "shared", "highway": "path", "name": "Campground Access Trail" }, "geometry": { "type": "LineString", "coordinates": [ [ -98.754763, 29.551642 ], [ -98.754691, 29.551578 ], [ -98.754627, 29.551522 ], [ -98.754593, 29.551461 ], [ -98.754589, 29.551422 ], [ -98.754559, 29.551311 ], [ -98.754568, 29.551267 ], [ -98.754598, 29.551152 ], [ -98.75458, 29.551112 ], [ -98.754554, 29.551045 ], [ -98.754562, 29.551004 ], [ -98.754603, 29.550924 ], [ -98.754589, 29.550852 ], [ -98.754559, 29.550769 ], [ -98.754546, 29.550663 ], [ -98.754558, 29.550562 ], [ -98.75458, 29.550368 ], [ -98.754465, 29.550241 ], [ -98.754447, 29.550145 ], [ -98.754455, 29.550024 ], [ -98.75447, 29.549991 ], [ -98.75474, 29.549837 ], [ -98.755211, 29.549432 ], [ -98.755242, 29.549397 ], [ -98.755253, 29.549315 ], [ -98.755256, 29.54926 ], [ -98.755281, 29.549228 ], [ -98.755324, 29.549182 ], [ -98.755422, 29.549143 ], [ -98.755505, 29.549116 ], [ -98.755627, 29.548957 ], [ -98.755673, 29.548931 ], [ -98.755717, 29.548908 ], [ -98.755904, 29.548878 ], [ -98.756043, 29.5488 ], [ -98.756209, 29.548575 ], [ -98.756274, 29.548449 ], [ -98.756429, 29.548262 ], [ -98.756517, 29.548185 ], [ -98.75655, 29.548051 ], [ -98.756545, 29.547951 ], [ -98.756512, 29.547828 ], [ -98.756431, 29.547759 ], [ -98.756298, 29.547733 ], [ -98.756232, 29.547697 ], [ -98.75611, 29.547552 ] ] } },
{ "type": "Feature", "properties": { "cls": "shared", "highway": "path", "name": null }, "geometry": { "type": "LineString", "coordinates": [ [ -98.754712, 29.550414 ], [ -98.754643, 29.550405 ], [ -98.75458, 29.550368 ] ] } },
{ "type": "Feature", "properties": { "cls": "shared", "highway": "path", "name": null }, "geometry": { "type": "LineString", "coordinates": [ [ -98.754558, 29.550562 ], [ -98.754351, 29.550538 ], [ -98.754323, 29.550516 ] ] } },
{ "type": "Feature", "properties": { "cls": "shared", "highway": "path", "name": null }, "geometry": { "type": "LineString", "coordinates": [ [ -98.754693, 29.550621 ], [ -98.754624, 29.550666 ], [ -98.754559, 29.550769 ], [ -98.75452, 29.550777 ], [ -98.754449, 29.550813 ], [ -98.754356, 29.550906 ], [ -98.754324, 29.550932 ], [ -98.754219, 29.550967 ] ] } },
{ "type": "Feature", "properties": { "cls": "shared", "highway": "path", "name": "Recharge Trail" }, "geometry": { "type": "LineString", "coordinates": [ [ -98.745647, 29.552841 ], [ -98.745674, 29.552822 ], [ -98.745865, 29.552824 ], [ -98.746081, 29.552766 ], [ -98.746197, 29.552749 ], [ -98.746339, 29.552758 ], [ -98.746437, 29.552749 ], [ -98.746564, 29.552755 ], [ -98.746863, 29.55276 ], [ -98.746967, 29.552752 ], [ -98.747227, 29.552743 ], [ -98.747428, 29.552784 ], [ -98.7476, 29.552778 ], [ -98.74794, 29.55274 ], [ -98.748186, 29.552743 ], [ -98.748549, 29.552746 ], [ -98.748908, 29.552741 ], [ -98.749326, 29.552716 ], [ -98.749516, 29.552691 ], [ -98.749593, 29.552674 ], [ -98.749764, 29.552634 ], [ -98.749928, 29.552624 ], [ -98.750143, 29.552624 ], [ -98.750204, 29.552617 ], [ -98.750555, 29.552534 ], [ -98.750908, 29.552438 ], [ -98.751257, 29.552357 ], [ -98.75178, 29.552263 ], [ -98.752269, 29.552161 ], [ -98.752593, 29.552106 ], [ -98.753154, 29.552044 ], [ -98.753464, 29.552043 ], [ -98.75366, 29.552058 ], [ -98.753877, 29.552063 ], [ -98.754103, 29.552041 ], [ -98.75429, 29.552024 ], [ -98.754469, 29.551979 ], [ -98.754589, 29.551923 ], [ -98.754646, 29.551866 ], [ -98.754685, 29.551763 ], [ -98.754763, 29.551642 ], [ -98.754847, 29.551618 ], [ -98.755132, 29.551634 ], [ -98.755235, 29.551658 ], [ -98.755328, 29.551692 ], [ -98.755473, 29.551725 ], [ -98.755553, 29.551723 ], [ -98.755862, 29.55169 ], [ -98.75625, 29.551586 ], [ -98.756541, 29.551515 ], [ -98.756714, 29.55143 ], [ -98.757305, 29.551231 ], [ -98.757654, 29.551151 ], [ -98.758539, 29.550891 ], [ -98.759484, 29.550614 ], [ -98.75963, 29.550592 ], [ -98.76005, 29.550502 ], [ -98.761097, 29.550263 ], [ -98.761139, 29.550265 ], [ -98.761239, 29.550269 ], [ -98.761387, 29.550386 ], [ -98.761578, 29.550525 ], [ -98.761775, 29.550502 ], [ -98.762513, 29.550868 ], [ -98.762707, 29.550909 ], [ -98.762785, 29.550955 ], [ -98.762882, 29.551049 ], [ -98.763065, 29.551139 ], [ -98.763111, 29.551145 ] ] } },
{ "type": "Feature", "properties": { "cls": "shared", "highway": "path", "name": "Far Reaches Trail" }, "geometry": { "type": "LineString", "coordinates": [ [ -98.745647, 29.552841 ], [ -98.745604, 29.552924 ], [ -98.745623, 29.553047 ], [ -98.745983, 29.553297 ], [ -98.746123, 29.553525 ], [ -98.746135, 29.553773 ], [ -98.7461, 29.553943 ], [ -98.746021, 29.554016 ], [ -98.745808, 29.554027 ], [ -98.745663, 29.554053 ], [ -98.745608, 29.55406 ], [ -98.745448, 29.553993 ], [ -98.745239, 29.553968 ], [ -98.745042, 29.553942 ], [ -98.744857, 29.553925 ], [ -98.744765, 29.553907 ], [ -98.744538, 29.553727 ], [ -98.744386, 29.553707 ], [ -98.743988, 29.553755 ], [ -98.743828, 29.553717 ], [ -98.743385, 29.553495 ], [ -98.743179, 29.553472 ], [ -98.742999, 29.553495 ], [ -98.742896, 29.553539 ], [ -98.742741, 29.55348 ], [ -98.74265, 29.553464 ], [ -98.742557, 29.55351 ], [ -98.742456, 29.553621 ], [ -98.742337, 29.553678 ], [ -98.742219, 29.553723 ], [ -98.741988, 29.5538 ], [ -98.741842, 29.553863 ], [ -98.741754, 29.553866 ], [ -98.741583, 29.553823 ], [ -98.741325, 29.553823 ], [ -98.741196, 29.553883 ], [ -98.741042, 29.554002 ], [ -98.740784, 29.554062 ], [ -98.740602, 29.554138 ], [ -98.740573, 29.554136 ], [ -98.740424, 29.554129 ], [ -98.740132, 29.554196 ], [ -98.739986, 29.554293 ], [ -98.739737, 29.554353 ], [ -98.739488, 29.554323 ], [ -98.739282, 29.554279 ], [ -98.739076, 29.554256 ], [ -98.73887, 29.55445 ], [ -98.738725, 29.55463 ], [ -98.738604, 29.554756 ], [ -98.738476, 29.554861 ], [ -98.738407, 29.554995 ], [ -98.738287, 29.555227 ], [ -98.738295, 29.555466 ], [ -98.738184, 29.555652 ], [ -98.738064, 29.555779 ], [ -98.737943, 29.556085 ], [ -98.737823, 29.55628 ], [ -98.737729, 29.556444 ], [ -98.737643, 29.556742 ], [ -98.737485, 29.556948 ], [ -98.737403, 29.557146 ], [ -98.737279, 29.557359 ], [ -98.737231, 29.557549 ], [ -98.737162, 29.55775 ], [ -98.737077, 29.557945 ], [ -98.73712, 29.558116 ], [ -98.737145, 29.558452 ], [ -98.737197, 29.558646 ], [ -98.737223, 29.558818 ], [ -98.737334, 29.559161 ], [ -98.737403, 29.559318 ], [ -98.737514, 29.559535 ], [ -98.737497, 29.559684 ], [ -98.737377, 29.559781 ], [ -98.7373, 29.559901 ], [ -98.737231, 29.560154 ], [ -98.737179, 29.560281 ], [ -98.737223, 29.560401 ], [ -98.737179, 29.56055 ], [ -98.737077, 29.560655 ], [ -98.736948, 29.560699 ], [ -98.736819, 29.560811 ], [ -98.736802, 29.561006 ], [ -98.736879, 29.561147 ], [ -98.736948, 29.561267 ], [ -98.736965, 29.561371 ], [ -98.736853, 29.561461 ], [ -98.736776, 29.561588 ], [ -98.736613, 29.561625 ], [ -98.736373, 29.561647 ], [ -98.736167, 29.561722 ], [ -98.735961, 29.561849 ], [ -98.735909, 29.561939 ], [ -98.735918, 29.56211 ], [ -98.735995, 29.562222 ], [ -98.736081, 29.562342 ], [ -98.735995, 29.562446 ], [ -98.735909, 29.562543 ], [ -98.735806, 29.562581 ], [ -98.735738, 29.562723 ], [ -98.73566, 29.562835 ], [ -98.735557, 29.562999 ], [ -98.735549, 29.563156 ], [ -98.735429, 29.563357 ], [ -98.735394, 29.563477 ], [ -98.735351, 29.563656 ], [ -98.735223, 29.563895 ], [ -98.735025, 29.564059 ], [ -98.734845, 29.564178 ], [ -98.734682, 29.564276 ], [ -98.734562, 29.564417 ], [ -98.734433, 29.564589 ], [ -98.734283, 29.56472 ], [ -98.734218, 29.564895 ], [ -98.734218, 29.565119 ], [ -98.734244, 29.565358 ], [ -98.73427, 29.56553 ], [ -98.734313, 29.565761 ], [ -98.734424, 29.566037 ], [ -98.73445, 29.566254 ], [ -98.734502, 29.566388 ], [ -98.73451, 29.566575 ], [ -98.734553, 29.566791 ], [ -98.734656, 29.567053 ], [ -98.734699, 29.567194 ], [ -98.734742, 29.567381 ], [ -98.734841, 29.567542 ], [ -98.734914, 29.567724 ], [ -98.735013, 29.567826 ], [ -98.735184, 29.567945 ], [ -98.735519, 29.568162 ], [ -98.735742, 29.568274 ], [ -98.735883, 29.568434 ], [ -98.735926, 29.568561 ], [ -98.735845, 29.568707 ], [ -98.735691, 29.568752 ], [ -98.735588, 29.568849 ], [ -98.735562, 29.568961 ], [ -98.735592, 29.569098 ], [ -98.735626, 29.56927 ], [ -98.735592, 29.569434 ], [ -98.735588, 29.569565 ], [ -98.735574, 29.569718 ], [ -98.735626, 29.569912 ], [ -98.735763, 29.570113 ], [ -98.735875, 29.570307 ], [ -98.736004, 29.570494 ], [ -98.736141, 29.570718 ], [ -98.736253, 29.570882 ], [ -98.736356, 29.571024 ], [ -98.736455, 29.571193 ], [ -98.736579, 29.571323 ], [ -98.736725, 29.571285 ], [ -98.73691, 29.57132 ], [ -98.737051, 29.571427 ], [ -98.737176, 29.571626 ], [ -98.737308, 29.571659 ], [ -98.737519, 29.571626 ], [ -98.737617, 29.571636 ], [ -98.737626, 29.571748 ], [ -98.737549, 29.57189 ], [ -98.73748, 29.572002 ], [ -98.737626, 29.572009 ], [ -98.737772, 29.572002 ], [ -98.737862, 29.572014 ], [ -98.73794, 29.572036 ], [ -98.738089, 29.572024 ], [ -98.738244, 29.57201 ], [ -98.738437, 29.572051 ], [ -98.738553, 29.572204 ], [ -98.738647, 29.572331 ], [ -98.738879, 29.572569 ], [ -98.738905, 29.572689 ], [ -98.739034, 29.572875 ], [ -98.739154, 29.573077 ], [ -98.739219, 29.573246 ], [ -98.739313, 29.57338 ], [ -98.739506, 29.573473 ], [ -98.739651, 29.573577 ], [ -98.739634, 29.573719 ], [ -98.739506, 29.573809 ], [ -98.73957, 29.57397 ], [ -98.739631, 29.574149 ], [ -98.739694, 29.574256 ], [ -98.739712, 29.574428 ], [ -98.739694, 29.574667 ], [ -98.73972, 29.574906 ], [ -98.739622, 29.575074 ], [ -98.739536, 29.575254 ], [ -98.739437, 29.575421 ], [ -98.739304, 29.575545 ], [ -98.739171, 29.575675 ], [ -98.739111, 29.575802 ], [ -98.739137, 29.575921 ], [ -98.739248, 29.576085 ], [ -98.739385, 29.576257 ], [ -98.739506, 29.576444 ], [ -98.739609, 29.576578 ], [ -98.73966, 29.576705 ], [ -98.739772, 29.576802 ], [ -98.739772, 29.576862 ], [ -98.739918, 29.576862 ], [ -98.740055, 29.576869 ], [ -98.740149, 29.576929 ], [ -98.740252, 29.577056 ], [ -98.740269, 29.577145 ], [ -98.740398, 29.577205 ], [ -98.740501, 29.57722 ], [ -98.740707, 29.57722 ], [ -98.740819, 29.577242 ], [ -98.740982, 29.577287 ], [ -98.74115, 29.577359 ], [ -98.741317, 29.577332 ], [ -98.741445, 29.577265 ], [ -98.741617, 29.577227 ], [ -98.741746, 29.577242 ], [ -98.741909, 29.577272 ], [ -98.742115, 29.577324 ], [ -98.742244, 29.577317 ], [ -98.742355, 29.577309 ], [ -98.742458, 29.577272 ], [ -98.742578, 29.577302 ], [ -98.742647, 29.577324 ], [ -98.742827, 29.577354 ], [ -98.743059, 29.577309 ], [ -98.743248, 29.577309 ], [ -98.743462, 29.577205 ], [ -98.743625, 29.577115 ], [ -98.743909, 29.576988 ], [ -98.744235, 29.576862 ], [ -98.744372, 29.576772 ], [ -98.744853, 29.576585 ], [ -98.744999, 29.57657 ], [ -98.745153, 29.576518 ], [ -98.745479, 29.576369 ], [ -98.745751, 29.576264 ], [ -98.74582, 29.576272 ] ] } },
{ "type": "Feature", "properties": { "cls": "shared", "highway": "path", "name": "Wildcat Canyon Trail" }, "geometry": { "type": "LineString", "coordinates": [ [ -98.74582, 29.576272 ], [ -98.745911, 29.576302 ], [ -98.746066, 29.57637 ], [ -98.746263, 29.576414 ], [ -98.746443, 29.576407 ], [ -98.746761, 29.576504 ], [ -98.747096, 29.576691 ], [ -98.747216, 29.576683 ], [ -98.747296, 29.576528 ], [ -98.747559, 29.576534 ], [ -98.747739, 29.576541 ], [ -98.747851, 29.576422 ], [ -98.747971, 29.576317 ], [ -98.748151, 29.57631 ], [ -98.748289, 29.576444 ], [ -98.748435, 29.576437 ], [ -98.748409, 29.576034 ], [ -98.748426, 29.575982 ], [ -98.748589, 29.575825 ], [ -98.748632, 29.575758 ], [ -98.748795, 29.575661 ], [ -98.748821, 29.575526 ], [ -98.748958, 29.575392 ], [ -98.749087, 29.575265 ], [ -98.749465, 29.57519 ], [ -98.749636, 29.575078 ], [ -98.750031, 29.574847 ], [ -98.750151, 29.574735 ], [ -98.750184, 29.574614 ], [ -98.750203, 29.574502 ], [ -98.750299, 29.574441 ], [ -98.750412, 29.574418 ], [ -98.750623, 29.574347 ], [ -98.750744, 29.574202 ], [ -98.750792, 29.574131 ], [ -98.750893, 29.574111 ], [ -98.750996, 29.574096 ], [ -98.751127, 29.574118 ], [ -98.751229, 29.574151 ], [ -98.751329, 29.574156 ], [ -98.751465, 29.57412 ], [ -98.751554, 29.57408 ], [ -98.751638, 29.57405 ], [ -98.75171, 29.573966 ], [ -98.751828, 29.57387 ], [ -98.751921, 29.57378 ], [ -98.752094, 29.573611 ], [ -98.752216, 29.573452 ], [ -98.752398, 29.573387 ], [ -98.752586, 29.573372 ], [ -98.752686, 29.573311 ], [ -98.752814, 29.573204 ], [ -98.752984, 29.573115 ], [ -98.753112, 29.57304 ], [ -98.753145, 29.572996 ], [ -98.753124, 29.572809 ], [ -98.753163, 29.572663 ], [ -98.753299, 29.572509 ], [ -98.75338, 29.572199 ], [ -98.753576, 29.571899 ], [ -98.753638, 29.571804 ], [ -98.753756, 29.571592 ], [ -98.753953, 29.57154 ], [ -98.754134, 29.57145 ], [ -98.754494, 29.571353 ], [ -98.754623, 29.571264 ], [ -98.754734, 29.571196 ], [ -98.75489, 29.571031 ], [ -98.75496, 29.570957 ], [ -98.755036, 29.570874 ], [ -98.755275, 29.570659 ], [ -98.75567, 29.570495 ], [ -98.75579, 29.57045 ], [ -98.75591, 29.570338 ], [ -98.756305, 29.570017 ], [ -98.756657, 29.569868 ], [ -98.756949, 29.569666 ], [ -98.757191, 29.569457 ], [ -98.757224, 29.56933 ], [ -98.757295, 29.568964 ], [ -98.757285, 29.568657 ], [ -98.757104, 29.568357 ], [ -98.757072, 29.567691 ], [ -98.757064, 29.567537 ], [ -98.757162, 29.567491 ], [ -98.757211, 29.567468 ], [ -98.757389, 29.567411 ], [ -98.75746, 29.567275 ], [ -98.757432, 29.5671 ], [ -98.757492, 29.566919 ], [ -98.757702, 29.566389 ], [ -98.757735, 29.566245 ], [ -98.757666, 29.566025 ], [ -98.757747, 29.565792 ], [ -98.757799, 29.565642 ], [ -98.75791, 29.565448 ], [ -98.757987, 29.565314 ], [ -98.758322, 29.564821 ], [ -98.758425, 29.564657 ], [ -98.758505, 29.564501 ], [ -98.758614, 29.564373 ], [ -98.758761, 29.564194 ], [ -98.758846, 29.56409 ], [ -98.759017, 29.563985 ], [ -98.75932, 29.563936 ], [ -98.759433, 29.563785 ], [ -98.759678, 29.563545 ], [ -98.760047, 29.563322 ], [ -98.760261, 29.563198 ], [ -98.760491, 29.563082 ], [ -98.760715, 29.56302 ], [ -98.760891, 29.562966 ], [ -98.761, 29.562919 ], [ -98.761016, 29.562912 ], [ -98.761153, 29.562864 ], [ -98.761288, 29.562856 ], [ -98.761348, 29.562846 ], [ -98.761537, 29.562792 ], [ -98.761759, 29.562765 ], [ -98.761921, 29.562723 ], [ -98.762004, 29.562674 ], [ -98.762165, 29.562546 ], [ -98.762266, 29.562478 ], [ -98.762294, 29.562461 ] ] } },
{ "type": "Feature", "properties": { "cls": "shared", "highway": "path", "name": "Joe Johnston Route" }, "geometry": { "type": "LineString", "coordinates": [ [ -98.759721, 29.598082 ], [ -98.759687, 29.597507 ], [ -98.75978, 29.597014 ], [ -98.759776, 29.596948 ], [ -98.759657, 29.596606 ], [ -98.759342, 29.595885 ], [ -98.759214, 29.595703 ], [ -98.759156, 29.595624 ], [ -98.759094, 29.595494 ], [ -98.759056, 29.595274 ], [ -98.759004, 29.595211 ], [ -98.758963, 29.5951 ], [ -98.758943, 29.594972 ], [ -98.758959, 29.594918 ], [ -98.758985, 29.594699 ], [ -98.758949, 29.594436 ], [ -98.758916, 29.594184 ], [ -98.758914, 29.593922 ], [ -98.758942, 29.59346 ], [ -98.75897, 29.592992 ], [ -98.759183, 29.592472 ], [ -98.75914, 29.592169 ], [ -98.759277, 29.591777 ], [ -98.759429, 29.591439 ], [ -98.759443, 29.591273 ], [ -98.759663, 29.590865 ], [ -98.759676, 29.590799 ], [ -98.75966, 29.590759 ], [ -98.759636, 29.590698 ], [ -98.759623, 29.590682 ], [ -98.759483, 29.590518 ], [ -98.759275, 29.590135 ], [ -98.75904, 29.5894 ], [ -98.758846, 29.58916 ], [ -98.758627, 29.588675 ], [ -98.758425, 29.588433 ], [ -98.758182, 29.587882 ], [ -98.758111, 29.587811 ], [ -98.758053, 29.587581 ], [ -98.758062, 29.587469 ], [ -98.758139, 29.58737 ], [ -98.758259, 29.587286 ], [ -98.759106, 29.586918 ], [ -98.760531, 29.586298 ], [ -98.761285, 29.585999 ], [ -98.761499, 29.585701 ], [ -98.761809, 29.585253 ], [ -98.761858, 29.585149 ], [ -98.761889, 29.585099 ], [ -98.76202, 29.584993 ], [ -98.76216, 29.584844 ], [ -98.762219, 29.584824 ], [ -98.762293, 29.584793 ], [ -98.76246, 29.584637 ], [ -98.76279, 29.584405 ], [ -98.762918, 29.584341 ], [ -98.763215, 29.584114 ], [ -98.763349, 29.584062 ], [ -98.763652, 29.584028 ], [ -98.764376, 29.583687 ], [ -98.764666, 29.583569 ], [ -98.764786, 29.583499 ], [ -98.764844, 29.583415 ], [ -98.764883, 29.583382 ], [ -98.764927, 29.583361 ], [ -98.764951, 29.583349 ], [ -98.765074, 29.583341 ], [ -98.76527, 29.583255 ], [ -98.765313, 29.58322 ], [ -98.765399, 29.583074 ], [ -98.765428, 29.582961 ], [ -98.765515, 29.582831 ], [ -98.765523, 29.582714 ], [ -98.765518, 29.58265 ], [ -98.765513, 29.582577 ], [ -98.765471, 29.582412 ], [ -98.765433, 29.58232 ], [ -98.764877, 29.581438 ], [ -98.76472, 29.580968 ], [ -98.764714, 29.580629 ], [ -98.764746, 29.580523 ], [ -98.764769, 29.580443 ], [ -98.76486, 29.5803 ], [ -98.764994, 29.579863 ], [ -98.765254, 29.578894 ], [ -98.765363, 29.578617 ], [ -98.765378, 29.57852 ], [ -98.765379, 29.578366 ], [ -98.765422, 29.578215 ], [ -98.765729, 29.577855 ], [ -98.765826, 29.577778 ], [ -98.765928, 29.577738 ], [ -98.766161, 29.5777 ], [ -98.766236, 29.577673 ], [ -98.766648, 29.577424 ], [ -98.767343, 29.576979 ], [ -98.767686, 29.576785 ], [ -98.767877, 29.576551 ], [ -98.767902, 29.576147 ], [ -98.767992, 29.575816 ], [ -98.767989, 29.575751 ], [ -98.767756, 29.575382 ], [ -98.767225, 29.574503 ], [ -98.767171, 29.574312 ], [ -98.767003, 29.573889 ], [ -98.766997, 29.573821 ], [ -98.767022, 29.573742 ], [ -98.767078, 29.573523 ], [ -98.767029, 29.573106 ], [ -98.766926, 29.572808 ], [ -98.766867, 29.572223 ], [ -98.766808, 29.571653 ], [ -98.766773, 29.571328 ], [ -98.766699, 29.570999 ], [ -98.766683, 29.570302 ], [ -98.767039, 29.569547 ], [ -98.767293, 29.569234 ], [ -98.767523, 29.568506 ], [ -98.767706, 29.56802 ], [ -98.767731, 29.567659 ], [ -98.767722, 29.567586 ], [ -98.767505, 29.567354 ], [ -98.767483, 29.567305 ], [ -98.767494, 29.567236 ], [ -98.767478, 29.567099 ], [ -98.76715, 29.566816 ], [ -98.766133, 29.566423 ], [ -98.764849, 29.566014 ], [ -98.76479, 29.565966 ], [ -98.764554, 29.56565 ], [ -98.764348, 29.565437 ], [ -98.763446, 29.564624 ], [ -98.762528, 29.563569 ], [ -98.762439, 29.56325 ], [ -98.762339, 29.563056 ], [ -98.762294, 29.562461 ], [ -98.76233, 29.562074 ], [ -98.762387, 29.561973 ], [ -98.762477, 29.56187 ], [ -98.76255, 29.561807 ], [ -98.762585, 29.561756 ], [ -98.762586, 29.561658 ], [ -98.762545, 29.561558 ], [ -98.762508, 29.561472 ], [ -98.762492, 29.561359 ], [ -98.762498, 29.561245 ], [ -98.762519, 29.56105 ], [ -98.762497, 29.560929 ], [ -98.76246, 29.560831 ], [ -98.762427, 29.560729 ], [ -98.762417, 29.560666 ], [ -98.762444, 29.560536 ], [ -98.76246, 29.560482 ], [ -98.76246, 29.5604 ], [ -98.762442, 29.560286 ], [ -98.762464, 29.560205 ], [ -98.762526, 29.56007 ], [ -98.762582, 29.559943 ], [ -98.76262, 29.559854 ], [ -98.762691, 29.559778 ], [ -98.762776, 29.559695 ], [ -98.762825, 29.559626 ], [ -98.762859, 29.55948 ], [ -98.762899, 29.559413 ], [ -98.762971, 29.559342 ], [ -98.763039, 29.559282 ], [ -98.763086, 29.559254 ], [ -98.763121, 29.5592 ], [ -98.763146, 29.55912 ], [ -98.762997, 29.558751 ], [ -98.762943, 29.558349 ], [ -98.763106, 29.557767 ], [ -98.763567, 29.556614 ], [ -98.764056, 29.555804 ], [ -98.764214, 29.555518 ], [ -98.7644, 29.555131 ], [ -98.764432, 29.55506 ], [ -98.764428, 29.554952 ], [ -98.764372, 29.554797 ], [ -98.764313, 29.5547 ], [ -98.76411, 29.554463 ], [ -98.764008, 29.554275 ], [ -98.763822, 29.553956 ], [ -98.763807, 29.553889 ], [ -98.763816, 29.553641 ], [ -98.763788, 29.553439 ], [ -98.763695, 29.553056 ], [ -98.763679, 29.55263 ], [ -98.763666, 29.552319 ], [ -98.763638, 29.552182 ], [ -98.763535, 29.551944 ], [ -98.763304, 29.551625 ], [ -98.763151, 29.551277 ], [ -98.763111, 29.551145 ], [ -98.762918, 29.550787 ], [ -98.762806, 29.550516 ], [ -98.762762, 29.550387 ], [ -98.762729, 29.550271 ], [ -98.762703, 29.5502 ], [ -98.762678, 29.550165 ], [ -98.762637, 29.550138 ], [ -98.762602, 29.550064 ], [ -98.762586, 29.550031 ] ] } },
{ "type": "Feature", "properties": { "cls": "shared", "highway": "path", "name": "Twin Oaks Trail" }, "geometry": { "type": "LineString", "coordinates": [ [ -98.747593, 29.584436 ], [ -98.747791, 29.584555 ], [ -98.748074, 29.58451 ], [ -98.748366, 29.584503 ], [ -98.748683, 29.584436 ], [ -98.748915, 29.584361 ], [ -98.749104, 29.584316 ], [ -98.749422, 29.584279 ], [ -98.749557, 29.584057 ], [ -98.749679, 29.583883 ], [ -98.749799, 29.583689 ], [ -98.749885, 29.583436 ], [ -98.750022, 29.583294 ], [ -98.750203, 29.583219 ], [ -98.750409, 29.583189 ], [ -98.750597, 29.582988 ], [ -98.750889, 29.582868 ], [ -98.751172, 29.582712 ], [ -98.751359, 29.582564 ], [ -98.751567, 29.582391 ], [ -98.751748, 29.582174 ], [ -98.751816, 29.582017 ], [ -98.752039, 29.581868 ], [ -98.752374, 29.581898 ], [ -98.752718, 29.581831 ], [ -98.753009, 29.581808 ], [ -98.753471, 29.581556 ], [ -98.753805, 29.58122 ], [ -98.753919, 29.58098 ], [ -98.754091, 29.580756 ], [ -98.754099, 29.580442 ], [ -98.75416, 29.579987 ], [ -98.754245, 29.579786 ], [ -98.754314, 29.579562 ], [ -98.754451, 29.579315 ], [ -98.754649, 29.579203 ], [ -98.75482, 29.579181 ], [ -98.755026, 29.57895 ], [ -98.755069, 29.578681 ], [ -98.755353, 29.578345 ], [ -98.755559, 29.578143 ], [ -98.755687, 29.578054 ], [ -98.75585, 29.577837 ], [ -98.756176, 29.577606 ], [ -98.756468, 29.577643 ], [ -98.756734, 29.57777 ], [ -98.757035, 29.577882 ], [ -98.757455, 29.577785 ], [ -98.757721, 29.577927 ], [ -98.758065, 29.578106 ], [ -98.758391, 29.578173 ], [ -98.758777, 29.578196 ], [ -98.758912, 29.578645 ], [ -98.759026, 29.578935 ], [ -98.759221, 29.5791 ], [ -98.759342, 29.579294 ], [ -98.759567, 29.579375 ], [ -98.75973, 29.579681 ], [ -98.759747, 29.579972 ], [ -98.75973, 29.580233 ], [ -98.759876, 29.58042 ], [ -98.760202, 29.580487 ], [ -98.760588, 29.58045 ], [ -98.760717, 29.580256 ], [ -98.760949, 29.579972 ], [ -98.760783, 29.579548 ], [ -98.760588, 29.57939 ], [ -98.7607, 29.579032 ], [ -98.760837, 29.578755 ], [ -98.760966, 29.578479 ], [ -98.761086, 29.578225 ], [ -98.761112, 29.578046 ], [ -98.761249, 29.577949 ], [ -98.761695, 29.578054 ], [ -98.762107, 29.577949 ], [ -98.762236, 29.577897 ], [ -98.762176, 29.577696 ], [ -98.762365, 29.577188 ], [ -98.762777, 29.576956 ], [ -98.762914, 29.576904 ], [ -98.762983, 29.576606 ], [ -98.763223, 29.576464 ], [ -98.7633, 29.575986 ], [ -98.763549, 29.575755 ], [ -98.763901, 29.575673 ], [ -98.764382, 29.575762 ], [ -98.764674, 29.575904 ], [ -98.764991, 29.575919 ], [ -98.764717, 29.575016 ], [ -98.76494, 29.574866 ], [ -98.765935, 29.575083 ], [ -98.766571, 29.575284 ], [ -98.767068, 29.576016 ], [ -98.767626, 29.576135 ], [ -98.767902, 29.576147 ] ] } },
{ "type": "Feature", "properties": { "cls": "shared", "highway": "path", "name": "Caroline's Loop" }, "geometry": { "type": "LineString", "coordinates": [ [ -98.765254, 29.578894 ], [ -98.765566, 29.579356 ], [ -98.765894, 29.579905 ], [ -98.765961, 29.580102 ], [ -98.766236, 29.580348 ], [ -98.76639, 29.580445 ], [ -98.766699, 29.580445 ], [ -98.766862, 29.580624 ], [ -98.767, 29.580751 ], [ -98.767309, 29.580729 ], [ -98.767601, 29.581028 ], [ -98.768321, 29.581005 ], [ -98.768648, 29.581304 ], [ -98.76894, 29.581475 ], [ -98.769558, 29.581684 ], [ -98.770098, 29.581871 ], [ -98.770356, 29.581998 ], [ -98.770304, 29.582199 ], [ -98.770141, 29.582341 ], [ -98.769995, 29.582431 ], [ -98.769884, 29.582729 ], [ -98.769926, 29.583162 ], [ -98.770201, 29.58367 ], [ -98.770244, 29.584036 ], [ -98.770218, 29.584237 ], [ -98.770227, 29.584633 ], [ -98.770502, 29.584886 ], [ -98.770939, 29.585193 ], [ -98.771154, 29.585513 ], [ -98.771308, 29.585663 ], [ -98.771635, 29.585961 ], [ -98.771875, 29.586088 ], [ -98.771961, 29.586484 ], [ -98.771961, 29.586865 ], [ -98.772141, 29.587029 ], [ -98.772476, 29.587051 ], [ -98.772579, 29.587178 ], [ -98.77269, 29.587469 ], [ -98.772793, 29.587745 ], [ -98.773059, 29.588014 ], [ -98.773094, 29.588238 ], [ -98.773308, 29.588402 ], [ -98.773403, 29.588641 ], [ -98.773265, 29.588917 ], [ -98.773128, 29.589089 ], [ -98.77275, 29.589357 ], [ -98.77275, 29.589678 ], [ -98.772656, 29.590014 ], [ -98.772605, 29.590246 ], [ -98.772433, 29.590552 ], [ -98.772218, 29.590955 ], [ -98.771978, 29.591522 ], [ -98.771926, 29.592067 ], [ -98.771772, 29.59238 ], [ -98.771532, 29.592574 ], [ -98.771274, 29.592649 ], [ -98.770974, 29.592925 ], [ -98.770939, 29.593522 ], [ -98.770828, 29.593724 ], [ -98.77057, 29.594037 ], [ -98.770235, 29.594134 ], [ -98.769987, 29.594403 ], [ -98.769403, 29.594425 ], [ -98.769008, 29.594627 ], [ -98.768648, 29.594664 ], [ -98.768236, 29.594851 ], [ -98.767978, 29.595283 ], [ -98.768038, 29.595709 ], [ -98.767978, 29.595955 ], [ -98.768047, 29.596082 ], [ -98.768013, 29.596366 ], [ -98.768021, 29.596593 ], [ -98.768034, 29.596649 ], [ -98.768046, 29.596702 ], [ -98.768008, 29.59671 ], [ -98.767889, 29.596674 ], [ -98.767681, 29.59658 ], [ -98.76736, 29.59656 ], [ -98.767137, 29.59647 ], [ -98.766965, 29.596321 ], [ -98.766622, 29.596216 ], [ -98.766358, 29.595985 ], [ -98.766144, 29.595855 ], [ -98.765946, 29.595732 ], [ -98.765794, 29.595678 ], [ -98.765665, 29.595617 ], [ -98.765501, 29.595527 ], [ -98.765366, 29.595491 ], [ -98.765299, 29.595464 ], [ -98.765223, 29.595439 ], [ -98.765149, 29.595384 ], [ -98.765065, 29.595353 ], [ -98.764945, 29.59536 ], [ -98.764827, 29.595341 ], [ -98.764648, 29.595298 ], [ -98.764541, 29.595308 ], [ -98.7645, 29.595308 ], [ -98.764449, 29.595309 ], [ -98.764383, 29.595351 ], [ -98.764268, 29.595425 ], [ -98.764192, 29.595477 ], [ -98.764165, 29.595525 ], [ -98.764123, 29.59555 ], [ -98.764077, 29.595554 ], [ -98.763981, 29.59552 ], [ -98.76394, 29.595482 ], [ -98.763895, 29.595313 ], [ -98.763893, 29.595244 ], [ -98.763856, 29.595226 ], [ -98.763389, 29.595129 ], [ -98.762622, 29.59497 ], [ -98.762193, 29.59491 ], [ -98.761816, 29.59488 ], [ -98.761507, 29.594567 ], [ -98.761111, 29.594315 ], [ -98.761047, 29.594274 ], [ -98.760797, 29.5942 ], [ -98.760563, 29.594135 ], [ -98.760418, 29.594045 ], [ -98.760226, 29.593861 ], [ -98.76004, 29.593522 ], [ -98.75991, 29.593358 ], [ -98.759737, 29.593238 ], [ -98.759639, 29.593198 ], [ -98.759586, 29.593143 ], [ -98.759523, 29.593135 ], [ -98.759466, 29.59317 ], [ -98.75937, 29.593183 ], [ -98.759173, 29.593071 ], [ -98.75897, 29.592992 ] ] } },
{ "type": "Feature", "properties": { "cls": "shared", "highway": "path", "name": "Sendero Balcones" }, "geometry": { "type": "LineString", "coordinates": [ [ -98.754372, 29.596795 ], [ -98.754383, 29.596647 ], [ -98.754365, 29.596554 ], [ -98.754331, 29.596285 ], [ -98.754357, 29.596017 ], [ -98.754314, 29.595091 ], [ -98.754331, 29.594905 ], [ -98.75422, 29.594337 ], [ -98.75422, 29.594188 ], [ -98.754099, 29.593531 ], [ -98.753971, 29.593173 ], [ -98.753971, 29.593076 ], [ -98.753885, 29.5928 ], [ -98.753807, 29.592554 ], [ -98.753524, 29.591867 ], [ -98.753413, 29.591718 ], [ -98.753035, 29.59127 ], [ -98.752829, 29.591024 ], [ -98.752754, 29.590967 ], [ -98.752707, 29.590925 ], [ -98.752775, 29.590858 ], [ -98.752916, 29.590793 ], [ -98.752992, 29.590765 ], [ -98.753061, 29.590717 ], [ -98.753122, 29.590727 ], [ -98.753177, 29.590754 ], [ -98.753225, 29.59075 ], [ -98.75325, 29.590688 ], [ -98.75325, 29.590613 ], [ -98.753291, 29.590467 ], [ -98.75333, 29.590299 ], [ -98.753319, 29.59026 ], [ -98.75321, 29.590221 ], [ -98.753164, 29.590068 ], [ -98.753178, 29.589995 ], [ -98.753209, 29.589918 ], [ -98.753132, 29.58989 ], [ -98.752915, 29.589989 ], [ -98.752863, 29.589987 ], [ -98.752851, 29.589929 ], [ -98.752884, 29.58985 ], [ -98.752909, 29.589787 ], [ -98.752916, 29.589751 ], [ -98.752866, 29.589718 ], [ -98.752842, 29.589705 ], [ -98.752826, 29.589537 ], [ -98.752771, 29.589487 ], [ -98.752756, 29.58941 ], [ -98.752771, 29.58937 ], [ -98.752792, 29.589331 ], [ -98.75275, 29.58932 ], [ -98.752662, 29.589326 ], [ -98.752583, 29.58935 ], [ -98.752535, 29.589347 ], [ -98.752525, 29.589347 ], [ -98.75245, 29.589364 ], [ -98.752409, 29.589351 ], [ -98.752397, 29.589332 ], [ -98.752388, 29.589227 ], [ -98.752415, 29.589167 ], [ -98.752412, 29.589033 ], [ -98.752393, 29.588913 ], [ -98.752448, 29.588829 ], [ -98.752437, 29.588738 ], [ -98.752513, 29.588644 ], [ -98.752515, 29.588566 ], [ -98.75253, 29.588468 ], [ -98.752484, 29.588412 ], [ -98.752409, 29.588388 ], [ -98.752296, 29.588367 ], [ -98.752248, 29.58835 ], [ -98.752233, 29.588333 ], [ -98.752274, 29.588284 ], [ -98.752263, 29.588247 ], [ -98.752256, 29.588206 ], [ -98.752306, 29.588129 ], [ -98.752333, 29.588061 ], [ -98.752324, 29.588005 ], [ -98.75222, 29.587975 ], [ -98.752062, 29.587965 ], [ -98.751939, 29.587955 ], [ -98.75179, 29.587929 ], [ -98.751665, 29.587924 ], [ -98.75158, 29.587887 ], [ -98.751483, 29.587833 ], [ -98.751398, 29.587833 ], [ -98.751259, 29.587866 ], [ -98.751001, 29.587874 ], [ -98.75086, 29.587892 ], [ -98.750682, 29.587861 ], [ -98.750401, 29.587814 ], [ -98.75028, 29.587728 ], [ -98.750262, 29.587639 ], [ -98.750116, 29.587551 ], [ -98.749968, 29.587494 ], [ -98.749883, 29.587511 ], [ -98.749797, 29.587558 ], [ -98.749708, 29.587617 ], [ -98.749619, 29.587702 ], [ -98.749589, 29.587781 ], [ -98.749511, 29.587877 ], [ -98.749454, 29.587919 ], [ -98.749433, 29.587986 ], [ -98.749426, 29.588042 ], [ -98.749405, 29.588062 ], [ -98.749372, 29.588055 ], [ -98.749281, 29.587987 ], [ -98.749053, 29.587792 ], [ -98.748765, 29.587559 ], [ -98.748357, 29.587128 ], [ -98.748169, 29.586896 ], [ -98.748023, 29.58662 ], [ -98.747923, 29.586345 ], [ -98.747791, 29.586093 ], [ -98.747751, 29.585965 ], [ -98.747748, 29.585717 ], [ -98.747679, 29.585284 ], [ -98.747662, 29.58497 ], [ -98.747619, 29.584687 ], [ -98.747593, 29.584436 ], [ -98.747563, 29.583998 ], [ -98.74748, 29.583695 ], [ -98.747437, 29.583425 ], [ -98.747298, 29.583208 ], [ -98.74718, 29.582902 ], [ -98.746906, 29.582443 ], [ -98.746744, 29.582157 ], [ -98.746541, 29.581908 ], [ -98.746423, 29.58185 ], [ -98.746177, 29.581876 ], [ -98.746021, 29.581845 ], [ -98.745851, 29.581776 ], [ -98.745851, 29.581694 ], [ -98.745801, 29.581565 ], [ -98.745533, 29.581472 ], [ -98.745407, 29.581365 ], [ -98.745227, 29.581139 ], [ -98.745029, 29.580749 ], [ -98.745023, 29.580676 ], [ -98.745031, 29.580525 ], [ -98.74492, 29.580359 ], [ -98.74486, 29.580259 ], [ -98.744789, 29.580093 ], [ -98.744522, 29.579898 ], [ -98.744401, 29.579736 ], [ -98.744203, 29.579275 ], [ -98.7441, 29.579066 ], [ -98.743937, 29.578768 ], [ -98.743817, 29.578559 ], [ -98.743765, 29.57844 ], [ -98.743776, 29.578314 ], [ -98.743871, 29.578138 ], [ -98.74398, 29.578044 ], [ -98.74411, 29.577983 ], [ -98.744267, 29.577928 ], [ -98.744347, 29.577907 ], [ -98.744381, 29.577847 ], [ -98.74442, 29.577723 ], [ -98.744538, 29.577633 ], [ -98.744727, 29.577599 ], [ -98.744865, 29.577619 ], [ -98.744987, 29.577655 ], [ -98.745062, 29.57764 ], [ -98.745105, 29.57758 ], [ -98.745227, 29.577344 ], [ -98.745499, 29.576722 ], [ -98.745645, 29.576491 ], [ -98.74582, 29.576272 ], [ -98.745861, 29.57625 ], [ -98.745896, 29.576157 ], [ -98.746057, 29.576028 ], [ -98.746263, 29.575767 ], [ -98.746452, 29.575506 ], [ -98.746752, 29.575185 ], [ -98.746932, 29.574894 ], [ -98.74725, 29.574461 ], [ -98.747353, 29.574326 ], [ -98.747516, 29.573938 ], [ -98.747585, 29.573669 ], [ -98.747756, 29.573229 ], [ -98.747782, 29.572818 ], [ -98.747842, 29.572236 ], [ -98.747842, 29.571661 ], [ -98.74787, 29.571388 ], [ -98.747891, 29.571299 ], [ -98.74789, 29.571247 ], [ -98.747867, 29.571211 ], [ -98.747909, 29.570962 ], [ -98.74794, 29.570719 ], [ -98.747968, 29.570605 ], [ -98.747942, 29.570531 ], [ -98.747934, 29.570487 ], [ -98.747997, 29.570316 ], [ -98.748001, 29.570228 ], [ -98.748007, 29.57012 ], [ -98.748064, 29.569923 ], [ -98.748093, 29.569879 ], [ -98.748104, 29.569813 ], [ -98.748093, 29.569755 ], [ -98.748108, 29.569698 ], [ -98.748129, 29.569602 ], [ -98.748151, 29.569541 ], [ -98.748146, 29.5695 ], [ -98.748168, 29.56946 ], [ -98.748232, 29.56938 ], [ -98.748241, 29.569309 ], [ -98.74828, 29.569108 ], [ -98.748317, 29.569034 ], [ -98.748336, 29.568986 ], [ -98.748345, 29.568919 ], [ -98.748372, 29.568858 ], [ -98.748394, 29.568802 ], [ -98.748406, 29.56874 ], [ -98.748398, 29.568695 ], [ -98.74841, 29.568649 ], [ -98.748438, 29.568597 ], [ -98.748438, 29.568546 ], [ -98.748461, 29.568502 ], [ -98.748691, 29.567889 ], [ -98.748776, 29.567694 ], [ -98.748806, 29.567606 ], [ -98.748847, 29.567553 ], [ -98.748958, 29.567374 ], [ -98.749045, 29.567209 ], [ -98.749098, 29.567112 ], [ -98.749178, 29.567011 ], [ -98.74923, 29.566935 ], [ -98.74928, 29.566875 ], [ -98.749335, 29.566812 ], [ -98.749399, 29.566682 ], [ -98.749476, 29.566602 ], [ -98.749595, 29.56646 ], [ -98.749761, 29.566321 ], [ -98.749983, 29.566135 ], [ -98.750067, 29.566039 ], [ -98.75022, 29.565926 ], [ -98.750392, 29.565816 ], [ -98.750602, 29.565662 ], [ -98.751087, 29.565278 ], [ -98.751765, 29.564733 ], [ -98.752245, 29.564353 ], [ -98.75276, 29.563964 ], [ -98.753104, 29.56374 ], [ -98.753576, 29.563315 ], [ -98.753885, 29.562934 ], [ -98.754245, 29.562412 ], [ -98.754348, 29.562337 ], [ -98.754623, 29.561725 ], [ -98.754932, 29.561575 ], [ -98.755139, 29.561377 ], [ -98.755319, 29.561221 ], [ -98.755319, 29.561128 ], [ -98.755267, 29.561026 ], [ -98.755236, 29.560852 ], [ -98.755225, 29.560701 ], [ -98.75523, 29.560558 ], [ -98.755095, 29.560426 ], [ -98.754923, 29.560366 ], [ -98.754958, 29.56009 ], [ -98.754937, 29.559733 ], [ -98.754906, 29.559201 ], [ -98.754884, 29.559136 ], [ -98.754829, 29.558977 ], [ -98.754666, 29.558432 ], [ -98.754503, 29.558104 ], [ -98.754408, 29.557775 ], [ -98.754314, 29.557514 ], [ -98.754357, 29.557357 ], [ -98.754477, 29.557282 ], [ -98.754589, 29.55723 ], [ -98.754571, 29.557156 ], [ -98.754417, 29.55664 ], [ -98.754323, 29.556342 ], [ -98.754331, 29.556021 ], [ -98.754417, 29.555871 ], [ -98.754408, 29.555349 ], [ -98.754486, 29.555199 ], [ -98.754634, 29.554822 ], [ -98.754589, 29.554764 ], [ -98.75455, 29.554687 ], [ -98.754553, 29.554616 ], [ -98.754563, 29.554514 ], [ -98.754554, 29.554416 ], [ -98.75457, 29.554362 ], [ -98.754587, 29.554288 ], [ -98.75459, 29.554126 ], [ -98.754569, 29.554024 ], [ -98.754518, 29.553981 ], [ -98.75443, 29.55391 ], [ -98.754365, 29.553818 ], [ -98.75443, 29.553625 ], [ -98.754414, 29.553552 ], [ -98.754458, 29.553389 ], [ -98.75438, 29.552983 ], [ -98.754388, 29.552911 ], [ -98.754441, 29.552882 ], [ -98.754482, 29.55283 ], [ -98.754492, 29.552749 ], [ -98.754455, 29.552661 ], [ -98.754516, 29.55254 ], [ -98.754568, 29.552452 ], [ -98.754554, 29.552346 ], [ -98.754514, 29.55228 ], [ -98.7544, 29.55225 ], [ -98.75433, 29.552206 ], [ -98.75429, 29.552024 ] ] } },
{ "type": "Feature", "properties": { "cls": "shared", "highway": "path", "name": "Little Windmill" }, "geometry": { "type": "LineString", "coordinates": [ [ -98.752296, 29.588367 ], [ -98.7524, 29.588205 ], [ -98.75244, 29.58811 ], [ -98.752517, 29.588022 ], [ -98.752538, 29.587975 ], [ -98.752528, 29.587891 ], [ -98.752487, 29.587795 ], [ -98.752501, 29.587707 ], [ -98.752657, 29.587571 ], [ -98.753069, 29.587391 ], [ -98.75331, 29.587242 ], [ -98.753593, 29.587235 ], [ -98.753756, 29.587115 ], [ -98.754082, 29.587003 ], [ -98.754323, 29.586802 ], [ -98.754571, 29.58672 ], [ -98.754829, 29.586675 ], [ -98.754984, 29.58664 ], [ -98.755026, 29.58663 ], [ -98.755335, 29.586593 ], [ -98.755644, 29.586623 ], [ -98.755825, 29.586877 ], [ -98.756063, 29.587102 ], [ -98.756269, 29.587341 ], [ -98.75644, 29.58755 ], [ -98.756621, 29.587826 ], [ -98.756801, 29.58811 ], [ -98.756964, 29.588356 ], [ -98.757307, 29.58858 ], [ -98.757573, 29.588684 ], [ -98.757736, 29.588893 ], [ -98.757908, 29.589028 ], [ -98.758208, 29.589252 ], [ -98.758646, 29.589296 ], [ -98.758951, 29.589388 ], [ -98.75904, 29.5894 ] ] } },
{ "type": "Feature", "properties": { "cls": "shared", "highway": "path", "name": "Sendero Balcones" }, "geometry": { "type": "LineString", "coordinates": [ [ -98.759721, 29.598082 ], [ -98.759301, 29.598082 ], [ -98.758889, 29.598172 ], [ -98.758743, 29.598007 ], [ -98.758099, 29.598082 ], [ -98.75767, 29.598269 ], [ -98.757, 29.598216 ], [ -98.756297, 29.598119 ], [ -98.756022, 29.598119 ], [ -98.755885, 29.598306 ], [ -98.755395, 29.59853 ], [ -98.754992, 29.59862 ], [ -98.754494, 29.59859 ], [ -98.754194, 29.598366 ], [ -98.754254, 29.598216 ], [ -98.754391, 29.598022 ], [ -98.75434, 29.597597 ], [ -98.75442, 29.59724 ], [ -98.754372, 29.596795 ] ] } }
]
}
