{
"type": "FeatureCollection",
"name": "025-rio-de-janeiro-tijuca-national-park",
"crs": { "type": "name", "properties": { "name": "urn:ogc:def:crs:OGC:1.3:CRS84" } },
"xy_coordinate_resolution": 1e-06,
"features": [
{ "type": "Feature", "properties": { "cls": "sharrow", "highway": "unclassified", "name": "Estrada da Vista Chinesa" }, "geometry": { "type": "MultiLineString", "coordinates": [ [ [ -43.26893, -22.970416 ], [ -43.268863, -22.97038 ], [ -43.268639, -22.970285 ] ], [ [ -43.268639, -22.970285 ], [ -43.268478, -22.970266 ] ], [ [ -43.268478, -22.970266 ], [ -43.268322, -22.970279 ] ], [ [ -43.268322, -22.970279 ], [ -43.268247, -22.970286 ], [ -43.268177, -22.970306 ] ], [ [ -43.268177, -22.970306 ], [ -43.267814, -22.970411 ] ], [ [ -43.267814, -22.970411 ], [ -43.26765, -22.970459 ], [ -43.267513, -22.970488 ], [ -43.267387, -22.970509 ], [ -43.26727, -22.970504 ], [ -43.266956, -22.970432 ], [ -43.266705, -22.970353 ], [ -43.26661, -22.970344 ], [ -43.266542, -22.970349 ], [ -43.266467, -22.970375 ], [ -43.266368, -22.97054 ], [ -43.266314, -22.970576 ], [ -43.266236, -22.970591 ], [ -43.266171, -22.970569 ], [ -43.266122, -22.970519 ], [ -43.266086, -22.970434 ], [ -43.266059, -22.97033 ], [ -43.266047, -22.970116 ], [ -43.266054, -22.969943 ], [ -43.266048, -22.969878 ], [ -43.266031, -22.969835 ], [ -43.266003, -22.969804 ], [ -43.265967, -22.96978 ], [ -43.2659, -22.96976 ], [ -43.265723, -22.969781 ], [ -43.265598, -22.969796 ], [ -43.265513, -22.969784 ], [ -43.26543, -22.969749 ], [ -43.265187, -22.969601 ], [ -43.264992, -22.969417 ], [ -43.264915, -22.969363 ], [ -43.264812, -22.96932 ], [ -43.264706, -22.969326 ], [ -43.264587, -22.969326 ], [ -43.264533, -22.96931 ], [ -43.264497, -22.96924 ], [ -43.264481, -22.969163 ], [ -43.264466, -22.969112 ], [ -43.264431, -22.96908 ], [ -43.264383, -22.969042 ], [ -43.264296, -22.969027 ], [ -43.264105, -22.969009 ], [ -43.26386, -22.969016 ], [ -43.263709, -22.969029 ], [ -43.263549, -22.969041 ], [ -43.2634, -22.969033 ], [ -43.263207, -22.968987 ], [ -43.26305, -22.968914 ], [ -43.262987, -22.968873 ], [ -43.262674, -22.968577 ], [ -43.262586, -22.968476 ], [ -43.262518, -22.968434 ], [ -43.262448, -22.968408 ], [ -43.262376, -22.968395 ], [ -43.262319, -22.968405 ], [ -43.262277, -22.968441 ], [ -43.262155, -22.968639 ], [ -43.261988, -22.968874 ], [ -43.261917, -22.968962 ], [ -43.261813, -22.969045 ], [ -43.261688, -22.969134 ], [ -43.261517, -22.9692 ], [ -43.261406, -22.969198 ], [ -43.261324, -22.96917 ], [ -43.261281, -22.969107 ], [ -43.261257, -22.969016 ], [ -43.261242, -22.968865 ], [ -43.261183, -22.968653 ], [ -43.261039, -22.968399 ], [ -43.260983, -22.968326 ], [ -43.26092, -22.968267 ], [ -43.260875, -22.968247 ], [ -43.260824, -22.968251 ], [ -43.260766, -22.968273 ], [ -43.260703, -22.968304 ], [ -43.260667, -22.968315 ], [ -43.260618, -22.968307 ], [ -43.260557, -22.968281 ], [ -43.260441, -22.968226 ], [ -43.260339, -22.96816 ], [ -43.260249, -22.968094 ], [ -43.260156, -22.968005 ], [ -43.259929, -22.967692 ], [ -43.259769, -22.967438 ], [ -43.259545, -22.967111 ], [ -43.259441, -22.966992 ], [ -43.259325, -22.966898 ], [ -43.259245, -22.966855 ], [ -43.259206, -22.966845 ], [ -43.259147, -22.966848 ], [ -43.259092, -22.966879 ], [ -43.259059, -22.966936 ], [ -43.259057, -22.96698 ], [ -43.259069, -22.967099 ], [ -43.259092, -22.967263 ], [ -43.259132, -22.967421 ], [ -43.259173, -22.967605 ], [ -43.259174, -22.967668 ], [ -43.259146, -22.96772 ], [ -43.259102, -22.967744 ], [ -43.259062, -22.967743 ], [ -43.258963, -22.967705 ], [ -43.258726, -22.967611 ], [ -43.258621, -22.967596 ], [ -43.258449, -22.967596 ], [ -43.258329, -22.967614 ], [ -43.258265, -22.967642 ], [ -43.258235, -22.967673 ], [ -43.258214, -22.967733 ], [ -43.258202, -22.967775 ], [ -43.258202, -22.967814 ], [ -43.258228, -22.96786 ], [ -43.258297, -22.967916 ], [ -43.258353, -22.967968 ], [ -43.258442, -22.968086 ], [ -43.258456, -22.968146 ], [ -43.258448, -22.968189 ], [ -43.258407, -22.968253 ], [ -43.258312, -22.968297 ], [ -43.258168, -22.968331 ], [ -43.258014, -22.968376 ], [ -43.257947, -22.968417 ], [ -43.257923, -22.968477 ], [ -43.257923, -22.968532 ], [ -43.257988, -22.96865 ], [ -43.258077, -22.968726 ], [ -43.258195, -22.96881 ], [ -43.258626, -22.969072 ], [ -43.258793, -22.969217 ], [ -43.25895, -22.969375 ], [ -43.259103, -22.969551 ], [ -43.259153, -22.969638 ], [ -43.259179, -22.969694 ], [ -43.259196, -22.969739 ], [ -43.259203, -22.969775 ], [ -43.259202, -22.96981 ], [ -43.259188, -22.96985 ], [ -43.259168, -22.969884 ], [ -43.25914, -22.969912 ], [ -43.259098, -22.969947 ], [ -43.259036, -22.969985 ], [ -43.258875, -22.970062 ], [ -43.258708, -22.970154 ], [ -43.258561, -22.970221 ], [ -43.258398, -22.970291 ], [ -43.258233, -22.970356 ], [ -43.258096, -22.970403 ], [ -43.258037, -22.970422 ], [ -43.258007, -22.970437 ], [ -43.257987, -22.970453 ], [ -43.257972, -22.970479 ], [ -43.257969, -22.970512 ], [ -43.257969, -22.970536 ], [ -43.257981, -22.970575 ], [ -43.258004, -22.97064 ], [ -43.258037, -22.970727 ], [ -43.258077, -22.970813 ], [ -43.258098, -22.970888 ], [ -43.258111, -22.970968 ], [ -43.25812, -22.971065 ], [ -43.258113, -22.971128 ], [ -43.258097, -22.971199 ], [ -43.258072, -22.971255 ], [ -43.258033, -22.971304 ], [ -43.257908, -22.971437 ], [ -43.257684, -22.971544 ], [ -43.257495, -22.971621 ], [ -43.257347, -22.971664 ], [ -43.257169, -22.971696 ], [ -43.256946, -22.971718 ], [ -43.256472, -22.971742 ], [ -43.256359, -22.971751 ], [ -43.256254, -22.971767 ], [ -43.256088, -22.971802 ], [ -43.255785, -22.97186 ], [ -43.255679, -22.971883 ], [ -43.255586, -22.971894 ], [ -43.25547, -22.97191 ], [ -43.255345, -22.971937 ], [ -43.255206, -22.971971 ], [ -43.25506, -22.972011 ], [ -43.254943, -22.972043 ], [ -43.254868, -22.972065 ], [ -43.254806, -22.972092 ], [ -43.254756, -22.972121 ], [ -43.254715, -22.972153 ], [ -43.254681, -22.972193 ], [ -43.254646, -22.972247 ], [ -43.254552, -22.972384 ], [ -43.254481, -22.972487 ], [ -43.254456, -22.972526 ], [ -43.254441, -22.97257 ], [ -43.254432, -22.972621 ], [ -43.25443, -22.972691 ], [ -43.254425, -22.972718 ], [ -43.254409, -22.972743 ], [ -43.254372, -22.972774 ], [ -43.254316, -22.972812 ], [ -43.254243, -22.972857 ], [ -43.254184, -22.972889 ], [ -43.254088, -22.972938 ], [ -43.254035, -22.972962 ], [ -43.253969, -22.972991 ], [ -43.253887, -22.973012 ], [ -43.253808, -22.973023 ], [ -43.253729, -22.973026 ], [ -43.253348, -22.972987 ], [ -43.25304, -22.972983 ], [ -43.252979, -22.97299 ], [ -43.252915, -22.973004 ], [ -43.252798, -22.973043 ], [ -43.252675, -22.973091 ], [ -43.252569, -22.973138 ], [ -43.252503, -22.973159 ], [ -43.252408, -22.973171 ], [ -43.252077, -22.973185 ], [ -43.251933, -22.973199 ], [ -43.251846, -22.973203 ], [ -43.251765, -22.973193 ], [ -43.251669, -22.973172 ], [ -43.251572, -22.973142 ], [ -43.251498, -22.973122 ], [ -43.251399, -22.973098 ], [ -43.251289, -22.973075 ], [ -43.251201, -22.973065 ], [ -43.251079, -22.973065 ], [ -43.250948, -22.973073 ], [ -43.250599, -22.973108 ], [ -43.250021, -22.973227 ], [ -43.24986, -22.973255 ], [ -43.249771, -22.973269 ], [ -43.24974, -22.973273 ], [ -43.249705, -22.973277 ], [ -43.249673, -22.973279 ], [ -43.249649, -22.973276 ], [ -43.24963, -22.97327 ], [ -43.249617, -22.973261 ], [ -43.24961, -22.97325 ], [ -43.249607, -22.973241 ], [ -43.249606, -22.973225 ], [ -43.249607, -22.97321 ], [ -43.24961, -22.973195 ], [ -43.249617, -22.973177 ], [ -43.249624, -22.973163 ], [ -43.249632, -22.973149 ] ] ] } },
{ "type": "Feature", "properties": { "cls": "sharrow", "highway": "unclassified", "name": "Estrada Dona Castorina" }, "geometry": { "type": "LineString", "coordinates": [ [ -43.240131, -22.965618 ], [ -43.240269, -22.965592 ], [ -43.240464, -22.965571 ], [ -43.240604, -22.965585 ], [ -43.240741, -22.96564 ], [ -43.241118, -22.965827 ], [ -43.241231, -22.965853 ], [ -43.241503, -22.965865 ], [ -43.241635, -22.965892 ], [ -43.241702, -22.965925 ], [ -43.241758, -22.965974 ], [ -43.241805, -22.966042 ], [ -43.241862, -22.966195 ], [ -43.24196, -22.966635 ], [ -43.242011, -22.966779 ], [ -43.242087, -22.966904 ], [ -43.242224, -22.967029 ], [ -43.242511, -22.967182 ], [ -43.242621, -22.967218 ], [ -43.242784, -22.967242 ], [ -43.242977, -22.967222 ], [ -43.243127, -22.967184 ], [ -43.243344, -22.967102 ], [ -43.243522, -22.966993 ], [ -43.243702, -22.966842 ], [ -43.243784, -22.966795 ], [ -43.244018, -22.966704 ], [ -43.244333, -22.966543 ], [ -43.244498, -22.96649 ], [ -43.244834, -22.966437 ], [ -43.244932, -22.966407 ], [ -43.245021, -22.966352 ], [ -43.245074, -22.966311 ], [ -43.245433, -22.965919 ], [ -43.245611, -22.965768 ], [ -43.24575, -22.965704 ], [ -43.245862, -22.965672 ], [ -43.245934, -22.965667 ], [ -43.245996, -22.965663 ], [ -43.246109, -22.965686 ], [ -43.246234, -22.965769 ], [ -43.24628, -22.965826 ], [ -43.246309, -22.965869 ], [ -43.246372, -22.966014 ], [ -43.246489, -22.966653 ], [ -43.246537, -22.966774 ], [ -43.246623, -22.966919 ], [ -43.246712, -22.967078 ], [ -43.246723, -22.967198 ], [ -43.246694, -22.967503 ], [ -43.246731, -22.967659 ], [ -43.246804, -22.967776 ], [ -43.246861, -22.967836 ], [ -43.247281, -22.968129 ], [ -43.247403, -22.968181 ], [ -43.247498, -22.968197 ], [ -43.247628, -22.968172 ], [ -43.247756, -22.96809 ], [ -43.248012, -22.96782 ], [ -43.24824, -22.967612 ], [ -43.248412, -22.96751 ], [ -43.248628, -22.967425 ], [ -43.248885, -22.967341 ], [ -43.24896, -22.967328 ], [ -43.249035, -22.967336 ], [ -43.249101, -22.967369 ], [ -43.249175, -22.96749 ], [ -43.24927, -22.967911 ], [ -43.249314, -22.967994 ], [ -43.24937, -22.968047 ], [ -43.24947, -22.968108 ], [ -43.249582, -22.968103 ], [ -43.24968, -22.968077 ], [ -43.249802, -22.968021 ], [ -43.249983, -22.967949 ], [ -43.250175, -22.96789 ], [ -43.25048, -22.967832 ], [ -43.250779, -22.967749 ], [ -43.250933, -22.96774 ], [ -43.251045, -22.967735 ], [ -43.25116, -22.967778 ], [ -43.251297, -22.967863 ], [ -43.25139, -22.967984 ], [ -43.251514, -22.968378 ], [ -43.251689, -22.968715 ], [ -43.25186, -22.968915 ], [ -43.251962, -22.968997 ], [ -43.252085, -22.969033 ], [ -43.25219, -22.969034 ], [ -43.252301, -22.968987 ], [ -43.252624, -22.968778 ], [ -43.252791, -22.968702 ], [ -43.252859, -22.968689 ], [ -43.252997, -22.968692 ], [ -43.253233, -22.968746 ], [ -43.253478, -22.968799 ], [ -43.253807, -22.968861 ], [ -43.253971, -22.968915 ], [ -43.25406, -22.968983 ], [ -43.254136, -22.969116 ], [ -43.254145, -22.969313 ], [ -43.254081, -22.969664 ], [ -43.254059, -22.969798 ], [ -43.254128, -22.96988 ], [ -43.254266, -22.969919 ], [ -43.254735, -22.970099 ], [ -43.255226, -22.97034 ], [ -43.255462, -22.970498 ], [ -43.25551, -22.970553 ], [ -43.255542, -22.970617 ], [ -43.255543, -22.970703 ], [ -43.255513, -22.970768 ], [ -43.255464, -22.970824 ], [ -43.255339, -22.97091 ], [ -43.254819, -22.971138 ], [ -43.254262, -22.971352 ], [ -43.254011, -22.97148 ], [ -43.253689, -22.971601 ], [ -43.253513, -22.971682 ], [ -43.253378, -22.971791 ], [ -43.253262, -22.971974 ], [ -43.253201, -22.972047 ], [ -43.253118, -22.972138 ], [ -43.252836, -22.97238 ], [ -43.252617, -22.972571 ], [ -43.252409, -22.972665 ], [ -43.252195, -22.972696 ], [ -43.251864, -22.972686 ], [ -43.251589, -22.972685 ], [ -43.251261, -22.972703 ], [ -43.251061, -22.972742 ], [ -43.25074, -22.97282 ], [ -43.250512, -22.97288 ], [ -43.250107, -22.973007 ], [ -43.249888, -22.973066 ], [ -43.249832, -22.973079 ], [ -43.249769, -22.973093 ], [ -43.249708, -22.973106 ], [ -43.249686, -22.973113 ], [ -43.249667, -22.973122 ], [ -43.249646, -22.973136 ], [ -43.249632, -22.973149 ] ] } },
{ "type": "Feature", "properties": { "cls": "sharrow", "highway": "unclassified", "name": "Estrada do Redentor" }, "geometry": { "type": "LineString", "coordinates": [ [ -43.218275, -22.948011 ], [ -43.218614, -22.948205 ], [ -43.219527, -22.948586 ], [ -43.219735, -22.948631 ], [ -43.21988, -22.948644 ], [ -43.22029, -22.948647 ], [ -43.220661, -22.948712 ], [ -43.220827, -22.948771 ], [ -43.220968, -22.948858 ], [ -43.221305, -22.949147 ], [ -43.221427, -22.949215 ], [ -43.22193, -22.949391 ], [ -43.223143, -22.949931 ], [ -43.2234, -22.950013 ], [ -43.223699, -22.950072 ], [ -43.223852, -22.95006 ], [ -43.224059, -22.949952 ], [ -43.224208, -22.949893 ], [ -43.224457, -22.949837 ], [ -43.224554, -22.949859 ], [ -43.224654, -22.949964 ], [ -43.224712, -22.950074 ], [ -43.224747, -22.950174 ], [ -43.224789, -22.950383 ], [ -43.22483, -22.950472 ], [ -43.22504, -22.950695 ], [ -43.225218, -22.95106 ], [ -43.225313, -22.951225 ], [ -43.225416, -22.951364 ], [ -43.225673, -22.951569 ], [ -43.226024, -22.951795 ], [ -43.226137, -22.951893 ], [ -43.226172, -22.951955 ], [ -43.226174, -22.952048 ], [ -43.226144, -22.952115 ], [ -43.225881, -22.95251 ], [ -43.225797, -22.952619 ], [ -43.225746, -22.952714 ], [ -43.225738, -22.952762 ], [ -43.225751, -22.952834 ], [ -43.225806, -22.952905 ], [ -43.226024, -22.953055 ], [ -43.22643, -22.953297 ], [ -43.226552, -22.953399 ], [ -43.226707, -22.95356 ], [ -43.226813, -22.953651 ], [ -43.22688, -22.953688 ], [ -43.227016, -22.953736 ], [ -43.227638, -22.95387 ], [ -43.227819, -22.953847 ], [ -43.228052, -22.953735 ], [ -43.228161, -22.953688 ], [ -43.228285, -22.953675 ], [ -43.228749, -22.953709 ], [ -43.228863, -22.953687 ], [ -43.229228, -22.953539 ], [ -43.22939, -22.953514 ], [ -43.229507, -22.953521 ], [ -43.229812, -22.95358 ], [ -43.230062, -22.953678 ], [ -43.230272, -22.953792 ], [ -43.230443, -22.95391 ], [ -43.230549, -22.954004 ], [ -43.230665, -22.954147 ], [ -43.230908, -22.954535 ], [ -43.230995, -22.954755 ], [ -43.231048, -22.95485 ], [ -43.231154, -22.954977 ], [ -43.231297, -22.955077 ], [ -43.231471, -22.955241 ], [ -43.231608, -22.955421 ], [ -43.231642, -22.9555 ], [ -43.231715, -22.955823 ], [ -43.231755, -22.955902 ], [ -43.231805, -22.955949 ], [ -43.231895, -22.955971 ], [ -43.232109, -22.955947 ], [ -43.232354, -22.955889 ], [ -43.233229, -22.955615 ], [ -43.233707, -22.955407 ], [ -43.234034, -22.95517 ], [ -43.234093, -22.955141 ], [ -43.234182, -22.955133 ], [ -43.234432, -22.955149 ], [ -43.234527, -22.955141 ], [ -43.235057, -22.955021 ], [ -43.235133, -22.955015 ], [ -43.23521, -22.955026 ], [ -43.235572, -22.955156 ], [ -43.235689, -22.955181 ], [ -43.235809, -22.955188 ], [ -43.235909, -22.955172 ], [ -43.236179, -22.955104 ], [ -43.236299, -22.955089 ], [ -43.236481, -22.955094 ], [ -43.236702, -22.955115 ], [ -43.237028, -22.955137 ], [ -43.237203, -22.955176 ], [ -43.237361, -22.955241 ], [ -43.23746, -22.955268 ], [ -43.237561, -22.95528 ], [ -43.238039, -22.955247 ], [ -43.238378, -22.955179 ], [ -43.238532, -22.955141 ], [ -43.23864, -22.955134 ], [ -43.238738, -22.955161 ], [ -43.238898, -22.955239 ], [ -43.239548, -22.955646 ], [ -43.239692, -22.955694 ], [ -43.239932, -22.955734 ], [ -43.240006, -22.955751 ], [ -43.240087, -22.955784 ], [ -43.240613, -22.956075 ], [ -43.240867, -22.95619 ], [ -43.241011, -22.956224 ], [ -43.241276, -22.956241 ], [ -43.241451, -22.956237 ], [ -43.24173, -22.956204 ], [ -43.241866, -22.956213 ], [ -43.242102, -22.956269 ], [ -43.242271, -22.956289 ], [ -43.242509, -22.956274 ], [ -43.242933, -22.956231 ], [ -43.24305, -22.956227 ], [ -43.243191, -22.956253 ], [ -43.244038, -22.956415 ], [ -43.244109, -22.956412 ], [ -43.244174, -22.956399 ], [ -43.244793, -22.956242 ], [ -43.24491, -22.956243 ], [ -43.244995, -22.956254 ], [ -43.245297, -22.95634 ], [ -43.245449, -22.956363 ], [ -43.245663, -22.956365 ], [ -43.245772, -22.956391 ], [ -43.246117, -22.956573 ], [ -43.246235, -22.956601 ], [ -43.246438, -22.956609 ], [ -43.246762, -22.956681 ], [ -43.247867, -22.956868 ], [ -43.247999, -22.95692 ], [ -43.248078, -22.957015 ], [ -43.2481, -22.957147 ], [ -43.248101, -22.957398 ], [ -43.248131, -22.957509 ], [ -43.248199, -22.957642 ], [ -43.248264, -22.957704 ], [ -43.248421, -22.957765 ], [ -43.2489, -22.957824 ], [ -43.249622, -22.957827 ], [ -43.249714, -22.957812 ], [ -43.249764, -22.957789 ], [ -43.249824, -22.957732 ], [ -43.24991, -22.957564 ], [ -43.24997, -22.957486 ], [ -43.250051, -22.957441 ], [ -43.250127, -22.957429 ], [ -43.250253, -22.957441 ], [ -43.250604, -22.957535 ], [ -43.250717, -22.957552 ], [ -43.250794, -22.957544 ], [ -43.250908, -22.9575 ], [ -43.250985, -22.957445 ], [ -43.251254, -22.957199 ], [ -43.25135, -22.957139 ], [ -43.251509, -22.957112 ], [ -43.251936, -22.95715 ], [ -43.252081, -22.95716 ], [ -43.252197, -22.957148 ], [ -43.252375, -22.957071 ], [ -43.252439, -22.957042 ], [ -43.252897, -22.956831 ], [ -43.25304, -22.956823 ], [ -43.253152, -22.95686 ], [ -43.253229, -22.956944 ], [ -43.253278, -22.957032 ], [ -43.253262, -22.957146 ], [ -43.253116, -22.957444 ], [ -43.253105, -22.957534 ], [ -43.253127, -22.957612 ], [ -43.253198, -22.95767 ], [ -43.253316, -22.95771 ], [ -43.253406, -22.957712 ], [ -43.253501, -22.957677 ], [ -43.253598, -22.957602 ], [ -43.253682, -22.95749 ], [ -43.253854, -22.957192 ], [ -43.254216, -22.956863 ], [ -43.254674, -22.956244 ], [ -43.254736, -22.956106 ], [ -43.254797, -22.955824 ], [ -43.254846, -22.955759 ], [ -43.254934, -22.955713 ], [ -43.255187, -22.955673 ], [ -43.255329, -22.955606 ], [ -43.255692, -22.955277 ], [ -43.255773, -22.955237 ], [ -43.255855, -22.955214 ], [ -43.255985, -22.95522 ], [ -43.256123, -22.955258 ], [ -43.256329, -22.955351 ], [ -43.256625, -22.955541 ], [ -43.2567, -22.95563 ], [ -43.256736, -22.955744 ], [ -43.25673, -22.955899 ], [ -43.256694, -22.956049 ], [ -43.256555, -22.956301 ], [ -43.256541, -22.956402 ], [ -43.256581, -22.956503 ], [ -43.256873, -22.956702 ], [ -43.256938, -22.956792 ], [ -43.256991, -22.956928 ], [ -43.257017, -22.957094 ], [ -43.256991, -22.957287 ], [ -43.25693, -22.957478 ], [ -43.256911, -22.957615 ], [ -43.256944, -22.957746 ], [ -43.257036, -22.957875 ], [ -43.257667, -22.958454 ], [ -43.257968, -22.95871 ], [ -43.258111, -22.958878 ], [ -43.258138, -22.958945 ], [ -43.25814, -22.959087 ], [ -43.258105, -22.959301 ], [ -43.258092, -22.959507 ], [ -43.25811, -22.959631 ], [ -43.258158, -22.959767 ], [ -43.258344, -22.960102 ], [ -43.25847, -22.960212 ], [ -43.258557, -22.960251 ], [ -43.258826, -22.960293 ], [ -43.258963, -22.960293 ], [ -43.259105, -22.96027 ], [ -43.259389, -22.96015 ], [ -43.259528, -22.960113 ], [ -43.259605, -22.960111 ], [ -43.25968, -22.960127 ], [ -43.259801, -22.960201 ], [ -43.259993, -22.960392 ], [ -43.260074, -22.960513 ], [ -43.260094, -22.960599 ], [ -43.26008, -22.960677 ], [ -43.259943, -22.960986 ], [ -43.259909, -22.961116 ], [ -43.259915, -22.961258 ], [ -43.259952, -22.96134 ], [ -43.260029, -22.96142 ], [ -43.260112, -22.961465 ], [ -43.260457, -22.961515 ], [ -43.260661, -22.961572 ], [ -43.261016, -22.961823 ], [ -43.261131, -22.961871 ], [ -43.26157, -22.961956 ], [ -43.261801, -22.961962 ], [ -43.261873, -22.96194 ], [ -43.261936, -22.961899 ], [ -43.262005, -22.961813 ], [ -43.262042, -22.961702 ], [ -43.262086, -22.961372 ], [ -43.26213, -22.961217 ], [ -43.262178, -22.96114 ], [ -43.262597, -22.960701 ], [ -43.262647, -22.960625 ], [ -43.262724, -22.960238 ], [ -43.262796, -22.960141 ], [ -43.262947, -22.960064 ], [ -43.263124, -22.959973 ], [ -43.263322, -22.959951 ], [ -43.263445, -22.959993 ], [ -43.263537, -22.960062 ], [ -43.263656, -22.960167 ], [ -43.263861, -22.960451 ], [ -43.264138, -22.960776 ], [ -43.264381, -22.961204 ], [ -43.26443, -22.961245 ], [ -43.264509, -22.961279 ], [ -43.264585, -22.961289 ], [ -43.26474, -22.961268 ], [ -43.265068, -22.961181 ], [ -43.265533, -22.961133 ], [ -43.265683, -22.961098 ], [ -43.265801, -22.961035 ], [ -43.266017, -22.96083 ], [ -43.266303, -22.960299 ], [ -43.26637, -22.960211 ], [ -43.266484, -22.960113 ], [ -43.266734, -22.959959 ], [ -43.266874, -22.959926 ], [ -43.267007, -22.959943 ], [ -43.267144, -22.960009 ], [ -43.267314, -22.960114 ], [ -43.267406, -22.960232 ], [ -43.267441, -22.960366 ], [ -43.267405, -22.960454 ], [ -43.267339, -22.960514 ], [ -43.267167, -22.960674 ], [ -43.267067, -22.960795 ], [ -43.267013, -22.960937 ], [ -43.267013, -22.961044 ], [ -43.267033, -22.961132 ], [ -43.267106, -22.961267 ], [ -43.267231, -22.961363 ], [ -43.267331, -22.961396 ], [ -43.268089, -22.961461 ], [ -43.268283, -22.961455 ], [ -43.26864, -22.961406 ], [ -43.268882, -22.9614 ], [ -43.269032, -22.961436 ], [ -43.269571, -22.961647 ], [ -43.2698, -22.961691 ], [ -43.269905, -22.961694 ], [ -43.270048, -22.961665 ], [ -43.270512, -22.961502 ], [ -43.27066, -22.961472 ], [ -43.270999, -22.961405 ], [ -43.271428, -22.961302 ], [ -43.271555, -22.961305 ], [ -43.271558, -22.961305 ] ] } },
{ "type": "Feature", "properties": { "cls": "painted", "highway": "unclassified", "name": "Estrada da Cascatinha" }, "geometry": { "type": "LineString", "coordinates": [ [ -43.274345, -22.960872 ], [ -43.274566, -22.960623 ], [ -43.274782, -22.960511 ], [ -43.274991, -22.960422 ], [ -43.275205, -22.960352 ], [ -43.275273, -22.960315 ], [ -43.275507, -22.959883 ], [ -43.275638, -22.959789 ], [ -43.275819, -22.959707 ], [ -43.276009, -22.959661 ], [ -43.276371, -22.959663 ], [ -43.276502, -22.959678 ], [ -43.276612, -22.959685 ], [ -43.276987, -22.959651 ], [ -43.277123, -22.959572 ], [ -43.277189, -22.959436 ], [ -43.277192, -22.959413 ], [ -43.277207, -22.959316 ], [ -43.277259, -22.9592 ], [ -43.277277, -22.959141 ], [ -43.277311, -22.959081 ], [ -43.277336, -22.959044 ], [ -43.277394, -22.959019 ] ] } },
{ "type": "Feature", "properties": { "cls": "painted", "highway": "unclassified", "name": "Estrada da Cascatinha" }, "geometry": { "type": "LineString", "coordinates": [ [ -43.277394, -22.959019 ], [ -43.277519, -22.959008 ] ] } },
{ "type": "Feature", "properties": { "cls": "painted", "highway": "unclassified", "name": "Estrada da Cascatinha" }, "geometry": { "type": "LineString", "coordinates": [ [ -43.277519, -22.959008 ], [ -43.277646, -22.959002 ], [ -43.277709, -22.959003 ], [ -43.278001, -22.95901 ] ] } },
{ "type": "Feature", "properties": { "cls": "painted", "highway": "unclassified", "name": "Estrada do Imperador" }, "geometry": { "type": "LineString", "coordinates": [ [ -43.278001, -22.95901 ], [ -43.278387, -22.959036 ], [ -43.278437, -22.959073 ], [ -43.278429, -22.959147 ], [ -43.278366, -22.959196 ], [ -43.27825, -22.959245 ], [ -43.278175, -22.959293 ], [ -43.278138, -22.959392 ], [ -43.278108, -22.95965 ], [ -43.278098, -22.959747 ], [ -43.278038, -22.95983 ], [ -43.277638, -22.960082 ], [ -43.277626, -22.960097 ], [ -43.277619, -22.96011 ], [ -43.277618, -22.96012 ], [ -43.277625, -22.960132 ], [ -43.277633, -22.960139 ], [ -43.277648, -22.96014 ], [ -43.277668, -22.960139 ], [ -43.278183, -22.959964 ], [ -43.278277, -22.959858 ], [ -43.278309, -22.959764 ], [ -43.278345, -22.959636 ], [ -43.278386, -22.959566 ], [ -43.278473, -22.959515 ], [ -43.279227, -22.959229 ], [ -43.279455, -22.9591 ], [ -43.279544, -22.959021 ], [ -43.279562, -22.958963 ], [ -43.279541, -22.958916 ], [ -43.279497, -22.958867 ], [ -43.279356, -22.958784 ], [ -43.278689, -22.958508 ], [ -43.278288, -22.958368 ], [ -43.27794, -22.958261 ], [ -43.277878, -22.958208 ], [ -43.277863, -22.958166 ], [ -43.277859, -22.95811 ], [ -43.277968, -22.957892 ], [ -43.277987, -22.95778 ], [ -43.277969, -22.957668 ], [ -43.277811, -22.957327 ], [ -43.277793, -22.957249 ], [ -43.277804, -22.957152 ], [ -43.277833, -22.957098 ], [ -43.277877, -22.957032 ], [ -43.277946, -22.956992 ], [ -43.27806, -22.956959 ], [ -43.278175, -22.95696 ], [ -43.278279, -22.95701 ], [ -43.278362, -22.957104 ], [ -43.278523, -22.957284 ], [ -43.278623, -22.957335 ], [ -43.278745, -22.957331 ], [ -43.278863, -22.957278 ], [ -43.279387, -22.956934 ], [ -43.279919, -22.956532 ], [ -43.280504, -22.956198 ] ] } },
{ "type": "Feature", "properties": { "cls": "painted", "highway": "unclassified", "name": "Estrada do Imperador" }, "geometry": { "type": "LineString", "coordinates": [ [ -43.280504, -22.956198 ], [ -43.280558, -22.956149 ], [ -43.280602, -22.956109 ] ] } },
{ "type": "Feature", "properties": { "cls": "painted", "highway": "unclassified", "name": "Estrada do Imperador" }, "geometry": { "type": "LineString", "coordinates": [ [ -43.280602, -22.956109 ], [ -43.280666, -22.956056 ] ] } },
{ "type": "Feature", "properties": { "cls": "painted", "highway": "unclassified", "name": "Estrada Escragnole" }, "geometry": { "type": "LineString", "coordinates": [ [ -43.291198, -22.956165 ], [ -43.290816, -22.956289 ], [ -43.290734, -22.956294 ], [ -43.290663, -22.95627 ], [ -43.290377, -22.956024 ], [ -43.290299, -22.955991 ], [ -43.290212, -22.955998 ], [ -43.289674, -22.956306 ], [ -43.289603, -22.956309 ], [ -43.289529, -22.956275 ], [ -43.289028, -22.955767 ], [ -43.288885, -22.955626 ], [ -43.288788, -22.955562 ], [ -43.288692, -22.955511 ], [ -43.288583, -22.955483 ], [ -43.288254, -22.955438 ], [ -43.288111, -22.955407 ], [ -43.288039, -22.955367 ], [ -43.287977, -22.955304 ], [ -43.287886, -22.955167 ], [ -43.28779, -22.955067 ], [ -43.287654, -22.955052 ], [ -43.287522, -22.955075 ], [ -43.287305, -22.95515 ], [ -43.287077, -22.95519 ], [ -43.286933, -22.955204 ], [ -43.286824, -22.955194 ], [ -43.286681, -22.95519 ], [ -43.286634, -22.95519 ], [ -43.286468, -22.955216 ], [ -43.285978, -22.955326 ] ] } },
{ "type": "Feature", "properties": { "cls": "painted", "highway": "unclassified", "name": "Estrada Major Archer" }, "geometry": { "type": "LineString", "coordinates": [ [ -43.291426, -22.954268 ], [ -43.291427, -22.954393 ], [ -43.291406, -22.954632 ], [ -43.291415, -22.954676 ], [ -43.291438, -22.954716 ], [ -43.291574, -22.954861 ], [ -43.291678, -22.955021 ], [ -43.291729, -22.95518 ], [ -43.291745, -22.955421 ], [ -43.291709, -22.95569 ], [ -43.291619, -22.955904 ], [ -43.291524, -22.956014 ], [ -43.291198, -22.956165 ] ] } },
{ "type": "Feature", "properties": { "cls": "sharrow", "highway": "unclassified", "name": "Estrada Dona Castorina" }, "geometry": { "type": "LineString", "coordinates": [ [ -43.240109, -22.965622 ], [ -43.240131, -22.965618 ] ] } },
{ "type": "Feature", "properties": { "cls": "sharrow", "highway": "unclassified", "name": "Estrada do Sumaré" }, "geometry": { "type": "LineString", "coordinates": [ [ -43.252439, -22.957042 ], [ -43.25231, -22.9569 ], [ -43.252082, -22.956613 ], [ -43.251836, -22.956437 ], [ -43.251657, -22.956401 ], [ -43.251475, -22.95643 ], [ -43.251067, -22.95659 ], [ -43.250442, -22.95673 ], [ -43.249651, -22.956703 ], [ -43.249218, -22.956739 ], [ -43.249032, -22.956694 ], [ -43.248937, -22.956615 ], [ -43.248787, -22.956467 ], [ -43.248645, -22.956332 ], [ -43.248266, -22.956151 ], [ -43.248024, -22.956023 ], [ -43.247647, -22.955946 ], [ -43.24736, -22.955909 ], [ -43.247036, -22.955871 ], [ -43.246745, -22.955742 ], [ -43.246017, -22.955243 ], [ -43.245779, -22.955126 ], [ -43.245238, -22.954934 ], [ -43.24498, -22.954886 ], [ -43.244615, -22.954908 ], [ -43.244247, -22.954985 ], [ -43.243985, -22.955024 ], [ -43.243786, -22.955 ], [ -43.243518, -22.95495 ], [ -43.243322, -22.954918 ], [ -43.243108, -22.954879 ], [ -43.242788, -22.95478 ], [ -43.242517, -22.954676 ], [ -43.242348, -22.954632 ], [ -43.242048, -22.954637 ], [ -43.241792, -22.954587 ], [ -43.241583, -22.954516 ], [ -43.241315, -22.954417 ], [ -43.24114, -22.954401 ], [ -43.240983, -22.954419 ], [ -43.240886, -22.954384 ], [ -43.240822, -22.954323 ], [ -43.240778, -22.954246 ], [ -43.240781, -22.953953 ], [ -43.240738, -22.953846 ], [ -43.240651, -22.953767 ], [ -43.240388, -22.953598 ], [ -43.240132, -22.953525 ], [ -43.239985, -22.953533 ], [ -43.239927, -22.953556 ], [ -43.239892, -22.953588 ], [ -43.23976, -22.95389 ], [ -43.239716, -22.953933 ], [ -43.239657, -22.95395 ], [ -43.239584, -22.953953 ], [ -43.239253, -22.953816 ], [ -43.239013, -22.953718 ], [ -43.238792, -22.953621 ], [ -43.238512, -22.953511 ], [ -43.238365, -22.953435 ], [ -43.238243, -22.953335 ], [ -43.238129, -22.953241 ], [ -43.238042, -22.953187 ], [ -43.237949, -22.953159 ], [ -43.237797, -22.953113 ], [ -43.237631, -22.953054 ], [ -43.237523, -22.952998 ], [ -43.237415, -22.952949 ], [ -43.237298, -22.952878 ], [ -43.237086, -22.952745 ], [ -43.236852, -22.952601 ], [ -43.236389, -22.952388 ], [ -43.236006, -22.952285 ], [ -43.235689, -22.952237 ], [ -43.235444, -22.952239 ], [ -43.235167, -22.952287 ], [ -43.234869, -22.952365 ], [ -43.234279, -22.952583 ], [ -43.233976, -22.952678 ], [ -43.233859, -22.952696 ], [ -43.233673, -22.952651 ], [ -43.233616, -22.952605 ], [ -43.233592, -22.952546 ], [ -43.233591, -22.952498 ], [ -43.233627, -22.952342 ], [ -43.233822, -22.952006 ], [ -43.233918, -22.951868 ], [ -43.233961, -22.951803 ], [ -43.233968, -22.951752 ], [ -43.233941, -22.951675 ], [ -43.233906, -22.951636 ], [ -43.233859, -22.951612 ], [ -43.233772, -22.951595 ], [ -43.233604, -22.951603 ], [ -43.233488, -22.951629 ], [ -43.23337, -22.951669 ], [ -43.233291, -22.951671 ], [ -43.233217, -22.951645 ], [ -43.23317, -22.951599 ], [ -43.23312, -22.951477 ], [ -43.233071, -22.951406 ], [ -43.233002, -22.951364 ], [ -43.232925, -22.951345 ], [ -43.232694, -22.951364 ], [ -43.232377, -22.951364 ], [ -43.231943, -22.951316 ], [ -43.231656, -22.9513 ], [ -43.231319, -22.951319 ], [ -43.231023, -22.951347 ], [ -43.230812, -22.951388 ], [ -43.230669, -22.95144 ], [ -43.230552, -22.951514 ], [ -43.230295, -22.951757 ], [ -43.230183, -22.951818 ], [ -43.230059, -22.951846 ], [ -43.229835, -22.951856 ], [ -43.229627, -22.951832 ], [ -43.229424, -22.951762 ], [ -43.229391, -22.951731 ], [ -43.229363, -22.951685 ], [ -43.229342, -22.95158 ], [ -43.229342, -22.951399 ], [ -43.22933, -22.951304 ], [ -43.229304, -22.951278 ], [ -43.229251, -22.951253 ], [ -43.229208, -22.951251 ], [ -43.229159, -22.951265 ], [ -43.229004, -22.951391 ], [ -43.228799, -22.951501 ], [ -43.22872, -22.951518 ], [ -43.228628, -22.951506 ], [ -43.22846, -22.951417 ], [ -43.228406, -22.951372 ], [ -43.228362, -22.95129 ], [ -43.228342, -22.951075 ], [ -43.228355, -22.950881 ], [ -43.228354, -22.950758 ], [ -43.228329, -22.950668 ], [ -43.228188, -22.95051 ], [ -43.228106, -22.950462 ], [ -43.227995, -22.950433 ], [ -43.227815, -22.950427 ], [ -43.227441, -22.950453 ], [ -43.227401, -22.950439 ], [ -43.22737, -22.950412 ], [ -43.227339, -22.950355 ], [ -43.227308, -22.950163 ], [ -43.227265, -22.949984 ], [ -43.227242, -22.949943 ], [ -43.227194, -22.949907 ], [ -43.227064, -22.949872 ], [ -43.226762, -22.949822 ], [ -43.226573, -22.949749 ], [ -43.226487, -22.949681 ], [ -43.226448, -22.949619 ], [ -43.226447, -22.949539 ], [ -43.226474, -22.949445 ], [ -43.226523, -22.949349 ], [ -43.226648, -22.949138 ], [ -43.226743, -22.948976 ], [ -43.226759, -22.948888 ], [ -43.226739, -22.948761 ], [ -43.22669, -22.948652 ], [ -43.226629, -22.948582 ], [ -43.226491, -22.948504 ], [ -43.226405, -22.948474 ], [ -43.226307, -22.948467 ], [ -43.225923, -22.948488 ], [ -43.225493, -22.948513 ], [ -43.225264, -22.948508 ], [ -43.225063, -22.94848 ], [ -43.224766, -22.948396 ], [ -43.22467, -22.948394 ], [ -43.22443, -22.948425 ], [ -43.224099, -22.948452 ], [ -43.223982, -22.948428 ], [ -43.223851, -22.948363 ], [ -43.22377, -22.948267 ], [ -43.223723, -22.94813 ], [ -43.223715, -22.948046 ], [ -43.223754, -22.9479 ], [ -43.223867, -22.947757 ], [ -43.223979, -22.947688 ], [ -43.224136, -22.94764 ], [ -43.224343, -22.947622 ], [ -43.224659, -22.947651 ], [ -43.224759, -22.947628 ], [ -43.224832, -22.947588 ], [ -43.225039, -22.947458 ], [ -43.225137, -22.947414 ], [ -43.22524, -22.947396 ], [ -43.225465, -22.947377 ], [ -43.225915, -22.947341 ], [ -43.226302, -22.947301 ], [ -43.226604, -22.947221 ], [ -43.226739, -22.947165 ], [ -43.226856, -22.947091 ], [ -43.227055, -22.946922 ], [ -43.227123, -22.946841 ], [ -43.227146, -22.94678 ], [ -43.227151, -22.946706 ], [ -43.227143, -22.946575 ], [ -43.227001, -22.946167 ], [ -43.226778, -22.945655 ], [ -43.226647, -22.945287 ], [ -43.226557, -22.945013 ], [ -43.22651, -22.944921 ], [ -43.226443, -22.944869 ], [ -43.226338, -22.94482 ], [ -43.226122, -22.944761 ], [ -43.225994, -22.944709 ], [ -43.225919, -22.944661 ], [ -43.225898, -22.944625 ], [ -43.225888, -22.944584 ], [ -43.22591, -22.944427 ], [ -43.225995, -22.944224 ], [ -43.226102, -22.944085 ], [ -43.226424, -22.943723 ], [ -43.226451, -22.943643 ], [ -43.22645, -22.943551 ], [ -43.226415, -22.943458 ], [ -43.226267, -22.943306 ], [ -43.226162, -22.943249 ], [ -43.226082, -22.94322 ], [ -43.22577, -22.943152 ], [ -43.225575, -22.943127 ], [ -43.225103, -22.94311 ], [ -43.224808, -22.943113 ], [ -43.224288, -22.943144 ], [ -43.223934, -22.943138 ], [ -43.223742, -22.943121 ], [ -43.223452, -22.943073 ], [ -43.223093, -22.942939 ], [ -43.222881, -22.942811 ], [ -43.222693, -22.942655 ], [ -43.222538, -22.942507 ], [ -43.22242, -22.942292 ], [ -43.222205, -22.9416 ], [ -43.222165, -22.941432 ], [ -43.222141, -22.941235 ], [ -43.222151, -22.941064 ], [ -43.222189, -22.940968 ], [ -43.222323, -22.940869 ], [ -43.223053, -22.940477 ], [ -43.223154, -22.940437 ], [ -43.223263, -22.940409 ], [ -43.223368, -22.94041 ], [ -43.223467, -22.940463 ], [ -43.223515, -22.940526 ], [ -43.223562, -22.940647 ], [ -43.223672, -22.940901 ], [ -43.223766, -22.940983 ], [ -43.223864, -22.941024 ], [ -43.223998, -22.941021 ], [ -43.224226, -22.940956 ], [ -43.224425, -22.940874 ], [ -43.224532, -22.940845 ], [ -43.224659, -22.940856 ], [ -43.224789, -22.940918 ], [ -43.224913, -22.941069 ], [ -43.225075, -22.941311 ], [ -43.22517, -22.941391 ], [ -43.225299, -22.941458 ], [ -43.225496, -22.941478 ], [ -43.225628, -22.941475 ], [ -43.225774, -22.941429 ], [ -43.225904, -22.941345 ], [ -43.225951, -22.941216 ], [ -43.225968, -22.941106 ], [ -43.225956, -22.940783 ], [ -43.225857, -22.940438 ], [ -43.2258, -22.940246 ], [ -43.22578, -22.940091 ], [ -43.225771, -22.939945 ], [ -43.225759, -22.939805 ], [ -43.225715, -22.939738 ], [ -43.225645, -22.939706 ], [ -43.225536, -22.939708 ], [ -43.2253, -22.939742 ], [ -43.225208, -22.939747 ], [ -43.22512, -22.939738 ], [ -43.225056, -22.939718 ], [ -43.224957, -22.93966 ], [ -43.224848, -22.939581 ] ] } },
{ "type": "Feature", "properties": { "cls": "painted", "highway": "unclassified", "name": "Estrada do Imperador" }, "geometry": { "type": "LineString", "coordinates": [ [ -43.280666, -22.956056 ], [ -43.280742, -22.955999 ], [ -43.280925, -22.95586 ], [ -43.281299, -22.955575 ], [ -43.282251, -22.954876 ], [ -43.28245, -22.9547 ], [ -43.282498, -22.954611 ], [ -43.282529, -22.954491 ], [ -43.282566, -22.954225 ], [ -43.28261, -22.95415 ], [ -43.282804, -22.953964 ], [ -43.283012, -22.953741 ], [ -43.283029, -22.953725 ] ] } },
{ "type": "Feature", "properties": { "cls": "painted", "highway": "unclassified", "name": "Estrada Major Archer" }, "geometry": { "type": "LineString", "coordinates": [ [ -43.291417, -22.954178 ], [ -43.291426, -22.954268 ] ] } },
{ "type": "Feature", "properties": { "cls": "painted", "highway": "unclassified", "name": "Estrada Major Archer" }, "geometry": { "type": "LineString", "coordinates": [ [ -43.28815, -22.949047 ], [ -43.288049, -22.949072 ], [ -43.287958, -22.949118 ], [ -43.287898, -22.949174 ], [ -43.287864, -22.949233 ], [ -43.287847, -22.949328 ], [ -43.287853, -22.94941 ], [ -43.287974, -22.949671 ], [ -43.287976, -22.949753 ], [ -43.287945, -22.949827 ], [ -43.287833, -22.949939 ], [ -43.287788, -22.950016 ], [ -43.287769, -22.950124 ], [ -43.287753, -22.950239 ], [ -43.287703, -22.950313 ], [ -43.287604, -22.950369 ], [ -43.287114, -22.950472 ], [ -43.28703, -22.95049 ], [ -43.286789, -22.950535 ], [ -43.286549, -22.950662 ], [ -43.286252, -22.950884 ], [ -43.28591, -22.951071 ], [ -43.285853, -22.95113 ], [ -43.285832, -22.951221 ], [ -43.285843, -22.951308 ], [ -43.285898, -22.95136 ], [ -43.286004, -22.951387 ], [ -43.286122, -22.951389 ], [ -43.286288, -22.951421 ], [ -43.286427, -22.9515 ], [ -43.286712, -22.951723 ], [ -43.28694, -22.951822 ], [ -43.287122, -22.951859 ], [ -43.287473, -22.951866 ], [ -43.287704, -22.951893 ], [ -43.287881, -22.95196 ], [ -43.288246, -22.952172 ], [ -43.28845, -22.952244 ], [ -43.289332, -22.952429 ], [ -43.289485, -22.952488 ], [ -43.289555, -22.952536 ], [ -43.289617, -22.952597 ], [ -43.289906, -22.953024 ], [ -43.290032, -22.95321 ], [ -43.290109, -22.953277 ], [ -43.290196, -22.953331 ], [ -43.290424, -22.9534 ], [ -43.290767, -22.953457 ], [ -43.290825, -22.953474 ], [ -43.290877, -22.953499 ], [ -43.290916, -22.953532 ], [ -43.290939, -22.953568 ], [ -43.291003, -22.953812 ], [ -43.29104, -22.953898 ], [ -43.291113, -22.953948 ], [ -43.291271, -22.953992 ], [ -43.291363, -22.954054 ], [ -43.291417, -22.954178 ] ] } },
{ "type": "Feature", "properties": { "cls": "painted", "highway": "unclassified", "name": "Estrada dos Picos" }, "geometry": { "type": "LineString", "coordinates": [ [ -43.283029, -22.953725 ], [ -43.283093, -22.953685 ], [ -43.283323, -22.953612 ], [ -43.283646, -22.953515 ], [ -43.284, -22.953338 ], [ -43.28402, -22.953318 ], [ -43.284028, -22.953296 ], [ -43.28402, -22.953279 ], [ -43.283987, -22.953263 ], [ -43.283544, -22.953179 ], [ -43.283028, -22.953154 ], [ -43.282583, -22.953076 ], [ -43.2825, -22.953042 ], [ -43.282444, -22.952998 ], [ -43.282398, -22.952914 ], [ -43.282385, -22.952856 ], [ -43.282367, -22.952775 ], [ -43.282363, -22.952642 ], [ -43.282383, -22.952538 ], [ -43.282502, -22.952247 ], [ -43.282582, -22.951906 ], [ -43.282599, -22.951877 ], [ -43.282635, -22.951869 ], [ -43.282663, -22.95188 ], [ -43.282685, -22.951907 ], [ -43.282689, -22.952123 ], [ -43.282712, -22.952259 ], [ -43.282742, -22.95236 ], [ -43.282768, -22.952423 ], [ -43.282826, -22.95247 ], [ -43.282942, -22.952522 ], [ -43.283065, -22.952539 ], [ -43.283515, -22.952542 ], [ -43.283624, -22.952511 ], [ -43.283732, -22.952445 ], [ -43.283793, -22.952386 ], [ -43.283797, -22.952381 ], [ -43.283848, -22.952317 ], [ -43.283864, -22.952264 ], [ -43.283881, -22.95207 ], [ -43.283899, -22.952011 ], [ -43.283928, -22.95197 ], [ -43.28397, -22.951937 ], [ -43.284129, -22.951875 ], [ -43.28432, -22.95178 ], [ -43.284365, -22.951766 ], [ -43.284403, -22.95177 ], [ -43.28445, -22.9518 ], [ -43.284497, -22.951856 ], [ -43.284675, -22.951988 ], [ -43.284741, -22.952024 ], [ -43.284802, -22.952038 ], [ -43.284857, -22.952028 ], [ -43.28488, -22.95201 ], [ -43.284884, -22.951986 ], [ -43.28487, -22.951964 ], [ -43.284846, -22.951947 ], [ -43.284818, -22.951915 ], [ -43.284796, -22.951884 ], [ -43.284753, -22.951753 ], [ -43.284728, -22.951545 ], [ -43.284735, -22.951437 ], [ -43.284762, -22.951324 ], [ -43.284807, -22.951235 ], [ -43.284876, -22.95114 ], [ -43.285012, -22.950981 ], [ -43.285142, -22.950848 ], [ -43.285324, -22.95067 ], [ -43.285401, -22.950622 ], [ -43.285479, -22.950591 ], [ -43.285671, -22.950565 ], [ -43.285741, -22.950538 ], [ -43.285784, -22.950496 ], [ -43.285799, -22.950442 ], [ -43.2858, -22.950079 ], [ -43.28581, -22.950014 ], [ -43.285849, -22.949946 ], [ -43.285899, -22.949888 ], [ -43.285918, -22.949875 ], [ -43.285957, -22.949848 ], [ -43.286039, -22.949813 ], [ -43.286127, -22.949798 ], [ -43.28648, -22.949788 ], [ -43.286553, -22.949795 ], [ -43.286616, -22.949807 ], [ -43.286751, -22.949873 ], [ -43.287124, -22.95007 ], [ -43.287194, -22.950072 ], [ -43.287275, -22.950052 ], [ -43.287632, -22.949828 ], [ -43.287686, -22.94975 ], [ -43.287694, -22.949687 ], [ -43.287647, -22.949513 ], [ -43.287638, -22.949348 ], [ -43.287684, -22.949225 ], [ -43.287817, -22.949112 ], [ -43.287907, -22.949066 ], [ -43.288004, -22.949046 ], [ -43.28815, -22.949047 ] ] } },
{ "type": "Feature", "properties": { "cls": "sharrow", "highway": "unclassified", "name": "Estrada do Redentor" }, "geometry": { "type": "LineString", "coordinates": [ [ -43.218006, -22.947866 ], [ -43.218275, -22.948011 ] ] } },
{ "type": "Feature", "properties": { "cls": "sharrow", "highway": "residential", "name": "Estrada do Redentor" }, "geometry": { "type": "LineString", "coordinates": [ [ -43.217784, -22.946677 ], [ -43.217783, -22.9467 ], [ -43.217777, -22.946822 ], [ -43.217775, -22.946965 ], [ -43.217786, -22.947191 ], [ -43.217817, -22.947493 ], [ -43.217852, -22.947645 ], [ -43.217904, -22.947774 ], [ -43.218006, -22.947866 ] ] } },
{ "type": "Feature", "properties": { "cls": "sharrow", "highway": "unclassified", "name": "Estrada do Sumaré" }, "geometry": { "type": "LineString", "coordinates": [ [ -43.224848, -22.939581 ], [ -43.224627, -22.939386 ], [ -43.224501, -22.939316 ], [ -43.224244, -22.939197 ], [ -43.224119, -22.939117 ], [ -43.224036, -22.939002 ], [ -43.223973, -22.93886 ], [ -43.223901, -22.938615 ], [ -43.223849, -22.938504 ], [ -43.223758, -22.938416 ], [ -43.22349, -22.938221 ], [ -43.223149, -22.937895 ], [ -43.223027, -22.937769 ], [ -43.222896, -22.937673 ], [ -43.222806, -22.937636 ], [ -43.2227, -22.937615 ], [ -43.222445, -22.937598 ], [ -43.222264, -22.937587 ], [ -43.222158, -22.937573 ], [ -43.222073, -22.937546 ], [ -43.222005, -22.937489 ], [ -43.221991, -22.937438 ], [ -43.222001, -22.937402 ], [ -43.222035, -22.937335 ], [ -43.222093, -22.93727 ], [ -43.222226, -22.937078 ], [ -43.222386, -22.936886 ], [ -43.2225, -22.936754 ], [ -43.222637, -22.936607 ], [ -43.222874, -22.9364 ], [ -43.223023, -22.936229 ], [ -43.223057, -22.936189 ], [ -43.223062, -22.936167 ], [ -43.223058, -22.93615 ], [ -43.223047, -22.936135 ], [ -43.223036, -22.936129 ], [ -43.223015, -22.936124 ], [ -43.222975, -22.936135 ], [ -43.222931, -22.936158 ], [ -43.222784, -22.936276 ], [ -43.22264, -22.936381 ], [ -43.22242, -22.936561 ], [ -43.222228, -22.936734 ], [ -43.221998, -22.936982 ], [ -43.221874, -22.937069 ], [ -43.221738, -22.937126 ], [ -43.22151, -22.937168 ], [ -43.221275, -22.937195 ], [ -43.221093, -22.937224 ], [ -43.220948, -22.937258 ], [ -43.220796, -22.937279 ], [ -43.220719, -22.937265 ], [ -43.220686, -22.937223 ], [ -43.220692, -22.937159 ], [ -43.220731, -22.937105 ], [ -43.220803, -22.937057 ], [ -43.221002, -22.937006 ], [ -43.221172, -22.936981 ], [ -43.221347, -22.936954 ], [ -43.221478, -22.936922 ], [ -43.221612, -22.936863 ], [ -43.221744, -22.936757 ], [ -43.221851, -22.936574 ], [ -43.22195, -22.936416 ], [ -43.222049, -22.936275 ], [ -43.222218, -22.93609 ], [ -43.222392, -22.935899 ], [ -43.222519, -22.935712 ], [ -43.222599, -22.935554 ], [ -43.222626, -22.93544 ], [ -43.22261, -22.935372 ], [ -43.222519, -22.935292 ], [ -43.222425, -22.935277 ], [ -43.222336, -22.935299 ], [ -43.222275, -22.935337 ], [ -43.222236, -22.935389 ], [ -43.222197, -22.935569 ], [ -43.222167, -22.935698 ], [ -43.222116, -22.935786 ], [ -43.222041, -22.935875 ], [ -43.221883, -22.935991 ], [ -43.221695, -22.936122 ], [ -43.221422, -22.936337 ], [ -43.221295, -22.93643 ], [ -43.221191, -22.936466 ], [ -43.221119, -22.936484 ], [ -43.221018, -22.936481 ], [ -43.220897, -22.936427 ], [ -43.220761, -22.936329 ], [ -43.220632, -22.936246 ], [ -43.220509, -22.936196 ], [ -43.220418, -22.936176 ], [ -43.22031, -22.936155 ], [ -43.220192, -22.936156 ], [ -43.220066, -22.936155 ], [ -43.219952, -22.936191 ], [ -43.219758, -22.936309 ], [ -43.219694, -22.936388 ], [ -43.21967, -22.936458 ], [ -43.219676, -22.936539 ], [ -43.219758, -22.936788 ], [ -43.219779, -22.936976 ], [ -43.219783, -22.937089 ], [ -43.219758, -22.937169 ], [ -43.219724, -22.937206 ], [ -43.219667, -22.937218 ], [ -43.219627, -22.937209 ], [ -43.219602, -22.937178 ], [ -43.219591, -22.937132 ], [ -43.219581, -22.93704 ], [ -43.219585, -22.936885 ], [ -43.21956, -22.936732 ], [ -43.219509, -22.936586 ], [ -43.219416, -22.936361 ], [ -43.2194, -22.936186 ], [ -43.219434, -22.93608 ], [ -43.219484, -22.935988 ], [ -43.219603, -22.935875 ], [ -43.219823, -22.935773 ] ] } }
]
}
