{
"type": "FeatureCollection",
"name": "031-jacksonville-timucuan-preserve",
"crs": { "type": "name", "properties": { "name": "urn:ogc:def:crs:OGC:1.3:CRS84" } },
"xy_coordinate_resolution": 1e-06,
"features": [
{ "type": "Feature", "properties": { "cls": "shared", "highway": "cycleway", "name": null }, "geometry": { "type": "LineString", "coordinates": [ [ -81.474303, 30.445125 ], [ -81.474958, 30.445078 ] ] } },
{ "type": "Feature", "properties": { "cls": "shared", "highway": "cycleway", "name": null }, "geometry": { "type": "LineString", "coordinates": [ [ -81.426641, 30.431062 ], [ -81.426863, 30.431004 ], [ -81.427151, 30.430951 ], [ -81.427348, 30.430946 ], [ -81.427482, 30.430974 ], [ -81.427592, 30.431066 ], [ -81.427784, 30.431331 ], [ -81.427798, 30.431511 ], [ -81.427885, 30.431653 ], [ -81.427925, 30.431806 ], [ -81.428091, 30.431904 ], [ -81.428126, 30.432048 ], [ -81.428133, 30.432135 ], [ -81.428166, 30.432255 ] ] } },
{ "type": "Feature", "properties": { "cls": "shared", "highway": "cycleway", "name": "Fort George Island Cultural State Park Trail" }, "geometry": { "type": "LineString", "coordinates": [ [ -81.424764, 30.4287 ], [ -81.42483, 30.428727 ], [ -81.424928, 30.428768 ], [ -81.425024, 30.428826 ], [ -81.425139, 30.428956 ], [ -81.425183, 30.42905 ], [ -81.425265, 30.429135 ], [ -81.425367, 30.429306 ], [ -81.425527, 30.429399 ], [ -81.425643, 30.429539 ], [ -81.425838, 30.429738 ], [ -81.425859, 30.429845 ], [ -81.425932, 30.429953 ], [ -81.426082, 30.430064 ], [ -81.426148, 30.430209 ], [ -81.426243, 30.430318 ], [ -81.426392, 30.430396 ], [ -81.426397, 30.43068 ], [ -81.4266, 30.431002 ], [ -81.426641, 30.431062 ], [ -81.426839, 30.431355 ], [ -81.426973, 30.431471 ], [ -81.427213, 30.431787 ], [ -81.427494, 30.431967 ], [ -81.42783, 30.432099 ], [ -81.428052, 30.432211 ], [ -81.428166, 30.432255 ], [ -81.428402, 30.432346 ], [ -81.428546, 30.432449 ], [ -81.428664, 30.432605 ], [ -81.428704, 30.432801 ], [ -81.428678, 30.433145 ], [ -81.428676, 30.433335 ], [ -81.428675, 30.433541 ], [ -81.428711, 30.433738 ], [ -81.428799, 30.433977 ], [ -81.428917, 30.434162 ], [ -81.42891, 30.434328 ], [ -81.428843, 30.434511 ], [ -81.428909, 30.434702 ], [ -81.428947, 30.434908 ], [ -81.428923, 30.435031 ], [ -81.428873, 30.435155 ], [ -81.428874, 30.435257 ], [ -81.428917, 30.435397 ], [ -81.428932, 30.435566 ], [ -81.428928, 30.435773 ], [ -81.42898, 30.436118 ], [ -81.428948, 30.436327 ], [ -81.428966, 30.436724 ], [ -81.428932, 30.436894 ], [ -81.428932, 30.437061 ], [ -81.428989, 30.437212 ], [ -81.42907, 30.437345 ], [ -81.429318, 30.437104 ], [ -81.429361, 30.436995 ], [ -81.429519, 30.436656 ], [ -81.429707, 30.436494 ], [ -81.429833, 30.436283 ], [ -81.429964, 30.436095 ], [ -81.43021, 30.435878 ], [ -81.430488, 30.435689 ], [ -81.430723, 30.435435 ], [ -81.430935, 30.435204 ], [ -81.431039, 30.435103 ] ] } },
{ "type": "Feature", "properties": { "cls": "shared", "highway": "cycleway", "name": "Timucuan Trail" }, "geometry": { "type": "LineString", "coordinates": [ [ -81.423162, 30.461042 ], [ -81.428586, 30.462538 ], [ -81.431169, 30.463284 ] ] } },
{ "type": "Feature", "properties": { "cls": "shared", "highway": "cycleway", "name": "Timucuan Trail" }, "geometry": { "type": "LineString", "coordinates": [ [ -81.431169, 30.463284 ], [ -81.431668, 30.463428 ] ] } },
{ "type": "Feature", "properties": { "cls": "shared", "highway": "cycleway", "name": "Timucuan Trail" }, "geometry": { "type": "LineString", "coordinates": [ [ -81.431668, 30.463428 ], [ -81.433019, 30.463818 ], [ -81.434004, 30.464118 ], [ -81.434641, 30.464347 ], [ -81.435156, 30.464564 ], [ -81.435721, 30.464835 ], [ -81.436379, 30.465231 ], [ -81.437016, 30.46567 ], [ -81.437447, 30.46606 ], [ -81.437929, 30.466563 ], [ -81.43834, 30.466998 ], [ -81.438655, 30.467409 ], [ -81.439066, 30.468107 ], [ -81.439226, 30.468457 ], [ -81.439363, 30.468947 ] ] } },
{ "type": "Feature", "properties": { "cls": "separated", "highway": "cycleway", "name": null }, "geometry": { "type": "LineString", "coordinates": [ [ -81.439589, 30.46882 ], [ -81.439363, 30.468947 ], [ -81.439428, 30.469154 ], [ -81.43948, 30.469305 ], [ -81.439673, 30.469814 ], [ -81.43975, 30.470071 ], [ -81.439775, 30.47026 ], [ -81.439788, 30.470353 ], [ -81.439791, 30.470438 ], [ -81.439795, 30.470533 ], [ -81.439791, 30.470642 ], [ -81.439786, 30.470798 ], [ -81.439784, 30.470864 ], [ -81.439804, 30.470995 ], [ -81.439813, 30.471052 ], [ -81.439831, 30.471331 ], [ -81.439823, 30.471417 ], [ -81.439806, 30.471499 ], [ -81.43979, 30.471679 ], [ -81.439761, 30.472017 ], [ -81.43975, 30.47207 ], [ -81.439735, 30.472105 ], [ -81.439729, 30.47214 ], [ -81.439719, 30.47221 ], [ -81.439665, 30.472905 ], [ -81.439648, 30.47296 ], [ -81.439623, 30.473006 ], [ -81.439592, 30.47304 ], [ -81.43954, 30.473074 ], [ -81.439485, 30.473097 ], [ -81.439408, 30.473126 ], [ -81.439346, 30.473155 ], [ -81.439184, 30.473249 ], [ -81.439035, 30.473357 ], [ -81.438925, 30.473454 ], [ -81.43883, 30.473572 ], [ -81.438749, 30.473695 ], [ -81.438694, 30.473826 ], [ -81.438661, 30.473947 ], [ -81.438648, 30.474017 ], [ -81.438639, 30.474098 ], [ -81.438638, 30.474267 ], [ -81.438638, 30.474318 ], [ -81.438623, 30.474386 ], [ -81.438593, 30.474461 ], [ -81.438316, 30.475079 ], [ -81.438275, 30.475151 ], [ -81.438218, 30.475226 ], [ -81.438119, 30.4753 ], [ -81.438048, 30.475345 ], [ -81.437969, 30.475378 ], [ -81.437403, 30.47554 ], [ -81.437295, 30.475603 ], [ -81.437208, 30.475675 ], [ -81.437138, 30.475747 ], [ -81.437088, 30.475818 ], [ -81.437044, 30.475914 ], [ -81.436904, 30.476358 ], [ -81.436857, 30.476492 ], [ -81.436823, 30.476659 ], [ -81.436762, 30.476967 ], [ -81.436749, 30.477035 ], [ -81.436749, 30.477103 ], [ -81.436764, 30.477167 ], [ -81.436825, 30.477297 ], [ -81.436913, 30.477466 ], [ -81.436935, 30.477545 ], [ -81.436949, 30.47763 ], [ -81.436994, 30.478005 ], [ -81.437, 30.478109 ], [ -81.436989, 30.478222 ], [ -81.436914, 30.478588 ], [ -81.436803, 30.479019 ], [ -81.43679, 30.479099 ], [ -81.436787, 30.479183 ], [ -81.436772, 30.479404 ], [ -81.436776, 30.479509 ], [ -81.436791, 30.479559 ], [ -81.43682, 30.479617 ], [ -81.437133, 30.480116 ], [ -81.437169, 30.48017 ], [ -81.4372, 30.480227 ], [ -81.437232, 30.480337 ], [ -81.437261, 30.480435 ], [ -81.437288, 30.480496 ], [ -81.43734, 30.480547 ], [ -81.43741, 30.480584 ], [ -81.437495, 30.480613 ], [ -81.437586, 30.480621 ], [ -81.437795, 30.480575 ], [ -81.4379, 30.48055 ], [ -81.438001, 30.480555 ], [ -81.438119, 30.480572 ], [ -81.438255, 30.480628 ], [ -81.438431, 30.480745 ], [ -81.43859, 30.480857 ], [ -81.438635, 30.480901 ], [ -81.438693, 30.480991 ], [ -81.43881, 30.481112 ], [ -81.438927, 30.481233 ], [ -81.439053, 30.48137 ], [ -81.43909, 30.481423 ], [ -81.439095, 30.48151 ], [ -81.439093, 30.4816 ], [ -81.439052, 30.481919 ], [ -81.439084, 30.482523 ], [ -81.43916, 30.482773 ], [ -81.439154, 30.482807 ], [ -81.439136, 30.482835 ], [ -81.439005, 30.482922 ], [ -81.438675, 30.483173 ], [ -81.438604, 30.483431 ], [ -81.438722, 30.483729 ], [ -81.438793, 30.483823 ], [ -81.438777, 30.484338 ], [ -81.43895, 30.484752 ], [ -81.438962, 30.484922 ], [ -81.439092, 30.48526 ], [ -81.439248, 30.485458 ], [ -81.439267, 30.48552 ], [ -81.439288, 30.485713 ], [ -81.439422, 30.48589 ], [ -81.43939, 30.486188 ], [ -81.439461, 30.486404 ], [ -81.439456, 30.486448 ], [ -81.439402, 30.486606 ], [ -81.439396, 30.486649 ], [ -81.439409, 30.486713 ], [ -81.439623, 30.487072 ], [ -81.439736, 30.487298 ], [ -81.439805, 30.487443 ], [ -81.439819, 30.487513 ], [ -81.439819, 30.487561 ], [ -81.439807, 30.487608 ], [ -81.439766, 30.487785 ], [ -81.439768, 30.487817 ], [ -81.439784, 30.487859 ], [ -81.439977, 30.488273 ], [ -81.440183, 30.488707 ], [ -81.440201, 30.488765 ], [ -81.440263, 30.488993 ], [ -81.440276, 30.489033 ], [ -81.440304, 30.489072 ], [ -81.440493, 30.489284 ], [ -81.440564, 30.489334 ], [ -81.440636, 30.489358 ], [ -81.440819, 30.489412 ], [ -81.440872, 30.489442 ], [ -81.440926, 30.489487 ], [ -81.440978, 30.489554 ], [ -81.441096, 30.489903 ], [ -81.441117, 30.489943 ], [ -81.441163, 30.49 ], [ -81.441393, 30.490233 ], [ -81.441418, 30.490276 ], [ -81.441427, 30.490338 ], [ -81.441417, 30.490409 ], [ -81.44142, 30.490446 ], [ -81.441427, 30.490484 ], [ -81.441466, 30.490543 ], [ -81.44172, 30.490885 ], [ -81.441807, 30.491127 ], [ -81.441813, 30.49115 ], [ -81.441882, 30.491432 ], [ -81.442275, 30.492101 ], [ -81.442386, 30.492232 ], [ -81.442552, 30.492372 ], [ -81.442781, 30.492588 ], [ -81.442847, 30.492649 ], [ -81.443084, 30.492981 ], [ -81.443203, 30.493146 ], [ -81.443283, 30.493249 ], [ -81.443311, 30.493304 ], [ -81.443533, 30.493761 ], [ -81.443902, 30.494208 ], [ -81.444091, 30.494323 ], [ -81.444406, 30.494845 ], [ -81.444704, 30.495132 ], [ -81.444731, 30.495167 ], [ -81.444746, 30.495206 ], [ -81.444803, 30.495391 ], [ -81.444822, 30.49542 ], [ -81.445239, 30.495712 ], [ -81.445537, 30.496032 ], [ -81.445674, 30.496213 ], [ -81.445715, 30.496259 ], [ -81.445768, 30.496294 ], [ -81.446182, 30.496585 ], [ -81.446536, 30.497181 ], [ -81.446783, 30.497317 ], [ -81.446819, 30.49734 ], [ -81.446844, 30.497375 ], [ -81.446976, 30.497568 ], [ -81.447715, 30.498021 ], [ -81.44775, 30.498056 ], [ -81.447801, 30.498182 ], [ -81.447844, 30.498313 ], [ -81.447857, 30.49834 ], [ -81.447967, 30.498408 ], [ -81.44832, 30.498617 ], [ -81.44854, 30.498848 ], [ -81.448721, 30.499241 ], [ -81.449075, 30.499471 ], [ -81.449209, 30.499809 ], [ -81.44972, 30.500047 ], [ -81.449938, 30.500231 ], [ -81.450136, 30.500433 ], [ -81.450231, 30.500764 ], [ -81.450694, 30.501144 ], [ -81.450742, 30.501306 ], [ -81.451134, 30.501598 ], [ -81.451282, 30.501679 ] ] } },
{ "type": "Feature", "properties": { "cls": "separated", "highway": "cycleway", "name": "George Crady Bridge" }, "geometry": { "type": "LineString", "coordinates": [ [ -81.450692, 30.519327 ], [ -81.454614, 30.517152 ] ] } },
{ "type": "Feature", "properties": { "cls": "painted", "highway": "primary", "name": null }, "geometry": { "type": "LineString", "coordinates": [ [ -81.45099, 30.517482 ], [ -81.449757, 30.518462 ] ] } },
{ "type": "Feature", "properties": { "cls": "shared", "highway": "cycleway", "name": null }, "geometry": { "type": "LineString", "coordinates": [ [ -81.474156, 30.44514 ], [ -81.474303, 30.445125 ] ] } },
{ "type": "Feature", "properties": { "cls": "separated", "highway": "cycleway", "name": null }, "geometry": { "type": "LineString", "coordinates": [ [ -81.451282, 30.501679 ], [ -81.451284, 30.501819 ], [ -81.450875, 30.502064 ], [ -81.450874, 30.502185 ], [ -81.450938, 30.502351 ], [ -81.451063, 30.502475 ], [ -81.451216, 30.5024 ], [ -81.451468, 30.50229 ], [ -81.451772, 30.502313 ], [ -81.452323, 30.502599 ], [ -81.452806, 30.503005 ], [ -81.453002, 30.503375 ], [ -81.45305, 30.503608 ], [ -81.453388, 30.503759 ], [ -81.453675, 30.503987 ], [ -81.454475, 30.504355 ] ] } },
{ "type": "Feature", "properties": { "cls": "separated", "highway": "cycleway", "name": null }, "geometry": { "type": "LineString", "coordinates": [ [ -81.454475, 30.504355 ], [ -81.456269, 30.50606 ], [ -81.456644, 30.506425 ], [ -81.457039, 30.506876 ], [ -81.457272, 30.507207 ], [ -81.457514, 30.507625 ], [ -81.457699, 30.508036 ], [ -81.457814, 30.508369 ], [ -81.457937, 30.50891 ], [ -81.457996, 30.509277 ], [ -81.458004, 30.509744 ], [ -81.458015, 30.509899 ], [ -81.458012, 30.509964 ] ] } },
{ "type": "Feature", "properties": { "cls": "separated", "highway": "cycleway", "name": null }, "geometry": { "type": "LineString", "coordinates": [ [ -81.45729, 30.51265 ], [ -81.457304, 30.512618 ], [ -81.457514, 30.512152 ], [ -81.457691, 30.51182 ], [ -81.457889, 30.511423 ], [ -81.458082, 30.510953 ], [ -81.458179, 30.510577 ], [ -81.458226, 30.510459 ], [ -81.458334, 30.510362 ], [ -81.458543, 30.510265 ] ] } },
{ "type": "Feature", "properties": { "cls": "separated", "highway": "cycleway", "name": null }, "geometry": { "type": "LineString", "coordinates": [ [ -81.456697, 30.514135 ], [ -81.457154, 30.512994 ], [ -81.45729, 30.51265 ] ] } },
{ "type": "Feature", "properties": { "cls": "painted", "highway": "primary", "name": null }, "geometry": { "type": "LineString", "coordinates": [ [ -81.457138, 30.512445 ], [ -81.456874, 30.512781 ], [ -81.456555, 30.513088 ], [ -81.454854, 30.514368 ], [ -81.45099, 30.517482 ] ] } },
{ "type": "Feature", "properties": { "cls": "separated", "highway": "cycleway", "name": null }, "geometry": { "type": "LineString", "coordinates": [ [ -81.454614, 30.517152 ], [ -81.454907, 30.516958 ], [ -81.455219, 30.516698 ], [ -81.455473, 30.516444 ], [ -81.455712, 30.516161 ], [ -81.455949, 30.515844 ], [ -81.456136, 30.515517 ], [ -81.456306, 30.515186 ], [ -81.456438, 30.51483 ], [ -81.456697, 30.514135 ] ] } }
]
}
