{
"type": "FeatureCollection",
"name": "032-houston-george-bush-park",
"crs": { "type": "name", "properties": { "name": "urn:ogc:def:crs:OGC:1.3:CRS84" } },
"xy_coordinate_resolution": 1e-06,
"features": [
{ "type": "Feature", "properties": { "cls": "separated", "highway": "cycleway", "name": null }, "geometry": { "type": "LineString", "coordinates": [ [ -95.722662, 29.734057 ], [ -95.722652, 29.734082 ], [ -95.722651, 29.73411 ], [ -95.72264, 29.734152 ], [ -95.722622, 29.734196 ], [ -95.722592, 29.734245 ], [ -95.722584, 29.734287 ], [ -95.722608, 29.734336 ], [ -95.722836, 29.734637 ], [ -95.722905, 29.734726 ], [ -95.723374, 29.735331 ], [ -95.723432, 29.735405 ], [ -95.723512, 29.735503 ], [ -95.72359, 29.735584 ], [ -95.723662, 29.735645 ], [ -95.723695, 29.735673 ], [ -95.72376, 29.73572 ], [ -95.72381, 29.73575 ], [ -95.723872, 29.735764 ], [ -95.723939, 29.735768 ], [ -95.723979, 29.735766 ], [ -95.724008, 29.735771 ], [ -95.724043, 29.735801 ], [ -95.724728, 29.736657 ] ] } },
{ "type": "Feature", "properties": { "cls": "separated", "highway": "cycleway", "name": null }, "geometry": { "type": "LineString", "coordinates": [ [ -95.72376, 29.73572 ], [ -95.723704, 29.735765 ], [ -95.723645, 29.735793 ], [ -95.723575, 29.7358 ], [ -95.723502, 29.735816 ], [ -95.722556, 29.736398 ], [ -95.72251, 29.736429 ], [ -95.722472, 29.736445 ], [ -95.722411, 29.736461 ], [ -95.72236, 29.736463 ], [ -95.722314, 29.736501 ], [ -95.722245, 29.736566 ], [ -95.722137, 29.736643 ] ] } },
{ "type": "Feature", "properties": { "cls": "separated", "highway": "cycleway", "name": null }, "geometry": { "type": "LineString", "coordinates": [ [ -95.72251, 29.736429 ], [ -95.722485, 29.736395 ] ] } },
{ "type": "Feature", "properties": { "cls": "shared", "highway": "cycleway", "name": "George Bush and Westheimer Connector" }, "geometry": { "type": "LineString", "coordinates": [ [ -95.728532, 29.73686 ], [ -95.728502, 29.736852 ], [ -95.728411, 29.73685 ], [ -95.728333, 29.736836 ], [ -95.728212, 29.736782 ], [ -95.728025, 29.736694 ], [ -95.727818, 29.736594 ], [ -95.727646, 29.736494 ], [ -95.72741, 29.736338 ], [ -95.727215, 29.73617 ], [ -95.727059, 29.736044 ], [ -95.726791, 29.735811 ], [ -95.726651, 29.73566 ], [ -95.726568, 29.735562 ], [ -95.726517, 29.735525 ], [ -95.726482, 29.735523 ], [ -95.726453, 29.735536 ], [ -95.726386, 29.735602 ], [ -95.726295, 29.735692 ], [ -95.726177, 29.735781 ], [ -95.726002, 29.735879 ], [ -95.725643, 29.736098 ], [ -95.725203, 29.736366 ], [ -95.724728, 29.736657 ], [ -95.723586, 29.737362 ], [ -95.723497, 29.737414 ], [ -95.723419, 29.737432 ], [ -95.723349, 29.737423 ], [ -95.723256, 29.737395 ], [ -95.723175, 29.737356 ], [ -95.723089, 29.737283 ], [ -95.722961, 29.737123 ], [ -95.722829, 29.736964 ], [ -95.722682, 29.73678 ], [ -95.722564, 29.736629 ], [ -95.722502, 29.736545 ], [ -95.722446, 29.736487 ], [ -95.722411, 29.736461 ], [ -95.722392, 29.736447 ], [ -95.722365, 29.736431 ], [ -95.722317, 29.736414 ], [ -95.722258, 29.736405 ], [ -95.722201, 29.73641 ], [ -95.722164, 29.736431 ], [ -95.722145, 29.736487 ], [ -95.72214, 29.736568 ], [ -95.722137, 29.736643 ], [ -95.722121, 29.736766 ], [ -95.722118, 29.736894 ], [ -95.722118, 29.737011 ], [ -95.722118, 29.737132 ], [ -95.722094, 29.737341 ], [ -95.722081, 29.737507 ], [ -95.7221, 29.737619 ], [ -95.722134, 29.737719 ], [ -95.722218, 29.737854 ], [ -95.722282, 29.73798 ], [ -95.722325, 29.73808 ], [ -95.722346, 29.738168 ], [ -95.72237, 29.738331 ], [ -95.722389, 29.738457 ], [ -95.722435, 29.738552 ], [ -95.722521, 29.738627 ], [ -95.72266, 29.738718 ], [ -95.722775, 29.738804 ], [ -95.722872, 29.738921 ], [ -95.722928, 29.739035 ], [ -95.722966, 29.739165 ], [ -95.722987, 29.739279 ], [ -95.723033, 29.739351 ], [ -95.723081, 29.739398 ], [ -95.723156, 29.739454 ], [ -95.723224, 29.739507 ], [ -95.723277, 29.739594 ], [ -95.723296, 29.739661 ], [ -95.723285, 29.739726 ] ] } },
{ "type": "Feature", "properties": { "cls": "shared", "highway": "cycleway", "name": "George Bush and Westheimer Connector" }, "geometry": { "type": "LineString", "coordinates": [ [ -95.723285, 29.739726 ], [ -95.723242, 29.739873 ] ] } },
{ "type": "Feature", "properties": { "cls": "shared", "highway": "cycleway", "name": "George Bush and Westheimer Connector" }, "geometry": { "type": "LineString", "coordinates": [ [ -95.723242, 29.739873 ], [ -95.723154, 29.74015 ] ] } },
{ "type": "Feature", "properties": { "cls": "shared", "highway": "cycleway", "name": "George Bush and Westheimer Connector" }, "geometry": { "type": "LineString", "coordinates": [ [ -95.723057, 29.740467 ], [ -95.723048, 29.740499 ], [ -95.723038, 29.74053 ] ] } },
{ "type": "Feature", "properties": { "cls": "shared", "highway": "cycleway", "name": "George Bush and Westheimer Connector" }, "geometry": { "type": "LineString", "coordinates": [ [ -95.723038, 29.74053 ], [ -95.722937, 29.740653 ] ] } },
{ "type": "Feature", "properties": { "cls": "shared", "highway": "cycleway", "name": "George Bush and Westheimer Connector" }, "geometry": { "type": "LineString", "coordinates": [ [ -95.723065, 29.740672 ], [ -95.723038, 29.74053 ] ] } },
{ "type": "Feature", "properties": { "cls": "separated", "highway": "cycleway", "name": "George Bush Hike & Bike Trail" }, "geometry": { "type": "LineString", "coordinates": [ [ -95.685123, 29.75623 ], [ -95.68523, 29.756556 ] ] } },
{ "type": "Feature", "properties": { "cls": "shared", "highway": "cycleway", "name": "George Bush Hike & Bike Trail" }, "geometry": { "type": "LineString", "coordinates": [ [ -95.716732, 29.748434 ], [ -95.716731, 29.748428 ], [ -95.716694, 29.748281 ], [ -95.716726, 29.748218 ], [ -95.716797, 29.748138 ], [ -95.716862, 29.748036 ], [ -95.716928, 29.74794 ], [ -95.717049, 29.747902 ], [ -95.71713, 29.74787 ], [ -95.717249, 29.747823 ], [ -95.717325, 29.747756 ], [ -95.71743, 29.74771 ], [ -95.71758, 29.747696 ], [ -95.717714, 29.747693 ], [ -95.717856, 29.747691 ], [ -95.717958, 29.747682 ], [ -95.718047, 29.747642 ], [ -95.718165, 29.747582 ], [ -95.718412, 29.747428 ], [ -95.718559, 29.747307 ], [ -95.718715, 29.747179 ], [ -95.718873, 29.74706 ], [ -95.718927, 29.746992 ], [ -95.719034, 29.746918 ], [ -95.719114, 29.746825 ], [ -95.719214, 29.746736 ], [ -95.719299, 29.746655 ], [ -95.719377, 29.746608 ], [ -95.719433, 29.746582 ], [ -95.719514, 29.746569 ], [ -95.719637, 29.746564 ], [ -95.719747, 29.746557 ], [ -95.719825, 29.746538 ], [ -95.719903, 29.746501 ], [ -95.719975, 29.746447 ], [ -95.720093, 29.746343 ], [ -95.720179, 29.746247 ], [ -95.720254, 29.746161 ], [ -95.720281, 29.746098 ], [ -95.720286, 29.746012 ], [ -95.72026, 29.745947 ], [ -95.720211, 29.745886 ], [ -95.720187, 29.745819 ], [ -95.720211, 29.745749 ], [ -95.720294, 29.745653 ], [ -95.720386, 29.745576 ], [ -95.720603, 29.745444 ], [ -95.720796, 29.745337 ], [ -95.720968, 29.74522 ], [ -95.721222, 29.744994 ], [ -95.721327, 29.744892 ], [ -95.721488, 29.744792 ], [ -95.721687, 29.744654 ], [ -95.721802, 29.74457 ], [ -95.721914, 29.744522 ], [ -95.722022, 29.744498 ], [ -95.72214, 29.74451 ], [ -95.722242, 29.74451 ], [ -95.722325, 29.744484 ], [ -95.722413, 29.744445 ], [ -95.722523, 29.744389 ], [ -95.722615, 29.744368 ], [ -95.722692, 29.744384 ], [ -95.722786, 29.744438 ], [ -95.722891, 29.744498 ], [ -95.722974, 29.744542 ], [ -95.723055, 29.744563 ], [ -95.723143, 29.744568 ], [ -95.723237, 29.744559 ], [ -95.723379, 29.744522 ], [ -95.723559, 29.74448 ], [ -95.723666, 29.74444 ], [ -95.723725, 29.744384 ], [ -95.723763, 29.744312 ], [ -95.723781, 29.744235 ], [ -95.723781, 29.744151 ], [ -95.723757, 29.744035 ], [ -95.723747, 29.743918 ], [ -95.723757, 29.743827 ], [ -95.723773, 29.743716 ], [ -95.723763, 29.743571 ], [ -95.723754, 29.743436 ], [ -95.723763, 29.743269 ], [ -95.723789, 29.743087 ], [ -95.723795, 29.742982 ], [ -95.723779, 29.742817 ], [ -95.723773, 29.74267 ], [ -95.723781, 29.742544 ], [ -95.723808, 29.742432 ], [ -95.723846, 29.742288 ], [ -95.723873, 29.742123 ], [ -95.72387, 29.741964 ], [ -95.723848, 29.741829 ], [ -95.723819, 29.741694 ], [ -95.723798, 29.741608 ], [ -95.723787, 29.741517 ], [ -95.723795, 29.741417 ], [ -95.723803, 29.741331 ], [ -95.723795, 29.741259 ], [ -95.723768, 29.741184 ], [ -95.723717, 29.741086 ], [ -95.723588, 29.740914 ], [ -95.723513, 29.740833 ], [ -95.723422, 29.740777 ], [ -95.723347, 29.740742 ], [ -95.723207, 29.740702 ], [ -95.723065, 29.740672 ], [ -95.722937, 29.740653 ], [ -95.722816, 29.740639 ], [ -95.722682, 29.740625 ], [ -95.722499, 29.740607 ], [ -95.72222, 29.740579 ], [ -95.722054, 29.740569 ], [ -95.721864, 29.740539 ], [ -95.721729, 29.740506 ], [ -95.721563, 29.740453 ], [ -95.721469, 29.740397 ], [ -95.721375, 29.740343 ], [ -95.721303, 29.740318 ], [ -95.721137, 29.74029 ], [ -95.72081, 29.740204 ], [ -95.720694, 29.740171 ], [ -95.720571, 29.740111 ], [ -95.720453, 29.740064 ], [ -95.72027, 29.740031 ], [ -95.720061, 29.739992 ], [ -95.719903, 29.739968 ], [ -95.71975, 29.739952 ], [ -95.719581, 29.739938 ], [ -95.719447, 29.739927 ], [ -95.71931, 29.739901 ], [ -95.719179, 29.739861 ], [ -95.719077, 29.73981 ], [ -95.719002, 29.739757 ], [ -95.718905, 29.739722 ], [ -95.718801, 29.739703 ], [ -95.718696, 29.739712 ], [ -95.718581, 29.739708 ], [ -95.718468, 29.739694 ], [ -95.718361, 29.739682 ], [ -95.718275, 29.739645 ], [ -95.718159, 29.739584 ], [ -95.718033, 29.73951 ], [ -95.717932, 29.739452 ], [ -95.717854, 29.739428 ], [ -95.71773, 29.7394 ], [ -95.717631, 29.739386 ], [ -95.717524, 29.739375 ], [ -95.7174, 29.739379 ], [ -95.717298, 29.739389 ], [ -95.717215, 29.739377 ], [ -95.717113, 29.739344 ], [ -95.717022, 29.739326 ], [ -95.716909, 29.739314 ], [ -95.716738, 29.739282 ], [ -95.716652, 29.739249 ], [ -95.716529, 29.739191 ], [ -95.716413, 29.73916 ], [ -95.716255, 29.739133 ], [ -95.716094, 29.739095 ], [ -95.715888, 29.739053 ], [ -95.715743, 29.739023 ], [ -95.715598, 29.738981 ], [ -95.715467, 29.738937 ], [ -95.715099, 29.738837 ], [ -95.714981, 29.738797 ], [ -95.714842, 29.738734 ], [ -95.714718, 29.738688 ], [ -95.714624, 29.73865 ], [ -95.714533, 29.738641 ], [ -95.714437, 29.73865 ], [ -95.714372, 29.738657 ], [ -95.714327, 29.738653 ], [ -95.714115, 29.738597 ], [ -95.714005, 29.738564 ], [ -95.713887, 29.738522 ], [ -95.713788, 29.738501 ], [ -95.713667, 29.738483 ], [ -95.713474, 29.738455 ], [ -95.713267, 29.738422 ], [ -95.713146, 29.738399 ], [ -95.713104, 29.738388 ], [ -95.713026, 29.738369 ], [ -95.712921, 29.738322 ], [ -95.712817, 29.738278 ], [ -95.712725, 29.73825 ], [ -95.712631, 29.738245 ], [ -95.712519, 29.738247 ], [ -95.712433, 29.738243 ], [ -95.712366, 29.738226 ], [ -95.712291, 29.738182 ], [ -95.712202, 29.738138 ], [ -95.712103, 29.738101 ], [ -95.711966, 29.73807 ], [ -95.711848, 29.738042 ], [ -95.711682, 29.738017 ], [ -95.711558, 29.737984 ], [ -95.711459, 29.737961 ], [ -95.711379, 29.737961 ], [ -95.71128, 29.737954 ], [ -95.711183, 29.737942 ], [ -95.711041, 29.737914 ], [ -95.71088, 29.737877 ], [ -95.710762, 29.737866 ], [ -95.710671, 29.737863 ], [ -95.710577, 29.737852 ], [ -95.710467, 29.737807 ], [ -95.710327, 29.737756 ], [ -95.71018, 29.737707 ], [ -95.710048, 29.737677 ], [ -95.709837, 29.73764 ], [ -95.709689, 29.737612 ], [ -95.709592, 29.737605 ], [ -95.709507, 29.737612 ], [ -95.70941, 29.737626 ], [ -95.709338, 29.737626 ], [ -95.709257, 29.737602 ], [ -95.709158, 29.737558 ], [ -95.709053, 29.737507 ], [ -95.708965, 29.737477 ], [ -95.708863, 29.737456 ], [ -95.708761, 29.737428 ], [ -95.708611, 29.737404 ], [ -95.70853, 29.737397 ], [ -95.708434, 29.737374 ], [ -95.708351, 29.737358 ], [ -95.708233, 29.73736 ], [ -95.708139, 29.737356 ], [ -95.708069, 29.737339 ], [ -95.707999, 29.73732 ], [ -95.7079, 29.737276 ], [ -95.707798, 29.737218 ], [ -95.707707, 29.737176 ], [ -95.707602, 29.737146 ], [ -95.707495, 29.737125 ], [ -95.70738, 29.737097 ], [ -95.707294, 29.737097 ], [ -95.707192, 29.737095 ], [ -95.707082, 29.737078 ], [ -95.706993, 29.737083 ], [ -95.706897, 29.737111 ], [ -95.706757, 29.737164 ], [ -95.706629, 29.737195 ], [ -95.706505, 29.737216 ], [ -95.706435, 29.737227 ] ] } },
{ "type": "Feature", "properties": { "cls": "shared", "highway": "cycleway", "name": "Mason Creek Hike and Bike Trail" }, "geometry": { "type": "LineString", "coordinates": [ [ -95.716243, 29.747552 ], [ -95.716587, 29.747597 ], [ -95.71683, 29.747664 ], [ -95.71713, 29.74787 ] ] } },
{ "type": "Feature", "properties": { "cls": "shared", "highway": "cycleway", "name": "Mason Creek Hike and Bike Trail" }, "geometry": { "type": "LineString", "coordinates": [ [ -95.714757, 29.747975 ], [ -95.714967, 29.747905 ], [ -95.715192, 29.747912 ], [ -95.715348, 29.747845 ], [ -95.715681, 29.74762 ], [ -95.715859, 29.747565 ], [ -95.716243, 29.747552 ] ] } },
{ "type": "Feature", "properties": { "cls": "shared", "highway": "cycleway", "name": "Mason Creek Hike & Bike Trail" }, "geometry": { "type": "LineString", "coordinates": [ [ -95.709628, 29.755105 ], [ -95.709586, 29.755091 ], [ -95.709421, 29.75503 ], [ -95.709148, 29.754902 ] ] } },
{ "type": "Feature", "properties": { "cls": "separated", "highway": "cycleway", "name": "George Bush Hike & Bike Trail" }, "geometry": { "type": "LineString", "coordinates": [ [ -95.689155, 29.73496 ], [ -95.689126, 29.734905 ] ] } },
{ "type": "Feature", "properties": { "cls": "shared", "highway": "cycleway", "name": "George Bush Hike & Bike Trail" }, "geometry": { "type": "LineString", "coordinates": [ [ -95.703456, 29.73539 ], [ -95.703399, 29.735329 ], [ -95.703372, 29.735305 ], [ -95.703319, 29.735257 ], [ -95.703228, 29.735206 ], [ -95.703059, 29.735161 ], [ -95.702801, 29.735136 ], [ -95.702498, 29.735113 ], [ -95.702243, 29.735071 ], [ -95.702013, 29.735043 ], [ -95.70168, 29.734996 ], [ -95.701288, 29.734931 ], [ -95.70094, 29.734866 ], [ -95.700612, 29.734801 ], [ -95.700398, 29.73478 ], [ -95.700127, 29.734763 ], [ -95.699845, 29.734759 ], [ -95.699596, 29.734773 ], [ -95.699371, 29.734777 ], [ -95.699159, 29.734768 ], [ -95.698896, 29.734745 ], [ -95.698671, 29.734719 ], [ -95.698335, 29.734698 ], [ -95.698075, 29.734696 ], [ -95.697831, 29.734714 ], [ -95.697603, 29.734747 ], [ -95.697383, 29.73477 ], [ -95.697021, 29.734793 ], [ -95.696766, 29.734805 ], [ -95.696538, 29.734817 ], [ -95.696393, 29.734803 ], [ -95.696165, 29.734775 ], [ -95.695927, 29.734752 ], [ -95.695715, 29.734738 ], [ -95.695489, 29.734738 ], [ -95.695336, 29.734749 ], [ -95.6952, 29.734768 ], [ -95.694867, 29.73481 ], [ -95.694604, 29.734824 ], [ -95.694341, 29.734826 ], [ -95.694076, 29.734817 ], [ -95.693813, 29.734791 ], [ -95.693582, 29.73477 ], [ -95.693325, 29.734759 ], [ -95.692952, 29.734766 ], [ -95.692644, 29.734787 ], [ -95.692276, 29.734819 ], [ -95.691879, 29.734852 ], [ -95.691611, 29.734852 ], [ -95.691268, 29.734838 ], [ -95.690755, 29.734817 ], [ -95.690621, 29.73481 ], [ -95.690466, 29.734812 ], [ -95.690331, 29.734826 ], [ -95.689902, 29.734875 ], [ -95.689155, 29.73496 ], [ -95.687434, 29.734985 ], [ -95.687367, 29.734975 ], [ -95.687283, 29.734932 ], [ -95.687203, 29.734912 ], [ -95.686978, 29.734931 ], [ -95.68683, 29.734926 ] ] } },
{ "type": "Feature", "properties": { "cls": "separated", "highway": "cycleway", "name": "George Bush Hike & Bike Trail" }, "geometry": { "type": "LineString", "coordinates": [ [ -95.68683, 29.734926 ], [ -95.686769, 29.734904 ], [ -95.686656, 29.734871 ], [ -95.686497, 29.734867 ], [ -95.686305, 29.734904 ], [ -95.685994, 29.735008 ], [ -95.685772, 29.735127 ], [ -95.68556, 29.735308 ], [ -95.685458, 29.735446 ], [ -95.685378, 29.735609 ], [ -95.685313, 29.735804 ], [ -95.685284, 29.736035 ], [ -95.685278, 29.736338 ], [ -95.685278, 29.736508 ], [ -95.685282, 29.740728 ], [ -95.685284, 29.742006 ], [ -95.685394, 29.753387 ], [ -95.685391, 29.753576 ], [ -95.685364, 29.753774 ], [ -95.685324, 29.753969 ], [ -95.685276, 29.754141 ], [ -95.685064, 29.754745 ], [ -95.68497, 29.755094 ], [ -95.684943, 29.755257 ], [ -95.684943, 29.755427 ], [ -95.684946, 29.75558 ], [ -95.684962, 29.755692 ], [ -95.684997, 29.755846 ], [ -95.68505, 29.75602 ], [ -95.685123, 29.75623 ] ] } },
{ "type": "Feature", "properties": { "cls": "shared", "highway": "cycleway", "name": "Mason Creek Hike and Bike Trail" }, "geometry": { "type": "LineString", "coordinates": [ [ -95.709148, 29.754902 ], [ -95.708928, 29.754744 ], [ -95.708866, 29.75465 ], [ -95.708794, 29.754532 ], [ -95.708697, 29.754359 ], [ -95.708546, 29.754124 ], [ -95.708506, 29.754062 ], [ -95.708373, 29.75387 ], [ -95.708371, 29.753657 ], [ -95.708532, 29.753312 ], [ -95.708576, 29.752856 ], [ -95.708571, 29.752655 ], [ -95.708865, 29.752246 ], [ -95.708927, 29.752161 ], [ -95.708939, 29.752042 ], [ -95.708842, 29.751912 ], [ -95.708521, 29.751564 ], [ -95.708473, 29.751434 ], [ -95.708483, 29.751358 ], [ -95.708519, 29.751281 ], [ -95.708608, 29.751228 ], [ -95.708692, 29.75115 ], [ -95.708796, 29.751096 ], [ -95.708905, 29.751033 ], [ -95.709007, 29.750969 ], [ -95.709067, 29.750933 ], [ -95.709246, 29.750878 ], [ -95.709824, 29.75073 ], [ -95.710156, 29.750721 ], [ -95.710697, 29.750418 ], [ -95.710892, 29.750268 ], [ -95.711626, 29.749759 ], [ -95.711944, 29.749581 ], [ -95.712418, 29.749174 ], [ -95.713026, 29.748647 ], [ -95.71341, 29.748376 ], [ -95.713753, 29.748279 ], [ -95.714092, 29.748229 ], [ -95.714241, 29.748161 ], [ -95.714489, 29.748051 ], [ -95.714757, 29.747975 ] ] } },
{ "type": "Feature", "properties": { "cls": "separated", "highway": "cycleway", "name": "George Bush Hike & Bike Trail" }, "geometry": { "type": "LineString", "coordinates": [ [ -95.68523, 29.756556 ], [ -95.685283, 29.75675 ], [ -95.685332, 29.756974 ], [ -95.685369, 29.75723 ], [ -95.685385, 29.757533 ], [ -95.685391, 29.757728 ], [ -95.685407, 29.758948 ], [ -95.685428, 29.763559 ], [ -95.685461, 29.766138 ], [ -95.685493, 29.76923 ], [ -95.685493, 29.771596 ], [ -95.685532, 29.77367 ] ] } }
]
}
