{
"type": "FeatureCollection",
"name": "033-phoenix-phoenix-sonoran-preserve",
"crs": { "type": "name", "properties": { "name": "urn:ogc:def:crs:OGC:1.3:CRS84" } },
"xy_coordinate_resolution": 1e-06,
"features": [
{ "type": "Feature", "properties": { "cls": "shared", "highway": "cycleway", "name": "Dreamy Draw Bikeway" }, "geometry": { "type": "LineString", "coordinates": [ [ -112.026168, 33.569013 ], [ -112.026271, 33.568891 ], [ -112.026331, 33.568734 ], [ -112.026501, 33.567857 ], [ -112.026605, 33.567333 ], [ -112.026623, 33.567246 ], [ -112.026794, 33.566867 ], [ -112.027257, 33.565952 ], [ -112.027445, 33.56555 ], [ -112.027584, 33.565255 ], [ -112.027687, 33.565036 ], [ -112.02778, 33.564812 ], [ -112.027825, 33.564658 ], [ -112.027837, 33.564537 ], [ -112.027839, 33.564521 ], [ -112.027901, 33.564326 ], [ -112.027934, 33.564264 ], [ -112.02809, 33.563975 ], [ -112.028406, 33.563322 ], [ -112.028441, 33.563271 ], [ -112.028501, 33.563131 ], [ -112.028605, 33.562878 ], [ -112.02863, 33.562817 ], [ -112.028698, 33.562538 ], [ -112.028725, 33.562476 ], [ -112.028765, 33.562383 ], [ -112.028904, 33.562094 ], [ -112.02911, 33.561715 ], [ -112.029428, 33.56135 ], [ -112.029711, 33.561086 ], [ -112.029899, 33.56094 ], [ -112.030072, 33.560807 ], [ -112.030451, 33.560622 ], [ -112.030613, 33.560549 ], [ -112.030818, 33.560478 ], [ -112.031059, 33.560385 ], [ -112.031326, 33.560309 ], [ -112.03167, 33.56023 ], [ -112.034502, 33.560016 ], [ -112.034862, 33.559994 ], [ -112.035154, 33.559937 ], [ -112.03554, 33.55978 ], [ -112.036339, 33.559436 ], [ -112.037079, 33.559051 ], [ -112.037269, 33.558957 ], [ -112.037349, 33.558918 ], [ -112.03735, 33.558916 ] ] } },
{ "type": "Feature", "properties": { "cls": "separated", "highway": "cycleway", "name": "Dreamy Draw Bikeway" }, "geometry": { "type": "LineString", "coordinates": [ [ -112.026168, 33.569013 ], [ -112.026015, 33.569224 ], [ -112.025057, 33.570216 ], [ -112.024916, 33.570331 ], [ -112.024732, 33.570453 ], [ -112.024327, 33.570732 ], [ -112.023961, 33.571026 ], [ -112.023714, 33.57116 ], [ -112.023273, 33.571472 ], [ -112.022873, 33.571623 ], [ -112.022406, 33.571814 ], [ -112.022046, 33.572073 ], [ -112.021873, 33.572224 ] ] } },
{ "type": "Feature", "properties": { "cls": "painted", "highway": "residential", "name": "North 40th Street" }, "geometry": { "type": "LineString", "coordinates": [ [ -111.995933, 33.568077 ], [ -111.995831, 33.568168 ], [ -111.995734, 33.568252 ], [ -111.9957, 33.56829 ], [ -111.995685, 33.568324 ], [ -111.995678, 33.568376 ], [ -111.995679, 33.568456 ] ] } }
]
}
