{
"type": "FeatureCollection",
"name": "034-newport-news-newport-news-park",
"crs": { "type": "name", "properties": { "name": "urn:ogc:def:crs:OGC:1.3:CRS84" } },
"xy_coordinate_resolution": 1e-06,
"features": [
{ "type": "Feature", "properties": { "cls": "separated", "highway": "cycleway", "name": "Bikeway" }, "geometry": { "type": "MultiLineString", "coordinates": [ [ [ -76.548404, 37.189267 ], [ -76.548326, 37.189284 ], [ -76.548254, 37.189315 ], [ -76.547776, 37.189587 ], [ -76.547629, 37.189666 ], [ -76.546809, 37.190099 ], [ -76.546612, 37.190243 ], [ -76.546277, 37.1904 ], [ -76.545813, 37.190626 ], [ -76.545633, 37.19081 ], [ -76.545453, 37.191084 ], [ -76.545015, 37.191432 ], [ -76.544792, 37.191548 ], [ -76.544311, 37.191699 ], [ -76.543805, 37.191747 ], [ -76.543633, 37.19174 ], [ -76.543513, 37.191726 ], [ -76.543427, 37.191713 ], [ -76.543204, 37.191678 ], [ -76.542809, 37.191706 ], [ -76.542552, 37.191706 ], [ -76.542406, 37.191706 ], [ -76.542097, 37.191713 ], [ -76.541728, 37.191699 ], [ -76.541427, 37.191706 ], [ -76.541239, 37.191692 ], [ -76.541015, 37.191706 ], [ -76.54044, 37.191692 ], [ -76.540277, 37.191672 ], [ -76.539422, 37.191672 ], [ -76.539213, 37.191672 ], [ -76.538914, 37.191686 ], [ -76.538536, 37.191684 ], [ -76.538061, 37.191667 ], [ -76.537922, 37.191719 ], [ -76.537779, 37.191753 ], [ -76.537643, 37.191801 ], [ -76.537514, 37.191861 ], [ -76.537383, 37.191938 ], [ -76.537307, 37.191993 ], [ -76.537224, 37.192071 ], [ -76.537168, 37.19214 ], [ -76.537111, 37.192232 ], [ -76.537084, 37.192289 ], [ -76.536987, 37.192598 ], [ -76.53693, 37.192706 ], [ -76.536857, 37.192807 ], [ -76.536553, 37.192901 ], [ -76.536338, 37.192912 ], [ -76.535791, 37.192885 ], [ -76.53537, 37.192917 ], [ -76.535224, 37.192917 ], [ -76.534923, 37.192791 ], [ -76.53468, 37.19272 ], [ -76.534505, 37.192745 ], [ -76.534116, 37.193042 ], [ -76.533747, 37.193232 ], [ -76.533342, 37.193412 ], [ -76.533021, 37.193513 ], [ -76.532874, 37.193506 ], [ -76.532669, 37.193409 ], [ -76.532393, 37.193326 ], [ -76.532065, 37.193342 ], [ -76.531857, 37.193399 ], [ -76.531549, 37.193538 ], [ -76.531163, 37.193802 ], [ -76.531051, 37.193913 ], [ -76.530839, 37.1943 ], [ -76.53067, 37.19441 ], [ -76.5302, 37.194512 ], [ -76.530043, 37.194559 ], [ -76.529563, 37.194633 ], [ -76.529012, 37.194716 ], [ -76.528495, 37.194796 ], [ -76.528212, 37.194867 ], [ -76.527875, 37.195056 ], [ -76.527267, 37.19534 ], [ -76.526925, 37.195465 ], [ -76.52696, 37.195552 ], [ -76.527154, 37.196061 ], [ -76.527355, 37.196454 ], [ -76.527641, 37.196934 ], [ -76.528023, 37.197389 ], [ -76.528586, 37.198079 ], [ -76.528982, 37.198575 ], [ -76.529326, 37.199105 ], [ -76.52968, 37.199583 ], [ -76.530077, 37.199865 ], [ -76.530324, 37.199865 ], [ -76.531032, 37.200045 ], [ -76.531141, 37.200103 ] ], [ [ -76.537062, 37.202807 ], [ -76.53713, 37.202841 ], [ -76.538038, 37.203232 ], [ -76.538778, 37.203588 ], [ -76.539353, 37.203841 ], [ -76.539695, 37.204013 ], [ -76.540229, 37.204385 ], [ -76.540415, 37.204946 ], [ -76.540437, 37.205338 ], [ -76.540491, 37.205911 ], [ -76.540477, 37.206028 ], [ -76.540641, 37.206082 ], [ -76.540845, 37.206193 ], [ -76.540979, 37.206244 ] ], [ [ -76.542613, 37.206111 ], [ -76.542647, 37.206108 ], [ -76.542872, 37.206065 ], [ -76.543516, 37.206082 ], [ -76.543736, 37.206184 ], [ -76.544723, 37.206096 ], [ -76.545231, 37.206084 ], [ -76.545788, 37.205791 ], [ -76.546273, 37.205464 ], [ -76.547131, 37.205197 ], [ -76.54761, 37.205121 ], [ -76.54784, 37.204963 ], [ -76.548065, 37.204869 ], [ -76.548355, 37.204834 ], [ -76.548623, 37.204817 ], [ -76.548784, 37.204723 ], [ -76.549127, 37.204587 ], [ -76.549467, 37.204587 ], [ -76.549578, 37.204587 ], [ -76.549707, 37.204561 ], [ -76.550039, 37.204424 ], [ -76.550522, 37.204176 ], [ -76.550737, 37.2041 ], [ -76.550919, 37.20404 ], [ -76.551209, 37.204023 ], [ -76.551498, 37.20404 ], [ -76.551831, 37.204023 ], [ -76.552324, 37.203946 ], [ -76.552872, 37.203971 ], [ -76.553043, 37.203997 ], [ -76.553236, 37.203946 ], [ -76.553655, 37.203852 ], [ -76.554095, 37.203689 ], [ -76.554266, 37.203527 ], [ -76.554706, 37.203365 ], [ -76.555007, 37.203288 ], [ -76.555264, 37.203219 ], [ -76.555393, 37.203117 ], [ -76.555607, 37.202929 ], [ -76.55579, 37.202621 ], [ -76.556165, 37.202245 ], [ -76.556241, 37.202143 ], [ -76.556294, 37.201955 ], [ -76.556423, 37.201707 ], [ -76.556648, 37.201425 ], [ -76.556734, 37.201014 ], [ -76.556766, 37.200844 ], [ -76.55712, 37.200613 ], [ -76.557217, 37.200468 ], [ -76.557356, 37.200211 ], [ -76.557442, 37.199972 ], [ -76.557496, 37.199801 ], [ -76.558322, 37.19922 ], [ -76.558398, 37.199185 ], [ -76.55888, 37.198937 ], [ -76.559416, 37.198699 ], [ -76.560329, 37.198368 ], [ -76.560882, 37.19806 ], [ -76.561203, 37.19785 ], [ -76.561356, 37.197748 ], [ -76.561521, 37.19766 ], [ -76.561906, 37.197423 ], [ -76.562217, 37.19723 ], [ -76.562338, 37.197178 ], [ -76.562577, 37.19711 ], [ -76.562766, 37.197057 ], [ -76.562992, 37.196951 ], [ -76.563238, 37.1968 ], [ -76.563428, 37.196651 ], [ -76.563631, 37.196439 ], [ -76.563771, 37.196244 ], [ -76.563884, 37.196032 ], [ -76.563937, 37.195823 ], [ -76.563959, 37.195734 ], [ -76.563995, 37.195633 ], [ -76.564104, 37.195447 ], [ -76.564168, 37.195351 ], [ -76.564187, 37.195319 ], [ -76.564196, 37.195282 ], [ -76.564216, 37.195247 ], [ -76.564214, 37.195234 ], [ -76.564162, 37.195174 ], [ -76.563663, 37.19455 ], [ -76.563136, 37.1939 ], [ -76.562401, 37.193043 ], [ -76.562323, 37.19294 ], [ -76.562324, 37.192846 ], [ -76.562268, 37.192741 ], [ -76.562077, 37.192503 ], [ -76.561117, 37.191272 ], [ -76.560543, 37.190651 ], [ -76.56036, 37.190514 ], [ -76.560242, 37.190425 ], [ -76.560186, 37.190369 ], [ -76.560157, 37.190287 ], [ -76.560058, 37.190149 ], [ -76.559952, 37.190043 ], [ -76.559759, 37.189892 ], [ -76.559646, 37.189773 ], [ -76.559526, 37.189637 ], [ -76.559104, 37.188992 ], [ -76.558805, 37.188652 ] ] ] } }
]
}
