{
"type": "FeatureCollection",
"name": "035-phoenix-north-mountain-and-shaw-butte-preserves",
"crs": { "type": "name", "properties": { "name": "urn:ogc:def:crs:OGC:1.3:CRS84" } },
"xy_coordinate_resolution": 1e-06,
"features": [
{ "type": "Feature", "properties": { "cls": "painted", "highway": "service", "name": "North Mountain Park" }, "geometry": { "type": "LineString", "coordinates": [ [ -112.065601, 33.582174 ], [ -112.065634, 33.582068 ], [ -112.06562, 33.581991 ], [ -112.065576, 33.581907 ], [ -112.06551, 33.581854 ], [ -112.065423, 33.581826 ], [ -112.065263, 33.581798 ], [ -112.065248, 33.581797 ] ] } },
{ "type": "Feature", "properties": { "cls": "painted", "highway": "service", "name": "North Mountain Park" }, "geometry": { "type": "LineString", "coordinates": [ [ -112.066144, 33.585194 ], [ -112.066194, 33.585147 ], [ -112.066211, 33.585132 ], [ -112.066284, 33.585066 ], [ -112.066357, 33.584939 ], [ -112.066423, 33.584682 ], [ -112.066513, 33.5844 ], [ -112.066606, 33.584157 ], [ -112.066733, 33.583979 ], [ -112.066777, 33.583947 ], [ -112.06695, 33.583821 ], [ -112.067225, 33.583642 ], [ -112.067368, 33.58359 ], [ -112.067378, 33.583585 ], [ -112.06743, 33.58356 ], [ -112.067583, 33.583471 ], [ -112.067622, 33.583357 ], [ -112.067663, 33.583179 ], [ -112.067673, 33.583136 ], [ -112.067716, 33.582914 ], [ -112.067755, 33.582685 ], [ -112.067731, 33.582598 ], [ -112.067691, 33.582498 ], [ -112.067562, 33.582347 ], [ -112.067422, 33.582119 ], [ -112.067351, 33.581941 ], [ -112.067328, 33.581754 ], [ -112.067315, 33.581628 ], [ -112.067297, 33.581451 ], [ -112.06728, 33.5814 ], [ -112.066595, 33.580849 ], [ -112.066419, 33.580752 ], [ -112.06624, 33.580686 ], [ -112.065946, 33.580675 ], [ -112.065784, 33.580763 ], [ -112.065568, 33.580882 ], [ -112.065448, 33.580968 ], [ -112.06544, 33.581154 ], [ -112.065689, 33.581732 ], [ -112.065879, 33.58207 ], [ -112.06589, 33.582164 ], [ -112.065854, 33.582237 ], [ -112.065801, 33.582275 ], [ -112.06574, 33.582263 ], [ -112.065601, 33.582174 ] ] } },
{ "type": "Feature", "properties": { "cls": "painted", "highway": "service", "name": "North Mountain Park" }, "geometry": { "type": "LineString", "coordinates": [ [ -112.065601, 33.582174 ], [ -112.0655, 33.582276 ], [ -112.065477, 33.582308 ], [ -112.065431, 33.582376 ], [ -112.065311, 33.582505 ], [ -112.065234, 33.58264 ], [ -112.065225, 33.582797 ], [ -112.06532, 33.58294 ], [ -112.065439, 33.583008 ], [ -112.065523, 33.58311 ], [ -112.065534, 33.583212 ], [ -112.065532, 33.583265 ], [ -112.065526, 33.583406 ], [ -112.065466, 33.583877 ], [ -112.065488, 33.584227 ], [ -112.065482, 33.584625 ], [ -112.065468, 33.584841 ], [ -112.065461, 33.584939 ], [ -112.065461, 33.585069 ], [ -112.065468, 33.585099 ], [ -112.065483, 33.585133 ], [ -112.065501, 33.585167 ], [ -112.065528, 33.585202 ], [ -112.065646, 33.585257 ], [ -112.065809, 33.5853 ], [ -112.065981, 33.585271 ], [ -112.066062, 33.585232 ], [ -112.066144, 33.585194 ] ] } }
]
}
