{
"type": "FeatureCollection",
"name": "036-paris-forest-of-senart",
"crs": { "type": "name", "properties": { "name": "urn:ogc:def:crs:OGC:1.3:CRS84" } },
"xy_coordinate_resolution": 1e-06,
"features": [
{ "type": "Feature", "properties": { "cls": "separated", "highway": "cycleway", "name": null }, "geometry": { "type": "LineString", "coordinates": [ [ 2.511024, 48.6571 ], [ 2.511048, 48.657072 ], [ 2.511066, 48.65705 ] ] } },
{ "type": "Feature", "properties": { "cls": "shared", "highway": "path", "name": "Ancienne Piste Cyclable" }, "geometry": { "type": "LineString", "coordinates": [ [ 2.489988, 48.665922 ], [ 2.489983, 48.665957 ] ] } },
{ "type": "Feature", "properties": { "cls": "shared", "highway": "path", "name": "Ancienne Piste Cyclable" }, "geometry": { "type": "LineString", "coordinates": [ [ 2.489983, 48.665957 ], [ 2.489961, 48.666024 ], [ 2.489928, 48.666214 ], [ 2.489894, 48.666327 ], [ 2.489693, 48.666475 ], [ 2.489486, 48.666577 ], [ 2.48936, 48.666634 ], [ 2.489215, 48.66678 ] ] } },
{ "type": "Feature", "properties": { "cls": "shared", "highway": "path", "name": "Ancienne Piste Cyclable" }, "geometry": { "type": "LineString", "coordinates": [ [ 2.489215, 48.66678 ], [ 2.489193, 48.666811 ] ] } },
{ "type": "Feature", "properties": { "cls": "shared", "highway": "path", "name": "Ancienne Piste Cyclable" }, "geometry": { "type": "LineString", "coordinates": [ [ 2.489193, 48.666811 ], [ 2.489105, 48.666905 ] ] } },
{ "type": "Feature", "properties": { "cls": "shared", "highway": "path", "name": "Ancienne Piste Cyclable" }, "geometry": { "type": "LineString", "coordinates": [ [ 2.489105, 48.666905 ], [ 2.489099, 48.666943 ] ] } },
{ "type": "Feature", "properties": { "cls": "shared", "highway": "path", "name": "Ancienne Piste Cyclable" }, "geometry": { "type": "LineString", "coordinates": [ [ 2.489099, 48.666943 ], [ 2.489098, 48.666948 ], [ 2.489068, 48.666971 ] ] } },
{ "type": "Feature", "properties": { "cls": "shared", "highway": "path", "name": "Ancienne Piste Cyclable" }, "geometry": { "type": "LineString", "coordinates": [ [ 2.489068, 48.666971 ], [ 2.489056, 48.667007 ] ] } },
{ "type": "Feature", "properties": { "cls": "shared", "highway": "path", "name": "Ancienne Piste Cyclable" }, "geometry": { "type": "LineString", "coordinates": [ [ 2.492205, 48.659136 ], [ 2.492213, 48.659163 ] ] } },
{ "type": "Feature", "properties": { "cls": "shared", "highway": "path", "name": "Ancienne Piste Cyclable" }, "geometry": { "type": "LineString", "coordinates": [ [ 2.492213, 48.659163 ], [ 2.492205, 48.659178 ] ] } },
{ "type": "Feature", "properties": { "cls": "shared", "highway": "path", "name": "Ancienne Piste Cyclable" }, "geometry": { "type": "LineString", "coordinates": [ [ 2.492205, 48.659178 ], [ 2.492219, 48.659251 ], [ 2.492334, 48.65936 ], [ 2.492514, 48.659554 ], [ 2.492611, 48.659681 ], [ 2.492676, 48.659819 ], [ 2.492693, 48.659927 ], [ 2.492681, 48.660037 ], [ 2.492612, 48.660238 ], [ 2.492653, 48.660318 ], [ 2.492701, 48.660377 ], [ 2.492727, 48.6605 ], [ 2.492566, 48.66066 ], [ 2.492387, 48.660836 ], [ 2.492423, 48.661058 ], [ 2.492371, 48.661199 ], [ 2.492222, 48.661525 ], [ 2.492012, 48.661849 ] ] } },
{ "type": "Feature", "properties": { "cls": "shared", "highway": "path", "name": "Ancienne Piste Cyclable" }, "geometry": { "type": "LineString", "coordinates": [ [ 2.492012, 48.661849 ], [ 2.492, 48.661864 ] ] } },
{ "type": "Feature", "properties": { "cls": "shared", "highway": "path", "name": "Ancienne Piste Cyclable" }, "geometry": { "type": "LineString", "coordinates": [ [ 2.492, 48.661864 ], [ 2.491899, 48.662053 ], [ 2.491944, 48.66234 ], [ 2.492018, 48.662542 ], [ 2.492093, 48.662718 ], [ 2.492185, 48.662799 ], [ 2.492242, 48.662876 ], [ 2.492141, 48.663032 ], [ 2.491871, 48.663446 ], [ 2.491694, 48.66362 ], [ 2.49161, 48.663748 ] ] } },
{ "type": "Feature", "properties": { "cls": "shared", "highway": "path", "name": "Ancienne Piste Cyclable" }, "geometry": { "type": "LineString", "coordinates": [ [ 2.49161, 48.663748 ], [ 2.491599, 48.663764 ] ] } },
{ "type": "Feature", "properties": { "cls": "shared", "highway": "path", "name": "Ancienne Piste Cyclable" }, "geometry": { "type": "LineString", "coordinates": [ [ 2.491599, 48.663764 ], [ 2.491567, 48.66378 ], [ 2.491528, 48.663797 ] ] } },
{ "type": "Feature", "properties": { "cls": "shared", "highway": "path", "name": "Ancienne Piste Cyclable" }, "geometry": { "type": "LineString", "coordinates": [ [ 2.491528, 48.663797 ], [ 2.491516, 48.663817 ] ] } },
{ "type": "Feature", "properties": { "cls": "shared", "highway": "path", "name": "Ancienne Piste Cyclable" }, "geometry": { "type": "LineString", "coordinates": [ [ 2.491516, 48.663817 ], [ 2.491417, 48.663852 ], [ 2.49125, 48.663939 ], [ 2.491066, 48.664148 ], [ 2.490986, 48.664349 ], [ 2.490813, 48.664478 ], [ 2.490673, 48.664549 ] ] } },
{ "type": "Feature", "properties": { "cls": "shared", "highway": "path", "name": "Ancienne Piste Cyclable" }, "geometry": { "type": "LineString", "coordinates": [ [ 2.490673, 48.664549 ], [ 2.490653, 48.664574 ] ] } },
{ "type": "Feature", "properties": { "cls": "shared", "highway": "path", "name": "Ancienne Piste Cyclable" }, "geometry": { "type": "LineString", "coordinates": [ [ 2.490653, 48.664574 ], [ 2.490542, 48.664682 ] ] } },
{ "type": "Feature", "properties": { "cls": "shared", "highway": "path", "name": "Ancienne Piste Cyclable" }, "geometry": { "type": "LineString", "coordinates": [ [ 2.490542, 48.664682 ], [ 2.490494, 48.66471 ] ] } },
{ "type": "Feature", "properties": { "cls": "shared", "highway": "path", "name": "Ancienne Piste Cyclable" }, "geometry": { "type": "LineString", "coordinates": [ [ 2.490494, 48.66471 ], [ 2.490469, 48.664858 ], [ 2.490454, 48.664976 ] ] } },
{ "type": "Feature", "properties": { "cls": "shared", "highway": "path", "name": "Ancienne Piste Cyclable" }, "geometry": { "type": "LineString", "coordinates": [ [ 2.490454, 48.664976 ], [ 2.490455, 48.665009 ] ] } },
{ "type": "Feature", "properties": { "cls": "shared", "highway": "path", "name": "Ancienne Piste Cyclable" }, "geometry": { "type": "LineString", "coordinates": [ [ 2.490455, 48.665009 ], [ 2.490461, 48.66509 ], [ 2.490397, 48.665219 ], [ 2.490239, 48.665389 ], [ 2.490143, 48.665479 ] ] } },
{ "type": "Feature", "properties": { "cls": "shared", "highway": "path", "name": "Ancienne Piste Cyclable" }, "geometry": { "type": "LineString", "coordinates": [ [ 2.490143, 48.665479 ], [ 2.490112, 48.665504 ] ] } },
{ "type": "Feature", "properties": { "cls": "shared", "highway": "path", "name": "Ancienne Piste Cyclable" }, "geometry": { "type": "LineString", "coordinates": [ [ 2.490112, 48.665504 ], [ 2.490065, 48.665717 ], [ 2.490057, 48.66574 ] ] } },
{ "type": "Feature", "properties": { "cls": "shared", "highway": "path", "name": "Ancienne Piste Cyclable" }, "geometry": { "type": "LineString", "coordinates": [ [ 2.490057, 48.66574 ], [ 2.49004, 48.665789 ] ] } },
{ "type": "Feature", "properties": { "cls": "shared", "highway": "path", "name": "Ancienne Piste Cyclable" }, "geometry": { "type": "LineString", "coordinates": [ [ 2.49004, 48.665789 ], [ 2.489988, 48.665922 ] ] } },
{ "type": "Feature", "properties": { "cls": "shared", "highway": "path", "name": "Ancienne Piste Cyclable" }, "geometry": { "type": "LineString", "coordinates": [ [ 2.492124, 48.673778 ], [ 2.492141, 48.673719 ] ] } },
{ "type": "Feature", "properties": { "cls": "shared", "highway": "path", "name": "Ancienne Piste Cyclable" }, "geometry": { "type": "LineString", "coordinates": [ [ 2.490394, 48.676333 ], [ 2.490348, 48.676241 ], [ 2.490328, 48.676042 ], [ 2.490274, 48.675741 ], [ 2.490239, 48.675597 ], [ 2.490041, 48.675383 ], [ 2.489991, 48.675227 ], [ 2.490443, 48.675066 ], [ 2.4908, 48.674908 ], [ 2.491115, 48.674537 ], [ 2.491581, 48.67428 ], [ 2.491874, 48.673977 ], [ 2.492038, 48.673885 ], [ 2.492124, 48.673778 ] ] } },
{ "type": "Feature", "properties": { "cls": "shared", "highway": "path", "name": "Ancienne Piste Cyclable" }, "geometry": { "type": "LineString", "coordinates": [ [ 2.489056, 48.667007 ], [ 2.488991, 48.667198 ] ] } },
{ "type": "Feature", "properties": { "cls": "shared", "highway": "path", "name": "Ancienne Piste Cyclable" }, "geometry": { "type": "LineString", "coordinates": [ [ 2.488991, 48.667198 ], [ 2.488969, 48.667241 ] ] } },
{ "type": "Feature", "properties": { "cls": "shared", "highway": "path", "name": "Ancienne Piste Cyclable" }, "geometry": { "type": "LineString", "coordinates": [ [ 2.488969, 48.667241 ], [ 2.488896, 48.667539 ], [ 2.488811, 48.66776 ], [ 2.48884, 48.667884 ], [ 2.488826, 48.667942 ], [ 2.488803, 48.667982 ], [ 2.488784, 48.668006 ] ] } },
{ "type": "Feature", "properties": { "cls": "shared", "highway": "path", "name": "Ancienne Piste Cyclable" }, "geometry": { "type": "LineString", "coordinates": [ [ 2.488784, 48.668006 ], [ 2.488766, 48.668034 ] ] } },
{ "type": "Feature", "properties": { "cls": "shared", "highway": "path", "name": "Ancienne Piste Cyclable" }, "geometry": { "type": "LineString", "coordinates": [ [ 2.488766, 48.668034 ], [ 2.488735, 48.668047 ], [ 2.488613, 48.668057 ], [ 2.488437, 48.668057 ], [ 2.48805, 48.668004 ], [ 2.487784, 48.668011 ], [ 2.487528, 48.668327 ], [ 2.487035, 48.668567 ], [ 2.486945, 48.668838 ], [ 2.486723, 48.669258 ], [ 2.486837, 48.669418 ], [ 2.486968, 48.669623 ], [ 2.48694, 48.669804 ], [ 2.486895, 48.66998 ], [ 2.48697, 48.670338 ], [ 2.486996, 48.670442 ] ] } },
{ "type": "Feature", "properties": { "cls": "shared", "highway": "path", "name": "Ancienne Piste Cyclable" }, "geometry": { "type": "LineString", "coordinates": [ [ 2.486996, 48.670442 ], [ 2.486997, 48.670449 ] ] } },
{ "type": "Feature", "properties": { "cls": "shared", "highway": "path", "name": "Ancienne Piste Cyclable" }, "geometry": { "type": "LineString", "coordinates": [ [ 2.48705, 48.670585 ], [ 2.487148, 48.670656 ] ] } },
{ "type": "Feature", "properties": { "cls": "shared", "highway": "path", "name": "Ancienne Piste Cyclable" }, "geometry": { "type": "LineString", "coordinates": [ [ 2.487148, 48.670656 ], [ 2.487121, 48.670677 ] ] } },
{ "type": "Feature", "properties": { "cls": "shared", "highway": "path", "name": "Ancienne Piste Cyclable" }, "geometry": { "type": "LineString", "coordinates": [ [ 2.492141, 48.673719 ], [ 2.492035, 48.673649 ], [ 2.49097, 48.673229 ], [ 2.490401, 48.673047 ], [ 2.489562, 48.672801 ], [ 2.489052, 48.672696 ], [ 2.48829, 48.672384 ], [ 2.487907, 48.672261 ], [ 2.487441, 48.672168 ], [ 2.487187, 48.671953 ], [ 2.487056, 48.671775 ], [ 2.486939, 48.671577 ], [ 2.486847, 48.671384 ], [ 2.486769, 48.671212 ] ] } },
{ "type": "Feature", "properties": { "cls": "shared", "highway": "path", "name": "n°3" }, "geometry": { "type": "LineString", "coordinates": [ [ 2.441543, 48.658772 ], [ 2.441472, 48.658744 ], [ 2.441404, 48.658718 ], [ 2.441297, 48.65872 ], [ 2.441221, 48.658717 ], [ 2.441155, 48.658698 ], [ 2.441105, 48.658674 ], [ 2.440986, 48.658633 ], [ 2.440821, 48.658619 ], [ 2.4407, 48.658567 ], [ 2.440634, 48.658493 ], [ 2.440647, 48.658349 ], [ 2.440614, 48.658322 ], [ 2.440508, 48.658252 ], [ 2.440453, 48.658224 ], [ 2.440351, 48.65814 ], [ 2.440287, 48.658074 ], [ 2.440191, 48.657955 ], [ 2.440148, 48.657908 ], [ 2.439989, 48.657856 ], [ 2.439858, 48.65782 ], [ 2.439753, 48.657729 ], [ 2.439698, 48.657656 ], [ 2.439716, 48.657615 ], [ 2.439744, 48.657597 ], [ 2.439913, 48.657553 ], [ 2.439963, 48.657532 ], [ 2.439948, 48.657491 ], [ 2.439882, 48.657432 ], [ 2.439877, 48.657385 ], [ 2.439885, 48.657322 ], [ 2.439865, 48.657281 ], [ 2.439808, 48.657269 ], [ 2.439697, 48.657253 ], [ 2.439536, 48.657188 ], [ 2.439445, 48.657057 ], [ 2.439455, 48.656982 ], [ 2.439325, 48.656985 ], [ 2.43928, 48.656919 ], [ 2.439308, 48.656797 ], [ 2.439352, 48.6566 ], [ 2.439588, 48.656621 ], [ 2.439725, 48.65653 ], [ 2.439692, 48.656432 ], [ 2.439584, 48.656337 ], [ 2.439477, 48.656264 ], [ 2.43935, 48.656181 ], [ 2.43934, 48.656064 ], [ 2.439475, 48.655866 ], [ 2.439478, 48.655708 ], [ 2.439458, 48.655575 ], [ 2.439511, 48.655473 ], [ 2.439593, 48.65539 ], [ 2.439735, 48.655209 ], [ 2.439775, 48.655091 ], [ 2.439835, 48.655038 ], [ 2.439898, 48.654978 ], [ 2.439938, 48.654915 ], [ 2.439994, 48.654759 ], [ 2.440243, 48.654669 ], [ 2.441545, 48.654291 ], [ 2.441648, 48.654284 ], [ 2.441788, 48.654452 ], [ 2.441935, 48.654685 ], [ 2.442074, 48.654882 ], [ 2.442249, 48.655118 ], [ 2.442382, 48.655235 ], [ 2.44245, 48.65545 ], [ 2.44253, 48.65557 ], [ 2.442831, 48.655975 ], [ 2.443216, 48.656545 ], [ 2.443269, 48.656585 ] ] } },
{ "type": "Feature", "properties": { "cls": "shared", "highway": "path", "name": "n°4" }, "geometry": { "type": "LineString", "coordinates": [ [ 2.444826, 48.657717 ], [ 2.444857, 48.657717 ], [ 2.445169, 48.657798 ], [ 2.445305, 48.657893 ], [ 2.445477, 48.657944 ], [ 2.445667, 48.6579 ], [ 2.446051, 48.657937 ], [ 2.446165, 48.6578 ], [ 2.446214, 48.657707 ], [ 2.446357, 48.657713 ], [ 2.44672, 48.657825 ], [ 2.446891, 48.657842 ], [ 2.447087, 48.65782 ], [ 2.447299, 48.657821 ], [ 2.447433, 48.657938 ], [ 2.447554, 48.657979 ], [ 2.447743, 48.657989 ], [ 2.447759, 48.658127 ], [ 2.44778, 48.658215 ], [ 2.447822, 48.658258 ], [ 2.447897, 48.65829 ], [ 2.447934, 48.658284 ], [ 2.448, 48.658231 ], [ 2.44813, 48.658188 ], [ 2.448141, 48.658087 ], [ 2.448185, 48.658016 ], [ 2.448201, 48.657905 ], [ 2.448218, 48.657876 ], [ 2.448161, 48.657808 ], [ 2.448095, 48.657749 ], [ 2.448119, 48.657674 ], [ 2.448227, 48.657555 ], [ 2.448369, 48.657515 ], [ 2.448396, 48.657582 ], [ 2.448572, 48.657653 ], [ 2.448858, 48.65768 ], [ 2.448944, 48.657694 ], [ 2.449, 48.657715 ], [ 2.449016, 48.657691 ], [ 2.448904, 48.657658 ], [ 2.448883, 48.657609 ], [ 2.448738, 48.657587 ], [ 2.448665, 48.657574 ], [ 2.44852, 48.65752 ], [ 2.448434, 48.657463 ], [ 2.448421, 48.657349 ], [ 2.448359, 48.657276 ], [ 2.448335, 48.6572 ], [ 2.448536, 48.656948 ], [ 2.448601, 48.656923 ], [ 2.448666, 48.656931 ], [ 2.448702, 48.656961 ], [ 2.448768, 48.65699 ], [ 2.448877, 48.656951 ], [ 2.448767, 48.656856 ], [ 2.44851, 48.656864 ], [ 2.448315, 48.656928 ], [ 2.448242, 48.656917 ], [ 2.448137, 48.656935 ], [ 2.448052, 48.656906 ], [ 2.447695, 48.656877 ], [ 2.447619, 48.656892 ], [ 2.447543, 48.656878 ], [ 2.447506, 48.6569 ], [ 2.447397, 48.656932 ], [ 2.447346, 48.657014 ], [ 2.447247, 48.657046 ], [ 2.447039, 48.65723 ], [ 2.446942, 48.657263 ], [ 2.446872, 48.657246 ], [ 2.446721, 48.657309 ], [ 2.446736, 48.657394 ], [ 2.446516, 48.65749 ], [ 2.446349, 48.657431 ], [ 2.446077, 48.657588 ], [ 2.445848, 48.657522 ], [ 2.445495, 48.6574 ], [ 2.44535, 48.657449 ], [ 2.445237, 48.657423 ], [ 2.445133, 48.65748 ], [ 2.444915, 48.6575 ], [ 2.444869, 48.657633 ], [ 2.444816, 48.657634 ] ] } },
{ "type": "Feature", "properties": { "cls": "shared", "highway": "path", "name": "Jonction" }, "geometry": { "type": "LineString", "coordinates": [ [ 2.444826, 48.657717 ], [ 2.444737, 48.657682 ], [ 2.444596, 48.657676 ], [ 2.444375, 48.657677 ], [ 2.444238, 48.657731 ], [ 2.444058, 48.657676 ], [ 2.443864, 48.657624 ], [ 2.443718, 48.657549 ], [ 2.443499, 48.657526 ], [ 2.443383, 48.657411 ], [ 2.443193, 48.657419 ], [ 2.443013, 48.657461 ], [ 2.442904, 48.657496 ], [ 2.442716, 48.657627 ], [ 2.442469, 48.657599 ] ] } },
{ "type": "Feature", "properties": { "cls": "shared", "highway": "path", "name": "n°2" }, "geometry": { "type": "LineString", "coordinates": [ [ 2.437623, 48.657991 ], [ 2.437642, 48.65793 ], [ 2.437676, 48.6579 ], [ 2.437769, 48.657775 ], [ 2.437769, 48.657674 ], [ 2.43775, 48.657595 ], [ 2.437667, 48.65748 ], [ 2.437593, 48.657397 ], [ 2.437521, 48.657311 ], [ 2.437453, 48.657204 ], [ 2.437441, 48.65712 ], [ 2.43748, 48.657026 ], [ 2.437563, 48.656882 ], [ 2.437589, 48.656815 ], [ 2.437542, 48.656746 ], [ 2.437516, 48.656665 ], [ 2.437518, 48.656574 ], [ 2.437587, 48.656503 ], [ 2.437621, 48.656443 ], [ 2.43755, 48.656381 ], [ 2.437484, 48.656343 ], [ 2.437416, 48.656234 ], [ 2.437418, 48.656141 ], [ 2.437482, 48.656104 ], [ 2.43758, 48.656086 ], [ 2.437766, 48.656229 ], [ 2.437891, 48.656318 ], [ 2.438056, 48.656397 ], [ 2.438153, 48.656484 ], [ 2.438221, 48.656534 ], [ 2.438317, 48.656541 ], [ 2.438419, 48.656589 ], [ 2.43852, 48.656717 ], [ 2.438561, 48.656806 ], [ 2.438648, 48.656988 ], [ 2.438699, 48.657033 ], [ 2.438745, 48.657047 ], [ 2.438815, 48.657035 ], [ 2.438921, 48.657099 ], [ 2.439022, 48.657146 ], [ 2.439095, 48.657232 ], [ 2.439167, 48.657287 ], [ 2.439226, 48.657385 ], [ 2.439297, 48.657425 ], [ 2.439381, 48.657466 ], [ 2.439411, 48.657496 ], [ 2.439462, 48.657546 ], [ 2.439459, 48.657716 ], [ 2.439352, 48.657915 ], [ 2.439336, 48.658004 ], [ 2.439339, 48.658159 ], [ 2.439535, 48.658355 ], [ 2.439735, 48.658577 ], [ 2.439772, 48.658783 ], [ 2.439873, 48.659027 ], [ 2.440137, 48.659172 ], [ 2.440435, 48.659252 ], [ 2.440738, 48.659246 ], [ 2.440865, 48.659295 ], [ 2.440998, 48.659307 ], [ 2.44109, 48.659345 ] ] } },
{ "type": "Feature", "properties": { "cls": "separated", "highway": "cycleway", "name": "Piste Cyclable Maurice Garin" }, "geometry": { "type": "LineString", "coordinates": [ [ 2.45345, 48.689818 ], [ 2.454303, 48.689041 ] ] } }
]
}
