{
"type": "FeatureCollection",
"name": "037-san-diego-mission-trails-regional-park",
"crs": { "type": "name", "properties": { "name": "urn:ogc:def:crs:OGC:1.3:CRS84" } },
"xy_coordinate_resolution": 1e-06,
"features": [
{ "type": "Feature", "properties": { "cls": "painted", "highway": "secondary", "name": "Baltimore Drive" }, "geometry": { "type": "LineString", "coordinates": [ [ -117.036287, 32.788731 ], [ -117.036276, 32.788708 ], [ -117.036088, 32.788395 ], [ -117.036069, 32.788367 ], [ -117.036029, 32.788304 ], [ -117.035768, 32.787892 ], [ -117.035704, 32.787798 ], [ -117.0353, 32.787136 ], [ -117.035217, 32.786969 ], [ -117.035098, 32.786716 ] ] } },
{ "type": "Feature", "properties": { "cls": "painted", "highway": "secondary", "name": "Baltimore Drive" }, "geometry": { "type": "LineString", "coordinates": [ [ -117.034959, 32.786814 ], [ -117.03501, 32.786934 ], [ -117.035044, 32.787013 ], [ -117.035133, 32.787197 ], [ -117.035346, 32.787591 ], [ -117.035537, 32.787885 ], [ -117.035606, 32.787981 ], [ -117.035858, 32.788348 ], [ -117.035877, 32.788376 ], [ -117.035955, 32.78849 ], [ -117.036118, 32.788746 ] ] } },
{ "type": "Feature", "properties": { "cls": "shared", "highway": "cycleway", "name": "Lake Murray Bike Path" }, "geometry": { "type": "MultiLineString", "coordinates": [ [ [ -117.038096, 32.796292 ], [ -117.038139, 32.79625 ], [ -117.03824, 32.796036 ], [ -117.038678, 32.79539 ], [ -117.038923, 32.79482 ], [ -117.039142, 32.794516 ], [ -117.039243, 32.794376 ], [ -117.039288, 32.794337 ], [ -117.039438, 32.794212 ], [ -117.039686, 32.794047 ], [ -117.039862, 32.793857 ], [ -117.039918, 32.793697 ], [ -117.039927, 32.793317 ], [ -117.040177, 32.79277 ], [ -117.0402, 32.792719 ], [ -117.040338, 32.792316 ], [ -117.040441, 32.791927 ] ], [ [ -117.042371, 32.790076 ], [ -117.042456, 32.790011 ], [ -117.04247, 32.790005 ] ], [ [ -117.044014, 32.789628 ], [ -117.044136, 32.789749 ], [ -117.044234, 32.789663 ], [ -117.044216, 32.789473 ], [ -117.04421, 32.788995 ], [ -117.044287, 32.788681 ], [ -117.044377, 32.788542 ], [ -117.044504, 32.788485 ], [ -117.044685, 32.788571 ], [ -117.044864, 32.788817 ], [ -117.044997, 32.789073 ], [ -117.045087, 32.789323 ], [ -117.045091, 32.789423 ], [ -117.045098, 32.789574 ], [ -117.045099, 32.789644 ], [ -117.045114, 32.790599 ], [ -117.045164, 32.790676 ], [ -117.045385, 32.790797 ], [ -117.045592, 32.790825 ], [ -117.045826, 32.790755 ], [ -117.046005, 32.790655 ], [ -117.046122, 32.790355 ], [ -117.046211, 32.789883 ], [ -117.046341, 32.789108 ], [ -117.046437, 32.788732 ], [ -117.046532, 32.788639 ], [ -117.046683, 32.788627 ], [ -117.047, 32.788782 ], [ -117.047297, 32.789138 ], [ -117.047573, 32.78958 ], [ -117.047858, 32.790058 ], [ -117.048021, 32.790162 ], [ -117.048283, 32.7901 ], [ -117.048443, 32.789921 ], [ -117.048452, 32.789866 ], [ -117.048493, 32.789613 ], [ -117.048467, 32.789242 ], [ -117.048476, 32.7889 ], [ -117.048464, 32.788699 ], [ -117.047885, 32.787306 ], [ -117.047778, 32.787075 ], [ -117.047564, 32.786843 ], [ -117.04749, 32.786762 ], [ -117.047348, 32.786607 ], [ -117.047274, 32.786526 ], [ -117.047215, 32.786431 ], [ -117.047159, 32.786367 ], [ -117.047149, 32.786326 ], [ -117.047181, 32.786262 ], [ -117.047213, 32.786194 ], [ -117.047239, 32.786103 ], [ -117.047309, 32.785947 ], [ -117.047353, 32.78581 ], [ -117.047387, 32.7857 ], [ -117.047427, 32.785543 ], [ -117.047463, 32.785441 ], [ -117.04749, 32.785246 ], [ -117.047487, 32.78517 ], [ -117.047422, 32.785071 ], [ -117.047219, 32.78498 ], [ -117.046921, 32.784875 ], [ -117.046551, 32.784754 ], [ -117.046482, 32.784703 ], [ -117.046458, 32.784618 ] ] ] } },
{ "type": "Feature", "properties": { "cls": "shared", "highway": "path", "name": null }, "geometry": { "type": "LineString", "coordinates": [ [ -117.037555, 32.796488 ], [ -117.037757, 32.796453 ], [ -117.038009, 32.796346 ] ] } },
{ "type": "Feature", "properties": { "cls": "shared", "highway": "path", "name": null }, "geometry": { "type": "LineString", "coordinates": [ [ -117.037413, 32.796472 ], [ -117.037555, 32.796488 ] ] } },
{ "type": "Feature", "properties": { "cls": "separated", "highway": "primary", "name": "Mission Gorge Road" }, "geometry": { "type": "LineString", "coordinates": [ [ -117.038303, 32.831434 ], [ -117.038422, 32.831316 ], [ -117.038956, 32.830771 ], [ -117.039393, 32.830336 ], [ -117.03971, 32.829987 ], [ -117.04015, 32.829451 ], [ -117.040525, 32.828949 ], [ -117.040827, 32.82851 ], [ -117.041135, 32.828001 ], [ -117.041404, 32.827533 ], [ -117.041704, 32.826933 ], [ -117.041894, 32.826571 ], [ -117.042212, 32.825932 ], [ -117.042526, 32.825329 ], [ -117.04282, 32.824775 ], [ -117.043109, 32.824275 ], [ -117.043528, 32.823553 ], [ -117.043862, 32.822969 ], [ -117.044219, 32.822356 ], [ -117.044445, 32.821972 ], [ -117.044849, 32.821261 ], [ -117.045214, 32.820626 ], [ -117.045573, 32.820011 ], [ -117.045941, 32.819389 ], [ -117.046099, 32.819155 ], [ -117.046315, 32.818888 ] ] } },
{ "type": "Feature", "properties": { "cls": "sharrow", "highway": "primary", "name": "Mission Gorge Road" }, "geometry": { "type": "LineString", "coordinates": [ [ -117.042932, 32.824395 ], [ -117.042892, 32.824465 ], [ -117.042282, 32.825602 ], [ -117.041775, 32.826601 ], [ -117.04129, 32.827576 ], [ -117.040894, 32.828247 ], [ -117.040558, 32.828751 ], [ -117.040039, 32.829453 ], [ -117.039321, 32.830274 ], [ -117.038815, 32.830792 ], [ -117.038156, 32.831435 ] ] } },
{ "type": "Feature", "properties": { "cls": "separated", "highway": "unclassified", "name": "Father Junipero Serra Trail" }, "geometry": { "type": "LineString", "coordinates": [ [ -117.041046, 32.839694 ], [ -117.040625, 32.839866 ], [ -117.039882, 32.840178 ], [ -117.039403, 32.840323 ], [ -117.039082, 32.840387 ], [ -117.038653, 32.840446 ], [ -117.038172, 32.840458 ], [ -117.037849, 32.840434 ], [ -117.037576, 32.840408 ], [ -117.03735, 32.840366 ], [ -117.037127, 32.840313 ], [ -117.036992, 32.840271 ], [ -117.036588, 32.840134 ], [ -117.036147, 32.839971 ], [ -117.035758, 32.839819 ], [ -117.034382, 32.839264 ], [ -117.034334, 32.839245 ], [ -117.033737, 32.839014 ], [ -117.033531, 32.838936 ], [ -117.031748, 32.838254 ], [ -117.031544, 32.838165 ] ] } },
{ "type": "Feature", "properties": { "cls": "separated", "highway": "unclassified", "name": "Father Junipero Serra Trail" }, "geometry": { "type": "LineString", "coordinates": [ [ -117.031544, 32.838165 ], [ -117.031382, 32.838067 ], [ -117.031262, 32.837964 ] ] } },
{ "type": "Feature", "properties": { "cls": "painted", "highway": "primary", "name": "Mission Gorge Road" }, "geometry": { "type": "LineString", "coordinates": [ [ -117.046315, 32.818702 ], [ -117.04622, 32.818804 ] ] } },
{ "type": "Feature", "properties": { "cls": "painted", "highway": "primary", "name": "Mission Gorge Road" }, "geometry": { "type": "LineString", "coordinates": [ [ -117.046315, 32.818888 ], [ -117.046351, 32.818848 ] ] } },
{ "type": "Feature", "properties": { "cls": "sharrow", "highway": "primary", "name": "Mission Gorge Road" }, "geometry": { "type": "LineString", "coordinates": [ [ -117.04622, 32.818804 ], [ -117.046078, 32.818983 ], [ -117.045839, 32.819338 ], [ -117.045748, 32.819509 ], [ -117.045718, 32.819564 ], [ -117.044228, 32.822182 ], [ -117.043861, 32.822796 ], [ -117.043336, 32.823694 ], [ -117.042932, 32.824395 ] ] } },
{ "type": "Feature", "properties": { "cls": "separated", "highway": "unclassified", "name": "Father Junipero Serra Trail" }, "geometry": { "type": "LineString", "coordinates": [ [ -117.055714, 32.819443 ], [ -117.055685, 32.8195 ], [ -117.055677, 32.819514 ], [ -117.05567, 32.81953 ], [ -117.055472, 32.819908 ], [ -117.055341, 32.820162 ], [ -117.054936, 32.820919 ], [ -117.054856, 32.821069 ], [ -117.054637, 32.821481 ], [ -117.054546, 32.821649 ], [ -117.054448, 32.821863 ], [ -117.054187, 32.822484 ], [ -117.054145, 32.822583 ], [ -117.054008, 32.822983 ], [ -117.053939, 32.823181 ], [ -117.053862, 32.823425 ], [ -117.053768, 32.823642 ], [ -117.05357, 32.824044 ], [ -117.053504, 32.824178 ], [ -117.053472, 32.824244 ], [ -117.053407, 32.824382 ], [ -117.053267, 32.82472 ], [ -117.053226, 32.824813 ], [ -117.053169, 32.824922 ], [ -117.052949, 32.825242 ], [ -117.052882, 32.825382 ], [ -117.052839, 32.825527 ], [ -117.052803, 32.825856 ], [ -117.05279, 32.825967 ], [ -117.052787, 32.826006 ], [ -117.052768, 32.826126 ], [ -117.05274, 32.826239 ], [ -117.052707, 32.82634 ], [ -117.052669, 32.826424 ], [ -117.052609, 32.826519 ], [ -117.052529, 32.826626 ], [ -117.052457, 32.82672 ], [ -117.052413, 32.82678 ], [ -117.052339, 32.826928 ], [ -117.05231, 32.827025 ], [ -117.052295, 32.827081 ], [ -117.052294, 32.827115 ], [ -117.052294, 32.827549 ], [ -117.052282, 32.827664 ], [ -117.052261, 32.827751 ], [ -117.052207, 32.827916 ], [ -117.052079, 32.828369 ], [ -117.051979, 32.828738 ], [ -117.051951, 32.82902 ], [ -117.051973, 32.829239 ], [ -117.052003, 32.829387 ], [ -117.052011, 32.829558 ], [ -117.052001, 32.82969 ], [ -117.05192, 32.829931 ], [ -117.051756, 32.830338 ], [ -117.051674, 32.830476 ], [ -117.051449, 32.830765 ], [ -117.05132, 32.830933 ], [ -117.05116, 32.831095 ], [ -117.050976, 32.831281 ], [ -117.050897, 32.831346 ], [ -117.050789, 32.831423 ], [ -117.050677, 32.831478 ], [ -117.05057, 32.831521 ], [ -117.049574, 32.831919 ], [ -117.048871, 32.832217 ], [ -117.048578, 32.832357 ], [ -117.048235, 32.832549 ], [ -117.047673, 32.832849 ], [ -117.047181, 32.833197 ], [ -117.046668, 32.83361 ], [ -117.046579, 32.833699 ], [ -117.046434, 32.833838 ], [ -117.046301, 32.833974 ], [ -117.04614, 32.834191 ], [ -117.046092, 32.834275 ], [ -117.046005, 32.834448 ], [ -117.045959, 32.834549 ], [ -117.04589, 32.834747 ], [ -117.045848, 32.834958 ], [ -117.04583, 32.835171 ], [ -117.04585, 32.835373 ], [ -117.045914, 32.835784 ], [ -117.04594, 32.836171 ], [ -117.045935, 32.836429 ], [ -117.045904, 32.836646 ], [ -117.045863, 32.836894 ], [ -117.045829, 32.837019 ], [ -117.045759, 32.837148 ], [ -117.045581, 32.837438 ], [ -117.04549, 32.837648 ], [ -117.045444, 32.837839 ], [ -117.045407, 32.837932 ], [ -117.045338, 32.838025 ], [ -117.04518, 32.838173 ], [ -117.044743, 32.83855 ], [ -117.044657, 32.838622 ], [ -117.044427, 32.83879 ], [ -117.044176, 32.838917 ], [ -117.043949, 32.838968 ], [ -117.043755, 32.838999 ], [ -117.043642, 32.839012 ], [ -117.043367, 32.839041 ], [ -117.043154, 32.839063 ], [ -117.042922, 32.839124 ], [ -117.04274, 32.839176 ], [ -117.042006, 32.839457 ], [ -117.041733, 32.839536 ], [ -117.041457, 32.839581 ], [ -117.041416, 32.839588 ], [ -117.041277, 32.839613 ], [ -117.041269, 32.839615 ] ] } },
{ "type": "Feature", "properties": { "cls": "separated", "highway": "unclassified", "name": "Father Junipero Serra Trail" }, "geometry": { "type": "LineString", "coordinates": [ [ -117.041269, 32.839615 ], [ -117.04118, 32.83964 ], [ -117.041046, 32.839694 ] ] } },
{ "type": "Feature", "properties": { "cls": "painted", "highway": "tertiary", "name": "Stonebridge Parkway" }, "geometry": { "type": "LineString", "coordinates": [ [ -117.006369, 32.927246 ], [ -117.006343, 32.927255 ], [ -117.006108, 32.927319 ], [ -117.005553, 32.927482 ], [ -117.005213, 32.927578 ], [ -117.005087, 32.927617 ], [ -117.005, 32.927649 ], [ -117.004926, 32.927679 ], [ -117.004864, 32.927712 ], [ -117.004787, 32.927759 ], [ -117.004605, 32.927885 ], [ -117.004377, 32.928048 ], [ -117.004226, 32.928153 ], [ -117.004131, 32.928218 ], [ -117.003976, 32.928322 ], [ -117.003903, 32.928375 ], [ -117.003856, 32.928413 ], [ -117.00382, 32.928447 ], [ -117.003782, 32.928489 ], [ -117.003662, 32.928639 ], [ -117.003429, 32.928941 ], [ -117.003175, 32.929251 ] ] } }
]
}
