{
"type": "FeatureCollection",
"name": "038-vilnius-verkiai-regional-park",
"crs": { "type": "name", "properties": { "name": "urn:ogc:def:crs:OGC:1.3:CRS84" } },
"xy_coordinate_resolution": 1e-06,
"features": [
{ "type": "Feature", "properties": { "cls": "shared", "highway": "path", "name": null }, "geometry": { "type": "LineString", "coordinates": [ [ 25.306004, 54.728449 ], [ 25.305828, 54.728488 ], [ 25.305176, 54.728636 ], [ 25.304883, 54.728711 ], [ 25.304626, 54.728776 ], [ 25.303127, 54.729301 ], [ 25.302836, 54.729378 ], [ 25.302711, 54.729397 ], [ 25.302582, 54.729417 ], [ 25.301758, 54.729481 ], [ 25.301704, 54.729485 ], [ 25.30115, 54.7295 ], [ 25.300218, 54.729485 ], [ 25.300102, 54.729483 ], [ 25.299186, 54.729468 ], [ 25.29906, 54.72946 ], [ 25.298138, 54.729402 ], [ 25.295515, 54.729232 ], [ 25.294521, 54.729263 ], [ 25.294111, 54.729243 ], [ 25.293437, 54.729172 ], [ 25.293387, 54.729172 ], [ 25.293348, 54.729196 ], [ 25.293274, 54.729181 ] ] } },
{ "type": "Feature", "properties": { "cls": "shared", "highway": "path", "name": null }, "geometry": { "type": "LineString", "coordinates": [ [ 25.293274, 54.729181 ], [ 25.293203, 54.729161 ] ] } },
{ "type": "Feature", "properties": { "cls": "shared", "highway": "path", "name": null }, "geometry": { "type": "LineString", "coordinates": [ [ 25.293203, 54.729161 ], [ 25.292727, 54.729774 ], [ 25.291804, 54.731096 ], [ 25.291581, 54.731325 ], [ 25.291532, 54.731371 ] ] } },
{ "type": "Feature", "properties": { "cls": "shared", "highway": "path", "name": null }, "geometry": { "type": "LineString", "coordinates": [ [ 25.289778, 54.747244 ], [ 25.289826, 54.747294 ], [ 25.28986, 54.747343 ], [ 25.289866, 54.747351 ], [ 25.289884, 54.747384 ], [ 25.289905, 54.747505 ], [ 25.289915, 54.747603 ], [ 25.289921, 54.747762 ], [ 25.289945, 54.748117 ], [ 25.290018, 54.748339 ], [ 25.290145, 54.748552 ], [ 25.290391, 54.748852 ], [ 25.290639, 54.749131 ], [ 25.290876, 54.749392 ], [ 25.291213, 54.749748 ], [ 25.291424, 54.749916 ], [ 25.291679, 54.750062 ], [ 25.291971, 54.750175 ], [ 25.292241, 54.750261 ], [ 25.292623, 54.750363 ], [ 25.292804, 54.750394 ], [ 25.292926, 54.750416 ], [ 25.293201, 54.750428 ], [ 25.293431, 54.750401 ], [ 25.293603, 54.750335 ], [ 25.29367, 54.750277 ], [ 25.293713, 54.75024 ], [ 25.293807, 54.75014 ], [ 25.293921, 54.750056 ] ] } },
{ "type": "Feature", "properties": { "cls": "separated", "highway": "path", "name": null }, "geometry": { "type": "LineString", "coordinates": [ [ 25.287613, 54.751887 ], [ 25.28897, 54.752279 ], [ 25.28911, 54.752315 ], [ 25.289246, 54.752334 ], [ 25.289424, 54.752344 ], [ 25.289825, 54.752301 ], [ 25.29039, 54.752256 ], [ 25.291732, 54.752133 ], [ 25.292569, 54.75206 ], [ 25.294485, 54.751871 ], [ 25.294653, 54.751854 ], [ 25.294859, 54.751849 ], [ 25.294928, 54.751855 ], [ 25.295168, 54.751909 ], [ 25.295219, 54.751925 ], [ 25.295282, 54.751944 ] ] } },
{ "type": "Feature", "properties": { "cls": "shared", "highway": "path", "name": null }, "geometry": { "type": "LineString", "coordinates": [ [ 25.295282, 54.751944 ], [ 25.295737, 54.752229 ], [ 25.296017, 54.752384 ], [ 25.296337, 54.752508 ] ] } },
{ "type": "Feature", "properties": { "cls": "shared", "highway": "path", "name": null }, "geometry": { "type": "LineString", "coordinates": [ [ 25.296337, 54.752508 ], [ 25.297096, 54.752983 ] ] } },
{ "type": "Feature", "properties": { "cls": "shared", "highway": "path", "name": null }, "geometry": { "type": "LineString", "coordinates": [ [ 25.35239, 54.763906 ], [ 25.352988, 54.764243 ], [ 25.3537, 54.764729 ], [ 25.353942, 54.764901 ], [ 25.354321, 54.765172 ], [ 25.354833, 54.765512 ], [ 25.355212, 54.765789 ], [ 25.355394, 54.765902 ], [ 25.355448, 54.765935 ], [ 25.355688, 54.76606 ], [ 25.356101, 54.766242 ], [ 25.356393, 54.766353 ], [ 25.356661, 54.766427 ], [ 25.356994, 54.766499 ], [ 25.357715, 54.766637 ] ] } },
{ "type": "Feature", "properties": { "cls": "separated", "highway": "residential", "name": null }, "geometry": { "type": "LineString", "coordinates": [ [ 25.335863, 54.781342 ], [ 25.335841, 54.781243 ], [ 25.335839, 54.781145 ], [ 25.33587, 54.781011 ], [ 25.335911, 54.780914 ], [ 25.335976, 54.780808 ], [ 25.336209, 54.780516 ], [ 25.336497, 54.780156 ], [ 25.336798, 54.779781 ], [ 25.337101, 54.779405 ], [ 25.337227, 54.77921 ], [ 25.33732, 54.779029 ], [ 25.337378, 54.778794 ], [ 25.33742, 54.778466 ], [ 25.337468, 54.777531 ], [ 25.337477, 54.777495 ], [ 25.337491, 54.777435 ], [ 25.337545, 54.777359 ], [ 25.337585, 54.77731 ], [ 25.337617, 54.777288 ] ] } },
{ "type": "Feature", "properties": { "cls": "shared", "highway": "path", "name": null }, "geometry": { "type": "LineString", "coordinates": [ [ 25.297096, 54.752983 ], [ 25.297371, 54.753133 ], [ 25.297781, 54.75331 ], [ 25.298311, 54.753511 ], [ 25.29873, 54.753656 ], [ 25.299306, 54.753879 ], [ 25.299776, 54.754081 ], [ 25.300122, 54.75426 ], [ 25.300339, 54.754412 ], [ 25.300771, 54.754768 ], [ 25.302035, 54.755962 ] ] } },
{ "type": "Feature", "properties": { "cls": "shared", "highway": "path", "name": null }, "geometry": { "type": "LineString", "coordinates": [ [ 25.302035, 54.755962 ], [ 25.30402, 54.757787 ], [ 25.304352, 54.758112 ], [ 25.304546, 54.758442 ], [ 25.305431, 54.759519 ], [ 25.305571, 54.75996 ], [ 25.305652, 54.760554 ], [ 25.305765, 54.760737 ], [ 25.305943, 54.760929 ], [ 25.306086, 54.761107 ], [ 25.307101, 54.76185 ], [ 25.307368, 54.762037 ], [ 25.307498, 54.762098 ], [ 25.307681, 54.762162 ], [ 25.307991, 54.762256 ], [ 25.308504, 54.762348 ], [ 25.309094, 54.762424 ], [ 25.309238, 54.762449 ], [ 25.309407, 54.762511 ] ] } },
{ "type": "Feature", "properties": { "cls": "separated", "highway": "path", "name": null }, "geometry": { "type": "LineString", "coordinates": [ [ 25.282538, 54.765843 ], [ 25.28259, 54.765717 ] ] } },
{ "type": "Feature", "properties": { "cls": "shared", "highway": "path", "name": null }, "geometry": { "type": "LineString", "coordinates": [ [ 25.309407, 54.762511 ], [ 25.309598, 54.76276 ], [ 25.309678, 54.763011 ], [ 25.309671, 54.763585 ], [ 25.309668, 54.76381 ], [ 25.309629, 54.76401 ], [ 25.309171, 54.765392 ], [ 25.309171, 54.76558 ], [ 25.30922, 54.766098 ], [ 25.309306, 54.766265 ], [ 25.310083, 54.767133 ], [ 25.31033, 54.767362 ], [ 25.3107, 54.767647 ], [ 25.311325, 54.768057 ], [ 25.311996, 54.768506 ], [ 25.31269, 54.768998 ], [ 25.313063, 54.769289 ], [ 25.314171, 54.770118 ], [ 25.314537, 54.770516 ], [ 25.314856, 54.770869 ], [ 25.315501, 54.771429 ], [ 25.315956, 54.771823 ], [ 25.316712, 54.77257 ], [ 25.317631, 54.773205 ], [ 25.318583, 54.773747 ], [ 25.31953, 54.774377 ], [ 25.319844, 54.774739 ], [ 25.32041, 54.775752 ], [ 25.320517, 54.775943 ], [ 25.320718, 54.776156 ], [ 25.321873, 54.777211 ], [ 25.322059, 54.777532 ] ] } },
{ "type": "Feature", "properties": { "cls": "shared", "highway": "path", "name": null }, "geometry": { "type": "MultiLineString", "coordinates": [ [ [ 25.322201, 54.778206 ], [ 25.322558, 54.778839 ], [ 25.32266, 54.778987 ], [ 25.322749, 54.779158 ], [ 25.323234, 54.779824 ], [ 25.323323, 54.779985 ], [ 25.32325, 54.780364 ], [ 25.323046, 54.780576 ], [ 25.322856, 54.78064 ], [ 25.322438, 54.780677 ], [ 25.322346, 54.780723 ], [ 25.322121, 54.781018 ], [ 25.322073, 54.781085 ] ], [ [ 25.321941, 54.781342 ], [ 25.321944, 54.781365 ], [ 25.322025, 54.781673 ], [ 25.322011, 54.781742 ], [ 25.321912, 54.781809 ], [ 25.321359, 54.782041 ] ] ] } },
{ "type": "Feature", "properties": { "cls": "separated", "highway": "residential", "name": null }, "geometry": { "type": "LineString", "coordinates": [ [ 25.335589, 54.783087 ], [ 25.335612, 54.782881 ], [ 25.335782, 54.782476 ], [ 25.33596, 54.782008 ], [ 25.336001, 54.781858 ], [ 25.336009, 54.781736 ], [ 25.335929, 54.781529 ], [ 25.335863, 54.781342 ] ] } },
{ "type": "Feature", "properties": { "cls": "shared", "highway": "path", "name": null }, "geometry": { "type": "LineString", "coordinates": [ [ 25.321359, 54.782041 ], [ 25.321319, 54.782092 ], [ 25.321322, 54.782158 ], [ 25.321359, 54.782254 ], [ 25.321483, 54.782431 ] ] } },
{ "type": "Feature", "properties": { "cls": "shared", "highway": "path", "name": null }, "geometry": { "type": "LineString", "coordinates": [ [ 25.329852, 54.784684 ], [ 25.329954, 54.78469 ], [ 25.330249, 54.784706 ], [ 25.331423, 54.784346 ], [ 25.331509, 54.78429 ], [ 25.33182, 54.783874 ], [ 25.33197, 54.783687 ], [ 25.332241, 54.783518 ], [ 25.332627, 54.783346 ], [ 25.333185, 54.783126 ], [ 25.333332, 54.783124 ], [ 25.333458, 54.783152 ], [ 25.333571, 54.783213 ], [ 25.333727, 54.783423 ], [ 25.333869, 54.783538 ] ] } },
{ "type": "Feature", "properties": { "cls": "separated", "highway": "cycleway", "name": null }, "geometry": { "type": "LineString", "coordinates": [ [ 25.2793, 54.746176 ], [ 25.279408, 54.74632 ], [ 25.279509, 54.746454 ], [ 25.279526, 54.7465 ], [ 25.279528, 54.746549 ], [ 25.279499, 54.746659 ], [ 25.279482, 54.746731 ], [ 25.279453, 54.746855 ], [ 25.27944, 54.746974 ], [ 25.279442, 54.747139 ], [ 25.279456, 54.747317 ], [ 25.279517, 54.747679 ], [ 25.279545, 54.747832 ], [ 25.279587, 54.748166 ], [ 25.279598, 54.748235 ] ] } },
{ "type": "Feature", "properties": { "cls": "separated", "highway": "residential", "name": "Santaros g." }, "geometry": { "type": "LineString", "coordinates": [ [ 25.278954, 54.757471 ], [ 25.277915, 54.75752 ] ] } },
{ "type": "Feature", "properties": { "cls": "separated", "highway": "residential", "name": "Santaros g." }, "geometry": { "type": "LineString", "coordinates": [ [ 25.277915, 54.75752 ], [ 25.277628, 54.757534 ], [ 25.276584, 54.757587 ], [ 25.275569, 54.75764 ] ] } },
{ "type": "Feature", "properties": { "cls": "separated", "highway": "residential", "name": "Santaros g." }, "geometry": { "type": "LineString", "coordinates": [ [ 25.275569, 54.75764 ], [ 25.275008, 54.757674 ], [ 25.274857, 54.757689 ], [ 25.2745, 54.757726 ], [ 25.273405, 54.757866 ] ] } },
{ "type": "Feature", "properties": { "cls": "separated", "highway": "residential", "name": "Santaros g." }, "geometry": { "type": "LineString", "coordinates": [ [ 25.273405, 54.757866 ], [ 25.272394, 54.757995 ] ] } }
]
}
