{
"type": "FeatureCollection",
"name": "041-raleigh-william-b-umstead-state-park",
"crs": { "type": "name", "properties": { "name": "urn:ogc:def:crs:OGC:1.3:CRS84" } },
"xy_coordinate_resolution": 1e-06,
"features": [
{ "type": "Feature", "properties": { "cls": "shared", "highway": "cycleway", "name": "Reedy Creek Lake Trail" }, "geometry": { "type": "LineString", "coordinates": [ [ -78.7453, 35.839875 ], [ -78.745451, 35.840127 ] ] } },
{ "type": "Feature", "properties": { "cls": "shared", "highway": "path", "name": "286 Outer Trail" }, "geometry": { "type": "MultiLineString", "coordinates": [ [ [ -78.781759, 35.852407 ], [ -78.781665, 35.852403 ] ], [ [ -78.781665, 35.852403 ], [ -78.781576, 35.852399 ] ] ] } },
{ "type": "Feature", "properties": { "cls": "separated", "highway": "cycleway", "name": "Graylyn Trail" }, "geometry": { "type": "LineString", "coordinates": [ [ -78.747213, 35.849659 ], [ -78.747218, 35.8498 ], [ -78.747253, 35.850027 ], [ -78.747323, 35.850405 ], [ -78.747406, 35.850757 ], [ -78.74747, 35.851011 ], [ -78.747559, 35.851427 ], [ -78.747604, 35.851746 ], [ -78.747594, 35.852107 ], [ -78.747567, 35.852466 ], [ -78.747495, 35.852931 ], [ -78.747433, 35.853214 ], [ -78.747344, 35.853457 ], [ -78.747234, 35.853618 ], [ -78.747095, 35.853764 ], [ -78.74706, 35.853791 ] ] } },
{ "type": "Feature", "properties": { "cls": "separated", "highway": "cycleway", "name": null }, "geometry": { "type": "LineString", "coordinates": [ [ -78.757872, 35.852385 ], [ -78.757874, 35.852418 ], [ -78.757887, 35.852606 ] ] } },
{ "type": "Feature", "properties": { "cls": "separated", "highway": "cycleway", "name": "Graylyn Trail" }, "geometry": { "type": "LineString", "coordinates": [ [ -78.74706, 35.853791 ], [ -78.746928, 35.8539 ] ] } },
{ "type": "Feature", "properties": { "cls": "separated", "highway": "cycleway", "name": null }, "geometry": { "type": "LineString", "coordinates": [ [ -78.76949, 35.861155 ], [ -78.7696, 35.860975 ] ] } },
{ "type": "Feature", "properties": { "cls": "separated", "highway": "cycleway", "name": "Graylyn Trail" }, "geometry": { "type": "LineString", "coordinates": [ [ -78.746928, 35.8539 ], [ -78.746905, 35.853917 ], [ -78.74676, 35.854057 ], [ -78.746682, 35.854124 ], [ -78.746489, 35.854318 ], [ -78.74636, 35.854511 ], [ -78.746285, 35.854698 ], [ -78.746245, 35.854903 ], [ -78.746253, 35.855014 ], [ -78.746312, 35.855131 ], [ -78.746497, 35.855325 ], [ -78.746714, 35.855464 ], [ -78.747269, 35.855761 ], [ -78.747833, 35.856057 ], [ -78.748315, 35.856346 ], [ -78.748608, 35.856546 ], [ -78.748812, 35.856722 ], [ -78.749085, 35.857066 ], [ -78.749426, 35.857461 ], [ -78.749871, 35.858027 ], [ -78.750016, 35.858216 ], [ -78.750118, 35.858348 ], [ -78.750198, 35.858592 ], [ -78.750247, 35.858916 ], [ -78.750212, 35.859231 ], [ -78.750099, 35.859763 ], [ -78.750005, 35.860214 ], [ -78.749893, 35.860709 ], [ -78.749742, 35.861126 ], [ -78.749646, 35.861429 ], [ -78.749466, 35.861753 ], [ -78.749302, 35.861987 ], [ -78.749082, 35.862229 ], [ -78.748739, 35.862596 ], [ -78.748506, 35.862909 ], [ -78.748342, 35.863161 ], [ -78.748171, 35.863678 ], [ -78.748009, 35.864137 ], [ -78.747932, 35.864361 ], [ -78.747849, 35.864772 ], [ -78.747771, 35.865135 ], [ -78.747647, 35.865829 ], [ -78.74757, 35.866137 ], [ -78.747457, 35.866652 ], [ -78.747361, 35.866916 ], [ -78.747202, 35.867254 ], [ -78.747127, 35.86748 ], [ -78.747124, 35.867728 ], [ -78.747114, 35.868093 ], [ -78.747073, 35.868547 ], [ -78.747039, 35.869021 ], [ -78.746939, 35.869545 ], [ -78.746789, 35.870088 ], [ -78.746608, 35.870548 ], [ -78.746567, 35.870675 ], [ -78.746486, 35.870929 ], [ -78.746473, 35.87097 ] ] } },
{ "type": "Feature", "properties": { "cls": "separated", "highway": "cycleway", "name": "South Turkey Creek Trail" }, "geometry": { "type": "LineString", "coordinates": [ [ -78.724652, 35.844587 ], [ -78.724703, 35.844546 ], [ -78.724815, 35.844467 ], [ -78.724896, 35.844331 ], [ -78.724904, 35.84415 ], [ -78.724893, 35.843937 ], [ -78.724842, 35.843665 ], [ -78.724783, 35.843457 ], [ -78.724746, 35.843274 ], [ -78.724842, 35.84315 ], [ -78.724976, 35.843078 ], [ -78.725124, 35.842993 ], [ -78.725245, 35.842876 ], [ -78.725306, 35.842737 ], [ -78.725357, 35.842552 ], [ -78.725379, 35.842322 ], [ -78.725349, 35.842204 ], [ -78.725269, 35.842104 ], [ -78.72518, 35.842041 ], [ -78.725041, 35.841998 ], [ -78.724875, 35.841937 ], [ -78.724757, 35.841869 ], [ -78.724695, 35.84178 ], [ -78.724708, 35.841719 ], [ -78.724858, 35.841622 ], [ -78.725043, 35.841513 ], [ -78.725073, 35.841415 ], [ -78.724976, 35.84128 ], [ -78.724716, 35.841039 ], [ -78.724319, 35.840706 ], [ -78.724102, 35.840441 ], [ -78.723895, 35.840278 ], [ -78.723906, 35.840141 ], [ -78.723855, 35.839962 ], [ -78.72376, 35.839776 ], [ -78.7236, 35.839595 ], [ -78.723627, 35.839341 ], [ -78.72371, 35.83896 ], [ -78.723747, 35.838789 ], [ -78.723833, 35.838643 ], [ -78.723839, 35.83856 ], [ -78.723563, 35.83836 ], [ -78.723375, 35.838121 ], [ -78.723177, 35.837886 ], [ -78.723027, 35.837664 ], [ -78.723021, 35.837477 ], [ -78.723075, 35.837312 ], [ -78.723236, 35.837147 ], [ -78.723405, 35.836963 ], [ -78.723413, 35.836877 ], [ -78.723456, 35.836738 ], [ -78.723509, 35.836625 ], [ -78.723649, 35.836581 ], [ -78.723965, 35.836577 ], [ -78.724282, 35.83659 ], [ -78.724647, 35.836559 ], [ -78.72499, 35.836599 ], [ -78.725237, 35.836612 ], [ -78.725441, 35.836507 ], [ -78.725729, 35.836311 ], [ -78.725982, 35.836216 ], [ -78.726191, 35.836212 ], [ -78.726438, 35.836225 ], [ -78.726589, 35.836225 ], [ -78.726728, 35.836199 ], [ -78.726862, 35.83609 ], [ -78.726883, 35.836013 ], [ -78.726909, 35.835845 ], [ -78.726905, 35.835515 ], [ -78.726991, 35.83532 ], [ -78.727153, 35.835059 ], [ -78.727254, 35.834855 ], [ -78.727342, 35.834621 ], [ -78.727621, 35.834143 ], [ -78.727818, 35.833745 ], [ -78.728033, 35.833372 ], [ -78.728143, 35.833185 ], [ -78.728305, 35.83298 ], [ -78.728541, 35.832847 ], [ -78.72878, 35.832636 ], [ -78.728919, 35.832453 ], [ -78.729155, 35.832291 ], [ -78.729462, 35.832124 ], [ -78.729805, 35.831959 ], [ -78.730091, 35.831853 ], [ -78.730497, 35.831723 ], [ -78.730755, 35.831637 ], [ -78.730973, 35.831571 ], [ -78.731152, 35.831461 ], [ -78.731423, 35.831246 ], [ -78.73164, 35.831093 ], [ -78.731815, 35.830905 ], [ -78.731931, 35.830744 ], [ -78.732112, 35.830584 ], [ -78.732339, 35.830419 ], [ -78.732548, 35.830285 ], [ -78.732784, 35.830174 ], [ -78.732937, 35.830136 ], [ -78.733196, 35.830081 ], [ -78.733507, 35.83003 ], [ -78.733794, 35.829984 ], [ -78.734105, 35.829935 ], [ -78.734223, 35.829933 ], [ -78.734364, 35.829938 ], [ -78.734493, 35.82994 ], [ -78.734646, 35.829917 ], [ -78.734864, 35.829933 ], [ -78.735169, 35.830003 ], [ -78.73543, 35.830071 ], [ -78.7357, 35.830149 ], [ -78.735767, 35.830164 ] ] } },
{ "type": "Feature", "properties": { "cls": "separated", "highway": "cycleway", "name": null }, "geometry": { "type": "LineString", "coordinates": [ [ -78.7236, 35.839595 ], [ -78.723454, 35.839821 ], [ -78.723334, 35.83988 ] ] } },
{ "type": "Feature", "properties": { "cls": "separated", "highway": "cycleway", "name": null }, "geometry": { "type": "LineString", "coordinates": [ [ -78.735216, 35.829791 ], [ -78.735206, 35.829877 ], [ -78.735169, 35.830003 ] ] } },
{ "type": "Feature", "properties": { "cls": "separated", "highway": "cycleway", "name": null }, "geometry": { "type": "LineString", "coordinates": [ [ -78.734221, 35.829859 ], [ -78.734223, 35.829933 ] ] } },
{ "type": "Feature", "properties": { "cls": "shared", "highway": "cycleway", "name": "Reedy Creek Lake Trail" }, "geometry": { "type": "LineString", "coordinates": [ [ -78.743992, 35.839496 ], [ -78.744158, 35.839451 ], [ -78.744325, 35.839351 ], [ -78.744442, 35.839314 ], [ -78.744555, 35.839314 ], [ -78.744716, 35.839392 ], [ -78.745215, 35.839784 ], [ -78.7453, 35.839875 ] ] } },
{ "type": "Feature", "properties": { "cls": "separated", "highway": "cycleway", "name": "Cedar Ridge Trail" }, "geometry": { "type": "LineString", "coordinates": [ [ -78.745138, 35.848942 ], [ -78.745078, 35.849075 ], [ -78.744993, 35.849243 ], [ -78.744842, 35.84945 ], [ -78.744633, 35.849644 ], [ -78.744437, 35.84985 ], [ -78.744182, 35.850118 ], [ -78.74403, 35.850242 ], [ -78.743879, 35.850296 ], [ -78.74359, 35.850342 ], [ -78.74301, 35.850402 ], [ -78.74275, 35.850433 ], [ -78.742477, 35.850435 ], [ -78.742243, 35.850444 ], [ -78.742072, 35.850479 ], [ -78.741854, 35.850533 ], [ -78.741629, 35.850637 ], [ -78.741262, 35.850807 ], [ -78.740883, 35.850974 ], [ -78.740239, 35.851283 ], [ -78.740091, 35.851407 ], [ -78.740011, 35.851591 ], [ -78.739954, 35.851828 ], [ -78.739812, 35.852029 ], [ -78.739582, 35.852129 ], [ -78.739279, 35.852242 ], [ -78.738721, 35.852364 ], [ -78.738427, 35.852405 ], [ -78.738166, 35.852398 ], [ -78.737911, 35.852279 ], [ -78.737627, 35.852083 ], [ -78.737171, 35.851768 ], [ -78.736809, 35.851539 ], [ -78.736364, 35.8513 ], [ -78.735862, 35.851055 ], [ -78.735382, 35.850898 ], [ -78.734948, 35.85072 ], [ -78.734594, 35.850561 ], [ -78.734269, 35.850448 ], [ -78.734133, 35.850416 ], [ -78.734001, 35.850362 ], [ -78.733921, 35.850348 ], [ -78.733842, 35.850349 ], [ -78.733739, 35.85039 ], [ -78.733527, 35.850505 ], [ -78.733415, 35.850573 ], [ -78.733354, 35.850617 ], [ -78.73331, 35.850642 ], [ -78.733242, 35.850694 ], [ -78.733163, 35.850741 ], [ -78.733053, 35.850765 ], [ -78.732935, 35.850751 ], [ -78.732871, 35.850699 ], [ -78.732838, 35.850646 ], [ -78.732814, 35.850574 ], [ -78.732803, 35.850504 ], [ -78.732811, 35.850224 ], [ -78.732793, 35.850027 ], [ -78.732714, 35.849774 ], [ -78.73264, 35.849672 ], [ -78.732579, 35.849637 ], [ -78.732518, 35.849576 ], [ -78.732472, 35.849451 ], [ -78.732384, 35.849258 ], [ -78.732344, 35.849077 ], [ -78.732339, 35.848956 ], [ -78.732357, 35.848814 ], [ -78.732339, 35.848737 ], [ -78.732289, 35.848679 ], [ -78.732212, 35.848624 ], [ -78.732107, 35.848598 ], [ -78.731971, 35.848606 ], [ -78.73183, 35.848628 ], [ -78.731545, 35.848677 ], [ -78.731232, 35.848704 ], [ -78.731008, 35.848723 ], [ -78.7308, 35.848713 ], [ -78.730665, 35.848612 ], [ -78.730612, 35.848558 ], [ -78.73059, 35.848491 ], [ -78.730608, 35.84839 ], [ -78.730653, 35.848295 ], [ -78.730739, 35.848206 ], [ -78.73077, 35.848086 ], [ -78.730709, 35.847801 ], [ -78.730604, 35.847598 ], [ -78.730446, 35.847437 ], [ -78.730272, 35.847328 ], [ -78.730058, 35.847213 ], [ -78.729763, 35.847179 ], [ -78.729413, 35.847224 ], [ -78.729338, 35.847222 ], [ -78.729262, 35.847195 ], [ -78.729114, 35.847066 ], [ -78.729007, 35.846973 ], [ -78.728869, 35.846911 ], [ -78.728727, 35.846907 ], [ -78.728581, 35.846978 ], [ -78.72844, 35.847089 ], [ -78.728215, 35.847114 ], [ -78.728067, 35.847109 ], [ -78.727937, 35.847088 ], [ -78.72774, 35.847013 ], [ -78.727586, 35.847002 ], [ -78.727463, 35.847028 ], [ -78.727219, 35.8471 ], [ -78.726993, 35.847087 ], [ -78.726789, 35.847065 ], [ -78.726576, 35.847031 ], [ -78.726407, 35.846959 ], [ -78.726239, 35.846891 ], [ -78.726101, 35.846771 ], [ -78.725982, 35.84664 ], [ -78.725873, 35.846513 ] ] } },
{ "type": "Feature", "properties": { "cls": "separated", "highway": "cycleway", "name": "Cedar Ridge Trail" }, "geometry": { "type": "LineString", "coordinates": [ [ -78.72573, 35.846413 ], [ -78.725657, 35.846364 ], [ -78.72552, 35.846303 ], [ -78.725356, 35.846273 ], [ -78.725168, 35.84626 ], [ -78.725005, 35.846282 ], [ -78.724836, 35.846308 ], [ -78.724651, 35.846306 ], [ -78.724593, 35.846311 ] ] } },
{ "type": "Feature", "properties": { "cls": "separated", "highway": "cycleway", "name": "Cedar Ridge Trail" }, "geometry": { "type": "LineString", "coordinates": [ [ -78.72573, 35.846413 ], [ -78.725806, 35.846466 ], [ -78.725873, 35.846513 ] ] } },
{ "type": "Feature", "properties": { "cls": "separated", "highway": "cycleway", "name": "North Turkey Creek Trail" }, "geometry": { "type": "LineString", "coordinates": [ [ -78.740979, 35.862323 ], [ -78.740861, 35.862068 ], [ -78.740832, 35.861994 ], [ -78.740746, 35.861859 ], [ -78.740682, 35.861803 ], [ -78.740569, 35.86179 ], [ -78.74044, 35.861876 ], [ -78.74036, 35.862063 ], [ -78.740338, 35.862207 ], [ -78.740033, 35.862485 ], [ -78.740038, 35.862703 ], [ -78.740086, 35.862959 ], [ -78.739979, 35.863276 ], [ -78.739791, 35.863515 ], [ -78.739577, 35.863711 ], [ -78.73941, 35.863898 ], [ -78.739169, 35.86395 ], [ -78.738973, 35.86397 ], [ -78.73882, 35.863985 ], [ -78.738461, 35.863963 ], [ -78.738112, 35.86382 ], [ -78.73794, 35.863798 ], [ -78.737624, 35.863863 ], [ -78.737184, 35.863902 ], [ -78.73705, 35.863998 ], [ -78.736449, 35.864063 ], [ -78.736283, 35.863885 ], [ -78.736159, 35.863781 ], [ -78.735913, 35.863733 ], [ -78.735709, 35.86385 ], [ -78.735532, 35.863981 ], [ -78.73543, 35.863994 ], [ -78.735333, 35.863863 ], [ -78.735258, 35.863728 ], [ -78.735312, 35.863507 ], [ -78.735291, 35.863281 ], [ -78.735205, 35.863159 ], [ -78.735071, 35.863042 ], [ -78.734931, 35.862972 ], [ -78.734813, 35.862824 ], [ -78.734684, 35.862785 ], [ -78.734556, 35.862755 ], [ -78.734373, 35.862689 ], [ -78.734287, 35.862663 ], [ -78.734153, 35.862694 ], [ -78.733783, 35.862615 ], [ -78.733488, 35.862672 ], [ -78.733257, 35.862672 ], [ -78.733129, 35.862546 ], [ -78.733043, 35.862385 ], [ -78.732995, 35.862202 ], [ -78.733005, 35.862098 ], [ -78.732844, 35.862024 ], [ -78.732619, 35.861981 ], [ -78.732399, 35.862024 ], [ -78.732125, 35.86209 ], [ -78.731949, 35.86205 ], [ -78.731863, 35.861972 ], [ -78.731857, 35.861842 ], [ -78.731793, 35.861676 ], [ -78.731637, 35.861477 ], [ -78.731396, 35.861372 ], [ -78.731246, 35.861207 ], [ -78.731128, 35.861003 ], [ -78.731074, 35.86075 ], [ -78.730988, 35.860624 ], [ -78.731026, 35.860494 ], [ -78.731203, 35.860303 ], [ -78.731305, 35.860185 ], [ -78.731305, 35.860098 ], [ -78.731149, 35.860029 ], [ -78.730822, 35.859846 ], [ -78.730591, 35.859646 ], [ -78.730473, 35.859455 ], [ -78.730414, 35.859298 ], [ -78.73042, 35.85919 ], [ -78.730484, 35.859124 ], [ -78.730677, 35.859064 ], [ -78.730886, 35.859029 ], [ -78.730994, 35.858985 ], [ -78.730961, 35.858885 ], [ -78.730886, 35.858785 ], [ -78.730666, 35.858672 ], [ -78.730498, 35.858606 ], [ -78.730345, 35.858416 ], [ -78.730307, 35.858272 ], [ -78.730285, 35.85809 ], [ -78.730377, 35.857925 ], [ -78.730441, 35.857698 ], [ -78.730473, 35.857503 ], [ -78.7305, 35.857381 ], [ -78.73064, 35.857224 ], [ -78.730747, 35.856964 ], [ -78.730817, 35.856716 ], [ -78.730859, 35.85639 ], [ -78.730929, 35.856137 ], [ -78.730854, 35.855824 ], [ -78.730731, 35.855703 ], [ -78.730457, 35.855655 ], [ -78.730103, 35.855603 ], [ -78.729679, 35.855603 ], [ -78.729534, 35.855568 ], [ -78.729438, 35.855468 ], [ -78.729347, 35.855251 ], [ -78.729239, 35.855068 ], [ -78.729078, 35.854942 ], [ -78.728875, 35.85489 ], [ -78.728574, 35.855007 ], [ -78.72837, 35.854894 ], [ -78.728183, 35.854803 ], [ -78.727866, 35.854772 ], [ -78.727383, 35.85472 ], [ -78.727088, 35.854716 ], [ -78.726718, 35.854664 ], [ -78.726466, 35.854564 ], [ -78.726268, 35.854381 ], [ -78.726074, 35.854185 ], [ -78.725924, 35.853916 ], [ -78.725817, 35.853633 ], [ -78.725758, 35.853485 ], [ -78.725726, 35.853385 ], [ -78.725688, 35.853268 ], [ -78.725613, 35.853168 ], [ -78.725565, 35.853055 ], [ -78.725554, 35.852842 ], [ -78.725565, 35.852637 ], [ -78.725506, 35.852394 ], [ -78.725629, 35.851881 ], [ -78.725645, 35.851711 ], [ -78.725608, 35.851455 ], [ -78.72556, 35.851255 ], [ -78.725302, 35.85112 ], [ -78.725146, 35.850994 ], [ -78.724996, 35.850798 ], [ -78.724878, 35.85049 ], [ -78.724771, 35.850172 ], [ -78.72491, 35.849898 ], [ -78.724967, 35.849698 ], [ -78.724986, 35.849513 ], [ -78.724988, 35.849246 ], [ -78.724988, 35.849085 ], [ -78.724902, 35.848852 ], [ -78.724827, 35.848687 ], [ -78.724747, 35.848661 ], [ -78.724594, 35.848681 ], [ -78.724496, 35.848673 ] ] } },
{ "type": "Feature", "properties": { "cls": "separated", "highway": "cycleway", "name": null }, "geometry": { "type": "LineString", "coordinates": [ [ -78.729873, 35.859037 ], [ -78.72999, 35.858991 ], [ -78.730249, 35.858826 ], [ -78.730498, 35.858606 ] ] } },
{ "type": "Feature", "properties": { "cls": "separated", "highway": "cycleway", "name": "North Turkey Creek Trail" }, "geometry": { "type": "LineString", "coordinates": [ [ -78.741041, 35.862478 ], [ -78.740979, 35.862323 ] ] } },
{ "type": "Feature", "properties": { "cls": "separated", "highway": "cycleway", "name": "North Turkey Creek Trail" }, "geometry": { "type": "LineString", "coordinates": [ [ -78.748009, 35.864137 ], [ -78.747768, 35.864072 ], [ -78.747162, 35.863989 ], [ -78.746218, 35.864011 ], [ -78.745681, 35.863998 ], [ -78.745338, 35.864016 ], [ -78.744855, 35.864041 ], [ -78.744389, 35.864041 ], [ -78.744212, 35.864068 ], [ -78.743986, 35.863981 ], [ -78.743643, 35.863941 ], [ -78.743391, 35.863868 ], [ -78.743128, 35.86375 ], [ -78.742854, 35.863563 ], [ -78.74257, 35.863289 ], [ -78.742254, 35.86302 ], [ -78.742066, 35.862872 ], [ -78.741814, 35.862572 ], [ -78.741615, 35.862433 ], [ -78.741486, 35.862407 ], [ -78.74134, 35.862454 ], [ -78.741118, 35.862569 ], [ -78.74103, 35.862559 ], [ -78.741041, 35.862478 ] ] } }
]
}
