{
"type": "FeatureCollection",
"name": "042-moscow-bitsa-park",
"crs": { "type": "name", "properties": { "name": "urn:ogc:def:crs:OGC:1.3:CRS84" } },
"xy_coordinate_resolution": 1e-06,
"features": [
{ "type": "Feature", "properties": { "cls": "separated", "highway": "cycleway", "name": null }, "geometry": { "type": "MultiLineString", "coordinates": [ [ [ 37.578351, 55.585033 ], [ 37.578378, 55.584796 ], [ 37.578369, 55.584703 ], [ 37.578319, 55.584556 ], [ 37.578319, 55.58455 ] ], [ [ 37.578216, 55.584299 ], [ 37.578204, 55.584278 ], [ 37.578188, 55.584231 ] ] ] } },
{ "type": "Feature", "properties": { "cls": "separated", "highway": "cycleway", "name": null }, "geometry": { "type": "LineString", "coordinates": [ [ 37.578104, 55.585436 ], [ 37.578185, 55.585356 ], [ 37.578257, 55.58527 ], [ 37.578351, 55.585033 ] ] } },
{ "type": "Feature", "properties": { "cls": "shared", "highway": "path", "name": null }, "geometry": { "type": "LineString", "coordinates": [ [ 37.574999, 55.591796 ], [ 37.575494, 55.591746 ], [ 37.576354, 55.591685 ], [ 37.577062, 55.591624 ] ] } },
{ "type": "Feature", "properties": { "cls": "shared", "highway": "path", "name": null }, "geometry": { "type": "LineString", "coordinates": [ [ 37.575171, 55.591966 ], [ 37.575086, 55.591867 ], [ 37.574999, 55.591796 ] ] } },
{ "type": "Feature", "properties": { "cls": "separated", "highway": "cycleway", "name": null }, "geometry": { "type": "MultiLineString", "coordinates": [ [ [ 37.550648, 55.583776 ], [ 37.550934, 55.583821 ], [ 37.551164, 55.58385 ], [ 37.551356, 55.583872 ], [ 37.551538, 55.583892 ], [ 37.551992, 55.584005 ], [ 37.552122, 55.584019 ], [ 37.552391, 55.584016 ], [ 37.55253, 55.584015 ], [ 37.55266, 55.584026 ], [ 37.552781, 55.584044 ], [ 37.553003, 55.5841 ], [ 37.553266, 55.584167 ], [ 37.553438, 55.584202 ], [ 37.553604, 55.584258 ], [ 37.553888, 55.58438 ], [ 37.554245, 55.584496 ], [ 37.554363, 55.584513 ], [ 37.554503, 55.584562 ], [ 37.554668, 55.584609 ], [ 37.554841, 55.584654 ], [ 37.554936, 55.584686 ], [ 37.554983, 55.584689 ], [ 37.555047, 55.58469 ] ], [ [ 37.555088, 55.584745 ], [ 37.555054, 55.584752 ] ] ] } },
{ "type": "Feature", "properties": { "cls": "separated", "highway": "cycleway", "name": null }, "geometry": { "type": "LineString", "coordinates": [ [ 37.555054, 55.584752 ], [ 37.554976, 55.584751 ], [ 37.554864, 55.58474 ], [ 37.554723, 55.584698 ], [ 37.554598, 55.584657 ], [ 37.554408, 55.584588 ], [ 37.554263, 55.584552 ], [ 37.554187, 55.584545 ], [ 37.554025, 55.584545 ], [ 37.55386, 55.584551 ], [ 37.553623, 55.584563 ], [ 37.553386, 55.584579 ], [ 37.553224, 55.584589 ], [ 37.553112, 55.584581 ], [ 37.55293, 55.584568 ], [ 37.552709, 55.584579 ], [ 37.552528, 55.584635 ], [ 37.55235, 55.584696 ], [ 37.552318, 55.584745 ], [ 37.55227, 55.584818 ], [ 37.55223, 55.584864 ], [ 37.552136, 55.584939 ], [ 37.552018, 55.585016 ], [ 37.551919, 55.585084 ], [ 37.551858, 55.585152 ], [ 37.551803, 55.585205 ], [ 37.551702, 55.585261 ], [ 37.551479, 55.585259 ], [ 37.55127, 55.585243 ], [ 37.551111, 55.585284 ], [ 37.550988, 55.585317 ], [ 37.55083, 55.58537 ], [ 37.550698, 55.58541 ], [ 37.550575, 55.585463 ], [ 37.55043, 55.58551 ], [ 37.550334, 55.585536 ] ] } },
{ "type": "Feature", "properties": { "cls": "shared", "highway": "path", "name": null }, "geometry": { "type": "LineString", "coordinates": [ [ 37.575171, 55.591966 ], [ 37.57468, 55.592037 ], [ 37.574303, 55.59214 ], [ 37.574009, 55.592309 ], [ 37.573543, 55.592428 ], [ 37.573305, 55.592449 ], [ 37.572898, 55.592413 ], [ 37.572609, 55.592297 ], [ 37.572427, 55.59217 ], [ 37.572277, 55.592041 ] ] } },
{ "type": "Feature", "properties": { "cls": "shared", "highway": "path", "name": null }, "geometry": { "type": "LineString", "coordinates": [ [ 37.568389, 55.592477 ], [ 37.569148, 55.592394 ], [ 37.56992, 55.592312 ], [ 37.572277, 55.592041 ] ] } },
{ "type": "Feature", "properties": { "cls": "painted", "highway": "service", "name": "Ясеневская аллея" }, "geometry": { "type": "LineString", "coordinates": [ [ 37.569719, 55.596573 ], [ 37.570542, 55.596364 ], [ 37.571114, 55.5963 ], [ 37.571426, 55.596288 ], [ 37.571633, 55.59631 ], [ 37.571855, 55.59631 ], [ 37.571956, 55.596303 ], [ 37.572042, 55.596297 ], [ 37.572174, 55.596267 ], [ 37.573662, 55.596179 ], [ 37.573865, 55.59617 ], [ 37.574722, 55.596071 ], [ 37.575688, 55.59596 ], [ 37.576079, 55.595927 ], [ 37.577585, 55.59576 ], [ 37.578093, 55.595757 ], [ 37.578353, 55.595743 ], [ 37.578492, 55.595732 ], [ 37.578856, 55.595704 ] ] } },
{ "type": "Feature", "properties": { "cls": "painted", "highway": "service", "name": "Ясеневская аллея" }, "geometry": { "type": "LineString", "coordinates": [ [ 37.566369, 55.596866 ], [ 37.567581, 55.596766 ], [ 37.569719, 55.596573 ] ] } },
{ "type": "Feature", "properties": { "cls": "painted", "highway": "service", "name": "Ясеневская аллея" }, "geometry": { "type": "LineString", "coordinates": [ [ 37.559177, 55.597633 ], [ 37.559331, 55.597616 ], [ 37.559688, 55.597578 ], [ 37.560727, 55.597503 ], [ 37.561008, 55.597484 ], [ 37.561713, 55.597411 ], [ 37.56209, 55.59737 ], [ 37.562636, 55.5973 ], [ 37.562832, 55.597174 ], [ 37.562996, 55.597124 ], [ 37.563224, 55.597099 ], [ 37.563418, 55.597129 ], [ 37.563598, 55.59718 ], [ 37.564119, 55.597114 ], [ 37.56606, 55.596903 ], [ 37.566369, 55.596866 ] ] } },
{ "type": "Feature", "properties": { "cls": "painted", "highway": "service", "name": "Новоясеневский тупик" }, "geometry": { "type": "MultiLineString", "coordinates": [ [ [ 37.557269, 55.597783 ], [ 37.557401, 55.59777 ] ], [ [ 37.557401, 55.59777 ], [ 37.557853, 55.597725 ] ], [ [ 37.557853, 55.597725 ], [ 37.557904, 55.59772 ] ], [ [ 37.557904, 55.59772 ], [ 37.55915, 55.597637 ] ] ] } },
{ "type": "Feature", "properties": { "cls": "painted", "highway": "service", "name": "Новоясеневский тупик" }, "geometry": { "type": "MultiLineString", "coordinates": [ [ [ 37.553792, 55.598109 ], [ 37.555768, 55.597924 ] ], [ [ 37.555768, 55.597924 ], [ 37.556953, 55.597813 ] ], [ [ 37.556953, 55.597813 ], [ 37.557269, 55.597783 ] ] ] } },
{ "type": "Feature", "properties": { "cls": "painted", "highway": "service", "name": "Новоясеневский тупик" }, "geometry": { "type": "MultiLineString", "coordinates": [ [ [ 37.550282, 55.598427 ], [ 37.550432, 55.598412 ] ], [ [ 37.550432, 55.598412 ], [ 37.551219, 55.598335 ] ], [ [ 37.551219, 55.598335 ], [ 37.551345, 55.598323 ] ], [ [ 37.551345, 55.598323 ], [ 37.551397, 55.59832 ] ], [ [ 37.551397, 55.59832 ], [ 37.553036, 55.598176 ] ], [ [ 37.553036, 55.598176 ], [ 37.553232, 55.598159 ] ], [ [ 37.553232, 55.598159 ], [ 37.553261, 55.598156 ] ], [ [ 37.553261, 55.598156 ], [ 37.553792, 55.598109 ] ] ] } },
{ "type": "Feature", "properties": { "cls": "separated", "highway": "cycleway", "name": null }, "geometry": { "type": "LineString", "coordinates": [ [ 37.580264, 55.595736 ], [ 37.580431, 55.595738 ], [ 37.580638, 55.595771 ], [ 37.580811, 55.595796 ], [ 37.581028, 55.595808 ], [ 37.581215, 55.595791 ], [ 37.581379, 55.595753 ], [ 37.581553, 55.595702 ], [ 37.581741, 55.595674 ], [ 37.581977, 55.595647 ], [ 37.582194, 55.595627 ], [ 37.58229, 55.595627 ], [ 37.582617, 55.595646 ], [ 37.582834, 55.595668 ], [ 37.583347, 55.595678 ], [ 37.583452, 55.595678 ], [ 37.583887, 55.595661 ], [ 37.58465, 55.595628 ], [ 37.585402, 55.595611 ], [ 37.585545, 55.595605 ] ] } },
{ "type": "Feature", "properties": { "cls": "separated", "highway": "cycleway", "name": null }, "geometry": { "type": "LineString", "coordinates": [ [ 37.579096, 55.595682 ], [ 37.579217, 55.595732 ], [ 37.579389, 55.595751 ] ] } },
{ "type": "Feature", "properties": { "cls": "shared", "highway": "path", "name": null }, "geometry": { "type": "LineString", "coordinates": [ [ 37.580449, 55.597218 ], [ 37.580557, 55.597188 ], [ 37.580675, 55.597179 ], [ 37.580768, 55.597186 ], [ 37.580917, 55.597238 ] ] } },
{ "type": "Feature", "properties": { "cls": "shared", "highway": "path", "name": null }, "geometry": { "type": "LineString", "coordinates": [ [ 37.580917, 55.597238 ], [ 37.580988, 55.597259 ], [ 37.581027, 55.59732 ], [ 37.580976, 55.597406 ], [ 37.580889, 55.597454 ], [ 37.580804, 55.597466 ], [ 37.58069, 55.597465 ], [ 37.580565, 55.597422 ], [ 37.58046, 55.597368 ], [ 37.580414, 55.597273 ], [ 37.580413, 55.597239 ], [ 37.580449, 55.597218 ], [ 37.580528, 55.597238 ], [ 37.580584, 55.597264 ], [ 37.580654, 55.597248 ], [ 37.580706, 55.597262 ], [ 37.580697, 55.597321 ], [ 37.580702, 55.597359 ], [ 37.580728, 55.5974 ], [ 37.580782, 55.597404 ], [ 37.580846, 55.597382 ], [ 37.580867, 55.597335 ], [ 37.580864, 55.597289 ], [ 37.580857, 55.597253 ], [ 37.580917, 55.597238 ] ] } },
{ "type": "Feature", "properties": { "cls": "separated", "highway": "cycleway", "name": null }, "geometry": { "type": "LineString", "coordinates": [ [ 37.587797, 55.63267 ], [ 37.587446, 55.63255 ], [ 37.587271, 55.632556 ], [ 37.586872, 55.632575 ], [ 37.586716, 55.632309 ], [ 37.586585, 55.632221 ], [ 37.586525, 55.632174 ], [ 37.586423, 55.632073 ], [ 37.586209, 55.631983 ], [ 37.585931, 55.631897 ], [ 37.585632, 55.631835 ], [ 37.585366, 55.631789 ], [ 37.585172, 55.63174 ], [ 37.58503, 55.63168 ], [ 37.584853, 55.63159 ], [ 37.584794, 55.63153 ], [ 37.584712, 55.631446 ], [ 37.58461, 55.631348 ], [ 37.584467, 55.631286 ] ] } },
{ "type": "Feature", "properties": { "cls": "separated", "highway": "cycleway", "name": null }, "geometry": { "type": "LineString", "coordinates": [ [ 37.584467, 55.631286 ], [ 37.584316, 55.631279 ], [ 37.584056, 55.631298 ], [ 37.583896, 55.631314 ], [ 37.581941, 55.631686 ], [ 37.581364, 55.631815 ], [ 37.579893, 55.632172 ], [ 37.57875, 55.632402 ], [ 37.577704, 55.632597 ], [ 37.577288, 55.632648 ] ] } },
{ "type": "Feature", "properties": { "cls": "separated", "highway": "cycleway", "name": null }, "geometry": { "type": "Point", "coordinates": [ 37.550282, 55.598427 ] } },
{ "type": "Feature", "properties": { "cls": "shared", "highway": "footway", "name": null }, "geometry": { "type": "LineString", "coordinates": [ [ 37.563532, 55.609452 ], [ 37.563945, 55.609555 ], [ 37.564316, 55.609673 ], [ 37.564669, 55.609773 ], [ 37.564914, 55.609801 ], [ 37.56516, 55.609791 ], [ 37.56542, 55.60971 ], [ 37.565652, 55.609583 ], [ 37.56585, 55.609496 ], [ 37.566394, 55.609397 ], [ 37.566913, 55.609322 ], [ 37.567434, 55.609176 ], [ 37.567849, 55.609146 ], [ 37.568121, 55.609121 ], [ 37.568368, 55.609051 ], [ 37.568631, 55.608958 ], [ 37.569027, 55.60879 ], [ 37.569147, 55.608739 ], [ 37.569276, 55.608693 ] ] } },
{ "type": "Feature", "properties": { "cls": "shared", "highway": "footway", "name": null }, "geometry": { "type": "LineString", "coordinates": [ [ 37.559257, 55.609419 ], [ 37.559366, 55.609362 ], [ 37.559734, 55.609222 ], [ 37.560071, 55.609119 ], [ 37.560346, 55.609066 ], [ 37.560645, 55.609029 ], [ 37.561339, 55.609001 ], [ 37.561818, 55.60902 ], [ 37.562483, 55.609073 ], [ 37.562868, 55.609186 ], [ 37.563203, 55.609321 ], [ 37.563532, 55.609452 ] ] } },
{ "type": "Feature", "properties": { "cls": "shared", "highway": "footway", "name": null }, "geometry": { "type": "MultiLineString", "coordinates": [ [ [ 37.556322, 55.611657 ], [ 37.556346, 55.611626 ], [ 37.556471, 55.611461 ] ], [ [ 37.556519, 55.611409 ], [ 37.556658, 55.611271 ], [ 37.556782, 55.611156 ], [ 37.556948, 55.611014 ], [ 37.557147, 55.610844 ], [ 37.557393, 55.610635 ], [ 37.557678, 55.610402 ], [ 37.557914, 55.610208 ], [ 37.558134, 55.610029 ], [ 37.558313, 55.609927 ], [ 37.558453, 55.609864 ], [ 37.558568, 55.609841 ], [ 37.558799, 55.609809 ], [ 37.558924, 55.609743 ], [ 37.559022, 55.609604 ], [ 37.559257, 55.609419 ] ] ] } },
{ "type": "Feature", "properties": { "cls": "separated", "highway": "path", "name": null }, "geometry": { "type": "LineString", "coordinates": [ [ 37.577225, 55.632656 ], [ 37.577138, 55.632634 ], [ 37.576981, 55.632597 ], [ 37.576611, 55.63242 ], [ 37.576563, 55.632397 ], [ 37.576353, 55.632299 ], [ 37.576227, 55.632256 ], [ 37.576157, 55.632242 ], [ 37.575916, 55.632193 ], [ 37.575692, 55.632168 ], [ 37.575314, 55.63218 ], [ 37.575089, 55.632213 ], [ 37.574485, 55.63233 ], [ 37.573834, 55.632479 ], [ 37.57366, 55.632492 ], [ 37.573366, 55.632477 ], [ 37.572877, 55.632452 ], [ 37.572153, 55.632414 ], [ 37.571669, 55.632419 ], [ 37.571318, 55.632449 ], [ 37.569993, 55.632442 ], [ 37.568378, 55.632378 ], [ 37.568265, 55.632372 ], [ 37.568178, 55.632356 ], [ 37.567728, 55.632241 ], [ 37.56725, 55.632181 ], [ 37.567077, 55.632173 ] ] } },
{ "type": "Feature", "properties": { "cls": "separated", "highway": "path", "name": null }, "geometry": { "type": "LineString", "coordinates": [ [ 37.567077, 55.632173 ], [ 37.566896, 55.632164 ], [ 37.566544, 55.632115 ], [ 37.566131, 55.632099 ], [ 37.565534, 55.632076 ], [ 37.565109, 55.632105 ], [ 37.564581, 55.632245 ], [ 37.564416, 55.632266 ], [ 37.564276, 55.632301 ], [ 37.563356, 55.632611 ], [ 37.562946, 55.632698 ], [ 37.562662, 55.632757 ], [ 37.562415, 55.632809 ], [ 37.562021, 55.632924 ], [ 37.561644, 55.632994 ], [ 37.56135, 55.633073 ] ] } },
{ "type": "Feature", "properties": { "cls": "separated", "highway": "path", "name": null }, "geometry": { "type": "LineString", "coordinates": [ [ 37.56135, 55.633073 ], [ 37.561065, 55.633113 ] ] } },
{ "type": "Feature", "properties": { "cls": "separated", "highway": "path", "name": null }, "geometry": { "type": "LineString", "coordinates": [ [ 37.552795, 55.635685 ], [ 37.553256, 55.635592 ], [ 37.553478, 55.635547 ], [ 37.553749, 55.635468 ], [ 37.554051, 55.635385 ], [ 37.554921, 55.635121 ], [ 37.555537, 55.634918 ], [ 37.555813, 55.634797 ], [ 37.556783, 55.634428 ], [ 37.557289, 55.634151 ], [ 37.557447, 55.634054 ], [ 37.557853, 55.633871 ], [ 37.558379, 55.633668 ], [ 37.558927, 55.633475 ], [ 37.559431, 55.63333 ], [ 37.560065, 55.633176 ], [ 37.560401, 55.633137 ], [ 37.560784, 55.633116 ], [ 37.561065, 55.633113 ] ] } },
{ "type": "Feature", "properties": { "cls": "separated", "highway": "path", "name": null }, "geometry": { "type": "LineString", "coordinates": [ [ 37.545685, 55.63764 ], [ 37.546023, 55.637474 ], [ 37.54639, 55.63736 ], [ 37.546591, 55.637302 ], [ 37.546745, 55.637258 ], [ 37.547722, 55.636981 ], [ 37.548061, 55.636887 ], [ 37.548365, 55.636809 ], [ 37.548837, 55.636687 ], [ 37.549729, 55.636419 ], [ 37.552795, 55.635685 ] ] } },
{ "type": "Feature", "properties": { "cls": "separated", "highway": "cycleway", "name": null }, "geometry": { "type": "LineString", "coordinates": [ [ 37.577288, 55.632648 ], [ 37.577225, 55.632656 ] ] } },
{ "type": "Feature", "properties": { "cls": "shared", "highway": "path", "name": null }, "geometry": { "type": "LineString", "coordinates": [ [ 37.587797, 55.63267 ], [ 37.587818, 55.632743 ], [ 37.587848, 55.63283 ], [ 37.587971, 55.633205 ], [ 37.587974, 55.633213 ] ] } },
{ "type": "Feature", "properties": { "cls": "separated", "highway": "path", "name": null }, "geometry": { "type": "LineString", "coordinates": [ [ 37.577423, 55.634452 ], [ 37.577394, 55.63433 ], [ 37.57737, 55.634182 ], [ 37.577362, 55.634143 ], [ 37.577285, 55.633562 ], [ 37.577279, 55.63324 ], [ 37.577244, 55.632855 ], [ 37.577231, 55.632723 ], [ 37.577225, 55.632656 ] ] } },
{ "type": "Feature", "properties": { "cls": "separated", "highway": "cycleway", "name": null }, "geometry": { "type": "LineString", "coordinates": [ [ 37.550334, 55.585536 ], [ 37.550159, 55.585378 ], [ 37.550027, 55.58539 ], [ 37.549873, 55.585354 ], [ 37.549692, 55.58529 ], [ 37.5496, 55.585096 ], [ 37.549379, 55.584888 ], [ 37.549202, 55.584745 ], [ 37.54908, 55.584639 ], [ 37.549015, 55.584502 ], [ 37.549005, 55.584389 ], [ 37.548978, 55.584284 ] ] } },
{ "type": "Feature", "properties": { "cls": "separated", "highway": "cycleway", "name": null }, "geometry": { "type": "LineString", "coordinates": [ [ 37.545897, 55.620184 ], [ 37.54589, 55.620118 ], [ 37.545918, 55.619847 ], [ 37.545941, 55.619744 ], [ 37.546031, 55.619407 ], [ 37.545996, 55.619233 ], [ 37.545912, 55.619111 ], [ 37.545839, 55.618984 ], [ 37.545802, 55.618914 ], [ 37.545769, 55.618834 ] ] } },
{ "type": "Feature", "properties": { "cls": "separated", "highway": "cycleway", "name": null }, "geometry": { "type": "LineString", "coordinates": [ [ 37.543228, 55.623918 ], [ 37.54325, 55.623816 ], [ 37.543289, 55.62371 ], [ 37.54338, 55.623469 ], [ 37.543434, 55.623305 ], [ 37.543442, 55.623229 ], [ 37.543423, 55.623175 ], [ 37.543399, 55.623126 ], [ 37.543386, 55.623089 ], [ 37.543385, 55.623054 ], [ 37.543391, 55.623008 ], [ 37.543481, 55.622879 ], [ 37.543577, 55.622792 ], [ 37.543654, 55.622669 ], [ 37.543765, 55.622528 ], [ 37.543912, 55.622412 ], [ 37.544173, 55.62231 ], [ 37.544341, 55.622268 ], [ 37.54458, 55.622217 ], [ 37.54475, 55.622172 ], [ 37.5449, 55.622078 ], [ 37.545054, 55.621926 ], [ 37.545168, 55.621813 ], [ 37.545322, 55.621627 ], [ 37.54545, 55.62134 ], [ 37.545566, 55.621022 ], [ 37.545626, 55.620872 ], [ 37.545687, 55.620781 ], [ 37.5458, 55.620652 ], [ 37.545897, 55.620184 ] ] } },
{ "type": "Feature", "properties": { "cls": "separated", "highway": "path", "name": null }, "geometry": { "type": "LineString", "coordinates": [ [ 37.544949, 55.638009 ], [ 37.545129, 55.637872 ], [ 37.545394, 55.637803 ], [ 37.545685, 55.63764 ] ] } },
{ "type": "Feature", "properties": { "cls": "separated", "highway": "path", "name": null }, "geometry": { "type": "LineString", "coordinates": [ [ 37.544873, 55.638076 ], [ 37.544949, 55.638009 ] ] } },
{ "type": "Feature", "properties": { "cls": "shared", "highway": "footway", "name": null }, "geometry": { "type": "LineString", "coordinates": [ [ 37.537272, 55.621553 ], [ 37.538936, 55.62087 ], [ 37.539248, 55.620674 ], [ 37.539621, 55.620347 ], [ 37.539947, 55.62012 ], [ 37.539916, 55.619894 ], [ 37.539989, 55.619794 ] ] } },
{ "type": "Feature", "properties": { "cls": "shared", "highway": "footway", "name": null }, "geometry": { "type": "LineString", "coordinates": [ [ 37.541122, 55.621733 ], [ 37.541001, 55.6214 ] ] } },
{ "type": "Feature", "properties": { "cls": "separated", "highway": "cycleway", "name": null }, "geometry": { "type": "LineString", "coordinates": [ [ 37.542416, 55.626081 ], [ 37.542373, 55.625945 ], [ 37.542401, 55.625808 ], [ 37.542492, 55.625593 ], [ 37.542513, 55.625429 ], [ 37.542524, 55.625241 ], [ 37.542587, 55.625144 ], [ 37.542675, 55.62502 ], [ 37.542785, 55.624946 ], [ 37.542978, 55.62478 ], [ 37.543063, 55.62467 ], [ 37.543138, 55.62454 ], [ 37.543163, 55.624449 ], [ 37.543172, 55.624371 ], [ 37.543184, 55.624285 ], [ 37.543185, 55.624203 ], [ 37.543181, 55.624157 ], [ 37.543188, 55.624109 ], [ 37.543205, 55.624053 ], [ 37.543228, 55.623918 ] ] } },
{ "type": "Feature", "properties": { "cls": "shared", "highway": "footway", "name": null }, "geometry": { "type": "LineString", "coordinates": [ [ 37.537055, 55.62807 ], [ 37.537117, 55.628148 ], [ 37.53738, 55.628866 ], [ 37.537431, 55.629033 ] ] } }
]
}
