{
"type": "FeatureCollection",
"name": "043-paris-forest-of-montmorency",
"crs": { "type": "name", "properties": { "name": "urn:ogc:def:crs:OGC:1.3:CRS84" } },
"xy_coordinate_resolution": 1e-06,
"features": [
{ "type": "Feature", "properties": { "cls": "separated", "highway": "cycleway", "name": null }, "geometry": { "type": "LineString", "coordinates": [ [ 2.311005, 49.0261 ], [ 2.310879, 49.026055 ], [ 2.310751, 49.026013 ], [ 2.310586, 49.025977 ], [ 2.310516, 49.025968 ] ] } },
{ "type": "Feature", "properties": { "cls": "separated", "highway": "cycleway", "name": null }, "geometry": { "type": "LineString", "coordinates": [ [ 2.310879, 49.026055 ], [ 2.310885, 49.026028 ], [ 2.310892, 49.026009 ] ] } },
{ "type": "Feature", "properties": { "cls": "separated", "highway": "cycleway", "name": null }, "geometry": { "type": "LineString", "coordinates": [ [ 2.311483, 49.026074 ], [ 2.311474, 49.026084 ], [ 2.311467, 49.026125 ], [ 2.311489, 49.026164 ] ] } },
{ "type": "Feature", "properties": { "cls": "separated", "highway": "cycleway", "name": null }, "geometry": { "type": "LineString", "coordinates": [ [ 2.311863, 49.02662 ], [ 2.311774, 49.026598 ], [ 2.311689, 49.026497 ], [ 2.311323, 49.02623 ], [ 2.311221, 49.026179 ], [ 2.311005, 49.0261 ] ] } },
{ "type": "Feature", "properties": { "cls": "separated", "highway": "cycleway", "name": null }, "geometry": { "type": "LineString", "coordinates": [ [ 2.311489, 49.026164 ], [ 2.311584, 49.026237 ], [ 2.311724, 49.026346 ], [ 2.311847, 49.026481 ], [ 2.311911, 49.02658 ], [ 2.311863, 49.02662 ] ] } },
{ "type": "Feature", "properties": { "cls": "painted", "highway": "secondary", "name": "Route Départementale de Sannois à Chantilly" }, "geometry": { "type": "LineString", "coordinates": [ [ 2.311863, 49.02662 ], [ 2.311959, 49.026865 ] ] } }
]
}
