{
"type": "FeatureCollection",
"name": "044-brescia-brescia-hills-park",
"crs": { "type": "name", "properties": { "name": "urn:ogc:def:crs:OGC:1.3:CRS84" } },
"xy_coordinate_resolution": 1e-06,
"features": [
{ "type": "Feature", "properties": { "cls": "separated", "highway": "cycleway", "name": null }, "geometry": { "type": "LineString", "coordinates": [ [ 10.166162, 45.548808 ], [ 10.166176, 45.548855 ], [ 10.166382, 45.549592 ], [ 10.166506, 45.550033 ], [ 10.166584, 45.55031 ], [ 10.166662, 45.550589 ], [ 10.166727, 45.550823 ], [ 10.166738, 45.550861 ], [ 10.166752, 45.550913 ], [ 10.166901, 45.551443 ], [ 10.166922, 45.551521 ] ] } },
{ "type": "Feature", "properties": { "cls": "separated", "highway": "cycleway", "name": null }, "geometry": { "type": "LineString", "coordinates": [ [ 10.182541, 45.55487 ], [ 10.18251, 45.554838 ], [ 10.181995, 45.554293 ] ] } },
{ "type": "Feature", "properties": { "cls": "shared", "highway": "cycleway", "name": null }, "geometry": { "type": "LineString", "coordinates": [ [ 10.182493, 45.564525 ], [ 10.182451, 45.564573 ], [ 10.181756, 45.565452 ], [ 10.18158, 45.56568 ], [ 10.181319, 45.566169 ], [ 10.181264, 45.566254 ] ] } },
{ "type": "Feature", "properties": { "cls": "separated", "highway": "cycleway", "name": null }, "geometry": { "type": "MultiLineString", "coordinates": [ [ [ 10.186867, 45.562823 ], [ 10.186903, 45.562807 ], [ 10.18699, 45.562769 ] ], [ [ 10.188129, 45.562256 ], [ 10.188172, 45.562236 ], [ 10.188757, 45.561968 ], [ 10.189394, 45.561689 ], [ 10.189409, 45.561683 ] ] ] } },
{ "type": "Feature", "properties": { "cls": "shared", "highway": "path", "name": null }, "geometry": { "type": "LineString", "coordinates": [ [ 10.196457, 45.583729 ], [ 10.196477, 45.583662 ], [ 10.196459, 45.583637 ], [ 10.196465, 45.583612 ], [ 10.196465, 45.583612 ], [ 10.196475, 45.583571 ], [ 10.196485, 45.583534 ], [ 10.196485, 45.583498 ], [ 10.196485, 45.583472 ], [ 10.196484, 45.58347 ], [ 10.196458, 45.583348 ], [ 10.196472, 45.583316 ], [ 10.196479, 45.583286 ], [ 10.196488, 45.583241 ] ] } },
{ "type": "Feature", "properties": { "cls": "shared", "highway": "path", "name": null }, "geometry": { "type": "LineString", "coordinates": [ [ 10.196479, 45.583823 ], [ 10.196445, 45.583796 ], [ 10.196448, 45.583759 ], [ 10.196457, 45.583729 ] ] } },
{ "type": "Feature", "properties": { "cls": "shared", "highway": "path", "name": null }, "geometry": { "type": "LineString", "coordinates": [ [ 10.195438, 45.586121 ], [ 10.195434, 45.586116 ], [ 10.195437, 45.586106 ], [ 10.19547, 45.58609 ], [ 10.195489, 45.586084 ], [ 10.195503, 45.586083 ], [ 10.195525, 45.586079 ], [ 10.1956, 45.586085 ], [ 10.195632, 45.586082 ], [ 10.195658, 45.586046 ], [ 10.195758, 45.58598 ], [ 10.195764, 45.585965 ], [ 10.195744, 45.585937 ], [ 10.19566, 45.58594 ], [ 10.195646, 45.585923 ], [ 10.195641, 45.585864 ], [ 10.195654, 45.585827 ], [ 10.195675, 45.585792 ], [ 10.195693, 45.58576 ], [ 10.19571, 45.585737 ], [ 10.195742, 45.585715 ], [ 10.195758, 45.585701 ], [ 10.195761, 45.585686 ], [ 10.19574, 45.58567 ], [ 10.195681, 45.585656 ], [ 10.19565, 45.585629 ], [ 10.195585, 45.585609 ], [ 10.195547, 45.585571 ], [ 10.195532, 45.585546 ], [ 10.195515, 45.585531 ], [ 10.195507, 45.58551 ], [ 10.195516, 45.58549 ], [ 10.195574, 45.585469 ], [ 10.195671, 45.585482 ], [ 10.195716, 45.585479 ], [ 10.19574, 45.585475 ], [ 10.195773, 45.58546 ], [ 10.195774, 45.585447 ], [ 10.195761, 45.585434 ], [ 10.195741, 45.58542 ], [ 10.19572, 45.585408 ], [ 10.195621, 45.585359 ], [ 10.195566, 45.585275 ], [ 10.195536, 45.585214 ], [ 10.195515, 45.585147 ], [ 10.195495, 45.585096 ], [ 10.195515, 45.585062 ], [ 10.195545, 45.585087 ], [ 10.195588, 45.58517 ], [ 10.195605, 45.585232 ], [ 10.195655, 45.585244 ], [ 10.195774, 45.585206 ], [ 10.195784, 45.585182 ], [ 10.195701, 45.585177 ], [ 10.195679, 45.585141 ], [ 10.195681, 45.585083 ], [ 10.19569, 45.58502 ], [ 10.195697, 45.584933 ], [ 10.195735, 45.584875 ], [ 10.195779, 45.584806 ] ] } },
{ "type": "Feature", "properties": { "cls": "shared", "highway": "path", "name": null }, "geometry": { "type": "LineString", "coordinates": [ [ 10.196533, 45.586324 ], [ 10.196591, 45.586326 ], [ 10.196642, 45.586318 ], [ 10.196687, 45.58629 ], [ 10.196717, 45.586269 ], [ 10.19674, 45.586237 ], [ 10.196767, 45.586203 ], [ 10.196799, 45.586148 ], [ 10.196794, 45.586076 ], [ 10.196777, 45.586012 ] ] } },
{ "type": "Feature", "properties": { "cls": "shared", "highway": "path", "name": null }, "geometry": { "type": "LineString", "coordinates": [ [ 10.196386, 45.586486 ], [ 10.196392, 45.586426 ], [ 10.196435, 45.58637 ], [ 10.196478, 45.586338 ], [ 10.196533, 45.586324 ] ] } },
{ "type": "Feature", "properties": { "cls": "shared", "highway": "path", "name": null }, "geometry": { "type": "LineString", "coordinates": [ [ 10.19661, 45.586896 ], [ 10.196586, 45.586856 ], [ 10.196548, 45.586807 ], [ 10.196518, 45.586777 ], [ 10.19648, 45.586749 ], [ 10.19645, 45.586725 ], [ 10.196445, 45.586698 ], [ 10.196448, 45.586669 ], [ 10.196487, 45.586623 ], [ 10.196561, 45.586591 ], [ 10.196584, 45.586584 ], [ 10.196598, 45.586586 ], [ 10.196624, 45.586575 ], [ 10.196641, 45.586558 ], [ 10.196646, 45.586541 ], [ 10.196625, 45.586518 ], [ 10.196591, 45.586515 ], [ 10.196547, 45.586519 ], [ 10.196532, 45.586527 ], [ 10.196507, 45.586531 ], [ 10.196476, 45.586527 ], [ 10.196405, 45.586511 ], [ 10.196386, 45.586486 ] ] } },
{ "type": "Feature", "properties": { "cls": "shared", "highway": "path", "name": null }, "geometry": { "type": "LineString", "coordinates": [ [ 10.196795, 45.58733 ], [ 10.196803, 45.587227 ], [ 10.196768, 45.587117 ], [ 10.196735, 45.587047 ], [ 10.19669, 45.586993 ], [ 10.19664, 45.586931 ], [ 10.19661, 45.586896 ] ] } },
{ "type": "Feature", "properties": { "cls": "shared", "highway": "path", "name": null }, "geometry": { "type": "LineString", "coordinates": [ [ 10.19672, 45.587434 ], [ 10.196795, 45.58733 ] ] } },
{ "type": "Feature", "properties": { "cls": "shared", "highway": "path", "name": null }, "geometry": { "type": "LineString", "coordinates": [ [ 10.198452, 45.590584 ], [ 10.198363, 45.590516 ], [ 10.198257, 45.590497 ], [ 10.198133, 45.590458 ], [ 10.198121, 45.590413 ], [ 10.198094, 45.590361 ], [ 10.19803, 45.590312 ], [ 10.197922, 45.590262 ], [ 10.197878, 45.590207 ], [ 10.197851, 45.590096 ], [ 10.197835, 45.59005 ], [ 10.197733, 45.590049 ], [ 10.197683, 45.590058 ], [ 10.197665, 45.590061 ], [ 10.197566, 45.5901 ], [ 10.197488, 45.590153 ], [ 10.197474, 45.590229 ], [ 10.197356, 45.590285 ], [ 10.197321, 45.590341 ], [ 10.197283, 45.590367 ], [ 10.19723, 45.590415 ], [ 10.197214, 45.590482 ], [ 10.197206, 45.590513 ], [ 10.197162, 45.590532 ], [ 10.197139, 45.590531 ], [ 10.197118, 45.590528 ], [ 10.197061, 45.590484 ], [ 10.197026, 45.590415 ], [ 10.19701, 45.590315 ], [ 10.197013, 45.590258 ], [ 10.196965, 45.590241 ], [ 10.196951, 45.59015 ], [ 10.196888, 45.590141 ], [ 10.196796, 45.590179 ], [ 10.196832, 45.590066 ], [ 10.196771, 45.590026 ], [ 10.196756, 45.589983 ], [ 10.196747, 45.589953 ], [ 10.196736, 45.589893 ], [ 10.196709, 45.58983 ], [ 10.196642, 45.589728 ], [ 10.196597, 45.589673 ], [ 10.196573, 45.589647 ], [ 10.196546, 45.589615 ], [ 10.196509, 45.589555 ], [ 10.196513, 45.589468 ], [ 10.196539, 45.589388 ], [ 10.196585, 45.589322 ], [ 10.196597, 45.589262 ], [ 10.196644, 45.589145 ], [ 10.196664, 45.589061 ], [ 10.196687, 45.589004 ], [ 10.196722, 45.588879 ], [ 10.196646, 45.588816 ], [ 10.196533, 45.588671 ], [ 10.196498, 45.588532 ], [ 10.19647, 45.588373 ], [ 10.196455, 45.588272 ], [ 10.196453, 45.588198 ], [ 10.196477, 45.588089 ], [ 10.196542, 45.587928 ], [ 10.196549, 45.587801 ], [ 10.196556, 45.587692 ], [ 10.196599, 45.5876 ] ] } },
{ "type": "Feature", "properties": { "cls": "shared", "highway": "path", "name": null }, "geometry": { "type": "LineString", "coordinates": [ [ 10.19854, 45.590608 ], [ 10.198496, 45.590595 ], [ 10.198452, 45.590584 ] ] } },
{ "type": "Feature", "properties": { "cls": "shared", "highway": "cycleway", "name": null }, "geometry": { "type": "MultiLineString", "coordinates": [ [ [ 10.233797, 45.532973 ], [ 10.233736, 45.532928 ], [ 10.233672, 45.532903 ], [ 10.233538, 45.532823 ], [ 10.233457, 45.532809 ], [ 10.232424, 45.532756 ], [ 10.232329, 45.532765 ], [ 10.232223, 45.532799 ], [ 10.232138, 45.532829 ], [ 10.232011, 45.532857 ], [ 10.231849, 45.532882 ], [ 10.231765, 45.532885 ], [ 10.231695, 45.532879 ], [ 10.23161, 45.532866 ], [ 10.231502, 45.532833 ], [ 10.23138, 45.532777 ], [ 10.231165, 45.532666 ], [ 10.231025, 45.532664 ], [ 10.230946, 45.532665 ], [ 10.2309, 45.532674 ] ], [ [ 10.230416, 45.53262 ], [ 10.23039, 45.532612 ], [ 10.230228, 45.532574 ], [ 10.230074, 45.532583 ] ] ] } },
{ "type": "Feature", "properties": { "cls": "separated", "highway": "footway", "name": null }, "geometry": { "type": "LineString", "coordinates": [ [ 10.312602, 45.518773 ], [ 10.312607, 45.51846 ], [ 10.312644, 45.518026 ] ] } },
{ "type": "Feature", "properties": { "cls": "shared", "highway": "cycleway", "name": null }, "geometry": { "type": "LineString", "coordinates": [ [ 10.310572, 45.518413 ], [ 10.3106, 45.518397 ], [ 10.310805, 45.518352 ] ] } },
{ "type": "Feature", "properties": { "cls": "separated", "highway": "footway", "name": null }, "geometry": { "type": "LineString", "coordinates": [ [ 10.313116, 45.52336 ], [ 10.312729, 45.519901 ], [ 10.312721, 45.519848 ], [ 10.312636, 45.519261 ], [ 10.312594, 45.519247 ] ] } },
{ "type": "Feature", "properties": { "cls": "painted", "highway": "secondary", "name": "Viale della Bornata" }, "geometry": { "type": "LineString", "coordinates": [ [ 10.264036, 45.5258 ], [ 10.263998, 45.525816 ], [ 10.263714, 45.52594 ], [ 10.263569, 45.525999 ], [ 10.263362, 45.526097 ], [ 10.263194, 45.526169 ], [ 10.263074, 45.526221 ] ] } },
{ "type": "Feature", "properties": { "cls": "separated", "highway": "cycleway", "name": null }, "geometry": { "type": "LineString", "coordinates": [ [ 10.26191, 45.526826 ], [ 10.261875, 45.526792 ] ] } },
{ "type": "Feature", "properties": { "cls": "separated", "highway": "cycleway", "name": null }, "geometry": { "type": "LineString", "coordinates": [ [ 10.26081, 45.527248 ], [ 10.260795, 45.527229 ] ] } },
{ "type": "Feature", "properties": { "cls": "separated", "highway": "cycleway", "name": null }, "geometry": { "type": "MultiLineString", "coordinates": [ [ [ 10.26226, 45.526622 ], [ 10.26191, 45.526826 ], [ 10.261644, 45.526951 ], [ 10.261501, 45.52706 ], [ 10.261388, 45.527067 ], [ 10.261224, 45.527105 ], [ 10.26081, 45.527248 ], [ 10.259095, 45.527909 ], [ 10.258855, 45.528001 ], [ 10.258789, 45.52803 ], [ 10.258168, 45.528236 ], [ 10.257921, 45.528282 ] ], [ [ 10.257158, 45.528421 ], [ 10.256773, 45.528491 ] ], [ [ 10.256486, 45.52856 ], [ 10.256447, 45.528582 ], [ 10.256392, 45.528636 ] ] ] } },
{ "type": "Feature", "properties": { "cls": "shared", "highway": "path", "name": null }, "geometry": { "type": "LineString", "coordinates": [ [ 10.276484, 45.545654 ], [ 10.276404, 45.545648 ], [ 10.276326, 45.545659 ], [ 10.276288, 45.54567 ], [ 10.276271, 45.545678 ], [ 10.276258, 45.545698 ], [ 10.276175, 45.54571 ], [ 10.276121, 45.545719 ], [ 10.276072, 45.545739 ], [ 10.276025, 45.545735 ], [ 10.275952, 45.545791 ], [ 10.275529, 45.545826 ], [ 10.275105, 45.545862 ], [ 10.274844, 45.545953 ], [ 10.274719, 45.546025 ], [ 10.274625, 45.546041 ], [ 10.274345, 45.546175 ], [ 10.274345, 45.546245 ], [ 10.274199, 45.546321 ], [ 10.274131, 45.546345 ], [ 10.274033, 45.546361 ], [ 10.274026, 45.546409 ], [ 10.273929, 45.546511 ], [ 10.273892, 45.546548 ], [ 10.273775, 45.546616 ], [ 10.273683, 45.546639 ], [ 10.273589, 45.546649 ], [ 10.2735, 45.546674 ], [ 10.273459, 45.546745 ], [ 10.273457, 45.546764 ], [ 10.273338, 45.546825 ], [ 10.273298, 45.54684 ], [ 10.27327, 45.546846 ] ] } },
{ "type": "Feature", "properties": { "cls": "shared", "highway": "path", "name": null }, "geometry": { "type": "LineString", "coordinates": [ [ 10.276338, 45.545579 ], [ 10.276245, 45.545635 ], [ 10.276217, 45.545661 ], [ 10.276191, 45.545672 ], [ 10.276145, 45.545684 ], [ 10.276103, 45.545686 ], [ 10.276034, 45.545679 ], [ 10.275928, 45.545675 ], [ 10.275836, 45.545682 ], [ 10.275474, 45.545742 ], [ 10.275305, 45.545771 ], [ 10.275141, 45.545792 ], [ 10.275044, 45.545783 ], [ 10.274971, 45.545788 ], [ 10.274927, 45.545818 ], [ 10.274895, 45.545848 ], [ 10.274745, 45.54587 ], [ 10.27461, 45.545887 ], [ 10.274534, 45.545911 ], [ 10.274495, 45.545969 ], [ 10.274149, 45.546063 ], [ 10.273994, 45.546063 ], [ 10.273824, 45.546189 ], [ 10.273613, 45.546204 ], [ 10.273484, 45.546293 ], [ 10.27344, 45.54639 ], [ 10.273407, 45.546406 ], [ 10.273222, 45.546503 ], [ 10.273125, 45.546549 ], [ 10.272932, 45.546623 ], [ 10.272745, 45.5467 ], [ 10.272653, 45.546767 ], [ 10.27259, 45.546847 ], [ 10.27256, 45.546932 ], [ 10.27255, 45.546941 ], [ 10.272384, 45.547113 ], [ 10.272129, 45.547277 ], [ 10.272075, 45.547309 ] ] } },
{ "type": "Feature", "properties": { "cls": "shared", "highway": "path", "name": null }, "geometry": { "type": "LineString", "coordinates": [ [ 10.27327, 45.546846 ], [ 10.273142, 45.546871 ] ] } },
{ "type": "Feature", "properties": { "cls": "shared", "highway": "path", "name": null }, "geometry": { "type": "LineString", "coordinates": [ [ 10.273142, 45.546871 ], [ 10.273081, 45.546891 ], [ 10.273042, 45.546918 ], [ 10.273051, 45.546969 ], [ 10.273106, 45.547032 ], [ 10.273215, 45.547056 ], [ 10.273361, 45.547116 ], [ 10.273534, 45.547165 ], [ 10.273701, 45.547197 ], [ 10.2739, 45.547232 ], [ 10.274057, 45.547235 ], [ 10.274199, 45.547257 ], [ 10.274313, 45.547296 ], [ 10.274473, 45.547323 ], [ 10.274639, 45.547292 ], [ 10.274733, 45.547266 ], [ 10.274788, 45.547223 ], [ 10.274849, 45.547218 ], [ 10.274864, 45.547235 ], [ 10.274848, 45.547258 ], [ 10.274755, 45.547293 ], [ 10.274608, 45.547334 ], [ 10.274392, 45.547424 ], [ 10.274336, 45.547472 ], [ 10.274282, 45.547483 ], [ 10.274065, 45.547459 ], [ 10.273687, 45.547423 ], [ 10.273526, 45.547416 ], [ 10.272933, 45.54761 ], [ 10.272756, 45.547657 ], [ 10.272649, 45.547677 ], [ 10.272372, 45.547758 ], [ 10.272171, 45.547844 ], [ 10.271696, 45.547965 ], [ 10.271509, 45.547993 ], [ 10.271334, 45.548042 ], [ 10.271227, 45.548094 ], [ 10.271128, 45.548192 ], [ 10.271021, 45.548231 ], [ 10.270857, 45.548248 ], [ 10.270784, 45.548278 ], [ 10.270689, 45.548262 ] ] } },
{ "type": "Feature", "properties": { "cls": "shared", "highway": "path", "name": null }, "geometry": { "type": "LineString", "coordinates": [ [ 10.272075, 45.547309 ], [ 10.271854, 45.547441 ], [ 10.271751, 45.547559 ], [ 10.271611, 45.547576 ], [ 10.271513, 45.547654 ], [ 10.271406, 45.5477 ], [ 10.271349, 45.547751 ], [ 10.271184, 45.547861 ], [ 10.27096, 45.547864 ], [ 10.270729, 45.547867 ], [ 10.270528, 45.547814 ], [ 10.270478, 45.547812 ], [ 10.270438, 45.547832 ], [ 10.270267, 45.547749 ], [ 10.270017, 45.547732 ], [ 10.269898, 45.54768 ], [ 10.269672, 45.547646 ], [ 10.269462, 45.54764 ], [ 10.269261, 45.547649 ], [ 10.269043, 45.547672 ], [ 10.268813, 45.547706 ], [ 10.268719, 45.547706 ], [ 10.268665, 45.547695 ], [ 10.268591, 45.547712 ], [ 10.26851, 45.547729 ] ] } },
{ "type": "Feature", "properties": { "cls": "shared", "highway": "path", "name": null }, "geometry": { "type": "LineString", "coordinates": [ [ 10.272075, 45.547309 ], [ 10.272058, 45.547404 ], [ 10.27199, 45.547498 ], [ 10.271839, 45.547606 ], [ 10.271705, 45.547673 ], [ 10.271542, 45.547763 ], [ 10.27141, 45.547839 ], [ 10.271281, 45.547953 ], [ 10.270927, 45.548059 ], [ 10.270717, 45.548109 ], [ 10.270562, 45.548079 ], [ 10.270369, 45.547991 ], [ 10.270149, 45.547903 ], [ 10.269848, 45.547799 ], [ 10.269671, 45.547775 ], [ 10.269368, 45.547848 ], [ 10.269317, 45.54794 ], [ 10.269323, 45.548055 ], [ 10.269484, 45.548265 ], [ 10.269548, 45.548663 ], [ 10.269521, 45.548735 ], [ 10.269352, 45.548934 ], [ 10.269223, 45.549016 ] ] } },
{ "type": "Feature", "properties": { "cls": "shared", "highway": "path", "name": null }, "geometry": { "type": "LineString", "coordinates": [ [ 10.270689, 45.548262 ], [ 10.270444, 45.548154 ] ] } },
{ "type": "Feature", "properties": { "cls": "shared", "highway": "path", "name": null }, "geometry": { "type": "LineString", "coordinates": [ [ 10.26851, 45.547729 ], [ 10.268491, 45.547873 ], [ 10.268801, 45.548249 ], [ 10.268935, 45.548603 ], [ 10.269048, 45.548859 ] ] } },
{ "type": "Feature", "properties": { "cls": "shared", "highway": "path", "name": null }, "geometry": { "type": "LineString", "coordinates": [ [ 10.264154, 45.548568 ], [ 10.2641, 45.548615 ] ] } },
{ "type": "Feature", "properties": { "cls": "shared", "highway": "path", "name": null }, "geometry": { "type": "LineString", "coordinates": [ [ 10.2641, 45.548615 ], [ 10.264067, 45.548639 ], [ 10.263985, 45.548704 ] ] } },
{ "type": "Feature", "properties": { "cls": "shared", "highway": "path", "name": null }, "geometry": { "type": "LineString", "coordinates": [ [ 10.265886, 45.548838 ], [ 10.265777, 45.548827 ], [ 10.265708, 45.548808 ], [ 10.265605, 45.548764 ], [ 10.265517, 45.548716 ], [ 10.265472, 45.548695 ], [ 10.265303, 45.548647 ], [ 10.26525, 45.548659 ], [ 10.265129, 45.548642 ], [ 10.264972, 45.548558 ], [ 10.264951, 45.54858 ], [ 10.264799, 45.548621 ], [ 10.264705, 45.548713 ], [ 10.264543, 45.548674 ], [ 10.264476, 45.548663 ], [ 10.264374, 45.548585 ], [ 10.264318, 45.548539 ], [ 10.26424, 45.548495 ], [ 10.264178, 45.548538 ], [ 10.264154, 45.548568 ] ] } },
{ "type": "Feature", "properties": { "cls": "shared", "highway": "path", "name": null }, "geometry": { "type": "LineString", "coordinates": [ [ 10.263985, 45.548704 ], [ 10.263933, 45.548755 ] ] } },
{ "type": "Feature", "properties": { "cls": "shared", "highway": "path", "name": null }, "geometry": { "type": "LineString", "coordinates": [ [ 10.263933, 45.548755 ], [ 10.263882, 45.548788 ], [ 10.263829, 45.548827 ], [ 10.263802, 45.548847 ] ] } },
{ "type": "Feature", "properties": { "cls": "shared", "highway": "path", "name": null }, "geometry": { "type": "LineString", "coordinates": [ [ 10.264919, 45.548799 ], [ 10.264912, 45.548792 ], [ 10.264828, 45.548774 ], [ 10.264762, 45.548781 ], [ 10.264686, 45.548832 ], [ 10.26452, 45.548837 ], [ 10.264441, 45.548797 ], [ 10.264375, 45.548786 ], [ 10.264311, 45.548765 ], [ 10.264169, 45.548833 ] ] } },
{ "type": "Feature", "properties": { "cls": "shared", "highway": "path", "name": null }, "geometry": { "type": "LineString", "coordinates": [ [ 10.264944, 45.548814 ], [ 10.264928, 45.54881 ], [ 10.264919, 45.548799 ] ] } },
{ "type": "Feature", "properties": { "cls": "shared", "highway": "path", "name": null }, "geometry": { "type": "LineString", "coordinates": [ [ 10.265203, 45.548882 ], [ 10.265175, 45.548874 ], [ 10.265129, 45.548884 ], [ 10.265043, 45.548856 ], [ 10.264982, 45.548822 ], [ 10.264951, 45.548816 ], [ 10.264944, 45.548814 ] ] } },
{ "type": "Feature", "properties": { "cls": "shared", "highway": "path", "name": null }, "geometry": { "type": "LineString", "coordinates": [ [ 10.270444, 45.548154 ], [ 10.270353, 45.54823 ], [ 10.270347, 45.548297 ], [ 10.270613, 45.548502 ], [ 10.27087, 45.548613 ], [ 10.270809, 45.548677 ], [ 10.270715, 45.548705 ], [ 10.270701, 45.548735 ], [ 10.27083, 45.548778 ], [ 10.270905, 45.548849 ], [ 10.271208, 45.548987 ], [ 10.271262, 45.549075 ], [ 10.271329, 45.549103 ], [ 10.271348, 45.549229 ], [ 10.271326, 45.549301 ], [ 10.271243, 45.549347 ], [ 10.270964, 45.549422 ], [ 10.270913, 45.549429 ] ] } },
{ "type": "Feature", "properties": { "cls": "shared", "highway": "path", "name": null }, "geometry": { "type": "LineString", "coordinates": [ [ 10.263696, 45.54905 ], [ 10.263588, 45.549029 ], [ 10.263526, 45.548993 ], [ 10.263463, 45.548951 ], [ 10.263427, 45.548915 ], [ 10.263357, 45.548848 ], [ 10.263175, 45.548926 ], [ 10.263097, 45.548878 ], [ 10.263053, 45.548812 ], [ 10.262989, 45.548808 ], [ 10.262859, 45.548701 ], [ 10.262686, 45.548764 ], [ 10.262588, 45.548817 ], [ 10.262282, 45.548945 ], [ 10.262138, 45.548912 ], [ 10.261969, 45.548927 ], [ 10.261905, 45.548944 ], [ 10.261828, 45.548935 ], [ 10.261696, 45.548922 ], [ 10.261607, 45.548937 ], [ 10.26147, 45.548952 ], [ 10.261382, 45.548952 ], [ 10.261226, 45.548931 ], [ 10.261082, 45.548911 ], [ 10.260898, 45.548875 ], [ 10.260796, 45.548856 ], [ 10.260754, 45.548854 ], [ 10.260431, 45.548898 ], [ 10.260286, 45.548906 ], [ 10.260042, 45.548901 ], [ 10.259793, 45.548895 ], [ 10.259432, 45.548924 ], [ 10.25936, 45.548951 ] ] } },
{ "type": "Feature", "properties": { "cls": "shared", "highway": "path", "name": null }, "geometry": { "type": "LineString", "coordinates": [ [ 10.265437, 45.548887 ], [ 10.265394, 45.548869 ], [ 10.265363, 45.54884 ], [ 10.265334, 45.548838 ], [ 10.265281, 45.548861 ], [ 10.265265, 45.548868 ] ] } },
{ "type": "Feature", "properties": { "cls": "shared", "highway": "path", "name": null }, "geometry": { "type": "LineString", "coordinates": [ [ 10.265265, 45.548868 ], [ 10.265231, 45.548879 ], [ 10.265203, 45.548882 ] ] } },
{ "type": "Feature", "properties": { "cls": "shared", "highway": "path", "name": null }, "geometry": { "type": "LineString", "coordinates": [ [ 10.265466, 45.548927 ], [ 10.265437, 45.548887 ] ] } },
{ "type": "Feature", "properties": { "cls": "shared", "highway": "path", "name": null }, "geometry": { "type": "LineString", "coordinates": [ [ 10.25936, 45.548951 ], [ 10.259309, 45.548995 ], [ 10.259268, 45.549019 ] ] } },
{ "type": "Feature", "properties": { "cls": "shared", "highway": "path", "name": null }, "geometry": { "type": "LineString", "coordinates": [ [ 10.263802, 45.548847 ], [ 10.263752, 45.548909 ], [ 10.263733, 45.548963 ], [ 10.263696, 45.54905 ] ] } },
{ "type": "Feature", "properties": { "cls": "shared", "highway": "path", "name": null }, "geometry": { "type": "LineString", "coordinates": [ [ 10.265539, 45.54897 ], [ 10.265497, 45.548971 ], [ 10.265466, 45.548927 ] ] } },
{ "type": "Feature", "properties": { "cls": "shared", "highway": "path", "name": null }, "geometry": { "type": "LineString", "coordinates": [ [ 10.265663, 45.548944 ], [ 10.265602, 45.548952 ], [ 10.265565, 45.548958 ], [ 10.265539, 45.54897 ] ] } },
{ "type": "Feature", "properties": { "cls": "shared", "highway": "path", "name": null }, "geometry": { "type": "LineString", "coordinates": [ [ 10.265918, 45.549014 ], [ 10.265874, 45.548948 ], [ 10.265783, 45.548903 ], [ 10.26573, 45.548915 ], [ 10.265663, 45.548944 ] ] } },
{ "type": "Feature", "properties": { "cls": "shared", "highway": "path", "name": null }, "geometry": { "type": "LineString", "coordinates": [ [ 10.264169, 45.548833 ], [ 10.264151, 45.548963 ], [ 10.264083, 45.54906 ], [ 10.264054, 45.549125 ], [ 10.264044, 45.549144 ] ] } },
{ "type": "Feature", "properties": { "cls": "shared", "highway": "path", "name": null }, "geometry": { "type": "LineString", "coordinates": [ [ 10.259268, 45.549019 ], [ 10.259173, 45.548988 ], [ 10.259109, 45.548921 ], [ 10.259064, 45.548927 ], [ 10.258955, 45.548957 ], [ 10.258849, 45.549047 ], [ 10.258704, 45.549114 ], [ 10.258571, 45.549195 ], [ 10.258499, 45.54925 ], [ 10.25846, 45.549282 ], [ 10.258379, 45.54928 ], [ 10.258309, 45.54931 ], [ 10.258195, 45.549303 ], [ 10.258008, 45.549417 ] ] } },
{ "type": "Feature", "properties": { "cls": "shared", "highway": "path", "name": null }, "geometry": { "type": "LineString", "coordinates": [ [ 10.264044, 45.549144 ], [ 10.264027, 45.549179 ], [ 10.263986, 45.549215 ], [ 10.263963, 45.549236 ] ] } },
{ "type": "Feature", "properties": { "cls": "shared", "highway": "path", "name": null }, "geometry": { "type": "LineString", "coordinates": [ [ 10.258008, 45.549417 ], [ 10.257973, 45.549432 ], [ 10.257943, 45.549453 ], [ 10.257932, 45.549461 ], [ 10.257927, 45.549464 ], [ 10.257921, 45.549465 ], [ 10.257916, 45.549463 ], [ 10.257912, 45.54944 ], [ 10.257912, 45.549429 ], [ 10.257922, 45.549395 ], [ 10.25792, 45.54939 ], [ 10.25786, 45.549406 ], [ 10.257823, 45.549428 ] ] } },
{ "type": "Feature", "properties": { "cls": "shared", "highway": "path", "name": null }, "geometry": { "type": "LineString", "coordinates": [ [ 10.269048, 45.548859 ], [ 10.269113, 45.548922 ], [ 10.269172, 45.548954 ], [ 10.269223, 45.549016 ], [ 10.269203, 45.549109 ], [ 10.269183, 45.549164 ], [ 10.269099, 45.549231 ], [ 10.269002, 45.54932 ], [ 10.268848, 45.549338 ], [ 10.268735, 45.549302 ], [ 10.268656, 45.54924 ], [ 10.268609, 45.549188 ], [ 10.268539, 45.549104 ], [ 10.268476, 45.549034 ], [ 10.268349, 45.548975 ], [ 10.268273, 45.549017 ], [ 10.26823, 45.549025 ], [ 10.268178, 45.549008 ], [ 10.268063, 45.548966 ], [ 10.26799, 45.548961 ], [ 10.267925, 45.549014 ], [ 10.267881, 45.549085 ], [ 10.267838, 45.549202 ], [ 10.267777, 45.549245 ], [ 10.267665, 45.549231 ], [ 10.267573, 45.549196 ], [ 10.267527, 45.549165 ], [ 10.267461, 45.549172 ], [ 10.267315, 45.549279 ], [ 10.267196, 45.549355 ], [ 10.267072, 45.549378 ], [ 10.26688, 45.549393 ], [ 10.266756, 45.549429 ], [ 10.266726, 45.549439 ], [ 10.266673, 45.549428 ], [ 10.266643, 45.549407 ], [ 10.26663, 45.549366 ], [ 10.266606, 45.549351 ], [ 10.266571, 45.549364 ], [ 10.266547, 45.5494 ], [ 10.266469, 45.549522 ], [ 10.266396, 45.549605 ], [ 10.266268, 45.549683 ], [ 10.266139, 45.549757 ], [ 10.265932, 45.549821 ], [ 10.265694, 45.549884 ], [ 10.265538, 45.549926 ], [ 10.265377, 45.549946 ], [ 10.265232, 45.549968 ] ] } },
{ "type": "Feature", "properties": { "cls": "shared", "highway": "path", "name": null }, "geometry": { "type": "LineString", "coordinates": [ [ 10.270913, 45.549429 ], [ 10.270827, 45.54933 ], [ 10.270782, 45.549322 ] ] } },
{ "type": "Feature", "properties": { "cls": "shared", "highway": "path", "name": null }, "geometry": { "type": "LineString", "coordinates": [ [ 10.257823, 45.549428 ], [ 10.257773, 45.549457 ], [ 10.257732, 45.549481 ], [ 10.257618, 45.549518 ], [ 10.257451, 45.549576 ], [ 10.257355, 45.549594 ], [ 10.257267, 45.549582 ], [ 10.257171, 45.549596 ], [ 10.257146, 45.549609 ], [ 10.257109, 45.549628 ], [ 10.257053, 45.549645 ], [ 10.256979, 45.549714 ], [ 10.256887, 45.549794 ], [ 10.256746, 45.54993 ], [ 10.256724, 45.550011 ] ] } },
{ "type": "Feature", "properties": { "cls": "shared", "highway": "path", "name": null }, "geometry": { "type": "LineString", "coordinates": [ [ 10.270782, 45.549322 ], [ 10.270736, 45.549311 ], [ 10.27054, 45.549349 ], [ 10.270481, 45.549385 ], [ 10.270363, 45.549392 ], [ 10.270275, 45.54937 ], [ 10.269993, 45.549467 ], [ 10.269948, 45.549578 ], [ 10.269543, 45.549584 ], [ 10.269156, 45.549599 ], [ 10.268989, 45.549608 ], [ 10.268903, 45.54963 ], [ 10.26879, 45.549609 ], [ 10.268717, 45.54958 ], [ 10.268649, 45.549589 ], [ 10.268585, 45.54968 ], [ 10.268486, 45.54968 ], [ 10.268308, 45.549614 ], [ 10.268038, 45.549458 ], [ 10.267858, 45.549441 ], [ 10.267662, 45.549481 ], [ 10.267399, 45.54967 ], [ 10.267257, 45.549689 ], [ 10.266997, 45.549804 ], [ 10.266773, 45.549887 ] ] } },
{ "type": "Feature", "properties": { "cls": "shared", "highway": "path", "name": null }, "geometry": { "type": "LineString", "coordinates": [ [ 10.263839, 45.549413 ], [ 10.263692, 45.549442 ], [ 10.263361, 45.549517 ], [ 10.263134, 45.549568 ], [ 10.262994, 45.549624 ], [ 10.262771, 45.549718 ], [ 10.262681, 45.549815 ], [ 10.26264, 45.549881 ], [ 10.262557, 45.549927 ], [ 10.262188, 45.550067 ], [ 10.26199, 45.550091 ], [ 10.26167, 45.550104 ], [ 10.261517, 45.550079 ] ] } },
{ "type": "Feature", "properties": { "cls": "shared", "highway": "path", "name": null }, "geometry": { "type": "LineString", "coordinates": [ [ 10.261517, 45.550079 ], [ 10.261479, 45.55007 ], [ 10.261367, 45.550055 ], [ 10.261259, 45.550039 ], [ 10.261141, 45.550009 ], [ 10.261045, 45.549996 ], [ 10.260992, 45.549971 ], [ 10.260925, 45.54992 ], [ 10.260894, 45.549866 ], [ 10.260817, 45.549807 ], [ 10.260775, 45.549769 ], [ 10.260757, 45.549733 ], [ 10.260648, 45.549702 ], [ 10.260443, 45.549689 ], [ 10.260305, 45.54962 ], [ 10.260158, 45.549584 ], [ 10.259922, 45.549586 ], [ 10.259683, 45.549685 ], [ 10.259471, 45.549697 ], [ 10.25931, 45.549742 ], [ 10.259071, 45.549768 ], [ 10.258951, 45.549777 ], [ 10.258796, 45.549831 ] ] } },
{ "type": "Feature", "properties": { "cls": "shared", "highway": "path", "name": null }, "geometry": { "type": "LineString", "coordinates": [ [ 10.258796, 45.549831 ], [ 10.258693, 45.549886 ], [ 10.258661, 45.549948 ], [ 10.258648, 45.549966 ], [ 10.25863, 45.54998 ] ] } },
{ "type": "Feature", "properties": { "cls": "shared", "highway": "path", "name": null }, "geometry": { "type": "LineString", "coordinates": [ [ 10.266773, 45.549887 ], [ 10.266745, 45.549898 ], [ 10.266715, 45.549945 ] ] } },
{ "type": "Feature", "properties": { "cls": "shared", "highway": "path", "name": null }, "geometry": { "type": "LineString", "coordinates": [ [ 10.256724, 45.550011 ], [ 10.256749, 45.550128 ] ] } },
{ "type": "Feature", "properties": { "cls": "shared", "highway": "path", "name": null }, "geometry": { "type": "LineString", "coordinates": [ [ 10.266715, 45.549945 ], [ 10.266681, 45.549999 ], [ 10.266525, 45.550035 ], [ 10.266257, 45.550166 ] ] } },
{ "type": "Feature", "properties": { "cls": "shared", "highway": "path", "name": null }, "geometry": { "type": "LineString", "coordinates": [ [ 10.255791, 45.550078 ], [ 10.255571, 45.550114 ], [ 10.255442, 45.550322 ], [ 10.255427, 45.550362 ] ] } },
{ "type": "Feature", "properties": { "cls": "shared", "highway": "path", "name": null }, "geometry": { "type": "LineString", "coordinates": [ [ 10.256749, 45.550128 ], [ 10.256695, 45.550239 ], [ 10.256712, 45.550355 ], [ 10.256825, 45.550592 ] ] } },
{ "type": "Feature", "properties": { "cls": "shared", "highway": "path", "name": null }, "geometry": { "type": "LineString", "coordinates": [ [ 10.256184, 45.550713 ], [ 10.255957, 45.550574 ], [ 10.255828, 45.550393 ], [ 10.255791, 45.550078 ] ] } },
{ "type": "Feature", "properties": { "cls": "shared", "highway": "path", "name": null }, "geometry": { "type": "LineString", "coordinates": [ [ 10.255427, 45.550362 ], [ 10.255484, 45.550471 ] ] } },
{ "type": "Feature", "properties": { "cls": "shared", "highway": "cycleway", "name": null }, "geometry": { "type": "LineString", "coordinates": [ [ 10.233891, 45.532959 ], [ 10.233797, 45.532973 ] ] } },
{ "type": "Feature", "properties": { "cls": "shared", "highway": "cycleway", "name": null }, "geometry": { "type": "MultiLineString", "coordinates": [ [ [ 10.233797, 45.532973 ], [ 10.233832, 45.533022 ], [ 10.233848, 45.5331 ], [ 10.233775, 45.533266 ], [ 10.233716, 45.533424 ] ], [ [ 10.233481, 45.533802 ], [ 10.23347, 45.533817 ], [ 10.233428, 45.53388 ] ] ] } },
{ "type": "Feature", "properties": { "cls": "shared", "highway": "cycleway", "name": null }, "geometry": { "type": "LineString", "coordinates": [ [ 10.231769, 45.535084 ], [ 10.231763, 45.53495 ], [ 10.231766, 45.534767 ], [ 10.231776, 45.534744 ], [ 10.231825, 45.534693 ] ] } },
{ "type": "Feature", "properties": { "cls": "sharrow", "highway": "residential", "name": "Via Fratelli Lechi" }, "geometry": { "type": "LineString", "coordinates": [ [ 10.231823, 45.534763 ], [ 10.231801, 45.534827 ], [ 10.231808, 45.535061 ] ] } },
{ "type": "Feature", "properties": { "cls": "separated", "highway": "cycleway", "name": null }, "geometry": { "type": "LineString", "coordinates": [ [ 10.231808, 45.535061 ], [ 10.231769, 45.535084 ] ] } },
{ "type": "Feature", "properties": { "cls": "shared", "highway": "cycleway", "name": null }, "geometry": { "type": "LineString", "coordinates": [ [ 10.231769, 45.535084 ], [ 10.231762, 45.535364 ], [ 10.231753, 45.535567 ], [ 10.231752, 45.53558 ] ] } },
{ "type": "Feature", "properties": { "cls": "separated", "highway": "cycleway", "name": null }, "geometry": { "type": "LineString", "coordinates": [ [ 10.229843, 45.564415 ], [ 10.229824, 45.564379 ], [ 10.229816, 45.564359 ], [ 10.229809, 45.564324 ], [ 10.229808, 45.56432 ] ] } },
{ "type": "Feature", "properties": { "cls": "separated", "highway": "cycleway", "name": null }, "geometry": { "type": "LineString", "coordinates": [ [ 10.229837, 45.564641 ], [ 10.229762, 45.564675 ] ] } },
{ "type": "Feature", "properties": { "cls": "separated", "highway": "cycleway", "name": null }, "geometry": { "type": "LineString", "coordinates": [ [ 10.229762, 45.564675 ], [ 10.229624, 45.564738 ] ] } },
{ "type": "Feature", "properties": { "cls": "separated", "highway": "cycleway", "name": null }, "geometry": { "type": "LineString", "coordinates": [ [ 10.231561, 45.56625 ], [ 10.231394, 45.565937 ], [ 10.231365, 45.565897 ], [ 10.231333, 45.565859 ], [ 10.231298, 45.565821 ], [ 10.231266, 45.565798 ], [ 10.231227, 45.565781 ], [ 10.231184, 45.56577 ], [ 10.23107, 45.565745 ], [ 10.231011, 45.565738 ], [ 10.230479, 45.565726 ], [ 10.230297, 45.565722 ], [ 10.230172, 45.565701 ], [ 10.23007, 45.565653 ], [ 10.229793, 45.565452 ], [ 10.229757, 45.565396 ], [ 10.229751, 45.565323 ], [ 10.229772, 45.565136 ], [ 10.229795, 45.564887 ], [ 10.229824, 45.564698 ], [ 10.229837, 45.564641 ], [ 10.229855, 45.56456 ], [ 10.229863, 45.564524 ], [ 10.229863, 45.564487 ], [ 10.229857, 45.56445 ], [ 10.229843, 45.564415 ] ] } },
{ "type": "Feature", "properties": { "cls": "separated", "highway": "cycleway", "name": null }, "geometry": { "type": "LineString", "coordinates": [ [ 10.231765, 45.5662 ], [ 10.231561, 45.56625 ], [ 10.231466, 45.566268 ], [ 10.231417, 45.566272 ] ] } },
{ "type": "Feature", "properties": { "cls": "separated", "highway": "cycleway", "name": null }, "geometry": { "type": "LineString", "coordinates": [ [ 10.231329, 45.566279 ], [ 10.231417, 45.566272 ] ] } },
{ "type": "Feature", "properties": { "cls": "separated", "highway": "cycleway", "name": null }, "geometry": { "type": "LineString", "coordinates": [ [ 10.231328, 45.566279 ], [ 10.231329, 45.566279 ] ] } },
{ "type": "Feature", "properties": { "cls": "separated", "highway": "cycleway", "name": null }, "geometry": { "type": "LineString", "coordinates": [ [ 10.249789, 45.566596 ], [ 10.249839, 45.566671 ], [ 10.249054, 45.566912 ], [ 10.248947, 45.566956 ], [ 10.248917, 45.566972 ], [ 10.248796, 45.567012 ], [ 10.248559, 45.567082 ], [ 10.248434, 45.567105 ], [ 10.24831, 45.567104 ], [ 10.248221, 45.56712 ], [ 10.248077, 45.567209 ], [ 10.247854, 45.56736 ], [ 10.247784, 45.567398 ], [ 10.247703, 45.567433 ], [ 10.247615, 45.56746 ], [ 10.247295, 45.567571 ], [ 10.247213, 45.567596 ], [ 10.247022, 45.567675 ], [ 10.246849, 45.567769 ], [ 10.24658, 45.56791 ], [ 10.246332, 45.568039 ], [ 10.246204, 45.568113 ], [ 10.246013, 45.568205 ], [ 10.245861, 45.56827 ], [ 10.245606, 45.568366 ], [ 10.245512, 45.568406 ] ] } },
{ "type": "Feature", "properties": { "cls": "separated", "highway": "cycleway", "name": null }, "geometry": { "type": "LineString", "coordinates": [ [ 10.245512, 45.568406 ], [ 10.245436, 45.568438 ], [ 10.245291, 45.568497 ], [ 10.245164, 45.568522 ], [ 10.245044, 45.56854 ], [ 10.244993, 45.568554 ] ] } },
{ "type": "Feature", "properties": { "cls": "separated", "highway": "cycleway", "name": null }, "geometry": { "type": "LineString", "coordinates": [ [ 10.245006, 45.568571 ], [ 10.245197, 45.568671 ] ] } },
{ "type": "Feature", "properties": { "cls": "shared", "highway": "path", "name": null }, "geometry": { "type": "LineString", "coordinates": [ [ 10.25863, 45.54998 ], [ 10.258589, 45.550006 ], [ 10.25851, 45.550039 ], [ 10.258476, 45.550096 ], [ 10.258451, 45.550177 ], [ 10.258503, 45.550224 ], [ 10.258553, 45.550281 ], [ 10.258687, 45.550335 ], [ 10.258777, 45.550431 ], [ 10.258839, 45.550519 ], [ 10.258831, 45.55058 ], [ 10.258858, 45.550619 ], [ 10.258897, 45.550639 ], [ 10.258922, 45.550663 ], [ 10.258949, 45.550758 ], [ 10.258946, 45.550805 ], [ 10.259047, 45.550967 ], [ 10.259084, 45.551012 ], [ 10.259132, 45.551073 ], [ 10.25916, 45.551112 ], [ 10.25919, 45.551142 ] ] } },
{ "type": "Feature", "properties": { "cls": "shared", "highway": "path", "name": null }, "geometry": { "type": "LineString", "coordinates": [ [ 10.255484, 45.550471 ], [ 10.255517, 45.550604 ], [ 10.255485, 45.550732 ], [ 10.25541, 45.550754 ], [ 10.255352, 45.55073 ], [ 10.255311, 45.550695 ], [ 10.255283, 45.550659 ] ] } },
{ "type": "Feature", "properties": { "cls": "shared", "highway": "path", "name": null }, "geometry": { "type": "LineString", "coordinates": [ [ 10.255283, 45.550659 ], [ 10.255265, 45.550631 ], [ 10.25526, 45.550598 ] ] } },
{ "type": "Feature", "properties": { "cls": "shared", "highway": "path", "name": null }, "geometry": { "type": "LineString", "coordinates": [ [ 10.256825, 45.550592 ], [ 10.256791, 45.550614 ], [ 10.256765, 45.550641 ], [ 10.256755, 45.550684 ], [ 10.256707, 45.550666 ], [ 10.256682, 45.550663 ], [ 10.256665, 45.550694 ], [ 10.25661, 45.550677 ], [ 10.256563, 45.550646 ], [ 10.256474, 45.550631 ], [ 10.25641, 45.550607 ], [ 10.256363, 45.550583 ], [ 10.256294, 45.550605 ], [ 10.256245, 45.550638 ], [ 10.256184, 45.550713 ] ] } },
{ "type": "Feature", "properties": { "cls": "shared", "highway": "path", "name": null }, "geometry": { "type": "LineString", "coordinates": [ [ 10.25526, 45.550598 ], [ 10.255178, 45.550641 ], [ 10.255037, 45.550822 ], [ 10.254967, 45.550832 ], [ 10.254931, 45.550853 ], [ 10.254912, 45.550886 ] ] } },
{ "type": "Feature", "properties": { "cls": "shared", "highway": "path", "name": null }, "geometry": { "type": "LineString", "coordinates": [ [ 10.256825, 45.550592 ], [ 10.2569, 45.550713 ], [ 10.256946, 45.55077 ], [ 10.257061, 45.550847 ], [ 10.257277, 45.551001 ] ] } },
{ "type": "Feature", "properties": { "cls": "shared", "highway": "path", "name": null }, "geometry": { "type": "LineString", "coordinates": [ [ 10.254912, 45.550886 ], [ 10.254921, 45.550924 ], [ 10.254974, 45.550963 ] ] } },
{ "type": "Feature", "properties": { "cls": "shared", "highway": "path", "name": null }, "geometry": { "type": "LineString", "coordinates": [ [ 10.254974, 45.550963 ], [ 10.254981, 45.551024 ] ] } },
{ "type": "Feature", "properties": { "cls": "shared", "highway": "path", "name": null }, "geometry": { "type": "LineString", "coordinates": [ [ 10.257277, 45.551001 ], [ 10.257335, 45.551028 ], [ 10.257392, 45.551037 ] ] } },
{ "type": "Feature", "properties": { "cls": "shared", "highway": "path", "name": null }, "geometry": { "type": "LineString", "coordinates": [ [ 10.257392, 45.551037 ], [ 10.25741, 45.551041 ], [ 10.257565, 45.551135 ], [ 10.25777, 45.551252 ] ] } },
{ "type": "Feature", "properties": { "cls": "shared", "highway": "path", "name": null }, "geometry": { "type": "LineString", "coordinates": [ [ 10.25919, 45.551142 ], [ 10.259236, 45.55118 ], [ 10.25926, 45.551186 ] ] } },
{ "type": "Feature", "properties": { "cls": "shared", "highway": "path", "name": null }, "geometry": { "type": "LineString", "coordinates": [ [ 10.255759, 45.551353 ], [ 10.255643, 45.551323 ], [ 10.255478, 45.551383 ], [ 10.255421, 45.551447 ], [ 10.255247, 45.551393 ], [ 10.255051, 45.551226 ], [ 10.254957, 45.551081 ], [ 10.254948, 45.551036 ], [ 10.254923, 45.550983 ] ] } },
{ "type": "Feature", "properties": { "cls": "shared", "highway": "path", "name": null }, "geometry": { "type": "LineString", "coordinates": [ [ 10.25926, 45.551186 ], [ 10.259463, 45.55129 ], [ 10.259495, 45.551342 ], [ 10.259503, 45.551352 ] ] } },
{ "type": "Feature", "properties": { "cls": "shared", "highway": "path", "name": null }, "geometry": { "type": "LineString", "coordinates": [ [ 10.255807, 45.551403 ], [ 10.255759, 45.551353 ] ] } },
{ "type": "Feature", "properties": { "cls": "shared", "highway": "path", "name": null }, "geometry": { "type": "LineString", "coordinates": [ [ 10.259503, 45.551352 ], [ 10.259523, 45.551367 ], [ 10.259551, 45.551382 ] ] } },
{ "type": "Feature", "properties": { "cls": "shared", "highway": "path", "name": null }, "geometry": { "type": "LineString", "coordinates": [ [ 10.257692, 45.551756 ], [ 10.257455, 45.551746 ], [ 10.257221, 45.551753 ], [ 10.256993, 45.551699 ], [ 10.256829, 45.551669 ], [ 10.256582, 45.551643 ], [ 10.256325, 45.551595 ], [ 10.256022, 45.551537 ], [ 10.255847, 45.551451 ], [ 10.255807, 45.551403 ] ] } },
{ "type": "Feature", "properties": { "cls": "shared", "highway": "path", "name": null }, "geometry": { "type": "LineString", "coordinates": [ [ 10.25775, 45.551765 ], [ 10.257725, 45.551766 ], [ 10.257692, 45.551756 ] ] } },
{ "type": "Feature", "properties": { "cls": "shared", "highway": "path", "name": null }, "geometry": { "type": "LineString", "coordinates": [ [ 10.257786, 45.551783 ], [ 10.25775, 45.551765 ] ] } },
{ "type": "Feature", "properties": { "cls": "shared", "highway": "path", "name": null }, "geometry": { "type": "LineString", "coordinates": [ [ 10.25777, 45.551252 ], [ 10.25806, 45.551388 ], [ 10.25815, 45.551471 ], [ 10.258248, 45.551574 ], [ 10.258296, 45.551687 ], [ 10.258283, 45.55174 ], [ 10.258274, 45.551774 ], [ 10.258115, 45.551943 ], [ 10.258049, 45.552013 ], [ 10.257886, 45.552166 ], [ 10.257777, 45.552271 ], [ 10.257733, 45.552295 ], [ 10.257673, 45.552342 ], [ 10.257558, 45.55237 ] ] } },
{ "type": "Feature", "properties": { "cls": "shared", "highway": "path", "name": null }, "geometry": { "type": "LineString", "coordinates": [ [ 10.257829, 45.551908 ], [ 10.25782, 45.551845 ], [ 10.257786, 45.551783 ] ] } },
{ "type": "Feature", "properties": { "cls": "shared", "highway": "path", "name": null }, "geometry": { "type": "LineString", "coordinates": [ [ 10.259551, 45.551382 ], [ 10.259618, 45.551491 ], [ 10.259651, 45.551542 ], [ 10.259685, 45.551628 ], [ 10.259729, 45.551678 ], [ 10.259737, 45.551699 ], [ 10.259702, 45.551746 ], [ 10.259626, 45.551778 ], [ 10.259635, 45.551803 ], [ 10.259614, 45.551832 ], [ 10.259502, 45.551887 ], [ 10.259467, 45.551936 ], [ 10.259362, 45.551976 ], [ 10.259329, 45.552036 ], [ 10.259274, 45.552073 ], [ 10.259146, 45.552083 ], [ 10.259054, 45.552102 ], [ 10.259002, 45.552129 ], [ 10.258966, 45.552158 ], [ 10.258956, 45.55218 ], [ 10.258928, 45.552194 ], [ 10.258901, 45.552175 ], [ 10.258872, 45.552175 ], [ 10.258841, 45.552183 ], [ 10.25881, 45.552181 ], [ 10.258794, 45.552162 ], [ 10.258824, 45.552135 ], [ 10.258818, 45.552108 ], [ 10.258798, 45.552097 ], [ 10.258733, 45.552129 ], [ 10.258701, 45.552207 ], [ 10.258607, 45.552277 ], [ 10.258518, 45.552335 ], [ 10.258418, 45.55233 ], [ 10.258273, 45.552372 ], [ 10.258144, 45.55241 ], [ 10.258008, 45.552442 ], [ 10.257931, 45.552457 ], [ 10.257845, 45.552472 ], [ 10.257719, 45.552504 ], [ 10.25765, 45.552502 ], [ 10.257592, 45.552499 ], [ 10.257532, 45.552504 ], [ 10.257532, 45.552473 ], [ 10.257538, 45.55242 ], [ 10.257558, 45.55237 ] ] } },
{ "type": "Feature", "properties": { "cls": "shared", "highway": "path", "name": null }, "geometry": { "type": "LineString", "coordinates": [ [ 10.257756, 45.552017 ], [ 10.257804, 45.551948 ], [ 10.257829, 45.551908 ] ] } },
{ "type": "Feature", "properties": { "cls": "shared", "highway": "path", "name": null }, "geometry": { "type": "LineString", "coordinates": [ [ 10.257558, 45.55237 ], [ 10.257608, 45.552289 ], [ 10.257748, 45.552179 ], [ 10.25773, 45.552045 ], [ 10.257756, 45.552017 ] ] } },
{ "type": "Feature", "properties": { "cls": "shared", "highway": "path", "name": null }, "geometry": { "type": "LineString", "coordinates": [ [ 10.261185, 45.553562 ], [ 10.261116, 45.553792 ] ] } },
{ "type": "Feature", "properties": { "cls": "shared", "highway": "path", "name": null }, "geometry": { "type": "LineString", "coordinates": [ [ 10.261116, 45.553792 ], [ 10.261095, 45.553839 ], [ 10.261084, 45.553887 ] ] } },
{ "type": "Feature", "properties": { "cls": "shared", "highway": "path", "name": null }, "geometry": { "type": "LineString", "coordinates": [ [ 10.261116, 45.553792 ], [ 10.260954, 45.553891 ], [ 10.260635, 45.55406 ], [ 10.260404, 45.554128 ], [ 10.260165, 45.554227 ], [ 10.259873, 45.554307 ], [ 10.259662, 45.554337 ], [ 10.259554, 45.554346 ], [ 10.259466, 45.554345 ], [ 10.259376, 45.554345 ], [ 10.259294, 45.554344 ], [ 10.259197, 45.55434 ], [ 10.259082, 45.554352 ], [ 10.258938, 45.554395 ] ] } },
{ "type": "Feature", "properties": { "cls": "shared", "highway": "path", "name": null }, "geometry": { "type": "LineString", "coordinates": [ [ 10.261084, 45.553887 ], [ 10.261085, 45.553928 ], [ 10.261104, 45.553968 ], [ 10.261158, 45.554016 ], [ 10.261234, 45.554038 ], [ 10.261321, 45.554061 ], [ 10.261402, 45.554035 ], [ 10.2615, 45.554054 ], [ 10.26163, 45.554095 ], [ 10.261668, 45.554149 ], [ 10.261647, 45.554194 ], [ 10.261571, 45.554267 ], [ 10.261625, 45.554308 ], [ 10.261696, 45.55435 ], [ 10.261766, 45.554396 ], [ 10.261799, 45.554483 ], [ 10.261799, 45.554559 ], [ 10.261794, 45.554604 ], [ 10.261847, 45.554604 ], [ 10.261901, 45.554585 ], [ 10.261978, 45.554588 ], [ 10.26202, 45.554612 ], [ 10.262013, 45.554663 ], [ 10.26197, 45.554696 ], [ 10.261955, 45.554747 ], [ 10.261974, 45.554787 ], [ 10.262032, 45.554787 ], [ 10.262085, 45.554776 ], [ 10.262154, 45.554768 ], [ 10.262189, 45.554747 ], [ 10.262235, 45.554717 ], [ 10.262266, 45.554739 ], [ 10.262277, 45.554787 ], [ 10.262277, 45.554825 ], [ 10.262251, 45.55487 ], [ 10.262277, 45.554905 ], [ 10.262371, 45.554968 ], [ 10.262484, 45.554998 ], [ 10.262442, 45.555044 ], [ 10.26235, 45.555111 ], [ 10.262254, 45.555173 ], [ 10.262137, 45.55518 ], [ 10.262037, 45.555205 ], [ 10.261949, 45.555231 ], [ 10.261922, 45.555291 ], [ 10.26193, 45.555323 ], [ 10.261988, 45.555345 ], [ 10.262078, 45.555327 ], [ 10.262139, 45.555325 ], [ 10.262217, 45.555354 ], [ 10.262188, 45.555394 ], [ 10.262181, 45.555439 ], [ 10.262122, 45.555473 ], [ 10.262076, 45.555562 ], [ 10.262065, 45.555629 ], [ 10.262042, 45.555726 ], [ 10.261999, 45.555772 ], [ 10.261961, 45.555825 ], [ 10.261923, 45.555866 ], [ 10.261984, 45.555887 ], [ 10.262057, 45.555893 ], [ 10.262115, 45.555911 ], [ 10.262165, 45.555914 ], [ 10.262134, 45.55594 ], [ 10.262142, 45.555999 ], [ 10.262119, 45.556067 ], [ 10.262061, 45.556126 ], [ 10.262057, 45.556161 ], [ 10.262103, 45.556217 ], [ 10.262157, 45.556217 ], [ 10.262203, 45.556198 ], [ 10.262238, 45.556169 ], [ 10.262284, 45.556139 ], [ 10.262334, 45.556153 ], [ 10.262322, 45.556182 ], [ 10.262322, 45.556249 ], [ 10.262365, 45.55629 ], [ 10.262422, 45.556328 ], [ 10.262484, 45.556306 ], [ 10.262564, 45.556303 ], [ 10.262591, 45.556341 ], [ 10.262591, 45.556395 ], [ 10.262633, 45.556465 ], [ 10.262693, 45.556485 ] ] } },
{ "type": "Feature", "properties": { "cls": "shared", "highway": "path", "name": null }, "geometry": { "type": "LineString", "coordinates": [ [ 10.258938, 45.554395 ], [ 10.258697, 45.55446 ], [ 10.258444, 45.554592 ], [ 10.258258, 45.55465 ], [ 10.258063, 45.554746 ], [ 10.257895, 45.554831 ], [ 10.257656, 45.554948 ], [ 10.257536, 45.554967 ], [ 10.257393, 45.555017 ], [ 10.257306, 45.555102 ], [ 10.257255, 45.555164 ], [ 10.257158, 45.555183 ], [ 10.257082, 45.555191 ], [ 10.256936, 45.555194 ], [ 10.256541, 45.555293 ], [ 10.256269, 45.555364 ], [ 10.256068, 45.555453 ], [ 10.255709, 45.555542 ], [ 10.255532, 45.555595 ], [ 10.255364, 45.555712 ], [ 10.255223, 45.555796 ], [ 10.255029, 45.555843 ], [ 10.254909, 45.555896 ], [ 10.254612, 45.556054 ], [ 10.254409, 45.556162 ], [ 10.254258, 45.556209 ], [ 10.254084, 45.556285 ], [ 10.253793, 45.556414 ], [ 10.253632, 45.556473 ], [ 10.2534, 45.556559 ], [ 10.253262, 45.556643 ], [ 10.253067, 45.556747 ], [ 10.252868, 45.556833 ], [ 10.252733, 45.556885 ], [ 10.252544, 45.556938 ], [ 10.25243, 45.557001 ], [ 10.252362, 45.557096 ], [ 10.252255, 45.557223 ], [ 10.252134, 45.55732 ], [ 10.252021, 45.557536 ], [ 10.252042, 45.557628 ], [ 10.252024, 45.557725 ], [ 10.251982, 45.557832 ], [ 10.251873, 45.557907 ], [ 10.251863, 45.55798 ], [ 10.2519, 45.558157 ], [ 10.251891, 45.558281 ], [ 10.251828, 45.558344 ], [ 10.251734, 45.558393 ], [ 10.25161, 45.558421 ], [ 10.25149, 45.558436 ], [ 10.251392, 45.558443 ], [ 10.251276, 45.558428 ], [ 10.25127, 45.55851 ], [ 10.251217, 45.558629 ], [ 10.251165, 45.558726 ], [ 10.25111, 45.558798 ], [ 10.251096, 45.558866 ], [ 10.25112, 45.558942 ], [ 10.25117, 45.559005 ], [ 10.251248, 45.55905 ], [ 10.251292, 45.559142 ], [ 10.251319, 45.559216 ], [ 10.251394, 45.559315 ], [ 10.251475, 45.559377 ], [ 10.251516, 45.559457 ], [ 10.251479, 45.559544 ], [ 10.251431, 45.55964 ], [ 10.25143, 45.55976 ], [ 10.251422, 45.559833 ] ] } },
{ "type": "Feature", "properties": { "cls": "shared", "highway": "path", "name": null }, "geometry": { "type": "LineString", "coordinates": [ [ 10.262693, 45.556485 ], [ 10.262736, 45.556513 ], [ 10.262761, 45.556567 ], [ 10.262703, 45.556666 ], [ 10.26269, 45.55681 ], [ 10.262612, 45.556911 ], [ 10.262596, 45.55694 ], [ 10.262492, 45.557056 ], [ 10.262365, 45.557196 ], [ 10.262265, 45.557325 ], [ 10.262193, 45.557494 ], [ 10.262104, 45.557642 ], [ 10.261978, 45.557782 ], [ 10.261908, 45.557908 ], [ 10.261839, 45.557938 ], [ 10.261751, 45.557951 ], [ 10.261651, 45.557954 ], [ 10.261528, 45.558 ], [ 10.261382, 45.558078 ], [ 10.261244, 45.558201 ], [ 10.261144, 45.558239 ], [ 10.261087, 45.558312 ], [ 10.26106, 45.558362 ], [ 10.261098, 45.5584 ], [ 10.261102, 45.558462 ], [ 10.261022, 45.558591 ], [ 10.260914, 45.558645 ], [ 10.260841, 45.558725 ], [ 10.260757, 45.558803 ], [ 10.260638, 45.558884 ], [ 10.260568, 45.558922 ], [ 10.260526, 45.558981 ], [ 10.26045, 45.559011 ], [ 10.26035, 45.55908 ], [ 10.260265, 45.559118 ], [ 10.260211, 45.559148 ], [ 10.260211, 45.559226 ], [ 10.260257, 45.559269 ], [ 10.260303, 45.559336 ], [ 10.260351, 45.559369 ], [ 10.26038, 45.559426 ] ] } },
{ "type": "Feature", "properties": { "cls": "shared", "highway": "path", "name": null }, "geometry": { "type": "LineString", "coordinates": [ [ 10.270568, 45.556508 ], [ 10.270565, 45.556567 ], [ 10.27057, 45.556667 ], [ 10.27063, 45.556802 ], [ 10.270643, 45.556879 ], [ 10.27067, 45.556948 ], [ 10.270661, 45.557049 ], [ 10.270715, 45.557169 ], [ 10.270769, 45.557307 ], [ 10.270809, 45.557491 ], [ 10.270927, 45.557641 ], [ 10.271052, 45.557832 ], [ 10.271147, 45.558037 ], [ 10.271151, 45.558055 ], [ 10.271147, 45.558095 ], [ 10.271127, 45.55813 ], [ 10.271063, 45.558193 ], [ 10.271009, 45.558341 ], [ 10.270977, 45.558437 ], [ 10.270894, 45.558512 ], [ 10.27078, 45.558578 ], [ 10.270694, 45.558592 ], [ 10.270578, 45.558601 ], [ 10.270414, 45.558676 ], [ 10.270197, 45.558687 ], [ 10.270053, 45.558711 ], [ 10.269926, 45.558724 ], [ 10.269838, 45.558774 ], [ 10.269738, 45.558846 ], [ 10.269708, 45.558942 ], [ 10.269697, 45.559006 ], [ 10.26963, 45.559118 ], [ 10.269477, 45.559184 ], [ 10.26933, 45.559208 ], [ 10.269243, 45.559253 ], [ 10.269142, 45.559395 ], [ 10.269077, 45.559441 ], [ 10.269039, 45.55947 ], [ 10.268954, 45.559549 ], [ 10.268816, 45.559642 ], [ 10.268727, 45.559692 ], [ 10.268607, 45.559734 ], [ 10.268459, 45.55976 ], [ 10.268356, 45.559751 ], [ 10.26828, 45.559708 ], [ 10.268219, 45.559691 ], [ 10.26814, 45.559722 ], [ 10.268114, 45.559788 ], [ 10.268048, 45.559836 ], [ 10.267983, 45.55984 ], [ 10.267936, 45.559814 ], [ 10.267849, 45.559841 ] ] } },
{ "type": "Feature", "properties": { "cls": "separated", "highway": "cycleway", "name": null }, "geometry": { "type": "LineString", "coordinates": [ [ 10.243375, 45.560709 ], [ 10.243249, 45.560643 ], [ 10.243087, 45.560527 ], [ 10.242417, 45.559909 ], [ 10.24211, 45.559531 ], [ 10.242105, 45.559514 ] ] } },
{ "type": "Feature", "properties": { "cls": "shared", "highway": "path", "name": null }, "geometry": { "type": "LineString", "coordinates": [ [ 10.251422, 45.559833 ], [ 10.251402, 45.55991 ], [ 10.251333, 45.559998 ], [ 10.251207, 45.560156 ], [ 10.251066, 45.560317 ], [ 10.250994, 45.560405 ], [ 10.250945, 45.560474 ], [ 10.250902, 45.560615 ] ] } },
{ "type": "Feature", "properties": { "cls": "separated", "highway": "cycleway", "name": null }, "geometry": { "type": "LineString", "coordinates": [ [ 10.243422, 45.560766 ], [ 10.243375, 45.560709 ] ] } },
{ "type": "Feature", "properties": { "cls": "shared", "highway": "path", "name": null }, "geometry": { "type": "LineString", "coordinates": [ [ 10.250902, 45.560615 ], [ 10.250908, 45.56073 ], [ 10.250889, 45.560863 ], [ 10.250907, 45.560915 ] ] } },
{ "type": "Feature", "properties": { "cls": "shared", "highway": "path", "name": null }, "geometry": { "type": "LineString", "coordinates": [ [ 10.250907, 45.560915 ], [ 10.250951, 45.561038 ] ] } },
{ "type": "Feature", "properties": { "cls": "shared", "highway": "path", "name": null }, "geometry": { "type": "LineString", "coordinates": [ [ 10.286881, 45.55185 ], [ 10.286756, 45.55187 ], [ 10.286684, 45.551881 ] ] } },
{ "type": "Feature", "properties": { "cls": "shared", "highway": "path", "name": null }, "geometry": { "type": "LineString", "coordinates": [ [ 10.286684, 45.551881 ], [ 10.286616, 45.551894 ] ] } },
{ "type": "Feature", "properties": { "cls": "shared", "highway": "path", "name": null }, "geometry": { "type": "LineString", "coordinates": [ [ 10.286616, 45.551894 ], [ 10.286573, 45.55191 ], [ 10.286528, 45.551936 ], [ 10.286462, 45.551963 ], [ 10.286344, 45.552044 ], [ 10.286291, 45.55213 ], [ 10.286258, 45.552142 ], [ 10.286174, 45.552104 ], [ 10.28609, 45.552068 ], [ 10.285972, 45.55198 ], [ 10.285934, 45.551964 ], [ 10.285846, 45.551953 ], [ 10.285697, 45.551857 ], [ 10.285592, 45.551795 ], [ 10.285422, 45.551699 ] ] } },
{ "type": "Feature", "properties": { "cls": "shared", "highway": "path", "name": null }, "geometry": { "type": "LineString", "coordinates": [ [ 10.284572, 45.553028 ], [ 10.284495, 45.553004 ], [ 10.284467, 45.552984 ], [ 10.284376, 45.552919 ], [ 10.284345, 45.552912 ], [ 10.284325, 45.552881 ], [ 10.284305, 45.552871 ], [ 10.284141, 45.552827 ], [ 10.284061, 45.552791 ], [ 10.284007, 45.55276 ], [ 10.283948, 45.552738 ], [ 10.283855, 45.552699 ], [ 10.283776, 45.552669 ], [ 10.283756, 45.552662 ], [ 10.283737, 45.552655 ], [ 10.283679, 45.552648 ], [ 10.283582, 45.552665 ], [ 10.283418, 45.552625 ], [ 10.283235, 45.552585 ], [ 10.283184, 45.55258 ], [ 10.283147, 45.552558 ], [ 10.283061, 45.552568 ], [ 10.28298, 45.552554 ], [ 10.282826, 45.552541 ], [ 10.282747, 45.552545 ], [ 10.282649, 45.55254 ], [ 10.282596, 45.552496 ], [ 10.282547, 45.552476 ], [ 10.282479, 45.55249 ], [ 10.282434, 45.552538 ], [ 10.282262, 45.552605 ], [ 10.282134, 45.552664 ], [ 10.282022, 45.552706 ], [ 10.281959, 45.552742 ], [ 10.281882, 45.552815 ], [ 10.281882, 45.552882 ], [ 10.281809, 45.552921 ], [ 10.281715, 45.552886 ], [ 10.28166, 45.552869 ], [ 10.281617, 45.552876 ], [ 10.281579, 45.552896 ], [ 10.281543, 45.55292 ], [ 10.281515, 45.552937 ], [ 10.281477, 45.552922 ], [ 10.281424, 45.552896 ], [ 10.281406, 45.552884 ], [ 10.281387, 45.552855 ], [ 10.281405, 45.552789 ], [ 10.281501, 45.552744 ], [ 10.281512, 45.552729 ], [ 10.281488, 45.552726 ], [ 10.281456, 45.552722 ], [ 10.281425, 45.552717 ], [ 10.281365, 45.552718 ], [ 10.281315, 45.552738 ], [ 10.281278, 45.552789 ], [ 10.281203, 45.552848 ], [ 10.28116, 45.552883 ], [ 10.281117, 45.552902 ], [ 10.281084, 45.552908 ], [ 10.281046, 45.552913 ], [ 10.280992, 45.552916 ], [ 10.28089, 45.552858 ], [ 10.28078, 45.552855 ], [ 10.280713, 45.552857 ], [ 10.280647, 45.552855 ], [ 10.280598, 45.552773 ], [ 10.280571, 45.552753 ], [ 10.280506, 45.552757 ], [ 10.280452, 45.552746 ], [ 10.280407, 45.552722 ], [ 10.280361, 45.552711 ], [ 10.280242, 45.552701 ], [ 10.280178, 45.552693 ], [ 10.280094, 45.552637 ], [ 10.280042, 45.552619 ], [ 10.280009, 45.552642 ], [ 10.27997, 45.552697 ], [ 10.279934, 45.552765 ], [ 10.27989, 45.552803 ], [ 10.279868, 45.552849 ], [ 10.279792, 45.552869 ], [ 10.279731, 45.55289 ], [ 10.279725, 45.552915 ], [ 10.279713, 45.55294 ], [ 10.279686, 45.552958 ], [ 10.27968, 45.552962 ], [ 10.279638, 45.552975 ], [ 10.27962, 45.552976 ], [ 10.279604, 45.552981 ], [ 10.279578, 45.553001 ], [ 10.279509, 45.553013 ], [ 10.279485, 45.553028 ], [ 10.279443, 45.553049 ], [ 10.279419, 45.55305 ], [ 10.279394, 45.553048 ], [ 10.279377, 45.553047 ], [ 10.279354, 45.553064 ], [ 10.279333, 45.553096 ], [ 10.279313, 45.553138 ], [ 10.279299, 45.553198 ], [ 10.279233, 45.553295 ], [ 10.279151, 45.553391 ], [ 10.279083, 45.553442 ], [ 10.279003, 45.553485 ], [ 10.278983, 45.553547 ], [ 10.278965, 45.553606 ], [ 10.27895, 45.553626 ], [ 10.278935, 45.553646 ], [ 10.278887, 45.553653 ], [ 10.278821, 45.55368 ], [ 10.278823, 45.553725 ], [ 10.278738, 45.553758 ], [ 10.27871, 45.553785 ], [ 10.278627, 45.553798 ], [ 10.278564, 45.553805 ], [ 10.278514, 45.55379 ], [ 10.278462, 45.553801 ], [ 10.278307, 45.553867 ], [ 10.278123, 45.553917 ], [ 10.27795, 45.553908 ], [ 10.277826, 45.553869 ], [ 10.277768, 45.553821 ], [ 10.277701, 45.553773 ], [ 10.277642, 45.55374 ], [ 10.27752, 45.553732 ], [ 10.277461, 45.553731 ], [ 10.277321, 45.553787 ], [ 10.277206, 45.553815 ], [ 10.277083, 45.553795 ], [ 10.276978, 45.553763 ], [ 10.27687, 45.553756 ], [ 10.276744, 45.553761 ], [ 10.276615, 45.553783 ], [ 10.276517, 45.553824 ], [ 10.276436, 45.553873 ], [ 10.276402, 45.553932 ], [ 10.276272, 45.553952 ], [ 10.276174, 45.553991 ], [ 10.276056, 45.554013 ], [ 10.275979, 45.554035 ], [ 10.275895, 45.554048 ], [ 10.275801, 45.554055 ], [ 10.275691, 45.554054 ], [ 10.275618, 45.554074 ], [ 10.275582, 45.554118 ], [ 10.27557, 45.554148 ], [ 10.275546, 45.554158 ], [ 10.275394, 45.554177 ], [ 10.275247, 45.554189 ], [ 10.275102, 45.554188 ], [ 10.275019, 45.55415 ], [ 10.274902, 45.55406 ], [ 10.274841, 45.554029 ], [ 10.274708, 45.553987 ], [ 10.274545, 45.553947 ], [ 10.274363, 45.553974 ], [ 10.274123, 45.554057 ], [ 10.274015, 45.554155 ], [ 10.273863, 45.554246 ], [ 10.273699, 45.554495 ], [ 10.273684, 45.554564 ], [ 10.273694, 45.554684 ], [ 10.273685, 45.554733 ], [ 10.273666, 45.554795 ], [ 10.273614, 45.554848 ], [ 10.273557, 45.554912 ], [ 10.273464, 45.554954 ], [ 10.273293, 45.554992 ], [ 10.273101, 45.555072 ], [ 10.272932, 45.555148 ], [ 10.272821, 45.5552 ], [ 10.272712, 45.555293 ], [ 10.272629, 45.555509 ], [ 10.272662, 45.555763 ], [ 10.272582, 45.555917 ], [ 10.272368, 45.556033 ], [ 10.272225, 45.556084 ], [ 10.272198, 45.556087 ], [ 10.272179, 45.556079 ], [ 10.272152, 45.555979 ], [ 10.272146, 45.555959 ], [ 10.272124, 45.555949 ], [ 10.2719, 45.556024 ], [ 10.271576, 45.556086 ], [ 10.271412, 45.556116 ], [ 10.271204, 45.556153 ], [ 10.271065, 45.556177 ], [ 10.270914, 45.556214 ], [ 10.270843, 45.556259 ], [ 10.270636, 45.556437 ], [ 10.270568, 45.556508 ] ] } },
{ "type": "Feature", "properties": { "cls": "separated", "highway": "cycleway", "name": null }, "geometry": { "type": "LineString", "coordinates": [ [ 10.249093, 45.563031 ], [ 10.248321, 45.562262 ], [ 10.248117, 45.562032 ], [ 10.24904, 45.561333 ], [ 10.249052, 45.561321 ], [ 10.249052, 45.561315 ], [ 10.249049, 45.56131 ], [ 10.249038, 45.5613 ], [ 10.249005, 45.561274 ] ] } },
{ "type": "Feature", "properties": { "cls": "separated", "highway": "cycleway", "name": null }, "geometry": { "type": "LineString", "coordinates": [ [ 10.249135, 45.563071 ], [ 10.249093, 45.563031 ] ] } },
{ "type": "Feature", "properties": { "cls": "separated", "highway": "cycleway", "name": null }, "geometry": { "type": "LineString", "coordinates": [ [ 10.249183, 45.563156 ], [ 10.249135, 45.563071 ] ] } },
{ "type": "Feature", "properties": { "cls": "shared", "highway": "path", "name": null }, "geometry": { "type": "LineString", "coordinates": [ [ 10.26038, 45.559426 ], [ 10.260429, 45.559523 ], [ 10.260458, 45.559546 ], [ 10.260538, 45.559563 ], [ 10.260529, 45.559609 ], [ 10.260462, 45.559712 ], [ 10.260324, 45.559817 ], [ 10.260243, 45.559887 ], [ 10.260155, 45.560054 ], [ 10.260055, 45.560172 ], [ 10.25994, 45.560215 ], [ 10.259813, 45.560266 ], [ 10.259698, 45.560266 ], [ 10.259545, 45.560253 ], [ 10.25941, 45.560253 ], [ 10.259268, 45.560229 ], [ 10.259187, 45.560218 ], [ 10.259095, 45.560229 ], [ 10.259015, 45.560261 ], [ 10.258949, 45.560307 ], [ 10.258881, 45.560296 ] ] } },
{ "type": "Feature", "properties": { "cls": "shared", "highway": "path", "name": null }, "geometry": { "type": "LineString", "coordinates": [ [ 10.258881, 45.560296 ], [ 10.258763, 45.560282 ], [ 10.258708, 45.560282 ], [ 10.258657, 45.560244 ], [ 10.2586, 45.56023 ], [ 10.258498, 45.560176 ], [ 10.258422, 45.560151 ], [ 10.258353, 45.560154 ], [ 10.258147, 45.560202 ], [ 10.258046, 45.560238 ], [ 10.257946, 45.560249 ], [ 10.257795, 45.560297 ], [ 10.257764, 45.560292 ], [ 10.257608, 45.560358 ], [ 10.257528, 45.560399 ], [ 10.257482, 45.560399 ] ] } },
{ "type": "Feature", "properties": { "cls": "shared", "highway": "path", "name": null }, "geometry": { "type": "LineString", "coordinates": [ [ 10.257482, 45.560399 ], [ 10.257379, 45.560443 ], [ 10.257275, 45.560509 ], [ 10.257072, 45.560628 ], [ 10.256889, 45.560752 ], [ 10.256579, 45.560949 ], [ 10.256227, 45.561181 ], [ 10.255758, 45.561482 ], [ 10.255643, 45.56156 ], [ 10.255456, 45.561672 ], [ 10.255349, 45.561694 ] ] } },
{ "type": "Feature", "properties": { "cls": "shared", "highway": "cycleway", "name": null }, "geometry": { "type": "LineString", "coordinates": [ [ 10.232663, 45.568941 ], [ 10.232568, 45.568968 ] ] } },
{ "type": "Feature", "properties": { "cls": "painted", "highway": "unclassified", "name": "Via Sant'Antonio" }, "geometry": { "type": "MultiLineString", "coordinates": [ [ [ 10.23621, 45.576444 ], [ 10.236226, 45.57642 ], [ 10.236243, 45.576399 ], [ 10.236273, 45.576376 ], [ 10.236308, 45.576356 ], [ 10.236346, 45.576338 ], [ 10.236384, 45.576322 ], [ 10.236457, 45.576297 ], [ 10.236528, 45.576277 ], [ 10.237099, 45.576118 ], [ 10.237159, 45.576095 ], [ 10.237202, 45.576073 ], [ 10.237246, 45.576049 ], [ 10.237277, 45.576025 ], [ 10.237294, 45.576009 ] ], [ [ 10.23741, 45.57585 ], [ 10.237415, 45.575835 ], [ 10.237422, 45.575805 ], [ 10.237427, 45.575769 ], [ 10.237432, 45.575556 ], [ 10.237445, 45.575512 ], [ 10.237464, 45.575472 ], [ 10.237489, 45.575443 ], [ 10.237519, 45.575418 ], [ 10.237524, 45.575415 ] ] ] } },
{ "type": "Feature", "properties": { "cls": "painted", "highway": "unclassified", "name": "Via Sant'Antonio" }, "geometry": { "type": "LineString", "coordinates": [ [ 10.23621, 45.576444 ], [ 10.236194, 45.576486 ], [ 10.236196, 45.576524 ], [ 10.236212, 45.576575 ], [ 10.236269, 45.57674 ], [ 10.236335, 45.576995 ], [ 10.236503, 45.577707 ], [ 10.236523, 45.577804 ], [ 10.236534, 45.5779 ], [ 10.236537, 45.578114 ], [ 10.236528, 45.578204 ], [ 10.236512, 45.578277 ], [ 10.236496, 45.578323 ], [ 10.236482, 45.578361 ], [ 10.236457, 45.578404 ], [ 10.236421, 45.57844 ], [ 10.236392, 45.578459 ], [ 10.236384, 45.578464 ] ] } },
{ "type": "Feature", "properties": { "cls": "separated", "highway": "cycleway", "name": null }, "geometry": { "type": "MultiLineString", "coordinates": [ [ [ 10.238751, 45.580609 ], [ 10.238665, 45.580579 ], [ 10.238616, 45.580506 ], [ 10.238518, 45.580303 ], [ 10.238139, 45.57994 ], [ 10.237736, 45.579631 ] ], [ [ 10.236569, 45.578717 ], [ 10.236506, 45.57865 ], [ 10.236422, 45.578529 ], [ 10.236399, 45.578477 ], [ 10.236392, 45.578459 ], [ 10.236367, 45.578394 ], [ 10.236377, 45.578314 ], [ 10.23642, 45.577866 ], [ 10.236342, 45.577391 ], [ 10.236146, 45.576924 ], [ 10.236007, 45.576504 ], [ 10.235994, 45.576466 ] ] ] } },
{ "type": "Feature", "properties": { "cls": "separated", "highway": "cycleway", "name": null }, "geometry": { "type": "LineString", "coordinates": [ [ 10.245197, 45.568671 ], [ 10.245262, 45.568705 ] ] } },
{ "type": "Feature", "properties": { "cls": "separated", "highway": "cycleway", "name": null }, "geometry": { "type": "LineString", "coordinates": [ [ 10.245262, 45.568705 ], [ 10.246712, 45.569467 ] ] } },
{ "type": "Feature", "properties": { "cls": "shared", "highway": "cycleway", "name": null }, "geometry": { "type": "LineString", "coordinates": [ [ 10.172884, 45.585718 ], [ 10.172827, 45.585702 ], [ 10.172298, 45.585555 ], [ 10.172293, 45.58556 ] ] } },
{ "type": "Feature", "properties": { "cls": "shared", "highway": "footway", "name": null }, "geometry": { "type": "LineString", "coordinates": [ [ 10.110931, 45.60132 ], [ 10.1108, 45.60125 ], [ 10.110729, 45.601191 ], [ 10.110672, 45.601114 ], [ 10.110626, 45.601006 ], [ 10.11059, 45.600904 ], [ 10.110561, 45.600805 ], [ 10.110557, 45.600709 ], [ 10.110563, 45.600513 ], [ 10.110562, 45.600506 ], [ 10.110559, 45.600452 ], [ 10.110571, 45.600226 ], [ 10.110622, 45.600067 ], [ 10.110679, 45.59998 ], [ 10.110821, 45.599862 ], [ 10.111099, 45.599732 ], [ 10.11123, 45.599663 ], [ 10.111373, 45.599584 ], [ 10.111456, 45.599534 ], [ 10.111514, 45.599485 ], [ 10.111528, 45.599272 ], [ 10.111543, 45.59898 ], [ 10.111493, 45.598836 ], [ 10.111417, 45.598714 ], [ 10.111376, 45.598618 ], [ 10.1113, 45.598514 ], [ 10.111201, 45.598411 ], [ 10.111083, 45.59831 ], [ 10.110991, 45.598204 ], [ 10.110992, 45.598116 ] ] } },
{ "type": "Feature", "properties": { "cls": "painted", "highway": "unclassified", "name": "Via Valzina" }, "geometry": { "type": "LineString", "coordinates": [ [ 10.118552, 45.606502 ], [ 10.118541, 45.606468 ] ] } },
{ "type": "Feature", "properties": { "cls": "painted", "highway": "unclassified", "name": "Via Valzina" }, "geometry": { "type": "LineString", "coordinates": [ [ 10.118552, 45.606502 ], [ 10.118608, 45.606586 ], [ 10.118711, 45.606699 ], [ 10.118949, 45.606917 ], [ 10.119031, 45.607003 ], [ 10.119095, 45.607084 ], [ 10.119127, 45.607186 ], [ 10.119153, 45.607264 ], [ 10.119187, 45.607357 ], [ 10.119221, 45.607456 ], [ 10.119265, 45.607547 ], [ 10.119314, 45.607665 ], [ 10.119369, 45.607839 ], [ 10.119402, 45.607909 ], [ 10.119476, 45.608008 ], [ 10.119549, 45.608082 ], [ 10.119657, 45.608213 ], [ 10.119711, 45.608307 ], [ 10.119734, 45.608384 ] ] } },
{ "type": "Feature", "properties": { "cls": "shared", "highway": "cycleway", "name": null }, "geometry": { "type": "LineString", "coordinates": [ [ 10.119484, 45.608449 ], [ 10.11944, 45.608395 ], [ 10.119357, 45.608312 ], [ 10.119265, 45.608261 ], [ 10.119051, 45.608236 ], [ 10.11901, 45.60824 ] ] } },
{ "type": "Feature", "properties": { "cls": "shared", "highway": "cycleway", "name": null }, "geometry": { "type": "LineString", "coordinates": [ [ 10.119262, 45.610574 ], [ 10.119427, 45.610404 ], [ 10.119647, 45.610058 ], [ 10.119692, 45.609978 ], [ 10.119758, 45.60983 ], [ 10.119791, 45.609724 ], [ 10.119812, 45.609641 ], [ 10.119846, 45.609403 ], [ 10.119839, 45.609201 ], [ 10.119794, 45.608976 ], [ 10.119739, 45.608848 ], [ 10.119656, 45.608698 ], [ 10.119574, 45.608574 ], [ 10.119484, 45.608449 ] ] } },
{ "type": "Feature", "properties": { "cls": "shared", "highway": "cycleway", "name": null }, "geometry": { "type": "LineString", "coordinates": [ [ 10.119114, 45.610508 ], [ 10.118833, 45.610827 ], [ 10.118766, 45.610899 ] ] } }
]
}
