{
"type": "FeatureCollection",
"name": "046-vilnius-pavilniai-regional-park",
"crs": { "type": "name", "properties": { "name": "urn:ogc:def:crs:OGC:1.3:CRS84" } },
"xy_coordinate_resolution": 1e-06,
"features": [
{ "type": "Feature", "properties": { "cls": "shared", "highway": "path", "name": null }, "geometry": { "type": "LineString", "coordinates": [ [ 25.322188, 54.67746 ], [ 25.322159, 54.67746 ] ] } },
{ "type": "Feature", "properties": { "cls": "shared", "highway": "path", "name": null }, "geometry": { "type": "LineString", "coordinates": [ [ 25.322734, 54.67751 ], [ 25.322188, 54.67746 ] ] } },
{ "type": "Feature", "properties": { "cls": "shared", "highway": "path", "name": null }, "geometry": { "type": "LineString", "coordinates": [ [ 25.322965, 54.677905 ], [ 25.322924, 54.677813 ], [ 25.322923, 54.677805 ], [ 25.322911, 54.677749 ], [ 25.322868, 54.677509 ], [ 25.322734, 54.67751 ] ] } },
{ "type": "Feature", "properties": { "cls": "shared", "highway": "path", "name": "Pūčkorių pažintinis takas" }, "geometry": { "type": "LineString", "coordinates": [ [ 25.357295, 54.685356 ], [ 25.357175, 54.685322 ], [ 25.357099, 54.685268 ], [ 25.357071, 54.685233 ], [ 25.356896, 54.68497 ] ] } },
{ "type": "Feature", "properties": { "cls": "shared", "highway": "path", "name": "Pūčkorių pažintinis takas" }, "geometry": { "type": "LineString", "coordinates": [ [ 25.357822, 54.685547 ], [ 25.357487, 54.68539 ], [ 25.357446, 54.685376 ], [ 25.357295, 54.685356 ] ] } },
{ "type": "Feature", "properties": { "cls": "shared", "highway": "path", "name": "Pūčkorių pažintinis takas" }, "geometry": { "type": "LineString", "coordinates": [ [ 25.357797, 54.685598 ], [ 25.357822, 54.685547 ] ] } },
{ "type": "Feature", "properties": { "cls": "shared", "highway": "path", "name": "Pūčkorių g." }, "geometry": { "type": "LineString", "coordinates": [ [ 25.357586, 54.68571 ], [ 25.357797, 54.685598 ] ] } },
{ "type": "Feature", "properties": { "cls": "shared", "highway": "path", "name": "Pūčkorių g." }, "geometry": { "type": "LineString", "coordinates": [ [ 25.35723, 54.686387 ], [ 25.357231, 54.686261 ], [ 25.357265, 54.686113 ], [ 25.357325, 54.68599 ], [ 25.357418, 54.685861 ], [ 25.357586, 54.68571 ] ] } },
{ "type": "Feature", "properties": { "cls": "shared", "highway": "path", "name": null }, "geometry": { "type": "LineString", "coordinates": [ [ 25.327888, 54.687667 ], [ 25.328239, 54.687833 ], [ 25.328686, 54.688025 ], [ 25.329357, 54.688291 ], [ 25.329824, 54.68846 ], [ 25.3301, 54.688554 ], [ 25.330663, 54.688705 ], [ 25.330982, 54.688769 ], [ 25.331451, 54.688842 ], [ 25.331678, 54.688873 ], [ 25.332101, 54.688938 ], [ 25.332596, 54.689014 ], [ 25.333752, 54.689129 ], [ 25.33493, 54.689247 ], [ 25.336602, 54.689414 ], [ 25.336816, 54.68944 ], [ 25.337171, 54.689483 ], [ 25.338017, 54.689619 ], [ 25.338753, 54.689769 ], [ 25.339929, 54.690051 ], [ 25.340675, 54.690271 ], [ 25.341158, 54.690389 ], [ 25.341565, 54.690448 ], [ 25.342049, 54.690529 ], [ 25.342392, 54.69059 ], [ 25.34305, 54.690831 ], [ 25.343312, 54.690925 ], [ 25.343883, 54.69112 ], [ 25.344103, 54.691185 ], [ 25.344393, 54.691278 ], [ 25.344548, 54.691324 ], [ 25.344606, 54.691334 ], [ 25.344686, 54.691328 ], [ 25.344772, 54.691309 ], [ 25.34486, 54.691274 ], [ 25.344979, 54.691205 ], [ 25.345076, 54.69113 ], [ 25.345111, 54.691126 ], [ 25.345144, 54.691127 ], [ 25.345223, 54.691162 ] ] } },
{ "type": "Feature", "properties": { "cls": "shared", "highway": "path", "name": null }, "geometry": { "type": "LineString", "coordinates": [ [ 25.36289, 54.691387 ], [ 25.363809, 54.691316 ], [ 25.364737, 54.691243 ], [ 25.364955, 54.691226 ], [ 25.3655, 54.69119 ], [ 25.366128, 54.691118 ], [ 25.366753, 54.691039 ], [ 25.366856, 54.691023 ], [ 25.366901, 54.691023 ], [ 25.366933, 54.691035 ] ] } },
{ "type": "Feature", "properties": { "cls": "shared", "highway": "path", "name": null }, "geometry": { "type": "LineString", "coordinates": [ [ 25.360994, 54.691525 ], [ 25.3614, 54.691503 ], [ 25.36289, 54.691387 ] ] } },
{ "type": "Feature", "properties": { "cls": "shared", "highway": "path", "name": null }, "geometry": { "type": "LineString", "coordinates": [ [ 25.387113, 54.687304 ], [ 25.387223, 54.687358 ], [ 25.387362, 54.687397 ], [ 25.387549, 54.687532 ], [ 25.387797, 54.687795 ], [ 25.387974, 54.687879 ], [ 25.388271, 54.687996 ], [ 25.388342, 54.688043 ], [ 25.388411, 54.688088 ], [ 25.3885, 54.688198 ], [ 25.388578, 54.688359 ], [ 25.388563, 54.688444 ], [ 25.388592, 54.688738 ], [ 25.38868, 54.688935 ], [ 25.388841, 54.689128 ] ] } },
{ "type": "Feature", "properties": { "cls": "shared", "highway": "path", "name": null }, "geometry": { "type": "LineString", "coordinates": [ [ 25.388841, 54.689128 ], [ 25.389185, 54.68943 ], [ 25.389488, 54.689605 ], [ 25.389914, 54.689812 ] ] } },
{ "type": "Feature", "properties": { "cls": "shared", "highway": "path", "name": null }, "geometry": { "type": "LineString", "coordinates": [ [ 25.395127, 54.690005 ], [ 25.395124, 54.69 ] ] } },
{ "type": "Feature", "properties": { "cls": "shared", "highway": "path", "name": null }, "geometry": { "type": "LineString", "coordinates": [ [ 25.389914, 54.689812 ], [ 25.38997, 54.689872 ], [ 25.390029, 54.690012 ], [ 25.390031, 54.690137 ], [ 25.390021, 54.690213 ], [ 25.389977, 54.69031 ], [ 25.389839, 54.690489 ], [ 25.3897, 54.690641 ], [ 25.3895, 54.690807 ], [ 25.389464, 54.690864 ], [ 25.389454, 54.690906 ], [ 25.389456, 54.690939 ], [ 25.389481, 54.690964 ], [ 25.38955, 54.690998 ] ] } },
{ "type": "Feature", "properties": { "cls": "shared", "highway": "path", "name": null }, "geometry": { "type": "LineString", "coordinates": [ [ 25.38955, 54.690998 ], [ 25.389578, 54.691002 ], [ 25.389741, 54.691024 ], [ 25.390213, 54.691045 ], [ 25.390591, 54.691046 ], [ 25.391202, 54.690989 ], [ 25.391472, 54.69097 ], [ 25.391714, 54.690931 ], [ 25.391944, 54.690875 ], [ 25.392215, 54.690796 ], [ 25.392609, 54.690643 ], [ 25.392851, 54.690575 ], [ 25.393186, 54.690477 ], [ 25.393571, 54.69032 ], [ 25.393977, 54.690164 ], [ 25.394199, 54.690098 ], [ 25.394359, 54.690058 ], [ 25.39438, 54.690054 ], [ 25.394517, 54.690026 ], [ 25.394695, 54.689998 ], [ 25.394757, 54.689992 ], [ 25.394849, 54.689986 ], [ 25.395015, 54.689989 ], [ 25.395124, 54.69 ] ] } },
{ "type": "Feature", "properties": { "cls": "shared", "highway": "path", "name": null }, "geometry": { "type": "LineString", "coordinates": [ [ 25.359906, 54.691593 ], [ 25.360448, 54.691556 ], [ 25.360994, 54.691525 ] ] } },
{ "type": "Feature", "properties": { "cls": "shared", "highway": "path", "name": null }, "geometry": { "type": "LineString", "coordinates": [ [ 25.366933, 54.691035 ], [ 25.367052, 54.691053 ], [ 25.367329, 54.691085 ], [ 25.367645, 54.69109 ], [ 25.367922, 54.691094 ], [ 25.368073, 54.691111 ], [ 25.36823, 54.691138 ], [ 25.368467, 54.691156 ], [ 25.369087, 54.69119 ], [ 25.369713, 54.691236 ], [ 25.370508, 54.691312 ], [ 25.370875, 54.691352 ], [ 25.371242, 54.691399 ], [ 25.371723, 54.691464 ], [ 25.372207, 54.691538 ], [ 25.37274, 54.691628 ], [ 25.373276, 54.691729 ], [ 25.373991, 54.691881 ], [ 25.374547, 54.69201 ], [ 25.374933, 54.692106 ], [ 25.376007, 54.692378 ], [ 25.376827, 54.692587 ], [ 25.377739, 54.692821 ], [ 25.378258, 54.692946 ] ] } },
{ "type": "Feature", "properties": { "cls": "shared", "highway": "path", "name": null }, "geometry": { "type": "LineString", "coordinates": [ [ 25.345223, 54.691162 ], [ 25.345357, 54.691253 ], [ 25.34558, 54.691356 ], [ 25.345863, 54.691494 ], [ 25.346075, 54.691664 ], [ 25.346137, 54.691828 ], [ 25.346125, 54.692012 ], [ 25.34612, 54.692162 ], [ 25.346106, 54.692324 ], [ 25.346118, 54.692398 ], [ 25.346156, 54.692442 ], [ 25.346265, 54.692488 ], [ 25.346767, 54.692623 ], [ 25.347794, 54.692916 ], [ 25.347856, 54.69295 ], [ 25.347889, 54.692988 ], [ 25.347894, 54.693042 ], [ 25.347884, 54.693097 ], [ 25.347893, 54.693137 ], [ 25.347925, 54.693154 ], [ 25.347969, 54.693165 ], [ 25.348349, 54.693245 ], [ 25.348705, 54.69331 ], [ 25.349029, 54.693357 ], [ 25.349397, 54.693399 ], [ 25.349688, 54.693421 ], [ 25.350049, 54.693442 ], [ 25.350472, 54.693453 ], [ 25.350852, 54.693447 ], [ 25.3511, 54.693436 ], [ 25.351347, 54.693419 ], [ 25.351594, 54.693399 ], [ 25.351832, 54.693373 ], [ 25.352034, 54.693349 ], [ 25.352246, 54.693318 ], [ 25.35264, 54.693248 ], [ 25.352771, 54.693215 ], [ 25.352906, 54.693174 ], [ 25.353318, 54.693036 ], [ 25.353696, 54.692919 ], [ 25.353739, 54.692911 ], [ 25.353805, 54.692905 ], [ 25.353862, 54.692904 ], [ 25.353929, 54.692887 ], [ 25.353977, 54.692862 ], [ 25.354024, 54.69282 ], [ 25.35407, 54.692804 ], [ 25.354126, 54.692785 ], [ 25.354185, 54.692778 ], [ 25.35432, 54.692781 ], [ 25.354374, 54.692779 ], [ 25.354426, 54.69277 ], [ 25.355529, 54.692435 ], [ 25.355972, 54.692313 ], [ 25.356412, 54.692194 ], [ 25.357004, 54.692053 ], [ 25.357438, 54.691965 ], [ 25.357897, 54.691883 ], [ 25.358405, 54.691794 ], [ 25.358675, 54.69174 ], [ 25.359116, 54.69167 ], [ 25.359646, 54.691614 ], [ 25.359906, 54.691593 ] ] } },
{ "type": "Feature", "properties": { "cls": "shared", "highway": "path", "name": null }, "geometry": { "type": "LineString", "coordinates": [ [ 25.38307, 54.693529 ], [ 25.383157, 54.693528 ], [ 25.383564, 54.693519 ], [ 25.384076, 54.693499 ], [ 25.384399, 54.693479 ], [ 25.384716, 54.693454 ], [ 25.385268, 54.693402 ], [ 25.385622, 54.693357 ], [ 25.385989, 54.693305 ], [ 25.386328, 54.693252 ], [ 25.386666, 54.69319 ], [ 25.387234, 54.693074 ], [ 25.387448, 54.693025 ], [ 25.387659, 54.692973 ], [ 25.388042, 54.692873 ] ] } },
{ "type": "Feature", "properties": { "cls": "shared", "highway": "path", "name": null }, "geometry": { "type": "LineString", "coordinates": [ [ 25.378107, 54.693162 ], [ 25.378222, 54.692998 ], [ 25.378258, 54.692946 ] ] } },
{ "type": "Feature", "properties": { "cls": "shared", "highway": "path", "name": null }, "geometry": { "type": "LineString", "coordinates": [ [ 25.378258, 54.692946 ], [ 25.37838, 54.692974 ], [ 25.378585, 54.693019 ], [ 25.378988, 54.693106 ], [ 25.379713, 54.693242 ], [ 25.380461, 54.693365 ], [ 25.380887, 54.693412 ], [ 25.381311, 54.693453 ], [ 25.381706, 54.693484 ], [ 25.382115, 54.693506 ], [ 25.382656, 54.693525 ], [ 25.38307, 54.693529 ] ] } },
{ "type": "Feature", "properties": { "cls": "shared", "highway": "path", "name": null }, "geometry": { "type": "LineString", "coordinates": [ [ 25.378107, 54.693162 ], [ 25.377915, 54.693373 ], [ 25.377882, 54.693499 ] ] } },
{ "type": "Feature", "properties": { "cls": "shared", "highway": "path", "name": null }, "geometry": { "type": "LineString", "coordinates": [ [ 25.380343, 54.696721 ], [ 25.379821, 54.69657 ] ] } }
]
}
