{
"type": "FeatureCollection",
"name": "048-portland-forest-park",
"crs": { "type": "name", "properties": { "name": "urn:ogc:def:crs:OGC:1.3:CRS84" } },
"xy_coordinate_resolution": 1e-06,
"features": [
{ "type": "Feature", "properties": { "cls": "shared", "highway": "path", "name": "Old Cornell" }, "geometry": { "type": "LineString", "coordinates": [ [ -122.720974, 45.528933 ], [ -122.721032, 45.528965 ], [ -122.721224, 45.528976 ], [ -122.721373, 45.528972 ], [ -122.721531, 45.528927 ], [ -122.72167, 45.528875 ], [ -122.721818, 45.528762 ], [ -122.721907, 45.528672 ], [ -122.721975, 45.528574 ], [ -122.722006, 45.528478 ], [ -122.722004, 45.528403 ] ] } },
{ "type": "Feature", "properties": { "cls": "separated", "highway": "cycleway", "name": "Old Cornell" }, "geometry": { "type": "LineString", "coordinates": [ [ -122.715498, 45.531742 ], [ -122.71553, 45.531741 ], [ -122.715577, 45.531738 ], [ -122.71562, 45.531733 ], [ -122.71568, 45.531722 ], [ -122.715772, 45.531699 ], [ -122.716829, 45.531425 ], [ -122.716921, 45.531396 ], [ -122.717006, 45.53135 ], [ -122.717068, 45.53131 ], [ -122.717103, 45.53127 ], [ -122.717123, 45.531238 ], [ -122.717152, 45.531162 ], [ -122.71716, 45.531113 ], [ -122.71716, 45.531076 ], [ -122.717143, 45.531024 ], [ -122.71712, 45.530984 ], [ -122.716965, 45.53078 ], [ -122.716829, 45.530604 ] ] } },
{ "type": "Feature", "properties": { "cls": "shared", "highway": "path", "name": "Holman Lane" }, "geometry": { "type": "MultiLineString", "coordinates": [ [ [ -122.719307, 45.533551 ], [ -122.719443, 45.533545 ], [ -122.719609, 45.533498 ], [ -122.719671, 45.533453 ], [ -122.719976, 45.533126 ], [ -122.720139, 45.532952 ], [ -122.720211, 45.53286 ], [ -122.720235, 45.532812 ], [ -122.72028, 45.532719 ], [ -122.720326, 45.53241 ], [ -122.720373, 45.532313 ], [ -122.720437, 45.532269 ], [ -122.720652, 45.532204 ], [ -122.720765, 45.532149 ], [ -122.720876, 45.532057 ], [ -122.720974, 45.531824 ], [ -122.721061, 45.531751 ], [ -122.721246, 45.531658 ], [ -122.721489, 45.531471 ], [ -122.721804, 45.531282 ], [ -122.722146, 45.531132 ], [ -122.722367, 45.531067 ], [ -122.722625, 45.530957 ], [ -122.723185, 45.53076 ], [ -122.723579, 45.530658 ], [ -122.72413, 45.530486 ], [ -122.72463, 45.530404 ], [ -122.724822, 45.530356 ], [ -122.725277, 45.530153 ], [ -122.725434, 45.530143 ], [ -122.725654, 45.530184 ], [ -122.725828, 45.530249 ], [ -122.726542, 45.5304 ], [ -122.726675, 45.530441 ], [ -122.726745, 45.530491 ], [ -122.726798, 45.530562 ], [ -122.726881, 45.530782 ], [ -122.726909, 45.531138 ], [ -122.726962, 45.53141 ], [ -122.727037, 45.53155 ], [ -122.727065, 45.531573 ] ], [ [ -122.728873, 45.531941 ], [ -122.728999, 45.53197 ], [ -122.729064, 45.531992 ], [ -122.729094, 45.53201 ] ], [ [ -122.729275, 45.532121 ], [ -122.729495, 45.532288 ], [ -122.729958, 45.532562 ], [ -122.730023, 45.532579 ] ] ] } },
{ "type": "Feature", "properties": { "cls": "painted", "highway": "residential", "name": "Northwest Thurman Street" }, "geometry": { "type": "LineString", "coordinates": [ [ -122.712082, 45.535453 ], [ -122.712447, 45.53552 ], [ -122.71332, 45.535676 ] ] } },
{ "type": "Feature", "properties": { "cls": "shared", "highway": "path", "name": "Northwest Leif Erikson Drive" }, "geometry": { "type": "LineString", "coordinates": [ [ -122.725352, 45.539084 ], [ -122.725562, 45.538844 ], [ -122.725793, 45.538673 ], [ -122.726106, 45.538514 ], [ -122.726367, 45.53841 ], [ -122.726606, 45.53832 ], [ -122.726715, 45.538313 ], [ -122.726782, 45.53833 ], [ -122.726865, 45.538393 ], [ -122.726891, 45.538462 ], [ -122.726883, 45.538532 ], [ -122.726833, 45.538644 ], [ -122.726482, 45.538995 ], [ -122.726372, 45.539184 ], [ -122.726334, 45.539288 ], [ -122.726318, 45.539366 ], [ -122.726355, 45.539472 ], [ -122.726476, 45.539551 ], [ -122.726566, 45.539603 ], [ -122.72665, 45.539659 ] ] } },
{ "type": "Feature", "properties": { "cls": "shared", "highway": "path", "name": "Northwest Leif Erikson Drive" }, "geometry": { "type": "LineString", "coordinates": [ [ -122.72665, 45.539659 ], [ -122.726672, 45.539725 ], [ -122.726648, 45.539801 ], [ -122.726394, 45.540129 ], [ -122.726238, 45.540433 ], [ -122.726189, 45.540538 ], [ -122.726154, 45.540628 ], [ -122.726155, 45.540736 ], [ -122.726211, 45.540984 ], [ -122.726317, 45.54129 ], [ -122.72644, 45.541478 ], [ -122.726498, 45.541572 ], [ -122.726522, 45.541665 ], [ -122.7265, 45.541776 ], [ -122.726475, 45.541891 ], [ -122.726498, 45.542087 ] ] } },
{ "type": "Feature", "properties": { "cls": "shared", "highway": "path", "name": "Northwest Leif Erikson Drive" }, "geometry": { "type": "LineString", "coordinates": [ [ -122.726498, 45.542087 ], [ -122.726532, 45.542476 ], [ -122.726573, 45.542746 ], [ -122.726618, 45.542883 ], [ -122.726762, 45.543053 ], [ -122.726828, 45.54313 ], [ -122.726873, 45.543217 ], [ -122.726839, 45.543321 ], [ -122.726736, 45.543512 ], [ -122.726709, 45.543652 ], [ -122.726712, 45.543814 ], [ -122.726722, 45.543936 ], [ -122.726734, 45.543999 ], [ -122.726789, 45.544055 ], [ -122.726878, 45.544086 ], [ -122.727009, 45.544091 ], [ -122.727164, 45.544078 ], [ -122.727312, 45.544079 ], [ -122.727396, 45.544093 ], [ -122.727476, 45.544153 ], [ -122.727507, 45.544201 ], [ -122.727509, 45.544293 ], [ -122.727412, 45.544414 ], [ -122.727318, 45.544537 ], [ -122.727254, 45.544678 ], [ -122.727241, 45.544825 ], [ -122.727275, 45.544929 ], [ -122.727355, 45.545044 ], [ -122.727478, 45.545121 ], [ -122.727566, 45.545177 ], [ -122.727646, 45.545322 ], [ -122.727739, 45.545521 ], [ -122.727944, 45.545755 ], [ -122.72812, 45.545945 ], [ -122.728313, 45.546138 ], [ -122.728527, 45.546315 ], [ -122.728772, 45.546506 ], [ -122.728879, 45.546563 ], [ -122.728973, 45.546606 ], [ -122.729095, 45.546626 ], [ -122.729227, 45.546612 ], [ -122.729333, 45.546578 ], [ -122.729467, 45.546552 ], [ -122.729578, 45.546559 ], [ -122.729752, 45.546613 ], [ -122.72987, 45.546664 ], [ -122.729956, 45.54668 ], [ -122.730048, 45.546685 ], [ -122.73015, 45.546668 ], [ -122.730233, 45.546631 ], [ -122.730286, 45.546577 ], [ -122.730422, 45.546402 ], [ -122.730514, 45.546303 ], [ -122.730589, 45.546255 ], [ -122.730655, 45.54624 ], [ -122.730831, 45.546243 ], [ -122.730982, 45.546277 ], [ -122.731097, 45.546292 ], [ -122.731198, 45.546294 ], [ -122.731345, 45.546261 ], [ -122.731564, 45.546204 ], [ -122.73191, 45.546143 ], [ -122.732175, 45.546101 ], [ -122.732301, 45.546062 ], [ -122.732398, 45.545989 ], [ -122.732471, 45.545907 ], [ -122.732576, 45.54583 ], [ -122.732669, 45.545788 ], [ -122.732761, 45.545736 ], [ -122.732853, 45.545659 ], [ -122.732976, 45.545501 ], [ -122.733095, 45.545382 ], [ -122.733127, 45.545311 ], [ -122.733159, 45.545221 ], [ -122.733236, 45.545145 ], [ -122.733338, 45.545108 ], [ -122.733461, 45.545097 ], [ -122.733641, 45.545062 ], [ -122.734266, 45.544845 ], [ -122.734481, 45.544755 ], [ -122.734663, 45.544647 ], [ -122.734791, 45.544529 ], [ -122.734926, 45.544406 ], [ -122.735045, 45.544348 ], [ -122.735171, 45.544318 ], [ -122.735275, 45.544334 ], [ -122.73532, 45.544401 ], [ -122.735321, 45.544498 ], [ -122.735224, 45.544728 ], [ -122.735072, 45.544975 ], [ -122.734931, 45.545152 ], [ -122.734641, 45.545361 ], [ -122.73446, 45.545493 ], [ -122.734289, 45.545638 ], [ -122.73416, 45.545804 ], [ -122.734139, 45.545978 ], [ -122.734149, 45.546127 ], [ -122.734149, 45.54628 ], [ -122.734088, 45.546478 ], [ -122.733956, 45.546756 ], [ -122.733961, 45.546898 ], [ -122.733996, 45.546964 ], [ -122.73407, 45.547036 ], [ -122.734164, 45.547079 ], [ -122.734273, 45.547103 ], [ -122.734669, 45.547122 ], [ -122.735202, 45.547088 ], [ -122.735451, 45.547066 ], [ -122.735544, 45.547088 ], [ -122.735653, 45.547175 ], [ -122.735668, 45.547205 ], [ -122.735653, 45.547275 ], [ -122.735603, 45.547337 ], [ -122.735339, 45.547477 ], [ -122.73505, 45.547632 ], [ -122.734688, 45.547768 ], [ -122.734523, 45.547866 ], [ -122.734451, 45.547974 ], [ -122.7344, 45.548069 ], [ -122.734314, 45.548127 ], [ -122.734176, 45.548159 ], [ -122.733976, 45.548158 ], [ -122.733741, 45.548129 ], [ -122.73344, 45.548117 ], [ -122.733161, 45.548118 ], [ -122.733087, 45.548127 ], [ -122.732954, 45.548171 ], [ -122.732897, 45.548226 ], [ -122.732883, 45.548283 ], [ -122.732895, 45.548375 ], [ -122.733024, 45.548484 ], [ -122.733196, 45.548596 ], [ -122.733304, 45.548723 ], [ -122.733343, 45.548887 ], [ -122.73339, 45.549041 ], [ -122.733502, 45.549202 ], [ -122.733625, 45.549346 ], [ -122.734005, 45.549516 ], [ -122.734161, 45.549577 ], [ -122.734348, 45.549629 ], [ -122.734534, 45.549658 ], [ -122.735271, 45.549654 ], [ -122.735443, 45.549685 ], [ -122.735527, 45.549723 ], [ -122.735597, 45.549794 ], [ -122.735606, 45.549881 ], [ -122.735542, 45.549951 ], [ -122.735397, 45.550049 ], [ -122.735333, 45.550124 ], [ -122.735367, 45.550235 ], [ -122.735506, 45.550333 ], [ -122.736096, 45.550709 ], [ -122.736287, 45.550825 ], [ -122.736397, 45.55087 ], [ -122.736514, 45.550869 ], [ -122.736716, 45.550812 ], [ -122.736854, 45.550787 ], [ -122.736951, 45.550796 ], [ -122.737005, 45.550854 ], [ -122.737031, 45.551059 ], [ -122.737016, 45.551172 ], [ -122.73701, 45.551302 ], [ -122.737054, 45.551418 ], [ -122.737176, 45.551539 ], [ -122.737255, 45.551689 ], [ -122.737351, 45.551896 ], [ -122.737528, 45.552148 ], [ -122.737652, 45.552246 ], [ -122.73773, 45.552309 ], [ -122.737792, 45.55238 ], [ -122.737805, 45.552468 ], [ -122.737784, 45.552599 ], [ -122.737778, 45.552721 ], [ -122.737796, 45.552808 ], [ -122.737877, 45.552872 ], [ -122.73796, 45.552893 ], [ -122.738044, 45.55288 ], [ -122.738413, 45.552793 ], [ -122.738626, 45.552795 ], [ -122.738713, 45.552841 ], [ -122.738748, 45.55291 ], [ -122.738727, 45.553042 ], [ -122.738569, 45.55336 ], [ -122.738519, 45.553495 ], [ -122.738509, 45.553597 ], [ -122.738538, 45.553673 ], [ -122.738664, 45.553719 ], [ -122.73886, 45.553712 ], [ -122.739093, 45.553682 ], [ -122.739314, 45.553622 ], [ -122.739463, 45.553595 ], [ -122.739599, 45.553621 ], [ -122.739658, 45.55369 ], [ -122.739672, 45.553794 ], [ -122.739608, 45.553921 ], [ -122.739466, 45.55417 ], [ -122.739361, 45.554285 ], [ -122.739252, 45.554386 ], [ -122.739179, 45.554481 ], [ -122.739177, 45.554589 ], [ -122.739261, 45.554703 ], [ -122.739571, 45.554892 ], [ -122.740058, 45.555179 ], [ -122.740171, 45.555224 ], [ -122.740291, 45.555244 ], [ -122.740421, 45.555232 ], [ -122.74056, 45.55518 ], [ -122.740714, 45.555132 ], [ -122.740926, 45.555122 ], [ -122.741165, 45.555124 ], [ -122.74127, 45.555131 ], [ -122.741362, 45.555152 ], [ -122.741433, 45.555198 ], [ -122.741501, 45.555264 ], [ -122.741544, 45.555403 ], [ -122.741582, 45.555515 ], [ -122.741656, 45.555573 ], [ -122.741776, 45.555616 ], [ -122.741895, 45.555643 ], [ -122.741945, 45.555657 ], [ -122.742002, 45.555687 ], [ -122.742059, 45.555747 ], [ -122.742117, 45.555833 ], [ -122.742158, 45.555872 ], [ -122.742194, 45.555893 ], [ -122.742254, 45.555911 ], [ -122.742348, 45.555925 ], [ -122.742497, 45.555934 ], [ -122.742643, 45.555945 ], [ -122.742735, 45.55597 ], [ -122.742801, 45.556016 ], [ -122.742806, 45.556083 ], [ -122.742783, 45.55617 ], [ -122.742709, 45.556271 ], [ -122.742653, 45.556355 ], [ -122.742648, 45.556427 ], [ -122.742696, 45.5565 ], [ -122.742788, 45.556555 ], [ -122.742923, 45.556574 ], [ -122.743083, 45.556552 ], [ -122.743399, 45.556446 ], [ -122.743562, 45.556422 ], [ -122.743659, 45.556428 ], [ -122.743746, 45.556454 ], [ -122.743779, 45.556519 ], [ -122.743792, 45.556643 ], [ -122.743766, 45.556875 ], [ -122.74386, 45.557058 ], [ -122.743987, 45.557201 ], [ -122.744096, 45.55732 ], [ -122.744169, 45.557372 ], [ -122.744272, 45.557409 ], [ -122.74441, 45.557405 ], [ -122.74458, 45.55736 ], [ -122.744761, 45.557279 ], [ -122.744982, 45.557163 ], [ -122.745106, 45.557144 ], [ -122.7452, 45.557164 ], [ -122.745279, 45.557231 ], [ -122.745381, 45.557454 ], [ -122.745459, 45.557581 ], [ -122.745555, 45.557665 ], [ -122.745708, 45.557721 ], [ -122.745855, 45.557742 ], [ -122.746004, 45.557737 ], [ -122.746142, 45.55769 ], [ -122.746283, 45.557619 ], [ -122.746572, 45.557475 ], [ -122.746821, 45.557371 ], [ -122.746958, 45.557328 ], [ -122.747059, 45.557311 ], [ -122.747145, 45.557322 ], [ -122.747214, 45.557368 ], [ -122.74727, 45.55749 ], [ -122.747326, 45.557595 ], [ -122.747402, 45.557674 ], [ -122.747475, 45.557712 ], [ -122.747569, 45.557735 ], [ -122.747683, 45.557725 ], [ -122.747796, 45.557705 ], [ -122.747892, 45.55767 ], [ -122.747968, 45.55762 ], [ -122.748102, 45.557584 ], [ -122.74822, 45.557592 ], [ -122.748338, 45.557616 ], [ -122.748407, 45.557628 ], [ -122.74849, 45.557641 ], [ -122.748555, 45.557639 ], [ -122.748627, 45.557624 ], [ -122.748725, 45.557582 ], [ -122.748802, 45.557517 ], [ -122.748885, 45.557423 ], [ -122.748988, 45.557279 ] ] } },
{ "type": "Feature", "properties": { "cls": "shared", "highway": "path", "name": "Northwest Firelane 1 Road" }, "geometry": { "type": "LineString", "coordinates": [ [ -122.733795, 45.55455 ], [ -122.733887, 45.554633 ], [ -122.733913, 45.554632 ], [ -122.733932, 45.554606 ], [ -122.733971, 45.554554 ], [ -122.734011, 45.554525 ], [ -122.73406, 45.554508 ], [ -122.734152, 45.554487 ], [ -122.734272, 45.554444 ], [ -122.734321, 45.554417 ], [ -122.73437, 45.55438 ], [ -122.73439, 45.554325 ], [ -122.734393, 45.554274 ], [ -122.734364, 45.55417 ], [ -122.73419, 45.553895 ], [ -122.734167, 45.553823 ] ] } },
{ "type": "Feature", "properties": { "cls": "shared", "highway": "path", "name": "Northwest Firelane 1 Road" }, "geometry": { "type": "LineString", "coordinates": [ [ -122.744937, 45.54815 ], [ -122.744815, 45.548299 ], [ -122.744728, 45.54846 ], [ -122.744679, 45.54863 ], [ -122.744669, 45.548716 ], [ -122.744679, 45.548888 ], [ -122.744698, 45.548974 ], [ -122.744762, 45.549132 ], [ -122.744839, 45.549255 ], [ -122.744885, 45.549314 ], [ -122.745518, 45.549617 ], [ -122.745587, 45.549636 ], [ -122.745644, 45.54967 ], [ -122.745684, 45.549715 ], [ -122.745702, 45.549766 ], [ -122.745722, 45.550023 ], [ -122.745745, 45.550072 ], [ -122.745743, 45.550123 ], [ -122.745678, 45.550226 ], [ -122.745659, 45.550309 ], [ -122.745674, 45.550392 ], [ -122.74576, 45.550466 ], [ -122.745932, 45.550558 ], [ -122.746122, 45.550622 ], [ -122.74617, 45.550649 ], [ -122.746243, 45.550718 ], [ -122.74628, 45.5508 ], [ -122.746277, 45.550886 ], [ -122.746142, 45.551259 ], [ -122.746151, 45.551302 ], [ -122.74618, 45.551341 ], [ -122.746257, 45.551394 ], [ -122.746311, 45.551447 ], [ -122.746349, 45.551513 ], [ -122.746364, 45.551583 ], [ -122.746339, 45.551732 ], [ -122.74634, 45.551789 ], [ -122.746369, 45.551903 ], [ -122.746435, 45.552008 ], [ -122.746533, 45.552101 ], [ -122.746659, 45.552174 ], [ -122.746731, 45.552203 ], [ -122.746894, 45.552267 ], [ -122.747061, 45.552325 ], [ -122.747233, 45.552377 ], [ -122.747408, 45.552423 ], [ -122.747586, 45.552462 ], [ -122.747766, 45.552495 ], [ -122.747946, 45.552522 ], [ -122.748127, 45.552542 ] ] } },
{ "type": "Feature", "properties": { "cls": "shared", "highway": "path", "name": "Northwest Firelane 1 Road" }, "geometry": { "type": "LineString", "coordinates": [ [ -122.748127, 45.552542 ], [ -122.748108, 45.552584 ], [ -122.748109, 45.552628 ], [ -122.748129, 45.55267 ], [ -122.748409, 45.552944 ], [ -122.748631, 45.553184 ], [ -122.748759, 45.553277 ], [ -122.748833, 45.553315 ], [ -122.749073, 45.553528 ], [ -122.749185, 45.553639 ], [ -122.749263, 45.553786 ], [ -122.749325, 45.553925 ], [ -122.749379, 45.554065 ], [ -122.749423, 45.554207 ], [ -122.749458, 45.55435 ], [ -122.749495, 45.554585 ], [ -122.749507, 45.554824 ], [ -122.749492, 45.555117 ], [ -122.749513, 45.555166 ], [ -122.749815, 45.555473 ], [ -122.749832, 45.555533 ], [ -122.749818, 45.555581 ], [ -122.749782, 45.555624 ], [ -122.749729, 45.555655 ], [ -122.749664, 45.555673 ], [ -122.749593, 45.555675 ], [ -122.749525, 45.555659 ], [ -122.749468, 45.555628 ], [ -122.749261, 45.555418 ], [ -122.749124, 45.555315 ], [ -122.749065, 45.555245 ], [ -122.749011, 45.555226 ], [ -122.748951, 45.555224 ], [ -122.748911, 45.555234 ], [ -122.748878, 45.555253 ], [ -122.748855, 45.555278 ], [ -122.748845, 45.555307 ], [ -122.748881, 45.555581 ], [ -122.748879, 45.555642 ], [ -122.748853, 45.55576 ], [ -122.748799, 45.555872 ], [ -122.74866, 45.556038 ], [ -122.748648, 45.556091 ], [ -122.748669, 45.556143 ], [ -122.748839, 45.556645 ], [ -122.748854, 45.556715 ], [ -122.748874, 45.556923 ], [ -122.748935, 45.557167 ], [ -122.748988, 45.557279 ] ] } },
{ "type": "Feature", "properties": { "cls": "shared", "highway": "path", "name": "Northwest Firelane 1 Road" }, "geometry": { "type": "LineString", "coordinates": [ [ -122.734167, 45.553823 ], [ -122.734171, 45.553804 ], [ -122.734208, 45.553791 ], [ -122.73426, 45.553793 ], [ -122.734293, 45.55381 ], [ -122.734351, 45.553867 ], [ -122.734456, 45.553994 ], [ -122.734581, 45.554063 ], [ -122.734694, 45.554163 ], [ -122.734766, 45.554206 ], [ -122.734808, 45.554221 ], [ -122.734911, 45.554237 ], [ -122.734954, 45.554255 ], [ -122.734984, 45.554278 ], [ -122.735006, 45.554306 ], [ -122.735032, 45.554374 ], [ -122.735135, 45.554489 ], [ -122.735304, 45.554568 ], [ -122.735506, 45.55465 ], [ -122.735591, 45.554696 ], [ -122.735905, 45.554898 ], [ -122.736024, 45.55502 ], [ -122.736516, 45.555373 ], [ -122.736565, 45.555402 ], [ -122.736657, 45.555433 ], [ -122.736834, 45.555444 ], [ -122.736883, 45.555457 ], [ -122.73693, 45.555482 ], [ -122.737022, 45.555619 ], [ -122.737084, 45.555686 ], [ -122.737349, 45.555826 ], [ -122.737549, 45.555922 ], [ -122.738204, 45.556276 ], [ -122.738277, 45.556318 ], [ -122.738471, 45.556398 ], [ -122.738577, 45.556434 ], [ -122.738645, 45.556472 ], [ -122.738885, 45.556697 ], [ -122.739058, 45.55683 ], [ -122.739323, 45.556973 ], [ -122.739402, 45.557037 ], [ -122.739648, 45.557208 ], [ -122.739848, 45.557379 ], [ -122.739943, 45.557444 ], [ -122.740008, 45.557511 ], [ -122.740096, 45.557545 ], [ -122.740196, 45.557558 ], [ -122.74034, 45.55754 ], [ -122.740385, 45.557542 ], [ -122.74046, 45.557597 ], [ -122.740478, 45.557641 ], [ -122.740495, 45.557756 ], [ -122.740531, 45.557875 ], [ -122.740595, 45.557941 ], [ -122.74068, 45.557994 ], [ -122.740865, 45.558071 ], [ -122.740911, 45.558083 ], [ -122.741044, 45.558095 ], [ -122.741094, 45.558109 ], [ -122.741276, 45.558201 ], [ -122.741544, 45.558404 ], [ -122.741658, 45.558497 ], [ -122.741703, 45.558518 ], [ -122.741861, 45.558567 ], [ -122.741902, 45.558597 ], [ -122.741927, 45.558634 ], [ -122.741914, 45.558695 ], [ -122.741927, 45.558832 ], [ -122.741951, 45.558864 ], [ -122.742015, 45.558908 ], [ -122.742208, 45.558974 ], [ -122.742467, 45.559075 ], [ -122.742619, 45.559158 ], [ -122.742775, 45.559282 ], [ -122.743161, 45.55957 ], [ -122.743216, 45.559624 ], [ -122.743323, 45.559675 ], [ -122.743353, 45.5597 ], [ -122.74337, 45.559731 ], [ -122.74338, 45.559899 ], [ -122.743411, 45.559955 ], [ -122.743465, 45.56 ], [ -122.7435, 45.560018 ], [ -122.743574, 45.560038 ], [ -122.743617, 45.560042 ], [ -122.743701, 45.560035 ], [ -122.743844, 45.559997 ], [ -122.74403, 45.56016 ], [ -122.744073, 45.560456 ], [ -122.744106, 45.560485 ], [ -122.744161, 45.560509 ], [ -122.74428, 45.560525 ], [ -122.744339, 45.560548 ], [ -122.745056, 45.560996 ], [ -122.7451, 45.56103 ], [ -122.745158, 45.561053 ], [ -122.745223, 45.561061 ], [ -122.745289, 45.561053 ], [ -122.745739, 45.560897 ], [ -122.745783, 45.560892 ], [ -122.745827, 45.560898 ], [ -122.745865, 45.560914 ], [ -122.745892, 45.560936 ], [ -122.745907, 45.560963 ], [ -122.74592, 45.561026 ], [ -122.745965, 45.561089 ], [ -122.746036, 45.561139 ], [ -122.746079, 45.561157 ], [ -122.746168, 45.561228 ], [ -122.746242, 45.561308 ], [ -122.746328, 45.56137 ], [ -122.74638, 45.561394 ], [ -122.746511, 45.561477 ], [ -122.746633, 45.5616 ], [ -122.7467, 45.561641 ], [ -122.746952, 45.561711 ], [ -122.74712, 45.561763 ], [ -122.747282, 45.561822 ], [ -122.747576, 45.561964 ], [ -122.747662, 45.562026 ], [ -122.747712, 45.562038 ], [ -122.747741, 45.562012 ] ] } },
{ "type": "Feature", "properties": { "cls": "shared", "highway": "path", "name": "Northwest Firelane 1 Road" }, "geometry": { "type": "LineString", "coordinates": [ [ -122.749567, 45.55731 ], [ -122.74954, 45.557474 ], [ -122.749528, 45.557626 ], [ -122.749474, 45.557843 ], [ -122.749471, 45.557895 ], [ -122.74949, 45.557998 ], [ -122.749577, 45.558147 ], [ -122.749611, 45.558244 ], [ -122.749608, 45.558344 ], [ -122.749592, 45.558393 ], [ -122.749517, 45.558516 ], [ -122.749458, 45.55865 ], [ -122.749426, 45.558763 ], [ -122.74942, 45.558824 ], [ -122.749385, 45.558943 ], [ -122.749245, 45.559201 ], [ -122.749136, 45.559335 ], [ -122.748999, 45.559457 ], [ -122.748921, 45.559511 ], [ -122.748759, 45.559603 ], [ -122.748668, 45.559686 ], [ -122.748602, 45.55978 ], [ -122.747984, 45.560599 ], [ -122.747851, 45.560938 ], [ -122.747727, 45.561279 ], [ -122.747694, 45.561336 ], [ -122.747653, 45.561456 ], [ -122.747647, 45.56158 ], [ -122.747657, 45.561641 ], [ -122.747701, 45.561755 ], [ -122.747729, 45.561887 ], [ -122.747741, 45.562012 ] ] } },
{ "type": "Feature", "properties": { "cls": "shared", "highway": "path", "name": "Northwest Saltzman Road" }, "geometry": { "type": "LineString", "coordinates": [ [ -122.753421, 45.566366 ], [ -122.753471, 45.566488 ], [ -122.753488, 45.566595 ], [ -122.75357, 45.566674 ], [ -122.753698, 45.566767 ], [ -122.753858, 45.56685 ], [ -122.753984, 45.56689 ], [ -122.754107, 45.566902 ], [ -122.754259, 45.56689 ], [ -122.75452, 45.566871 ], [ -122.754874, 45.566863 ], [ -122.755031, 45.566865 ], [ -122.755096, 45.566874 ], [ -122.755154, 45.56689 ], [ -122.755224, 45.566927 ], [ -122.755295, 45.566945 ], [ -122.75552, 45.566947 ], [ -122.755759, 45.566916 ], [ -122.756093, 45.566882 ], [ -122.756184, 45.566863 ], [ -122.756267, 45.566839 ], [ -122.756329, 45.5668 ], [ -122.756366, 45.566761 ], [ -122.756521, 45.566577 ], [ -122.756937, 45.566134 ], [ -122.757151, 45.565862 ], [ -122.75737, 45.565568 ], [ -122.757501, 45.565364 ], [ -122.757599, 45.565284 ], [ -122.757693, 45.565255 ], [ -122.757803, 45.565229 ], [ -122.757873, 45.565176 ], [ -122.757928, 45.565105 ], [ -122.757994, 45.565038 ], [ -122.758086, 45.564962 ], [ -122.758181, 45.564921 ], [ -122.758262, 45.564928 ], [ -122.758312, 45.564971 ], [ -122.758337, 45.565033 ], [ -122.758335, 45.565104 ], [ -122.75828, 45.565198 ], [ -122.758268, 45.565277 ], [ -122.758297, 45.56534 ], [ -122.75839, 45.565387 ], [ -122.758514, 45.565405 ], [ -122.758612, 45.565413 ], [ -122.758675, 45.565428 ], [ -122.758713, 45.565455 ], [ -122.758727, 45.565529 ], [ -122.7587, 45.565632 ], [ -122.758641, 45.565735 ], [ -122.758585, 45.565809 ], [ -122.758441, 45.565974 ], [ -122.758407, 45.56607 ], [ -122.758404, 45.566152 ], [ -122.758425, 45.566234 ], [ -122.758462, 45.566313 ], [ -122.758596, 45.566416 ], [ -122.758661, 45.566461 ], [ -122.758708, 45.566526 ], [ -122.758776, 45.566628 ] ] } },
{ "type": "Feature", "properties": { "cls": "shared", "highway": "path", "name": "Northwest Firelane 3 Road" }, "geometry": { "type": "LineString", "coordinates": [ [ -122.760501, 45.555025 ], [ -122.761299, 45.55461 ], [ -122.761526, 45.554534 ], [ -122.761858, 45.554445 ], [ -122.762163, 45.554385 ], [ -122.762475, 45.554345 ], [ -122.762632, 45.554332 ], [ -122.762878, 45.554344 ], [ -122.763053, 45.554336 ], [ -122.763309, 45.554308 ], [ -122.763444, 45.5543 ], [ -122.763706, 45.554306 ] ] } },
{ "type": "Feature", "properties": { "cls": "shared", "highway": "path", "name": "Northwest Firelane 3 Road" }, "geometry": { "type": "LineString", "coordinates": [ [ -122.755926, 45.55748 ], [ -122.756091, 45.55743 ], [ -122.756171, 45.557416 ], [ -122.756336, 45.557407 ], [ -122.756545, 45.557416 ], [ -122.756667, 45.557394 ], [ -122.756775, 45.557348 ], [ -122.756897, 45.557255 ], [ -122.756994, 45.557209 ], [ -122.757283, 45.557137 ], [ -122.757334, 45.557132 ], [ -122.757434, 45.557142 ], [ -122.757524, 45.557176 ], [ -122.757654, 45.557209 ], [ -122.757791, 45.557219 ], [ -122.75786, 45.557216 ], [ -122.757993, 45.557191 ], [ -122.758113, 45.557145 ], [ -122.758193, 45.557096 ], [ -122.75878, 45.556675 ], [ -122.759274, 45.556255 ], [ -122.759344, 45.556139 ], [ -122.759386, 45.556046 ], [ -122.759458, 45.555805 ], [ -122.759532, 45.555671 ], [ -122.759642, 45.555549 ], [ -122.759709, 45.555495 ], [ -122.759828, 45.555407 ], [ -122.760083, 45.555242 ], [ -122.760218, 45.555166 ], [ -122.760501, 45.555025 ] ] } },
{ "type": "Feature", "properties": { "cls": "shared", "highway": "path", "name": "Northwest Leif Erikson Drive" }, "geometry": { "type": "LineString", "coordinates": [ [ -122.748988, 45.557279 ], [ -122.749071, 45.557252 ], [ -122.749159, 45.55724 ], [ -122.749285, 45.557258 ], [ -122.749395, 45.557287 ], [ -122.749487, 45.557309 ], [ -122.749567, 45.55731 ], [ -122.749631, 45.557281 ], [ -122.749667, 45.557239 ], [ -122.749697, 45.557188 ], [ -122.749757, 45.557057 ], [ -122.749821, 45.556927 ], [ -122.749907, 45.556808 ], [ -122.74995, 45.556706 ], [ -122.749976, 45.5566 ], [ -122.750045, 45.556507 ], [ -122.750185, 45.556447 ], [ -122.750287, 45.556424 ], [ -122.750351, 45.556394 ], [ -122.750441, 45.55633 ], [ -122.750536, 45.556235 ], [ -122.750638, 45.556086 ], [ -122.750774, 45.555887 ], [ -122.750828, 45.555764 ], [ -122.750871, 45.555675 ], [ -122.750883, 45.555548 ], [ -122.750904, 45.555435 ], [ -122.751008, 45.555312 ], [ -122.751107, 45.555197 ], [ -122.751189, 45.555054 ], [ -122.751311, 45.554834 ], [ -122.751426, 45.55463 ], [ -122.751608, 45.554392 ], [ -122.751737, 45.554176 ], [ -122.751945, 45.55396 ], [ -122.752118, 45.553731 ], [ -122.752286, 45.553576 ], [ -122.752523, 45.553373 ], [ -122.752777, 45.553182 ], [ -122.752909, 45.553005 ], [ -122.752983, 45.552922 ], [ -122.753089, 45.552805 ], [ -122.753224, 45.552791 ], [ -122.753307, 45.552807 ], [ -122.753371, 45.552883 ], [ -122.753409, 45.552958 ], [ -122.753423, 45.553062 ], [ -122.753381, 45.553288 ], [ -122.753237, 45.553581 ], [ -122.75309, 45.553826 ], [ -122.753031, 45.554147 ], [ -122.752939, 45.55455 ], [ -122.752863, 45.554934 ], [ -122.752834, 45.555356 ], [ -122.752793, 45.555468 ], [ -122.752823, 45.555595 ], [ -122.752847, 45.555731 ], [ -122.752837, 45.555843 ], [ -122.752803, 45.556029 ], [ -122.752818, 45.556161 ], [ -122.752858, 45.556308 ], [ -122.752873, 45.556472 ], [ -122.752908, 45.556584 ], [ -122.752966, 45.556667 ], [ -122.75306, 45.556702 ], [ -122.753148, 45.556712 ], [ -122.753347, 45.556684 ], [ -122.754025, 45.55642 ], [ -122.754662, 45.556209 ], [ -122.754871, 45.556118 ], [ -122.755126, 45.555966 ], [ -122.755608, 45.555626 ], [ -122.756254, 45.555247 ], [ -122.756532, 45.554971 ], [ -122.756924, 45.554678 ], [ -122.757199, 45.554488 ], [ -122.75734, 45.554451 ], [ -122.757491, 45.554458 ], [ -122.757584, 45.554493 ], [ -122.757616, 45.554529 ], [ -122.757633, 45.554599 ], [ -122.757627, 45.554692 ], [ -122.757514, 45.554821 ], [ -122.757281, 45.555064 ], [ -122.757068, 45.555353 ], [ -122.756856, 45.555762 ], [ -122.756766, 45.555949 ], [ -122.756603, 45.556131 ], [ -122.756364, 45.556487 ], [ -122.756247, 45.55669 ], [ -122.756065, 45.556918 ], [ -122.755854, 45.557106 ], [ -122.755758, 45.557202 ], [ -122.755712, 45.557318 ], [ -122.755731, 45.557388 ], [ -122.755818, 45.557445 ], [ -122.755926, 45.55748 ], [ -122.756136, 45.557523 ], [ -122.756469, 45.557553 ], [ -122.756847, 45.557562 ], [ -122.757038, 45.557599 ], [ -122.757156, 45.557675 ], [ -122.757295, 45.557799 ], [ -122.757385, 45.557948 ], [ -122.757458, 45.55806 ], [ -122.75751, 45.558096 ], [ -122.757595, 45.558119 ], [ -122.757653, 45.558122 ], [ -122.757711, 45.558115 ], [ -122.757904, 45.558035 ], [ -122.758201, 45.55794 ], [ -122.758412, 45.557881 ], [ -122.758591, 45.557857 ], [ -122.758728, 45.557886 ], [ -122.758926, 45.557944 ], [ -122.759082, 45.557958 ], [ -122.759247, 45.557945 ], [ -122.759536, 45.55786 ], [ -122.759863, 45.557791 ], [ -122.759967, 45.557745 ], [ -122.760059, 45.557667 ], [ -122.760235, 45.557481 ], [ -122.760343, 45.55729 ], [ -122.760462, 45.557224 ], [ -122.760552, 45.557207 ], [ -122.760643, 45.557216 ], [ -122.760758, 45.557278 ], [ -122.760861, 45.557345 ], [ -122.760934, 45.557396 ], [ -122.761007, 45.557483 ], [ -122.761038, 45.557561 ], [ -122.761007, 45.557658 ], [ -122.760938, 45.557762 ], [ -122.760828, 45.557845 ], [ -122.760561, 45.558086 ], [ -122.760391, 45.558262 ], [ -122.760382, 45.558368 ], [ -122.76042, 45.558452 ], [ -122.760468, 45.558503 ], [ -122.760747, 45.558596 ], [ -122.761035, 45.558669 ], [ -122.761193, 45.558737 ], [ -122.76139, 45.558806 ], [ -122.761651, 45.558847 ], [ -122.762054, 45.558846 ], [ -122.763011, 45.558815 ], [ -122.763498, 45.558806 ], [ -122.763655, 45.558835 ], [ -122.76373, 45.558867 ], [ -122.76379, 45.558917 ], [ -122.763792, 45.558987 ], [ -122.763732, 45.559054 ], [ -122.763546, 45.559158 ], [ -122.762776, 45.559402 ], [ -122.761849, 45.559761 ], [ -122.761293, 45.559908 ], [ -122.760998, 45.56001 ], [ -122.760606, 45.560138 ], [ -122.760489, 45.560189 ], [ -122.760333, 45.56026 ], [ -122.760189, 45.560379 ], [ -122.759984, 45.560603 ], [ -122.759813, 45.560759 ], [ -122.75963, 45.560945 ], [ -122.759576, 45.561073 ], [ -122.759579, 45.561144 ], [ -122.759621, 45.561216 ], [ -122.759676, 45.561259 ], [ -122.759773, 45.561288 ], [ -122.76019, 45.561314 ], [ -122.760311, 45.561339 ], [ -122.760389, 45.561387 ], [ -122.760435, 45.561461 ], [ -122.760417, 45.561607 ], [ -122.760383, 45.561732 ], [ -122.760407, 45.561799 ], [ -122.760497, 45.561857 ], [ -122.760701, 45.561888 ], [ -122.761133, 45.561963 ], [ -122.761382, 45.561963 ], [ -122.761509, 45.561956 ], [ -122.76163, 45.56193 ], [ -122.761718, 45.561894 ], [ -122.761816, 45.561786 ], [ -122.761865, 45.561703 ], [ -122.76193, 45.561458 ], [ -122.761984, 45.561366 ], [ -122.762085, 45.561287 ], [ -122.762225, 45.561223 ], [ -122.762338, 45.561217 ], [ -122.762427, 45.561261 ], [ -122.762594, 45.561471 ], [ -122.762859, 45.561766 ], [ -122.762963, 45.561866 ], [ -122.763069, 45.561922 ], [ -122.76318, 45.561934 ], [ -122.763301, 45.56191 ], [ -122.763423, 45.561847 ], [ -122.763535, 45.561751 ], [ -122.763623, 45.561694 ], [ -122.763686, 45.561676 ], [ -122.763774, 45.561689 ], [ -122.763933, 45.561741 ], [ -122.764059, 45.561755 ], [ -122.76419, 45.561752 ], [ -122.764266, 45.561736 ], [ -122.764316, 45.561714 ], [ -122.764414, 45.561648 ], [ -122.764468, 45.561608 ], [ -122.764543, 45.561563 ], [ -122.764626, 45.561554 ], [ -122.764753, 45.561564 ], [ -122.764873, 45.561562 ], [ -122.765088, 45.561526 ], [ -122.765232, 45.561487 ], [ -122.765376, 45.56146 ], [ -122.765508, 45.561471 ], [ -122.765599, 45.561539 ], [ -122.765633, 45.561614 ], [ -122.765612, 45.561713 ], [ -122.765549, 45.561796 ], [ -122.765456, 45.561848 ] ] } },
{ "type": "Feature", "properties": { "cls": "shared", "highway": "path", "name": "Northwest Saltzman Road" }, "geometry": { "type": "LineString", "coordinates": [ [ -122.774251, 45.560509 ], [ -122.774326, 45.560525 ] ] } },
{ "type": "Feature", "properties": { "cls": "shared", "highway": "path", "name": "Northwest Saltzman Road" }, "geometry": { "type": "LineString", "coordinates": [ [ -122.762852, 45.563912 ], [ -122.762937, 45.563901 ], [ -122.762999, 45.563925 ] ] } },
{ "type": "Feature", "properties": { "cls": "shared", "highway": "path", "name": "Northwest Firelane 5 Road" }, "geometry": { "type": "MultiLineString", "coordinates": [ [ [ -122.783399, 45.562183 ], [ -122.782671, 45.562844 ], [ -122.782644, 45.56288 ], [ -122.782598, 45.562904 ], [ -122.782542, 45.562914 ], [ -122.782359, 45.562894 ], [ -122.782174, 45.562882 ], [ -122.782161, 45.562881 ] ], [ [ -122.781878, 45.562876 ], [ -122.781804, 45.562876 ], [ -122.781469, 45.56289 ], [ -122.78117, 45.562885 ], [ -122.780876, 45.562858 ] ], [ [ -122.780661, 45.562854 ], [ -122.780557, 45.562886 ], [ -122.780421, 45.562952 ], [ -122.780308, 45.563037 ], [ -122.780224, 45.563138 ], [ -122.780092, 45.563254 ], [ -122.77994, 45.563357 ], [ -122.779876, 45.563437 ], [ -122.779772, 45.563604 ], [ -122.779702, 45.56378 ], [ -122.779699, 45.563816 ], [ -122.779667, 45.563885 ], [ -122.779664, 45.563888 ] ], [ [ -122.779536, 45.563871 ], [ -122.779463, 45.563819 ], [ -122.779414, 45.563765 ], [ -122.779342, 45.563726 ], [ -122.779301, 45.563713 ], [ -122.779075, 45.563672 ], [ -122.778925, 45.563627 ], [ -122.778791, 45.563604 ], [ -122.778721, 45.5636 ], [ -122.778308, 45.563625 ], [ -122.777989, 45.563629 ], [ -122.777847, 45.563653 ], [ -122.777335, 45.563822 ], [ -122.77727, 45.563849 ], [ -122.777158, 45.563921 ], [ -122.777076, 45.56401 ], [ -122.777071, 45.564233 ], [ -122.777081, 45.564411 ], [ -122.777062, 45.564544 ], [ -122.777012, 45.564672 ], [ -122.776931, 45.564792 ], [ -122.776822, 45.564818 ], [ -122.776707, 45.56482 ], [ -122.776614, 45.564808 ], [ -122.776541, 45.564811 ], [ -122.776473, 45.564831 ], [ -122.776419, 45.564865 ], [ -122.776384, 45.564911 ], [ -122.776209, 45.565343 ], [ -122.776188, 45.565421 ], [ -122.776138, 45.565492 ], [ -122.776036, 45.565574 ], [ -122.775999, 45.56559 ], [ -122.775946, 45.565597 ], [ -122.775894, 45.565589 ], [ -122.775858, 45.565572 ], [ -122.775832, 45.565548 ], [ -122.775813, 45.565469 ], [ -122.775804, 45.565404 ], [ -122.775789, 45.565358 ], [ -122.775756, 45.565275 ], [ -122.775738, 45.565221 ], [ -122.775718, 45.565129 ], [ -122.775694, 45.565086 ], [ -122.775656, 45.565037 ], [ -122.775619, 45.565004 ], [ -122.775569, 45.564974 ], [ -122.775502, 45.564958 ], [ -122.775445, 45.564953 ], [ -122.775328, 45.564952 ], [ -122.775071, 45.564976 ], [ -122.774909, 45.565001 ], [ -122.774824, 45.565023 ], [ -122.77475, 45.565055 ], [ -122.774664, 45.565106 ], [ -122.774528, 45.565168 ], [ -122.774378, 45.565211 ], [ -122.7741, 45.56532 ], [ -122.773763, 45.565488 ], [ -122.773597, 45.565552 ], [ -122.773511, 45.565577 ], [ -122.773371, 45.565642 ], [ -122.773257, 45.565728 ], [ -122.773114, 45.565903 ], [ -122.772975, 45.566041 ], [ -122.772896, 45.566105 ], [ -122.772708, 45.566238 ], [ -122.772665, 45.56628 ], [ -122.772562, 45.566415 ], [ -122.772464, 45.566488 ], [ -122.772406, 45.566516 ], [ -122.772223, 45.566581 ], [ -122.771997, 45.56668 ], [ -122.77181, 45.566779 ], [ -122.771718, 45.566805 ], [ -122.771542, 45.566909 ], [ -122.771391, 45.56703 ], [ -122.771268, 45.567166 ] ] ] } },
{ "type": "Feature", "properties": { "cls": "shared", "highway": "path", "name": "Northwest Saltzman Road" }, "geometry": { "type": "MultiLineString", "coordinates": [ [ [ -122.76319, 45.569361 ], [ -122.763366, 45.569357 ], [ -122.763463, 45.569342 ], [ -122.763547, 45.569321 ], [ -122.763644, 45.569274 ], [ -122.764015, 45.569002 ], [ -122.764197, 45.568882 ], [ -122.764394, 45.568776 ], [ -122.764581, 45.568715 ], [ -122.76486, 45.568628 ], [ -122.765179, 45.568536 ], [ -122.765337, 45.568484 ], [ -122.765477, 45.568416 ], [ -122.765625, 45.568328 ], [ -122.765938, 45.568185 ], [ -122.766081, 45.568122 ], [ -122.766198, 45.568067 ], [ -122.766234, 45.568024 ], [ -122.766261, 45.567974 ], [ -122.766311, 45.567923 ], [ -122.766388, 45.567874 ], [ -122.766475, 45.567828 ], [ -122.766545, 45.567769 ], [ -122.766601, 45.56768 ], [ -122.766643, 45.56764 ], [ -122.766699, 45.567617 ], [ -122.7668, 45.567619 ], [ -122.766933, 45.567642 ], [ -122.76707, 45.567637 ], [ -122.767174, 45.567608 ], [ -122.767244, 45.567545 ], [ -122.76727, 45.567465 ], [ -122.76728, 45.567368 ], [ -122.767255, 45.567222 ], [ -122.767239, 45.566988 ], [ -122.767252, 45.566809 ], [ -122.767311, 45.566707 ], [ -122.767411, 45.566613 ], [ -122.767498, 45.566585 ], [ -122.767597, 45.566592 ], [ -122.767697, 45.566633 ], [ -122.767807, 45.566676 ], [ -122.767894, 45.566701 ], [ -122.767981, 45.566705 ], [ -122.768059, 45.56669 ], [ -122.768128, 45.566656 ], [ -122.768218, 45.56659 ], [ -122.768407, 45.566409 ], [ -122.768495, 45.566306 ], [ -122.768549, 45.566231 ], [ -122.768607, 45.566179 ], [ -122.768751, 45.566118 ], [ -122.768862, 45.566045 ], [ -122.768998, 45.565962 ], [ -122.769082, 45.56589 ], [ -122.769121, 45.565818 ], [ -122.76913, 45.565714 ], [ -122.769133, 45.565614 ], [ -122.769188, 45.565517 ], [ -122.769231, 45.565441 ], [ -122.769261, 45.565317 ], [ -122.769328, 45.565093 ], [ -122.769409, 45.564942 ], [ -122.76952, 45.564868 ], [ -122.769641, 45.564789 ], [ -122.769748, 45.564748 ], [ -122.769833, 45.564751 ], [ -122.769912, 45.564777 ], [ -122.770029, 45.564911 ], [ -122.770119, 45.564999 ], [ -122.770217, 45.565055 ], [ -122.770291, 45.565059 ], [ -122.770365, 45.56504 ], [ -122.770427, 45.564997 ], [ -122.770543, 45.564903 ], [ -122.771051, 45.564434 ], [ -122.771626, 45.563795 ], [ -122.771662, 45.56374 ], [ -122.771678, 45.563685 ], [ -122.771696, 45.563627 ], [ -122.77173, 45.563575 ], [ -122.771778, 45.563513 ], [ -122.771838, 45.563467 ], [ -122.771895, 45.563422 ], [ -122.771937, 45.56338 ], [ -122.772078, 45.563091 ], [ -122.772122, 45.563004 ], [ -122.772133, 45.562916 ], [ -122.772147, 45.562861 ], [ -122.77218, 45.56282 ], [ -122.772272, 45.562785 ], [ -122.772407, 45.562744 ], [ -122.772528, 45.562685 ], [ -122.772624, 45.562638 ], [ -122.772683, 45.562591 ], [ -122.772729, 45.562525 ], [ -122.772763, 45.562435 ], [ -122.772778, 45.562325 ], [ -122.772784, 45.562198 ], [ -122.772792, 45.56212 ], [ -122.772827, 45.562054 ], [ -122.772897, 45.561983 ], [ -122.77298, 45.561901 ], [ -122.773088, 45.561754 ], [ -122.773093, 45.561745 ] ], [ [ -122.773164, 45.561295 ], [ -122.77317, 45.561276 ] ], [ [ -122.774247, 45.560511 ], [ -122.774251, 45.560509 ] ] ] } },
{ "type": "Feature", "properties": { "cls": "shared", "highway": "path", "name": "Northwest Saltzman Road" }, "geometry": { "type": "LineString", "coordinates": [ [ -122.758776, 45.566628 ], [ -122.758845, 45.566658 ], [ -122.758937, 45.566655 ], [ -122.759035, 45.56663 ], [ -122.759182, 45.56657 ], [ -122.759579, 45.566422 ], [ -122.759866, 45.566296 ], [ -122.760055, 45.566187 ], [ -122.760419, 45.565957 ], [ -122.760678, 45.565786 ], [ -122.760867, 45.565608 ], [ -122.761029, 45.56543 ], [ -122.761273, 45.565035 ], [ -122.761436, 45.56484 ], [ -122.761562, 45.564721 ], [ -122.761771, 45.564617 ], [ -122.762452, 45.564222 ], [ -122.762659, 45.564086 ], [ -122.762743, 45.564015 ], [ -122.762852, 45.563912 ] ] } },
{ "type": "Feature", "properties": { "cls": "shared", "highway": "path", "name": "Northwest Saltzman Road" }, "geometry": { "type": "MultiLineString", "coordinates": [ [ [ -122.774326, 45.560525 ], [ -122.774385, 45.560564 ], [ -122.774408, 45.560637 ], [ -122.774412, 45.560726 ], [ -122.774411, 45.560734 ] ] ] } },
{ "type": "Feature", "properties": { "cls": "shared", "highway": "path", "name": "Northwest Springville Road" }, "geometry": { "type": "LineString", "coordinates": [ [ -122.782838, 45.582955 ], [ -122.78299, 45.58286 ], [ -122.783093, 45.582769 ], [ -122.783136, 45.58272 ], [ -122.783203, 45.582614 ], [ -122.783241, 45.58251 ], [ -122.783246, 45.582399 ], [ -122.783277, 45.582298 ], [ -122.783332, 45.582202 ], [ -122.783596, 45.581841 ], [ -122.783621, 45.58182 ], [ -122.783681, 45.581788 ], [ -122.783793, 45.581754 ], [ -122.783831, 45.581733 ], [ -122.783862, 45.581707 ], [ -122.783905, 45.581647 ], [ -122.783915, 45.581579 ], [ -122.78381, 45.58125 ], [ -122.783792, 45.581214 ], [ -122.783794, 45.581183 ], [ -122.783816, 45.581147 ], [ -122.783997, 45.580765 ], [ -122.784041, 45.580722 ], [ -122.784103, 45.580691 ], [ -122.784195, 45.580676 ], [ -122.784306, 45.580693 ], [ -122.784395, 45.580745 ], [ -122.784485, 45.580771 ], [ -122.784533, 45.580776 ], [ -122.78463, 45.580768 ], [ -122.784717, 45.580738 ], [ -122.784785, 45.58069 ], [ -122.78481, 45.580659 ], [ -122.784835, 45.580592 ], [ -122.784824, 45.580459 ], [ -122.784853, 45.580371 ], [ -122.784955, 45.58026 ], [ -122.784985, 45.580205 ], [ -122.784988, 45.580152 ], [ -122.784963, 45.580075 ], [ -122.784969, 45.580023 ], [ -122.784999, 45.579975 ], [ -122.78505, 45.579936 ], [ -122.785116, 45.57991 ], [ -122.785176, 45.579858 ], [ -122.785273, 45.579744 ], [ -122.785337, 45.579618 ], [ -122.785356, 45.579552 ], [ -122.785366, 45.579419 ], [ -122.785344, 45.579301 ], [ -122.785335, 45.578806 ], [ -122.785402, 45.578585 ], [ -122.786038, 45.577643 ], [ -122.786243, 45.57739 ], [ -122.786293, 45.577315 ], [ -122.786364, 45.577159 ], [ -122.786399, 45.576997 ], [ -122.78651, 45.576354 ], [ -122.786518, 45.576238 ], [ -122.786521, 45.576164 ], [ -122.786497, 45.576029 ], [ -122.786497, 45.575911 ], [ -122.786494, 45.575808 ], [ -122.786537, 45.575648 ], [ -122.786706, 45.575286 ], [ -122.786757, 45.575177 ], [ -122.786808, 45.57507 ], [ -122.786905, 45.574974 ], [ -122.787347, 45.574734 ], [ -122.787433, 45.574687 ], [ -122.787522, 45.574657 ], [ -122.787642, 45.574629 ], [ -122.787774, 45.574606 ], [ -122.788002, 45.574574 ], [ -122.788165, 45.574563 ], [ -122.788468, 45.574533 ] ] } },
{ "type": "Feature", "properties": { "cls": "shared", "highway": "path", "name": "Northwest Leif Erikson Drive" }, "geometry": { "type": "LineString", "coordinates": [ [ -122.782838, 45.582955 ], [ -122.782944, 45.582966 ], [ -122.783078, 45.582967 ], [ -122.783363, 45.582889 ], [ -122.783568, 45.582805 ], [ -122.783669, 45.582751 ], [ -122.783733, 45.58268 ], [ -122.783899, 45.582442 ], [ -122.784053, 45.582279 ], [ -122.784156, 45.582217 ], [ -122.784262, 45.582182 ], [ -122.784399, 45.582115 ], [ -122.784457, 45.582064 ], [ -122.784496, 45.582014 ], [ -122.78455, 45.581892 ], [ -122.784682, 45.581731 ], [ -122.784828, 45.581615 ], [ -122.784969, 45.581546 ], [ -122.785206, 45.581482 ], [ -122.78531, 45.581433 ], [ -122.785489, 45.581344 ], [ -122.785734, 45.581205 ], [ -122.785825, 45.581129 ], [ -122.785979, 45.580974 ], [ -122.786114, 45.580801 ], [ -122.786232, 45.580742 ], [ -122.786318, 45.580742 ], [ -122.786371, 45.580778 ], [ -122.786414, 45.58086 ], [ -122.786456, 45.580979 ], [ -122.786478, 45.581064 ], [ -122.786468, 45.581173 ], [ -122.786416, 45.58129 ], [ -122.786223, 45.581674 ], [ -122.78599, 45.582054 ], [ -122.785751, 45.582504 ], [ -122.785699, 45.582639 ], [ -122.785721, 45.582723 ], [ -122.785774, 45.582788 ], [ -122.785882, 45.582829 ], [ -122.7861, 45.582847 ], [ -122.786383, 45.582847 ], [ -122.786745, 45.582826 ], [ -122.787787, 45.58279 ], [ -122.788195, 45.582764 ], [ -122.788386, 45.582796 ], [ -122.788438, 45.582862 ], [ -122.788437, 45.582957 ], [ -122.788364, 45.583059 ], [ -122.788211, 45.583177 ], [ -122.788046, 45.583263 ], [ -122.787784, 45.583472 ], [ -122.787573, 45.583579 ], [ -122.787395, 45.583575 ], [ -122.787234, 45.583592 ], [ -122.787016, 45.583653 ], [ -122.786899, 45.583753 ], [ -122.786881, 45.58386 ] ] } },
{ "type": "Feature", "properties": { "cls": "shared", "highway": "path", "name": "Northwest Springville Road" }, "geometry": { "type": "LineString", "coordinates": [ [ -122.778171, 45.584132 ], [ -122.778362, 45.584036 ], [ -122.778492, 45.583989 ], [ -122.778675, 45.583952 ], [ -122.778865, 45.583941 ], [ -122.77989, 45.583902 ], [ -122.780101, 45.58391 ], [ -122.78028, 45.583937 ], [ -122.780455, 45.583985 ], [ -122.780586, 45.583997 ], [ -122.780716, 45.583982 ], [ -122.780834, 45.583941 ], [ -122.78093, 45.583877 ], [ -122.780995, 45.583796 ], [ -122.781024, 45.583706 ], [ -122.781024, 45.58366 ], [ -122.780995, 45.583569 ], [ -122.780966, 45.583527 ], [ -122.780958, 45.583443 ], [ -122.781, 45.583322 ], [ -122.781174, 45.583195 ], [ -122.781227, 45.583173 ], [ -122.781301, 45.583167 ], [ -122.781359, 45.583181 ], [ -122.781397, 45.583204 ], [ -122.781422, 45.583235 ], [ -122.781428, 45.583267 ], [ -122.781424, 45.583299 ], [ -122.781432, 45.583328 ], [ -122.781453, 45.583354 ], [ -122.781484, 45.583373 ], [ -122.781533, 45.583386 ], [ -122.781585, 45.583386 ], [ -122.781798, 45.583331 ], [ -122.781988, 45.583276 ], [ -122.782358, 45.583151 ], [ -122.782713, 45.583006 ], [ -122.782838, 45.582955 ] ] } },
{ "type": "Feature", "properties": { "cls": "shared", "highway": "path", "name": "Northwest Leif Erikson Drive" }, "geometry": { "type": "LineString", "coordinates": [ [ -122.786881, 45.58386 ], [ -122.786959, 45.584158 ], [ -122.786958, 45.584349 ], [ -122.786877, 45.584487 ], [ -122.786794, 45.584528 ], [ -122.786643, 45.584546 ], [ -122.78646, 45.584495 ], [ -122.78625, 45.584418 ], [ -122.785782, 45.584226 ], [ -122.785665, 45.584206 ], [ -122.785531, 45.584222 ], [ -122.785464, 45.584241 ], [ -122.785108, 45.584467 ], [ -122.784808, 45.584598 ], [ -122.784671, 45.584646 ], [ -122.784562, 45.584722 ], [ -122.784515, 45.584773 ], [ -122.784466, 45.584832 ], [ -122.784461, 45.584901 ], [ -122.784502, 45.584973 ], [ -122.784611, 45.585014 ], [ -122.785029, 45.585128 ], [ -122.785135, 45.585167 ], [ -122.785241, 45.585213 ], [ -122.785326, 45.585274 ], [ -122.785371, 45.585346 ], [ -122.785366, 45.585441 ], [ -122.785291, 45.585547 ], [ -122.785095, 45.585665 ], [ -122.784239, 45.586102 ], [ -122.784076, 45.586192 ], [ -122.784012, 45.586282 ], [ -122.78397, 45.586356 ], [ -122.783983, 45.586412 ], [ -122.784024, 45.586475 ], [ -122.784083, 45.586519 ], [ -122.784306, 45.586566 ], [ -122.78449, 45.586619 ], [ -122.784629, 45.586718 ], [ -122.784739, 45.586813 ], [ -122.784845, 45.586854 ], [ -122.784961, 45.586863 ], [ -122.785067, 45.586824 ], [ -122.785155, 45.586747 ], [ -122.785196, 45.586656 ], [ -122.78521, 45.586542 ], [ -122.785247, 45.586428 ], [ -122.785324, 45.586324 ], [ -122.78541, 45.586263 ], [ -122.78558, 45.586212 ], [ -122.785952, 45.586192 ], [ -122.786201, 45.586144 ], [ -122.786383, 45.586144 ], [ -122.78653, 45.586132 ], [ -122.786631, 45.586088 ], [ -122.786745, 45.586005 ], [ -122.786798, 45.585952 ], [ -122.786872, 45.58592 ], [ -122.786962, 45.585929 ], [ -122.787055, 45.585977 ], [ -122.787207, 45.586203 ], [ -122.787273, 45.586286 ], [ -122.787408, 45.586353 ], [ -122.787591, 45.586349 ], [ -122.787717, 45.586303 ], [ -122.787879, 45.586216 ], [ -122.788042, 45.586117 ], [ -122.788167, 45.586002 ], [ -122.788268, 45.585906 ], [ -122.78838, 45.585861 ], [ -122.788484, 45.585814 ], [ -122.788555, 45.585776 ], [ -122.788634, 45.58569 ], [ -122.788663, 45.585608 ], [ -122.788677, 45.585491 ], [ -122.788734, 45.585387 ], [ -122.788771, 45.585369 ], [ -122.788818, 45.585363 ], [ -122.788874, 45.585367 ], [ -122.78893, 45.585375 ], [ -122.78909, 45.585427 ], [ -122.789224, 45.585442 ], [ -122.789326, 45.585423 ], [ -122.78942, 45.585374 ], [ -122.789498, 45.585314 ], [ -122.789772, 45.585103 ], [ -122.790068, 45.584762 ], [ -122.790141, 45.584717 ], [ -122.790254, 45.584704 ], [ -122.79034, 45.584728 ], [ -122.790399, 45.584796 ], [ -122.790437, 45.584891 ], [ -122.790464, 45.585081 ], [ -122.790489, 45.585314 ], [ -122.790519, 45.585413 ], [ -122.790596, 45.585501 ], [ -122.790708, 45.585551 ], [ -122.790798, 45.585592 ], [ -122.790834, 45.585633 ], [ -122.790839, 45.585685 ], [ -122.790797, 45.585746 ], [ -122.790739, 45.585806 ], [ -122.79058, 45.585951 ], [ -122.790499, 45.586032 ], [ -122.790438, 45.586109 ], [ -122.790418, 45.586213 ], [ -122.790464, 45.58635 ], [ -122.790471, 45.586437 ], [ -122.790422, 45.58649 ], [ -122.790338, 45.586541 ], [ -122.790182, 45.586588 ], [ -122.789949, 45.586599 ], [ -122.78972, 45.586645 ], [ -122.789628, 45.586685 ], [ -122.789524, 45.586782 ], [ -122.78948, 45.58686 ], [ -122.78939, 45.587036 ], [ -122.789336, 45.587247 ], [ -122.789344, 45.587359 ], [ -122.789382, 45.587452 ], [ -122.789444, 45.587508 ], [ -122.78956, 45.587601 ], [ -122.789589, 45.587664 ], [ -122.789583, 45.587754 ], [ -122.789521, 45.587886 ], [ -122.789396, 45.588098 ], [ -122.789294, 45.588227 ], [ -122.78923, 45.588326 ], [ -122.789219, 45.588429 ], [ -122.789242, 45.5885 ], [ -122.789293, 45.588558 ], [ -122.78942, 45.588629 ], [ -122.789643, 45.588724 ], [ -122.789819, 45.588751 ], [ -122.789985, 45.588746 ], [ -122.790188, 45.588708 ], [ -122.790362, 45.588659 ], [ -122.790514, 45.588607 ], [ -122.790602, 45.58858 ], [ -122.790648, 45.588589 ], [ -122.790666, 45.588619 ], [ -122.790646, 45.588677 ] ] } },
{ "type": "Feature", "properties": { "cls": "shared", "highway": "path", "name": "Northwest Firelane 10 Road" }, "geometry": { "type": "LineString", "coordinates": [ [ -122.798752, 45.591089 ], [ -122.799489, 45.590929 ], [ -122.799572, 45.590901 ], [ -122.799725, 45.590829 ], [ -122.799854, 45.590737 ], [ -122.799956, 45.59063 ], [ -122.800048, 45.59048 ], [ -122.800111, 45.590429 ], [ -122.800196, 45.590396 ], [ -122.800243, 45.590388 ], [ -122.8004, 45.590392 ], [ -122.800488, 45.590379 ] ] } },
{ "type": "Feature", "properties": { "cls": "shared", "highway": "path", "name": "Northwest Firelane 10 Road" }, "geometry": { "type": "LineString", "coordinates": [ [ -122.800488, 45.590379 ], [ -122.800778, 45.590307 ], [ -122.800937, 45.590291 ], [ -122.801178, 45.590301 ], [ -122.801335, 45.590329 ], [ -122.801503, 45.590384 ], [ -122.801575, 45.59043 ], [ -122.801627, 45.590485 ], [ -122.801648, 45.590518 ], [ -122.801856, 45.590958 ], [ -122.802082, 45.59132 ] ] } },
{ "type": "Feature", "properties": { "cls": "shared", "highway": "path", "name": "Northwest Leif Erikson Drive" }, "geometry": { "type": "LineString", "coordinates": [ [ -122.765456, 45.561848 ], [ -122.765167, 45.562025 ], [ -122.765065, 45.562114 ], [ -122.764988, 45.562214 ], [ -122.764917, 45.562338 ], [ -122.764836, 45.562481 ], [ -122.764792, 45.562571 ], [ -122.764744, 45.562664 ], [ -122.764687, 45.562728 ], [ -122.764609, 45.562787 ], [ -122.764502, 45.562832 ], [ -122.764374, 45.562904 ], [ -122.764254, 45.563004 ], [ -122.764207, 45.563114 ], [ -122.764214, 45.563193 ], [ -122.764297, 45.563283 ], [ -122.765003, 45.563672 ], [ -122.765194, 45.563771 ], [ -122.765256, 45.563848 ], [ -122.765252, 45.563941 ], [ -122.765199, 45.564 ], [ -122.76465, 45.564171 ], [ -122.764508, 45.564237 ], [ -122.764404, 45.564314 ], [ -122.764287, 45.564416 ], [ -122.764175, 45.564543 ], [ -122.764124, 45.564634 ], [ -122.764073, 45.564755 ], [ -122.764081, 45.564861 ], [ -122.764135, 45.564918 ], [ -122.764248, 45.564973 ], [ -122.764319, 45.564993 ], [ -122.764543, 45.565022 ], [ -122.764767, 45.565041 ], [ -122.765463, 45.565073 ], [ -122.765665, 45.565098 ], [ -122.765843, 45.565139 ], [ -122.765905, 45.565176 ], [ -122.765951, 45.565242 ], [ -122.765959, 45.565311 ], [ -122.765915, 45.565392 ], [ -122.765758, 45.565501 ], [ -122.765574, 45.565599 ], [ -122.765426, 45.565719 ], [ -122.765301, 45.565801 ], [ -122.765101, 45.565871 ], [ -122.764895, 45.565947 ], [ -122.764777, 45.566021 ], [ -122.764704, 45.566091 ], [ -122.764686, 45.566194 ], [ -122.764693, 45.566288 ], [ -122.764718, 45.566396 ], [ -122.764707, 45.566475 ], [ -122.764664, 45.566561 ], [ -122.764551, 45.566634 ], [ -122.764363, 45.566718 ], [ -122.764259, 45.566809 ], [ -122.764229, 45.566944 ], [ -122.764259, 45.567023 ], [ -122.764357, 45.567106 ], [ -122.764462, 45.567191 ], [ -122.764528, 45.567274 ], [ -122.764519, 45.567354 ], [ -122.76446, 45.567449 ], [ -122.76438, 45.567506 ], [ -122.764292, 45.567593 ], [ -122.764269, 45.567692 ], [ -122.764322, 45.567846 ], [ -122.764387, 45.568 ], [ -122.764409, 45.568077 ], [ -122.764382, 45.568169 ], [ -122.764228, 45.568326 ], [ -122.763974, 45.568527 ], [ -122.763701, 45.568841 ], [ -122.763603, 45.568936 ], [ -122.763457, 45.569023 ], [ -122.763295, 45.569113 ], [ -122.763191, 45.569175 ], [ -122.763107, 45.569233 ], [ -122.76307, 45.569293 ], [ -122.763109, 45.569327 ], [ -122.76319, 45.569361 ] ] } },
{ "type": "Feature", "properties": { "cls": "shared", "highway": "path", "name": "Northwest Saltzman Road" }, "geometry": { "type": "LineString", "coordinates": [ [ -122.762999, 45.563925 ], [ -122.763025, 45.563977 ], [ -122.763025, 45.564072 ], [ -122.763011, 45.564173 ], [ -122.76295, 45.564336 ], [ -122.762816, 45.564558 ], [ -122.762609, 45.564816 ], [ -122.762412, 45.565083 ], [ -122.762356, 45.565198 ], [ -122.762372, 45.565298 ], [ -122.762425, 45.565354 ], [ -122.762517, 45.565394 ], [ -122.762673, 45.565428 ], [ -122.762947, 45.565451 ], [ -122.763258, 45.565468 ], [ -122.763552, 45.565474 ], [ -122.763661, 45.565504 ], [ -122.763704, 45.565552 ], [ -122.763701, 45.565602 ], [ -122.763647, 45.565658 ], [ -122.76352, 45.565716 ], [ -122.763398, 45.565796 ], [ -122.763299, 45.565889 ], [ -122.76328, 45.565967 ], [ -122.763273, 45.566063 ], [ -122.763247, 45.566113 ], [ -122.763206, 45.566145 ], [ -122.763132, 45.566156 ], [ -122.763057, 45.566157 ], [ -122.762974, 45.566163 ], [ -122.762924, 45.56619 ], [ -122.762843, 45.566254 ], [ -122.762702, 45.566328 ], [ -122.762609, 45.566399 ], [ -122.762571, 45.566466 ], [ -122.762559, 45.566569 ], [ -122.762552, 45.566643 ], [ -122.762529, 45.566699 ], [ -122.762468, 45.566765 ], [ -122.762361, 45.566864 ], [ -122.762274, 45.566966 ], [ -122.762271, 45.567082 ], [ -122.762306, 45.56724 ], [ -122.762392, 45.567337 ], [ -122.762518, 45.567374 ], [ -122.762685, 45.567382 ], [ -122.762928, 45.567397 ], [ -122.763195, 45.567474 ], [ -122.763337, 45.567505 ], [ -122.7634, 45.567552 ], [ -122.763404, 45.567615 ], [ -122.76338, 45.567684 ], [ -122.763344, 45.567748 ], [ -122.763359, 45.567815 ], [ -122.763445, 45.567873 ], [ -122.763568, 45.567946 ], [ -122.76373, 45.568012 ], [ -122.763839, 45.568061 ], [ -122.763861, 45.56811 ], [ -122.763842, 45.568187 ], [ -122.763798, 45.568252 ], [ -122.763716, 45.56832 ], [ -122.763625, 45.568424 ], [ -122.763564, 45.568587 ], [ -122.763503, 45.568739 ], [ -122.763386, 45.568888 ], [ -122.763285, 45.568987 ], [ -122.763121, 45.56911 ], [ -122.762955, 45.569219 ], [ -122.762918, 45.569276 ], [ -122.762918, 45.5693 ], [ -122.762946, 45.569323 ], [ -122.763044, 45.569349 ], [ -122.76319, 45.569361 ] ] } },
{ "type": "Feature", "properties": { "cls": "shared", "highway": "path", "name": "Northwest Firelane 5 Road" }, "geometry": { "type": "LineString", "coordinates": [ [ -122.769562, 45.56687 ], [ -122.769615, 45.566833 ], [ -122.769679, 45.566781 ], [ -122.769706, 45.566752 ], [ -122.77, 45.566639 ], [ -122.770156, 45.566608 ], [ -122.770127, 45.566661 ], [ -122.77008, 45.56669 ], [ -122.770014, 45.566809 ], [ -122.769957, 45.566858 ], [ -122.769895, 45.566963 ], [ -122.76977, 45.56711 ], [ -122.769671, 45.567287 ], [ -122.769629, 45.567402 ], [ -122.769618, 45.567521 ], [ -122.769637, 45.56764 ], [ -122.769658, 45.567669 ], [ -122.769679, 45.567731 ], [ -122.769678, 45.567764 ], [ -122.769668, 45.567796 ], [ -122.769684, 45.567897 ], [ -122.769826, 45.567908 ], [ -122.769975, 45.567872 ], [ -122.770079, 45.567871 ], [ -122.77009, 45.567832 ], [ -122.770046, 45.567809 ], [ -122.769981, 45.567808 ], [ -122.769929, 45.567785 ], [ -122.769904, 45.567753 ], [ -122.769908, 45.567716 ], [ -122.770037, 45.567598 ], [ -122.770079, 45.567594 ], [ -122.770149, 45.567641 ], [ -122.770215, 45.567653 ], [ -122.770284, 45.567649 ], [ -122.770347, 45.56763 ], [ -122.770398, 45.567597 ], [ -122.770432, 45.567555 ], [ -122.770442, 45.567474 ], [ -122.770464, 45.567448 ], [ -122.77052, 45.567437 ], [ -122.770586, 45.567453 ], [ -122.770642, 45.567455 ], [ -122.77073, 45.567437 ], [ -122.770754, 45.567423 ], [ -122.770762, 45.56741 ], [ -122.770763, 45.567389 ], [ -122.770749, 45.567348 ], [ -122.770746, 45.567322 ], [ -122.770752, 45.567311 ], [ -122.770826, 45.567254 ], [ -122.770876, 45.567234 ], [ -122.770966, 45.567221 ], [ -122.771025, 45.567215 ], [ -122.771077, 45.567221 ], [ -122.771125, 45.56724 ], [ -122.77115, 45.567248 ], [ -122.771175, 45.567248 ], [ -122.771192, 45.567244 ], [ -122.77121, 45.567229 ], [ -122.77124, 45.567193 ], [ -122.771268, 45.567166 ] ] } },
{ "type": "Feature", "properties": { "cls": "shared", "highway": "path", "name": "Northwest Leif Erikson Drive" }, "geometry": { "type": "LineString", "coordinates": [ [ -122.76319, 45.569361 ], [ -122.76341, 45.569422 ], [ -122.763534, 45.569449 ], [ -122.763632, 45.569446 ], [ -122.763746, 45.569424 ], [ -122.763913, 45.569363 ], [ -122.764332, 45.569123 ], [ -122.764647, 45.568988 ], [ -122.76554, 45.568753 ], [ -122.766418, 45.568444 ], [ -122.766703, 45.568277 ], [ -122.766845, 45.568201 ], [ -122.766897, 45.568189 ], [ -122.766953, 45.568189 ], [ -122.767108, 45.568242 ], [ -122.767277, 45.568317 ], [ -122.767414, 45.568388 ], [ -122.767494, 45.56841 ], [ -122.767585, 45.568422 ], [ -122.767743, 45.568387 ], [ -122.767832, 45.568322 ], [ -122.767882, 45.568241 ], [ -122.76804, 45.567864 ], [ -122.768109, 45.567758 ], [ -122.768205, 45.567647 ], [ -122.768224, 45.567589 ], [ -122.768232, 45.567535 ], [ -122.768235, 45.567473 ], [ -122.768259, 45.567422 ], [ -122.768301, 45.567395 ], [ -122.768353, 45.567376 ], [ -122.768428, 45.567345 ], [ -122.768536, 45.567289 ], [ -122.769196, 45.566873 ], [ -122.769295, 45.566831 ], [ -122.769411, 45.566812 ], [ -122.769501, 45.566831 ], [ -122.769562, 45.56687 ], [ -122.769579, 45.566928 ], [ -122.769571, 45.56699 ], [ -122.769517, 45.567065 ], [ -122.769414, 45.56716 ], [ -122.769341, 45.567261 ], [ -122.769278, 45.567348 ], [ -122.769215, 45.567417 ], [ -122.769155, 45.567518 ], [ -122.769121, 45.567617 ], [ -122.769111, 45.56772 ], [ -122.769116, 45.567822 ], [ -122.769119, 45.56796 ], [ -122.769122, 45.568027 ], [ -122.769134, 45.568095 ], [ -122.769181, 45.56822 ], [ -122.76923, 45.56833 ], [ -122.769274, 45.568402 ], [ -122.769317, 45.568434 ], [ -122.769398, 45.568453 ], [ -122.769482, 45.568449 ], [ -122.769598, 45.568421 ], [ -122.769728, 45.568362 ], [ -122.770062, 45.56821 ], [ -122.770204, 45.568154 ], [ -122.770625, 45.568013 ], [ -122.770831, 45.56797 ], [ -122.77099, 45.567928 ], [ -122.771206, 45.567873 ], [ -122.771381, 45.567841 ], [ -122.771592, 45.567819 ], [ -122.771694, 45.567792 ], [ -122.771863, 45.567753 ], [ -122.771956, 45.567748 ], [ -122.772028, 45.567762 ], [ -122.772078, 45.567799 ], [ -122.772098, 45.56787 ], [ -122.772066, 45.567931 ], [ -122.771968, 45.567999 ], [ -122.771749, 45.568105 ], [ -122.771499, 45.568229 ], [ -122.771085, 45.568492 ], [ -122.77084, 45.568658 ], [ -122.770757, 45.568742 ], [ -122.77072, 45.568815 ], [ -122.770719, 45.568891 ], [ -122.770789, 45.568955 ], [ -122.770871, 45.568983 ], [ -122.771011, 45.569005 ], [ -122.771757, 45.569061 ], [ -122.77207, 45.569094 ], [ -122.772309, 45.569153 ], [ -122.773105, 45.569357 ], [ -122.773359, 45.569432 ], [ -122.773541, 45.569507 ], [ -122.773624, 45.569591 ], [ -122.773659, 45.569648 ], [ -122.773643, 45.569734 ], [ -122.773601, 45.569771 ], [ -122.773515, 45.569788 ], [ -122.773295, 45.569785 ], [ -122.772991, 45.569749 ], [ -122.772705, 45.569735 ], [ -122.772514, 45.569743 ], [ -122.771647, 45.569812 ], [ -122.771376, 45.569897 ], [ -122.771078, 45.569903 ], [ -122.77081, 45.569969 ], [ -122.770551, 45.570013 ], [ -122.77015, 45.570132 ], [ -122.769885, 45.570172 ], [ -122.769688, 45.57021 ], [ -122.769546, 45.570292 ], [ -122.769465, 45.570395 ], [ -122.769251, 45.570665 ], [ -122.768916, 45.570997 ], [ -122.768731, 45.571214 ], [ -122.768703, 45.571292 ], [ -122.768703, 45.571358 ], [ -122.768736, 45.571423 ], [ -122.768825, 45.57158 ], [ -122.76885, 45.571646 ], [ -122.768847, 45.571712 ], [ -122.768789, 45.571764 ], [ -122.76864, 45.571817 ], [ -122.768411, 45.571882 ], [ -122.768299, 45.571976 ], [ -122.768206, 45.572156 ], [ -122.76806, 45.572343 ], [ -122.767846, 45.572594 ], [ -122.76774, 45.572752 ], [ -122.767689, 45.572915 ], [ -122.767597, 45.573032 ], [ -122.767427, 45.573187 ], [ -122.767275, 45.573388 ], [ -122.767231, 45.57353 ], [ -122.76721, 45.573657 ], [ -122.767152, 45.573874 ], [ -122.767174, 45.573978 ], [ -122.767261, 45.574051 ], [ -122.767405, 45.574133 ], [ -122.767638, 45.574194 ], [ -122.767843, 45.57421 ], [ -122.768154, 45.574213 ], [ -122.768785, 45.574165 ], [ -122.768936, 45.574174 ], [ -122.769024, 45.574227 ], [ -122.769056, 45.574278 ], [ -122.769052, 45.574335 ], [ -122.768997, 45.57439 ], [ -122.768876, 45.574468 ], [ -122.768788, 45.574534 ], [ -122.768699, 45.574621 ], [ -122.76863, 45.57468 ], [ -122.76855, 45.574705 ], [ -122.768421, 45.574727 ], [ -122.768255, 45.574793 ], [ -122.768136, 45.574874 ], [ -122.768045, 45.574981 ], [ -122.767999, 45.57507 ], [ -122.767949, 45.575185 ], [ -122.767885, 45.575246 ], [ -122.767849, 45.575263 ], [ -122.767798, 45.575275 ], [ -122.767692, 45.575256 ], [ -122.767562, 45.575206 ], [ -122.767485, 45.57519 ], [ -122.767381, 45.575199 ], [ -122.767231, 45.575271 ], [ -122.767077, 45.575324 ], [ -122.766911, 45.575344 ], [ -122.766671, 45.575343 ], [ -122.766531, 45.575357 ], [ -122.766379, 45.575447 ], [ -122.766304, 45.575558 ], [ -122.766266, 45.575747 ] ] } },
{ "type": "Feature", "properties": { "cls": "shared", "highway": "path", "name": "Northwest Leif Erikson Drive" }, "geometry": { "type": "LineString", "coordinates": [ [ -122.766266, 45.575747 ], [ -122.766248, 45.57608 ], [ -122.76628, 45.576192 ], [ -122.766316, 45.576249 ], [ -122.766579, 45.576427 ] ] } },
{ "type": "Feature", "properties": { "cls": "shared", "highway": "path", "name": "Northwest Leif Erikson Drive" }, "geometry": { "type": "LineString", "coordinates": [ [ -122.766579, 45.576427 ], [ -122.766683, 45.576543 ], [ -122.766829, 45.576626 ], [ -122.766985, 45.576666 ], [ -122.767162, 45.576665 ], [ -122.767424, 45.576638 ], [ -122.767821, 45.576623 ], [ -122.76812, 45.576725 ], [ -122.768218, 45.576799 ], [ -122.768287, 45.577061 ], [ -122.768362, 45.577234 ], [ -122.768449, 45.577466 ], [ -122.768542, 45.577577 ], [ -122.768664, 45.577646 ], [ -122.768869, 45.577661 ], [ -122.769064, 45.577629 ], [ -122.769406, 45.577566 ], [ -122.77008, 45.577446 ], [ -122.770208, 45.577423 ], [ -122.770288, 45.577376 ], [ -122.77041, 45.577297 ], [ -122.770526, 45.577269 ], [ -122.77066, 45.577287 ], [ -122.770914, 45.577432 ], [ -122.771001, 45.577464 ], [ -122.771112, 45.577483 ], [ -122.771201, 45.577472 ], [ -122.771275, 45.577449 ], [ -122.771354, 45.577426 ], [ -122.771439, 45.577419 ], [ -122.771494, 45.577432 ], [ -122.771564, 45.577472 ], [ -122.771645, 45.577506 ], [ -122.771764, 45.577516 ], [ -122.772059, 45.577495 ], [ -122.772285, 45.577455 ], [ -122.772455, 45.577386 ], [ -122.77258, 45.577373 ], [ -122.772663, 45.577402 ], [ -122.772705, 45.577443 ], [ -122.772729, 45.57751 ], [ -122.772725, 45.577581 ], [ -122.772629, 45.577741 ], [ -122.772451, 45.577936 ], [ -122.772242, 45.578074 ], [ -122.77188, 45.578302 ], [ -122.771401, 45.578561 ], [ -122.771337, 45.578623 ], [ -122.771304, 45.578694 ], [ -122.771304, 45.57878 ], [ -122.771317, 45.578944 ] ] } },
{ "type": "Feature", "properties": { "cls": "shared", "highway": "path", "name": "Northwest Leif Erikson Drive" }, "geometry": { "type": "LineString", "coordinates": [ [ -122.771317, 45.578944 ], [ -122.771161, 45.579072 ], [ -122.770987, 45.57921 ], [ -122.770941, 45.579282 ], [ -122.770951, 45.579373 ], [ -122.771038, 45.579504 ], [ -122.771153, 45.579599 ], [ -122.771341, 45.579672 ], [ -122.771473, 45.579719 ], [ -122.771558, 45.57978 ], [ -122.771791, 45.580045 ], [ -122.771875, 45.580124 ], [ -122.772012, 45.580176 ], [ -122.7722, 45.580167 ], [ -122.772367, 45.580135 ], [ -122.773613, 45.579816 ], [ -122.774037, 45.57979 ], [ -122.774242, 45.579764 ], [ -122.774411, 45.579766 ], [ -122.774516, 45.57981 ], [ -122.774636, 45.579857 ], [ -122.774797, 45.579889 ], [ -122.775129, 45.57992 ], [ -122.775327, 45.579996 ], [ -122.775479, 45.580075 ], [ -122.775528, 45.580156 ], [ -122.775542, 45.580252 ], [ -122.77555, 45.580323 ], [ -122.775575, 45.580374 ], [ -122.775646, 45.580433 ], [ -122.775759, 45.580474 ], [ -122.775925, 45.580485 ], [ -122.776135, 45.580481 ], [ -122.776295, 45.580459 ], [ -122.776528, 45.5804 ], [ -122.776798, 45.580368 ], [ -122.776937, 45.580324 ], [ -122.777031, 45.580279 ], [ -122.777125, 45.580208 ], [ -122.777293, 45.580031 ], [ -122.777476, 45.579896 ], [ -122.777629, 45.579753 ], [ -122.777744, 45.579628 ], [ -122.778017, 45.579473 ], [ -122.778451, 45.579196 ], [ -122.778931, 45.578979 ], [ -122.779052, 45.578927 ], [ -122.779217, 45.578916 ], [ -122.779324, 45.57895 ], [ -122.779413, 45.579002 ], [ -122.779447, 45.579066 ], [ -122.779428, 45.579151 ], [ -122.779343, 45.579246 ], [ -122.779182, 45.579378 ], [ -122.779024, 45.579548 ], [ -122.778879, 45.579736 ], [ -122.778773, 45.579977 ], [ -122.778657, 45.58025 ], [ -122.778658, 45.580326 ], [ -122.77868, 45.580408 ], [ -122.778794, 45.580542 ], [ -122.778848, 45.580623 ], [ -122.778902, 45.58073 ], [ -122.77899, 45.580813 ], [ -122.779633, 45.581149 ], [ -122.779919, 45.581418 ], [ -122.780045, 45.581488 ], [ -122.78069, 45.581713 ], [ -122.780951, 45.581866 ], [ -122.781036, 45.581945 ], [ -122.78115, 45.582214 ], [ -122.781232, 45.582291 ], [ -122.781484, 45.582443 ], [ -122.782442, 45.582882 ], [ -122.78257, 45.582918 ], [ -122.782838, 45.582955 ] ] } },
{ "type": "Feature", "properties": { "cls": "shared", "highway": "path", "name": "Keyser Trail" }, "geometry": { "type": "LineString", "coordinates": [ [ -122.798752, 45.591089 ], [ -122.798635, 45.591028 ], [ -122.798501, 45.590986 ], [ -122.798357, 45.590965 ], [ -122.798258, 45.590964 ], [ -122.798133, 45.590978 ], [ -122.797941, 45.591016 ], [ -122.79782, 45.591032 ], [ -122.797575, 45.59105 ], [ -122.79733, 45.591047 ], [ -122.797144, 45.591031 ], [ -122.79702, 45.591013 ], [ -122.796777, 45.590963 ], [ -122.79666, 45.59093 ], [ -122.796483, 45.590869 ], [ -122.796362, 45.590842 ], [ -122.796236, 45.590838 ], [ -122.796173, 45.590845 ], [ -122.796065, 45.590871 ], [ -122.795952, 45.590925 ], [ -122.795849, 45.591003 ], [ -122.795822, 45.591058 ], [ -122.795825, 45.591105 ], [ -122.795858, 45.591158 ], [ -122.795971, 45.591246 ], [ -122.795996, 45.591306 ], [ -122.795988, 45.591369 ], [ -122.795982, 45.591593 ], [ -122.795965, 45.591625 ] ] } },
{ "type": "Feature", "properties": { "cls": "shared", "highway": "path", "name": "Northwest Firelane 10 Road" }, "geometry": { "type": "LineString", "coordinates": [ [ -122.796587, 45.591634 ], [ -122.796603, 45.591614 ], [ -122.796657, 45.591569 ], [ -122.796744, 45.591522 ], [ -122.796879, 45.59147 ], [ -122.797061, 45.591419 ], [ -122.797253, 45.59139 ], [ -122.797465, 45.591376 ], [ -122.79758, 45.591362 ], [ -122.797803, 45.591321 ], [ -122.798011, 45.591261 ], [ -122.798752, 45.591089 ] ] } },
{ "type": "Feature", "properties": { "cls": "shared", "highway": "path", "name": "Northwest Newton Road" }, "geometry": { "type": "LineString", "coordinates": [ [ -122.802339, 45.591693 ], [ -122.802387, 45.591855 ], [ -122.80251, 45.59224 ], [ -122.802621, 45.592429 ], [ -122.802897, 45.592822 ] ] } },
{ "type": "Feature", "properties": { "cls": "shared", "highway": "path", "name": "Northwest Firelane 10 Road" }, "geometry": { "type": "LineString", "coordinates": [ [ -122.790984, 45.589867 ], [ -122.791, 45.59002 ], [ -122.790828, 45.590259 ], [ -122.790806, 45.590298 ], [ -122.790784, 45.590379 ], [ -122.790796, 45.590518 ], [ -122.790776, 45.590615 ], [ -122.790718, 45.590705 ], [ -122.790677, 45.590745 ], [ -122.789958, 45.591474 ], [ -122.7899, 45.591575 ], [ -122.789876, 45.591682 ], [ -122.789901, 45.591827 ], [ -122.790118, 45.592218 ], [ -122.790116, 45.592267 ], [ -122.790086, 45.592302 ], [ -122.79004, 45.592322 ], [ -122.789986, 45.592327 ], [ -122.78976, 45.592274 ], [ -122.789645, 45.592265 ], [ -122.789531, 45.592281 ], [ -122.789431, 45.592323 ], [ -122.789354, 45.592384 ], [ -122.78931, 45.592459 ], [ -122.789239, 45.592748 ], [ -122.789021, 45.592938 ], [ -122.788917, 45.593099 ], [ -122.788827, 45.59317 ], [ -122.788788, 45.593183 ], [ -122.788769, 45.593207 ], [ -122.788777, 45.593234 ], [ -122.788826, 45.593256 ], [ -122.789108, 45.59318 ], [ -122.789363, 45.593157 ] ] } },
{ "type": "Feature", "properties": { "cls": "shared", "highway": "path", "name": "Northwest Newton Road" }, "geometry": { "type": "MultiLineString", "coordinates": [ [ [ -122.802897, 45.592822 ], [ -122.802893, 45.593161 ], [ -122.802867, 45.594014 ], [ -122.802895, 45.594278 ] ], [ [ -122.80154, 45.598507 ], [ -122.801531, 45.598541 ], [ -122.801464, 45.598745 ], [ -122.801395, 45.59884 ], [ -122.801302, 45.598922 ], [ -122.801186, 45.598992 ], [ -122.801066, 45.599045 ], [ -122.800954, 45.599106 ], [ -122.800781, 45.599225 ], [ -122.800624, 45.599373 ], [ -122.800448, 45.599608 ] ] ] } },
{ "type": "Feature", "properties": { "cls": "shared", "highway": "path", "name": "Northwest Newton Road" }, "geometry": { "type": "LineString", "coordinates": [ [ -122.800448, 45.599608 ], [ -122.800391, 45.599766 ], [ -122.800303, 45.59992 ], [ -122.800221, 45.600042 ], [ -122.800094, 45.600202 ], [ -122.799953, 45.600292 ], [ -122.799764, 45.600365 ], [ -122.799528, 45.600412 ], [ -122.79946, 45.600434 ], [ -122.799357, 45.600485 ], [ -122.799301, 45.60053 ], [ -122.799176, 45.600597 ], [ -122.79909, 45.600628 ], [ -122.798466, 45.600783 ], [ -122.79839, 45.600814 ], [ -122.798306, 45.600862 ], [ -122.798226, 45.600933 ], [ -122.798156, 45.601051 ], [ -122.798003, 45.601239 ], [ -122.797893, 45.601414 ], [ -122.797808, 45.601583 ], [ -122.797739, 45.6017 ], [ -122.797635, 45.601858 ], [ -122.797454, 45.602089 ], [ -122.797272, 45.602285 ], [ -122.797143, 45.602407 ], [ -122.79694, 45.602578 ], [ -122.796824, 45.602656 ], [ -122.796702, 45.602752 ], [ -122.796565, 45.602883 ], [ -122.796478, 45.602987 ], [ -122.796396, 45.603106 ], [ -122.796334, 45.603222 ], [ -122.796344, 45.603268 ], [ -122.796339, 45.603359 ], [ -122.79629, 45.603461 ], [ -122.796249, 45.60351 ], [ -122.796153, 45.603581 ], [ -122.795996, 45.603641 ], [ -122.795912, 45.603694 ], [ -122.795768, 45.603804 ], [ -122.795675, 45.603893 ], [ -122.795556, 45.60404 ], [ -122.795543, 45.604089 ], [ -122.795546, 45.604121 ], [ -122.795567, 45.604169 ], [ -122.795606, 45.604209 ], [ -122.795652, 45.604318 ], [ -122.795662, 45.604465 ], [ -122.795648, 45.604529 ], [ -122.795614, 45.604589 ], [ -122.795601, 45.604645 ], [ -122.795612, 45.604733 ], [ -122.795642, 45.604791 ], [ -122.795753, 45.604923 ], [ -122.795782, 45.60501 ], [ -122.79577, 45.605119 ], [ -122.795713, 45.605238 ], [ -122.795709, 45.605329 ], [ -122.795746, 45.605419 ], [ -122.795783, 45.605463 ], [ -122.795895, 45.605553 ], [ -122.79594, 45.605601 ], [ -122.795936, 45.60576 ], [ -122.795954, 45.605797 ], [ -122.795978, 45.605819 ], [ -122.796029, 45.605841 ], [ -122.796081, 45.605847 ], [ -122.796126, 45.605842 ], [ -122.796218, 45.605772 ], [ -122.796273, 45.605684 ], [ -122.796378, 45.605584 ], [ -122.796412, 45.605533 ], [ -122.796468, 45.605392 ], [ -122.796539, 45.605249 ], [ -122.796564, 45.605216 ], [ -122.796591, 45.605196 ], [ -122.796646, 45.605172 ], [ -122.796713, 45.60516 ], [ -122.796766, 45.605163 ], [ -122.796818, 45.605177 ], [ -122.796848, 45.605193 ], [ -122.797162, 45.60541 ], [ -122.797234, 45.605452 ], [ -122.797385, 45.605501 ], [ -122.797509, 45.605513 ], [ -122.797602, 45.605508 ], [ -122.797796, 45.605477 ], [ -122.797999, 45.60542 ], [ -122.798141, 45.605362 ], [ -122.798303, 45.605272 ], [ -122.798414, 45.605191 ], [ -122.798509, 45.605099 ], [ -122.798632, 45.605002 ], [ -122.798722, 45.604941 ], [ -122.798778, 45.60492 ], [ -122.798892, 45.60485 ], [ -122.799293, 45.604693 ] ] } },
{ "type": "Feature", "properties": { "cls": "shared", "highway": "path", "name": "Northwest Newton Road" }, "geometry": { "type": "LineString", "coordinates": [ [ -122.799293, 45.604693 ], [ -122.799335, 45.604684 ], [ -122.799385, 45.604684 ], [ -122.799416, 45.604696 ], [ -122.799438, 45.604716 ], [ -122.799446, 45.60474 ], [ -122.799437, 45.60477 ], [ -122.799416, 45.604796 ], [ -122.79934, 45.604843 ], [ -122.799201, 45.604946 ], [ -122.799073, 45.605071 ], [ -122.798962, 45.605218 ], [ -122.798981, 45.605302 ], [ -122.798965, 45.605386 ], [ -122.798945, 45.605426 ], [ -122.79888, 45.605497 ], [ -122.798789, 45.605553 ], [ -122.798509, 45.605835 ], [ -122.798428, 45.605952 ], [ -122.798315, 45.606054 ], [ -122.798175, 45.606139 ], [ -122.797908, 45.606328 ], [ -122.797636, 45.606514 ], [ -122.797453, 45.60668 ], [ -122.797352, 45.606756 ], [ -122.79713, 45.606896 ], [ -122.796884, 45.607031 ], [ -122.796649, 45.607187 ], [ -122.796466, 45.607334 ], [ -122.796304, 45.607489 ], [ -122.79626, 45.607547 ], [ -122.796153, 45.607653 ], [ -122.796038, 45.607735 ], [ -122.795924, 45.607801 ], [ -122.795826, 45.607883 ], [ -122.795789, 45.607929 ], [ -122.795742, 45.60803 ], [ -122.795732, 45.608083 ], [ -122.795741, 45.608186 ], [ -122.795784, 45.608284 ] ] } },
{ "type": "Feature", "properties": { "cls": "shared", "highway": "path", "name": "Northwest BPA Road" }, "geometry": { "type": "LineString", "coordinates": [ [ -122.809233, 45.605328 ], [ -122.809229, 45.605395 ], [ -122.80922, 45.60555 ], [ -122.809134, 45.605761 ], [ -122.809043, 45.605846 ], [ -122.808986, 45.605882 ], [ -122.808657, 45.606169 ], [ -122.808539, 45.606245 ], [ -122.808403, 45.606305 ], [ -122.808222, 45.606353 ], [ -122.808006, 45.606434 ], [ -122.807808, 45.606536 ], [ -122.807659, 45.606637 ], [ -122.807619, 45.606686 ], [ -122.807518, 45.606769 ], [ -122.807393, 45.606833 ], [ -122.807249, 45.606874 ], [ -122.807173, 45.606885 ], [ -122.806988, 45.606896 ], [ -122.806826, 45.606924 ], [ -122.806674, 45.606972 ], [ -122.806537, 45.60704 ], [ -122.80646, 45.607092 ], [ -122.80559, 45.607551 ], [ -122.805471, 45.607609 ], [ -122.805355, 45.607638 ], [ -122.805207, 45.607662 ], [ -122.805042, 45.607715 ], [ -122.804924, 45.607773 ], [ -122.804712, 45.607895 ], [ -122.804551, 45.608018 ], [ -122.8045, 45.608067 ], [ -122.804439, 45.608126 ], [ -122.804339, 45.608196 ], [ -122.804171, 45.608273 ], [ -122.804138, 45.608304 ], [ -122.804106, 45.608356 ], [ -122.804079, 45.608443 ], [ -122.804051, 45.60848 ], [ -122.804008, 45.608507 ], [ -122.803954, 45.608524 ], [ -122.803896, 45.608526 ], [ -122.803839, 45.608515 ], [ -122.803791, 45.608491 ], [ -122.803733, 45.608443 ], [ -122.803655, 45.60841 ], [ -122.803575, 45.608396 ], [ -122.803236, 45.608368 ], [ -122.803152, 45.608372 ], [ -122.803107, 45.608381 ], [ -122.803024, 45.608415 ], [ -122.802972, 45.608453 ], [ -122.802903, 45.608529 ], [ -122.802802, 45.6086 ], [ -122.80266, 45.608654 ], [ -122.802246, 45.6089 ], [ -122.802186, 45.608958 ], [ -122.802092, 45.609078 ], [ -122.802032, 45.609185 ], [ -122.801963, 45.609263 ], [ -122.801869, 45.609328 ], [ -122.80176, 45.609389 ], [ -122.801636, 45.609446 ], [ -122.801441, 45.609494 ], [ -122.801381, 45.609495 ], [ -122.801324, 45.609482 ], [ -122.801263, 45.60945 ], [ -122.801206, 45.609379 ], [ -122.80116, 45.609346 ], [ -122.801101, 45.609324 ], [ -122.801035, 45.609318 ], [ -122.80097, 45.609327 ], [ -122.800883, 45.609353 ], [ -122.80077, 45.609404 ], [ -122.800729, 45.60945 ], [ -122.800718, 45.609492 ], [ -122.800727, 45.609535 ], [ -122.80075, 45.609568 ], [ -122.800799, 45.609602 ], [ -122.800831, 45.609682 ], [ -122.800843, 45.609716 ], [ -122.800907, 45.609862 ], [ -122.800851, 45.609848 ], [ -122.800805, 45.609829 ], [ -122.800745, 45.609796 ], [ -122.800694, 45.609782 ], [ -122.800647, 45.609777 ], [ -122.800578, 45.609783 ], [ -122.800314, 45.609876 ], [ -122.80021, 45.609899 ], [ -122.800103, 45.609897 ], [ -122.800028, 45.609879 ], [ -122.799892, 45.609826 ], [ -122.799854, 45.609823 ], [ -122.79981, 45.609835 ], [ -122.799779, 45.609867 ], [ -122.79978, 45.609901 ], [ -122.799799, 45.609924 ], [ -122.79984, 45.610003 ], [ -122.799884, 45.610072 ], [ -122.79993, 45.610128 ], [ -122.799966, 45.610177 ], [ -122.800012, 45.61023 ], [ -122.800053, 45.610269 ], [ -122.800061, 45.610289 ], [ -122.800056, 45.61031 ], [ -122.800044, 45.610331 ], [ -122.800014, 45.610349 ], [ -122.799982, 45.610353 ], [ -122.799935, 45.610352 ], [ -122.799703, 45.610318 ], [ -122.79964, 45.610305 ], [ -122.799563, 45.610283 ], [ -122.799504, 45.610272 ], [ -122.799455, 45.61027 ], [ -122.799429, 45.610276 ], [ -122.799402, 45.610289 ], [ -122.799382, 45.610312 ], [ -122.79939, 45.610512 ], [ -122.799365, 45.610552 ], [ -122.799314, 45.610572 ], [ -122.799267, 45.610572 ], [ -122.799103, 45.610526 ], [ -122.79889, 45.610484 ], [ -122.798756, 45.610467 ], [ -122.79856, 45.610455 ], [ -122.7983, 45.61046 ], [ -122.797999, 45.610507 ], [ -122.797913, 45.610515 ], [ -122.797823, 45.610507 ], [ -122.797652, 45.61047 ], [ -122.797505, 45.610413 ], [ -122.797436, 45.610392 ], [ -122.797386, 45.610391 ], [ -122.797323, 45.610397 ], [ -122.797265, 45.610411 ], [ -122.797206, 45.610439 ], [ -122.797158, 45.610473 ], [ -122.797126, 45.61052 ], [ -122.797113, 45.610559 ], [ -122.797114, 45.610619 ], [ -122.797119, 45.610968 ], [ -122.797119, 45.611077 ], [ -122.797125, 45.611101 ], [ -122.797132, 45.611121 ], [ -122.797162, 45.611173 ], [ -122.797173, 45.611187 ] ] } },
{ "type": "Feature", "properties": { "cls": "shared", "highway": "path", "name": "Northwest Newton Road" }, "geometry": { "type": "LineString", "coordinates": [ [ -122.795784, 45.608284 ], [ -122.795901, 45.608433 ], [ -122.796042, 45.608649 ], [ -122.79615, 45.608847 ], [ -122.796171, 45.608919 ], [ -122.796179, 45.609023 ], [ -122.796255, 45.609364 ], [ -122.796256, 45.609481 ], [ -122.796561, 45.609786 ], [ -122.796612, 45.609955 ], [ -122.79667, 45.610067 ], [ -122.796755, 45.61019 ], [ -122.796808, 45.610321 ], [ -122.797013, 45.611016 ], [ -122.797038, 45.611054 ], [ -122.79707, 45.611083 ], [ -122.797099, 45.611095 ], [ -122.797125, 45.611101 ] ] } },
{ "type": "Feature", "properties": { "cls": "shared", "highway": "path", "name": "Northwest BPA Road" }, "geometry": { "type": "LineString", "coordinates": [ [ -122.8146, 45.592525 ], [ -122.814598, 45.592532 ], [ -122.8146, 45.592553 ], [ -122.814612, 45.592577 ], [ -122.814636, 45.592603 ], [ -122.814666, 45.592629 ], [ -122.814801, 45.592733 ], [ -122.814855, 45.592787 ], [ -122.814883, 45.592816 ], [ -122.814904, 45.59285 ], [ -122.814918, 45.592879 ], [ -122.81493, 45.59292 ], [ -122.814936, 45.592945 ], [ -122.814937, 45.592966 ], [ -122.81493, 45.592992 ], [ -122.814908, 45.593024 ], [ -122.814888, 45.593043 ], [ -122.81486, 45.593065 ], [ -122.814835, 45.593078 ], [ -122.812768, 45.59388 ], [ -122.81267, 45.593913 ], [ -122.812559, 45.593949 ], [ -122.812472, 45.593956 ], [ -122.812306, 45.593961 ], [ -122.812155, 45.593957 ], [ -122.812086, 45.593959 ], [ -122.812019, 45.593968 ], [ -122.81195, 45.593983 ], [ -122.811885, 45.594005 ], [ -122.811362, 45.594197 ], [ -122.811269, 45.59424 ], [ -122.811192, 45.594282 ], [ -122.811024, 45.594383 ], [ -122.810981, 45.594418 ], [ -122.810955, 45.594451 ], [ -122.810934, 45.594487 ], [ -122.810896, 45.594556 ], [ -122.810889, 45.594628 ], [ -122.810881, 45.594733 ], [ -122.810878, 45.594865 ], [ -122.8109, 45.595766 ], [ -122.810902, 45.595969 ], [ -122.81087, 45.596074 ], [ -122.810828, 45.596168 ], [ -122.810782, 45.59623 ], [ -122.810667, 45.596327 ], [ -122.810585, 45.596376 ], [ -122.810485, 45.59643 ], [ -122.810286, 45.596498 ], [ -122.810149, 45.59652 ], [ -122.810017, 45.596568 ], [ -122.809845, 45.596641 ], [ -122.809599, 45.596791 ], [ -122.809477, 45.596883 ], [ -122.809346, 45.596974 ], [ -122.80923, 45.597035 ], [ -122.809068, 45.597136 ], [ -122.809022, 45.597183 ], [ -122.808985, 45.597257 ], [ -122.80896, 45.597338 ], [ -122.80895, 45.597383 ], [ -122.808947, 45.597441 ], [ -122.808946, 45.597483 ], [ -122.808957, 45.597539 ], [ -122.808998, 45.597636 ], [ -122.809019, 45.597696 ], [ -122.809032, 45.597731 ], [ -122.809044, 45.59778 ], [ -122.809044, 45.597826 ], [ -122.809044, 45.597875 ], [ -122.809038, 45.597925 ], [ -122.809026, 45.597988 ], [ -122.808996, 45.598079 ], [ -122.80897, 45.598187 ], [ -122.808953, 45.598249 ], [ -122.808945, 45.59834 ], [ -122.808944, 45.598381 ], [ -122.808952, 45.598422 ], [ -122.808967, 45.598455 ], [ -122.808984, 45.598492 ], [ -122.809035, 45.598593 ], [ -122.809047, 45.598628 ], [ -122.809057, 45.598672 ], [ -122.809067, 45.598729 ], [ -122.809082, 45.598817 ], [ -122.809089, 45.598899 ], [ -122.809089, 45.598985 ], [ -122.809084, 45.599059 ], [ -122.809076, 45.59912 ], [ -122.809065, 45.599194 ], [ -122.808971, 45.599497 ], [ -122.808928, 45.59973 ], [ -122.808941, 45.5999 ], [ -122.809032, 45.600226 ] ] } },
{ "type": "Feature", "properties": { "cls": "shared", "highway": "path", "name": "Northwest Firelane 15 Road" }, "geometry": { "type": "LineString", "coordinates": [ [ -122.823574, 45.596271 ], [ -122.823573, 45.596282 ], [ -122.823564, 45.596335 ], [ -122.823556, 45.596357 ], [ -122.823541, 45.596377 ], [ -122.823514, 45.596396 ], [ -122.823452, 45.596435 ], [ -122.82311, 45.596613 ], [ -122.823062, 45.596637 ], [ -122.82302, 45.596651 ], [ -122.822971, 45.596663 ], [ -122.822689, 45.596712 ], [ -122.822471, 45.596724 ], [ -122.822404, 45.596741 ], [ -122.822352, 45.596775 ], [ -122.822328, 45.596811 ], [ -122.822135, 45.596976 ], [ -122.822099, 45.596995 ], [ -122.821978, 45.597015 ], [ -122.821938, 45.597038 ], [ -122.82191, 45.597069 ], [ -122.821866, 45.597149 ], [ -122.8218, 45.597214 ], [ -122.821713, 45.597266 ], [ -122.821663, 45.597286 ], [ -122.82156, 45.597311 ], [ -122.821439, 45.597322 ], [ -122.821377, 45.597342 ], [ -122.821328, 45.597375 ], [ -122.821192, 45.597559 ], [ -122.821079, 45.597698 ], [ -122.820959, 45.597834 ], [ -122.820831, 45.597967 ], [ -122.82065, 45.598142 ], [ -122.820534, 45.59822 ], [ -122.820336, 45.598297 ], [ -122.819849, 45.598429 ], [ -122.819765, 45.598459 ], [ -122.81964, 45.598528 ], [ -122.819536, 45.598599 ], [ -122.81948, 45.598616 ], [ -122.819435, 45.598616 ], [ -122.819395, 45.598608 ], [ -122.819358, 45.598591 ], [ -122.819328, 45.598565 ], [ -122.819229, 45.598334 ], [ -122.819204, 45.598308 ], [ -122.819158, 45.598286 ], [ -122.819103, 45.598279 ], [ -122.819049, 45.598288 ], [ -122.819004, 45.59831 ], [ -122.818765, 45.598506 ], [ -122.8187, 45.598535 ], [ -122.818625, 45.598548 ], [ -122.818548, 45.598543 ], [ -122.818302, 45.59847 ], [ -122.818205, 45.598477 ], [ -122.818116, 45.598505 ], [ -122.818045, 45.598552 ], [ -122.817999, 45.598612 ], [ -122.817983, 45.598679 ], [ -122.817986, 45.598713 ], [ -122.818044, 45.59887 ], [ -122.818062, 45.598998 ], [ -122.818061, 45.599061 ], [ -122.818028, 45.599367 ], [ -122.817989, 45.599458 ], [ -122.817955, 45.599499 ], [ -122.817879, 45.599558 ], [ -122.817731, 45.599654 ], [ -122.817619, 45.599686 ], [ -122.817499, 45.599699 ], [ -122.817247, 45.599699 ], [ -122.817193, 45.599694 ], [ -122.81713, 45.599709 ], [ -122.817091, 45.599736 ], [ -122.817074, 45.599764 ], [ -122.816997, 45.599815 ], [ -122.816883, 45.599861 ], [ -122.816756, 45.599884 ], [ -122.816604, 45.599889 ], [ -122.81654, 45.599906 ], [ -122.816487, 45.599936 ], [ -122.816451, 45.599977 ], [ -122.816436, 45.600023 ], [ -122.816442, 45.600071 ], [ -122.816551, 45.600226 ], [ -122.816585, 45.600325 ], [ -122.816592, 45.600434 ], [ -122.816562, 45.600534 ], [ -122.816483, 45.600705 ], [ -122.81641, 45.600818 ], [ -122.816367, 45.600847 ], [ -122.8163, 45.600863 ], [ -122.816229, 45.600855 ], [ -122.816178, 45.600831 ], [ -122.81615, 45.600802 ], [ -122.816107, 45.600686 ], [ -122.816069, 45.600628 ], [ -122.816029, 45.600403 ], [ -122.815955, 45.600191 ], [ -122.815905, 45.600087 ], [ -122.815766, 45.600036 ], [ -122.815704, 45.600001 ], [ -122.815601, 45.599918 ], [ -122.815532, 45.599818 ], [ -122.815499, 45.59971 ], [ -122.815508, 45.599647 ], [ -122.815496, 45.599522 ], [ -122.815481, 45.599496 ], [ -122.81547, 45.599441 ], [ -122.815474, 45.599411 ], [ -122.815504, 45.599356 ], [ -122.815508, 45.599296 ], [ -122.815475, 45.599198 ], [ -122.81541, 45.599109 ], [ -122.815367, 45.599069 ], [ -122.81526, 45.599041 ], [ -122.815022, 45.599037 ], [ -122.814903, 45.599015 ], [ -122.814804, 45.598984 ], [ -122.814712, 45.598972 ], [ -122.814618, 45.598979 ], [ -122.814519, 45.599029 ], [ -122.814437, 45.599091 ], [ -122.814285, 45.599187 ], [ -122.814155, 45.599298 ], [ -122.814099, 45.599358 ], [ -122.814008, 45.599487 ], [ -122.813919, 45.599598 ], [ -122.813799, 45.599711 ], [ -122.813724, 45.599769 ], [ -122.813584, 45.599849 ], [ -122.813545, 45.599884 ], [ -122.813487, 45.599962 ], [ -122.813424, 45.600025 ], [ -122.813389, 45.600098 ], [ -122.813386, 45.600174 ], [ -122.813399, 45.600209 ], [ -122.813399, 45.600259 ], [ -122.813333, 45.600385 ], [ -122.813316, 45.600475 ], [ -122.813318, 45.600742 ], [ -122.813387, 45.600878 ], [ -122.813391, 45.601011 ], [ -122.81338, 45.601078 ], [ -122.813335, 45.601207 ], [ -122.813259, 45.601329 ], [ -122.813146, 45.601447 ], [ -122.813031, 45.601524 ], [ -122.812925, 45.601678 ], [ -122.812875, 45.601805 ], [ -122.812849, 45.601934 ], [ -122.812845, 45.602026 ], [ -122.812825, 45.602114 ], [ -122.812837, 45.602202 ], [ -122.81288, 45.602285 ], [ -122.812881, 45.602428 ], [ -122.812847, 45.602526 ], [ -122.812785, 45.602616 ], [ -122.812781, 45.602751 ], [ -122.812792, 45.60295 ], [ -122.812811, 45.603093 ], [ -122.81284, 45.603236 ], [ -122.812871, 45.603302 ], [ -122.812931, 45.603357 ], [ -122.813013, 45.603396 ], [ -122.813059, 45.603408 ], [ -122.813589, 45.603681 ], [ -122.813642, 45.603702 ], [ -122.813671, 45.603731 ], [ -122.813681, 45.603759 ], [ -122.813677, 45.603788 ], [ -122.813662, 45.603814 ], [ -122.813635, 45.603836 ], [ -122.813601, 45.60385 ], [ -122.813562, 45.603856 ], [ -122.812501, 45.603884 ], [ -122.812268, 45.603868 ], [ -122.812096, 45.603831 ], [ -122.811937, 45.603771 ], [ -122.811797, 45.603692 ], [ -122.811735, 45.603645 ], [ -122.811644, 45.603553 ], [ -122.811458, 45.603306 ], [ -122.8114, 45.603289 ], [ -122.811359, 45.603301 ], [ -122.811333, 45.603333 ], [ -122.811418, 45.60355 ], [ -122.811526, 45.603724 ], [ -122.811662, 45.603888 ], [ -122.811825, 45.60404 ], [ -122.811872, 45.604112 ], [ -122.81189, 45.60419 ] ] } },
{ "type": "Feature", "properties": { "cls": "shared", "highway": "path", "name": "Northwest BPA Road" }, "geometry": { "type": "LineString", "coordinates": [ [ -122.809032, 45.600226 ], [ -122.809047, 45.600419 ], [ -122.809048, 45.600485 ], [ -122.809043, 45.60054 ], [ -122.809027, 45.600646 ], [ -122.808989, 45.600857 ], [ -122.808991, 45.600909 ], [ -122.808991, 45.600956 ], [ -122.808994, 45.601013 ], [ -122.809002, 45.601053 ], [ -122.80901, 45.601095 ], [ -122.809026, 45.601131 ], [ -122.809078, 45.601255 ], [ -122.809098, 45.601321 ], [ -122.809107, 45.601363 ], [ -122.809111, 45.601401 ], [ -122.809108, 45.601433 ], [ -122.809106, 45.601476 ], [ -122.809094, 45.601514 ], [ -122.809072, 45.601558 ], [ -122.809029, 45.60162 ], [ -122.808948, 45.601693 ], [ -122.808812, 45.601821 ], [ -122.808728, 45.601916 ], [ -122.808693, 45.602008 ], [ -122.808686, 45.60206 ], [ -122.808694, 45.602112 ], [ -122.80875, 45.602234 ], [ -122.808789, 45.602369 ], [ -122.808818, 45.602402 ], [ -122.80892, 45.602461 ], [ -122.809106, 45.602609 ], [ -122.809138, 45.602645 ], [ -122.809162, 45.602685 ], [ -122.80917, 45.602718 ], [ -122.809172, 45.602764 ], [ -122.809139, 45.602944 ], [ -122.809126, 45.60303 ], [ -122.809135, 45.603318 ], [ -122.809107, 45.603596 ], [ -122.809118, 45.603707 ], [ -122.809162, 45.603867 ], [ -122.809182, 45.603973 ], [ -122.809196, 45.604188 ], [ -122.80919, 45.604296 ], [ -122.809145, 45.60452 ], [ -122.809115, 45.604678 ], [ -122.80912, 45.604778 ], [ -122.809148, 45.605007 ], [ -122.80917, 45.605151 ], [ -122.809202, 45.605268 ], [ -122.809233, 45.605328 ] ] } },
{ "type": "Feature", "properties": { "cls": "shared", "highway": "path", "name": "Northwest Firelane 12 Road" }, "geometry": { "type": "LineString", "coordinates": [ [ -122.807461, 45.616243 ], [ -122.807526, 45.616247 ], [ -122.807661, 45.616243 ], [ -122.807791, 45.616216 ], [ -122.807908, 45.616167 ], [ -122.808003, 45.616099 ], [ -122.808043, 45.616058 ], [ -122.808097, 45.615967 ], [ -122.808154, 45.615798 ], [ -122.80826, 45.615596 ], [ -122.808401, 45.615404 ], [ -122.808574, 45.615226 ], [ -122.808777, 45.615063 ], [ -122.808901, 45.614982 ], [ -122.809358, 45.614615 ], [ -122.809441, 45.614561 ], [ -122.809588, 45.61444 ], [ -122.809708, 45.614306 ], [ -122.809798, 45.61416 ], [ -122.809831, 45.614085 ], [ -122.809887, 45.613918 ], [ -122.809928, 45.613829 ], [ -122.810033, 45.613657 ], [ -122.810167, 45.613494 ], [ -122.810223, 45.61345 ], [ -122.810291, 45.613364 ], [ -122.810322, 45.613268 ], [ -122.810326, 45.613135 ], [ -122.810365, 45.613016 ], [ -122.810421, 45.612926 ], [ -122.810457, 45.612787 ], [ -122.81047, 45.612586 ], [ -122.810458, 45.612424 ], [ -122.810469, 45.612231 ], [ -122.810515, 45.612038 ], [ -122.8106, 45.611842 ], [ -122.81072, 45.611655 ], [ -122.810868, 45.611467 ], [ -122.81097, 45.61138 ], [ -122.811095, 45.611308 ], [ -122.811164, 45.611279 ], [ -122.811251, 45.61121 ], [ -122.811283, 45.61117 ], [ -122.81132, 45.611081 ], [ -122.811321, 45.610989 ], [ -122.811292, 45.610895 ], [ -122.811292, 45.610805 ], [ -122.811329, 45.61072 ], [ -122.811399, 45.610645 ], [ -122.811495, 45.610588 ], [ -122.811617, 45.610562 ], [ -122.811722, 45.610513 ], [ -122.811803, 45.610444 ], [ -122.81189, 45.610318 ], [ -122.811987, 45.610121 ], [ -122.812015, 45.61009 ], [ -122.81205, 45.610019 ], [ -122.812053, 45.609944 ], [ -122.812024, 45.609873 ], [ -122.812088, 45.609737 ], [ -122.812208, 45.60958 ], [ -122.812273, 45.609517 ], [ -122.812426, 45.609403 ], [ -122.812512, 45.609354 ], [ -122.812665, 45.609188 ], [ -122.81278, 45.609027 ], [ -122.812853, 45.608899 ], [ -122.812893, 45.608811 ], [ -122.812954, 45.608633 ], [ -122.812989, 45.608451 ], [ -122.812996, 45.60835 ], [ -122.812994, 45.60818 ], [ -122.81302, 45.608044 ], [ -122.813085, 45.607915 ], [ -122.813148, 45.607836 ], [ -122.813174, 45.607744 ], [ -122.813162, 45.607606 ], [ -122.813052, 45.607379 ], [ -122.812968, 45.607268 ], [ -122.812856, 45.607169 ], [ -122.812697, 45.607074 ], [ -122.812645, 45.607056 ], [ -122.812558, 45.607005 ], [ -122.812499, 45.606937 ], [ -122.812474, 45.606858 ], [ -122.812485, 45.606779 ], [ -122.812532, 45.606706 ], [ -122.81269, 45.606574 ], [ -122.813552, 45.60599 ], [ -122.813582, 45.605962 ], [ -122.813622, 45.605896 ], [ -122.81363, 45.605825 ], [ -122.813575, 45.605643 ], [ -122.813515, 45.605535 ], [ -122.81343, 45.605436 ], [ -122.81236, 45.604476 ], [ -122.81189, 45.60419 ], [ -122.811505, 45.603926 ], [ -122.811429, 45.60388 ], [ -122.811294, 45.603775 ], [ -122.811184, 45.603656 ], [ -122.811103, 45.603527 ], [ -122.811054, 45.6034 ], [ -122.811016, 45.603177 ], [ -122.810995, 45.60288 ], [ -122.811003, 45.602584 ], [ -122.811019, 45.602428 ], [ -122.811042, 45.602273 ], [ -122.811034, 45.602176 ], [ -122.810997, 45.601984 ], [ -122.810969, 45.60189 ], [ -122.810876, 45.601777 ], [ -122.810846, 45.601691 ], [ -122.810842, 45.601626 ], [ -122.810779, 45.601512 ], [ -122.810715, 45.601447 ], [ -122.810654, 45.601407 ], [ -122.810626, 45.601364 ], [ -122.810618, 45.601317 ], [ -122.810632, 45.601241 ], [ -122.810618, 45.601185 ], [ -122.810538, 45.601081 ], [ -122.810419, 45.600954 ], [ -122.810361, 45.600914 ], [ -122.810288, 45.600888 ], [ -122.810207, 45.600879 ], [ -122.810053, 45.600883 ], [ -122.809943, 45.600861 ], [ -122.809865, 45.600829 ], [ -122.809831, 45.600799 ], [ -122.809819, 45.60077 ], [ -122.809825, 45.600732 ], [ -122.809852, 45.600699 ], [ -122.809982, 45.600629 ], [ -122.810032, 45.60057 ], [ -122.810052, 45.600505 ], [ -122.810047, 45.600258 ], [ -122.810023, 45.600181 ], [ -122.809943, 45.600052 ], [ -122.809926, 45.599962 ], [ -122.809945, 45.599872 ], [ -122.810038, 45.599693 ], [ -122.810071, 45.599551 ], [ -122.810062, 45.599098 ], [ -122.810007, 45.599073 ], [ -122.809957, 45.599091 ], [ -122.809745, 45.599211 ], [ -122.809657, 45.599249 ], [ -122.809589, 45.599302 ], [ -122.809544, 45.599366 ], [ -122.809322, 45.599614 ], [ -122.809257, 45.599714 ], [ -122.809244, 45.59976 ], [ -122.80923, 45.599823 ], [ -122.809251, 45.600042 ], [ -122.809245, 45.600125 ], [ -122.809222, 45.600172 ], [ -122.809164, 45.600202 ], [ -122.809117, 45.600213 ], [ -122.809032, 45.600226 ] ] } }
]
}
