{
"type": "FeatureCollection",
"name": "049-paris-forest-of-marly",
"crs": { "type": "name", "properties": { "name": "urn:ogc:def:crs:OGC:1.3:CRS84" } },
"xy_coordinate_resolution": 1e-06,
"features": [
{ "type": "Feature", "properties": { "cls": "painted", "highway": "secondary", "name": "Route de Marly" }, "geometry": { "type": "LineString", "coordinates": [ [ 2.087589, 48.839906 ], [ 2.087679, 48.840413 ], [ 2.087718, 48.840629 ], [ 2.087744, 48.840792 ], [ 2.087983, 48.842095 ], [ 2.08804, 48.842497 ], [ 2.088042, 48.842914 ], [ 2.088024, 48.843051 ], [ 2.087968, 48.843245 ], [ 2.087824, 48.843607 ], [ 2.087532, 48.84407 ], [ 2.087327, 48.844329 ], [ 2.086827, 48.844927 ], [ 2.086787, 48.844973 ] ] } },
{ "type": "Feature", "properties": { "cls": "separated", "highway": "secondary", "name": "Route de Marly" }, "geometry": { "type": "LineString", "coordinates": [ [ 2.086787, 48.844973 ], [ 2.086508, 48.84531 ] ] } },
{ "type": "Feature", "properties": { "cls": "painted", "highway": "secondary", "name": "Route de Marly" }, "geometry": { "type": "LineString", "coordinates": [ [ 2.086508, 48.84531 ], [ 2.086422, 48.845421 ], [ 2.085507, 48.846584 ], [ 2.085146, 48.847002 ], [ 2.084631, 48.847521 ], [ 2.084193, 48.847973 ], [ 2.084004, 48.848221 ], [ 2.083877, 48.848447 ], [ 2.083818, 48.848667 ], [ 2.083803, 48.848863 ] ] } },
{ "type": "Feature", "properties": { "cls": "painted", "highway": "secondary", "name": "Route de Saint-Cyr" }, "geometry": { "type": "LineString", "coordinates": [ [ 2.0838, 48.854778 ], [ 2.083791, 48.85688 ], [ 2.083788, 48.860035 ], [ 2.083794, 48.86064 ], [ 2.083811, 48.861214 ] ] } },
{ "type": "Feature", "properties": { "cls": "painted", "highway": "secondary", "name": "Route de Saint-Cyr" }, "geometry": { "type": "LineString", "coordinates": [ [ 2.083811, 48.861214 ], [ 2.083838, 48.861291 ], [ 2.083879, 48.861413 ], [ 2.083994, 48.861599 ], [ 2.084133, 48.861763 ] ] } },
{ "type": "Feature", "properties": { "cls": "painted", "highway": "secondary", "name": "Route de Saint-Cyr" }, "geometry": { "type": "LineString", "coordinates": [ [ 2.084133, 48.861763 ], [ 2.084495, 48.862135 ], [ 2.084521, 48.862164 ], [ 2.084541, 48.862186 ], [ 2.086837, 48.864681 ], [ 2.086977, 48.864833 ] ] } },
{ "type": "Feature", "properties": { "cls": "painted", "highway": "secondary", "name": "Route de Saint-Cyr l'École" }, "geometry": { "type": "LineString", "coordinates": [ [ 2.08697, 48.839056 ], [ 2.08689, 48.838973 ] ] } },
{ "type": "Feature", "properties": { "cls": "painted", "highway": "secondary", "name": "Route de Saint-Cyr l'École" }, "geometry": { "type": "LineString", "coordinates": [ [ 2.086985, 48.838925 ], [ 2.087072, 48.839021 ] ] } },
{ "type": "Feature", "properties": { "cls": "painted", "highway": "secondary", "name": "Route de Marly" }, "geometry": { "type": "LineString", "coordinates": [ [ 2.087339, 48.83947 ], [ 2.08731, 48.839437 ], [ 2.08697, 48.839056 ] ] } },
{ "type": "Feature", "properties": { "cls": "painted", "highway": "secondary", "name": "Route de Marly" }, "geometry": { "type": "LineString", "coordinates": [ [ 2.087072, 48.839021 ], [ 2.087308, 48.839299 ], [ 2.087472, 48.83954 ] ] } },
{ "type": "Feature", "properties": { "cls": "painted", "highway": "secondary", "name": "Route de Marly" }, "geometry": { "type": "LineString", "coordinates": [ [ 2.087589, 48.839906 ], [ 2.087509, 48.839732 ], [ 2.087413, 48.839567 ], [ 2.087339, 48.83947 ] ] } },
{ "type": "Feature", "properties": { "cls": "painted", "highway": "secondary", "name": "Route de Marly" }, "geometry": { "type": "LineString", "coordinates": [ [ 2.087472, 48.83954 ], [ 2.087523, 48.839627 ], [ 2.087577, 48.839742 ], [ 2.087589, 48.839906 ] ] } },
{ "type": "Feature", "properties": { "cls": "shared", "highway": "footway", "name": null }, "geometry": { "type": "LineString", "coordinates": [ [ 2.107566, 48.853614 ], [ 2.107432, 48.854213 ] ] } },
{ "type": "Feature", "properties": { "cls": "shared", "highway": "footway", "name": null }, "geometry": { "type": "LineString", "coordinates": [ [ 2.107432, 48.854213 ], [ 2.107417, 48.854267 ] ] } },
{ "type": "Feature", "properties": { "cls": "separated", "highway": "cycleway", "name": null }, "geometry": { "type": "LineString", "coordinates": [ [ 2.0309, 48.860228 ], [ 2.030464, 48.859576 ], [ 2.029703, 48.85844 ], [ 2.028952, 48.857328 ], [ 2.028686, 48.856927 ], [ 2.028227, 48.856277 ], [ 2.027856, 48.855877 ], [ 2.027495, 48.855542 ], [ 2.027223, 48.855326 ], [ 2.027082, 48.855229 ] ] } },
{ "type": "Feature", "properties": { "cls": "separated", "highway": "cycleway", "name": null }, "geometry": { "type": "MultiLineString", "coordinates": [ [ [ 2.027282, 48.855194 ], [ 2.027615, 48.855489 ], [ 2.027916, 48.855765 ], [ 2.028368, 48.85629 ], [ 2.028568, 48.856563 ], [ 2.029392, 48.85778 ], [ 2.029952, 48.858618 ], [ 2.030741, 48.859779 ], [ 2.031143, 48.86039 ] ], [ [ 2.034465, 48.866627 ], [ 2.03449, 48.866642 ] ] ] } },
{ "type": "Feature", "properties": { "cls": "separated", "highway": "cycleway", "name": null }, "geometry": { "type": "MultiLineString", "coordinates": [ [ [ 2.033014, 48.865846 ], [ 2.033028, 48.865873 ], [ 2.033152, 48.865927 ], [ 2.03329, 48.866017 ] ], [ [ 2.033367, 48.866095 ], [ 2.0334, 48.866144 ] ] ] } },
{ "type": "Feature", "properties": { "cls": "separated", "highway": "cycleway", "name": null }, "geometry": { "type": "LineString", "coordinates": [ [ 2.049835, 48.866806 ], [ 2.049682, 48.866772 ], [ 2.048905, 48.866575 ], [ 2.046657, 48.865984 ], [ 2.046505, 48.866007 ], [ 2.046241, 48.865939 ], [ 2.046071, 48.865898 ], [ 2.044006, 48.865372 ], [ 2.043869, 48.865331 ], [ 2.043505, 48.865241 ], [ 2.043394, 48.865232 ], [ 2.043285, 48.865237 ], [ 2.040686, 48.865482 ], [ 2.040482, 48.865539 ] ] } },
{ "type": "Feature", "properties": { "cls": "separated", "highway": "cycleway", "name": null }, "geometry": { "type": "GeometryCollection", "geometries": [ { "type": "LineString", "coordinates": [ [ 2.034375, 48.866699 ], [ 2.03432, 48.866666 ] ] }, { "type": "LineString", "coordinates": [ [ 2.033434, 48.866162 ], [ 2.0334, 48.866144 ] ] }, { "type": "Point", "coordinates": [ 2.033483, 48.866189 ] } ] } },
{ "type": "Feature", "properties": { "cls": "shared", "highway": "cycleway", "name": null }, "geometry": { "type": "LineString", "coordinates": [ [ 2.040528, 48.865574 ], [ 2.040482, 48.865539 ], [ 2.039436, 48.866103 ], [ 2.038577, 48.866572 ], [ 2.037633, 48.867031 ], [ 2.037089, 48.867302 ], [ 2.036835, 48.86744 ] ] } },
{ "type": "Feature", "properties": { "cls": "separated", "highway": "cycleway", "name": null }, "geometry": { "type": "LineString", "coordinates": [ [ 2.049835, 48.866806 ], [ 2.049872, 48.866802 ], [ 2.049927, 48.866784 ], [ 2.049985, 48.866739 ], [ 2.050031, 48.86672 ], [ 2.050112, 48.866706 ], [ 2.050252, 48.866702 ] ] } },
{ "type": "Feature", "properties": { "cls": "separated", "highway": "cycleway", "name": null }, "geometry": { "type": "LineString", "coordinates": [ [ 2.049852, 48.866866 ], [ 2.049835, 48.866806 ] ] } },
{ "type": "Feature", "properties": { "cls": "separated", "highway": "cycleway", "name": null }, "geometry": { "type": "LineString", "coordinates": [ [ 2.03449, 48.866642 ], [ 2.034742, 48.866798 ] ] } },
{ "type": "Feature", "properties": { "cls": "separated", "highway": "cycleway", "name": null }, "geometry": { "type": "LineString", "coordinates": [ [ 2.034631, 48.866853 ], [ 2.034375, 48.866699 ] ] } },
{ "type": "Feature", "properties": { "cls": "separated", "highway": "cycleway", "name": null }, "geometry": { "type": "LineString", "coordinates": [ [ 2.034742, 48.866798 ], [ 2.035219, 48.86708 ], [ 2.035696, 48.86732 ], [ 2.035815, 48.867379 ] ] } },
{ "type": "Feature", "properties": { "cls": "separated", "highway": "cycleway", "name": null }, "geometry": { "type": "LineString", "coordinates": [ [ 2.035662, 48.867463 ], [ 2.035579, 48.867413 ], [ 2.035321, 48.867262 ], [ 2.034631, 48.866853 ] ] } },
{ "type": "Feature", "properties": { "cls": "separated", "highway": "cycleway", "name": "Carrefour Royal" }, "geometry": { "type": "LineString", "coordinates": [ [ 2.035815, 48.867379 ], [ 2.035869, 48.867388 ] ] } },
{ "type": "Feature", "properties": { "cls": "painted", "highway": "primary", "name": null }, "geometry": { "type": "LineString", "coordinates": [ [ 2.054863, 48.878209 ], [ 2.0554, 48.878304 ], [ 2.056049, 48.878397 ] ] } },
{ "type": "Feature", "properties": { "cls": "painted", "highway": "primary", "name": null }, "geometry": { "type": "LineString", "coordinates": [ [ 2.056049, 48.878397 ], [ 2.05546, 48.878371 ], [ 2.055043, 48.87833 ], [ 2.054771, 48.878285 ], [ 2.054629, 48.878261 ] ] } },
{ "type": "Feature", "properties": { "cls": "painted", "highway": "primary", "name": null }, "geometry": { "type": "LineString", "coordinates": [ [ 2.064324, 48.880036 ], [ 2.064178, 48.879948 ], [ 2.063964, 48.879828 ], [ 2.063724, 48.879703 ], [ 2.063476, 48.879585 ], [ 2.063143, 48.879438 ], [ 2.062941, 48.879359 ], [ 2.062717, 48.879277 ], [ 2.062535, 48.879214 ], [ 2.062284, 48.879134 ], [ 2.061968, 48.879042 ], [ 2.061822, 48.879001 ], [ 2.061771, 48.878987 ], [ 2.061442, 48.878908 ], [ 2.061071, 48.87883 ], [ 2.060753, 48.878773 ], [ 2.060429, 48.878727 ], [ 2.060083, 48.878686 ], [ 2.05964, 48.878646 ], [ 2.058581, 48.878574 ], [ 2.058462, 48.878566 ], [ 2.056049, 48.878397 ] ] } },
{ "type": "Feature", "properties": { "cls": "separated", "highway": "cycleway", "name": "Carrefour Royal" }, "geometry": { "type": "LineString", "coordinates": [ [ 2.035665, 48.867541 ], [ 2.035669, 48.867522 ], [ 2.035672, 48.867487 ], [ 2.035662, 48.867463 ] ] } },
{ "type": "Feature", "properties": { "cls": "separated", "highway": "cycleway", "name": null }, "geometry": { "type": "LineString", "coordinates": [ [ 2.036925, 48.868038 ], [ 2.037995, 48.868709 ], [ 2.039365, 48.870332 ], [ 2.040032, 48.871102 ], [ 2.040149, 48.871212 ], [ 2.040451, 48.871424 ], [ 2.04177, 48.871978 ] ] } },
{ "type": "Feature", "properties": { "cls": "separated", "highway": "cycleway", "name": null }, "geometry": { "type": "LineString", "coordinates": [ [ 2.04177, 48.871978 ], [ 2.04453, 48.873228 ] ] } },
{ "type": "Feature", "properties": { "cls": "separated", "highway": "cycleway", "name": null }, "geometry": { "type": "LineString", "coordinates": [ [ 2.054629, 48.878261 ], [ 2.054593, 48.878277 ], [ 2.054504, 48.878261 ], [ 2.054366, 48.878227 ], [ 2.054095, 48.878158 ], [ 2.053906, 48.878111 ], [ 2.053533, 48.877989 ], [ 2.052661, 48.877709 ], [ 2.051985, 48.877497 ], [ 2.051541, 48.877358 ], [ 2.051063, 48.877213 ], [ 2.050887, 48.877145 ], [ 2.050833, 48.877106 ], [ 2.0506, 48.876988 ], [ 2.050192, 48.876745 ], [ 2.048392, 48.875633 ], [ 2.04683, 48.874664 ], [ 2.046002, 48.874175 ], [ 2.044864, 48.873506 ], [ 2.044633, 48.873398 ], [ 2.041741, 48.872114 ], [ 2.040466, 48.871564 ], [ 2.040138, 48.871398 ], [ 2.040095, 48.871365 ], [ 2.039957, 48.87127 ], [ 2.039677, 48.870945 ], [ 2.037938, 48.868905 ], [ 2.037804, 48.868786 ], [ 2.03679, 48.868141 ] ] } },
{ "type": "Feature", "properties": { "cls": "separated", "highway": "cycleway", "name": null }, "geometry": { "type": "LineString", "coordinates": [ [ 2.044963, 48.873385 ], [ 2.045131, 48.873518 ], [ 2.046114, 48.87404 ], [ 2.04701, 48.874597 ], [ 2.050897, 48.876953 ], [ 2.051415, 48.877149 ], [ 2.05336, 48.877771 ], [ 2.054232, 48.878014 ], [ 2.054577, 48.878095 ], [ 2.054671, 48.878102 ], [ 2.054755, 48.878125 ], [ 2.054878, 48.878174 ], [ 2.054863, 48.878209 ] ] } }
]
}
