{
"type": "FeatureCollection",
"name": "050-indianapolis-eagle-creek-park",
"crs": { "type": "name", "properties": { "name": "urn:ogc:def:crs:OGC:1.3:CRS84" } },
"xy_coordinate_resolution": 1e-06,
"features": [
{ "type": "Feature", "properties": { "cls": "painted", "highway": "primary", "name": "West 56th Street" }, "geometry": { "type": "LineString", "coordinates": [ [ -86.31006, 39.852347 ], [ -86.310204, 39.852328 ], [ -86.310498, 39.852284 ], [ -86.311389, 39.852169 ], [ -86.311421, 39.852141 ] ] } },
{ "type": "Feature", "properties": { "cls": "painted", "highway": "primary", "name": "West 56th Street" }, "geometry": { "type": "LineString", "coordinates": [ [ -86.311325, 39.852123 ], [ -86.311134, 39.852138 ], [ -86.3109, 39.852164 ], [ -86.31045, 39.85222 ], [ -86.309924, 39.852287 ], [ -86.30967, 39.852317 ], [ -86.309415, 39.852346 ], [ -86.309219, 39.852369 ], [ -86.309037, 39.85239 ], [ -86.308895, 39.852404 ], [ -86.308718, 39.85242 ], [ -86.308522, 39.852433 ], [ -86.308334, 39.852443 ], [ -86.308152, 39.852453 ], [ -86.307961, 39.852457 ], [ -86.307776, 39.85246 ], [ -86.307635, 39.85246 ] ] } },
{ "type": "Feature", "properties": { "cls": "separated", "highway": "primary", "name": "West 56th Street" }, "geometry": { "type": "LineString", "coordinates": [ [ -86.307653, 39.85254 ], [ -86.307824, 39.852538 ], [ -86.307975, 39.852536 ], [ -86.308141, 39.85253 ], [ -86.308321, 39.852521 ], [ -86.308455, 39.852515 ], [ -86.308624, 39.852505 ], [ -86.30883, 39.852486 ], [ -86.309077, 39.852461 ], [ -86.309294, 39.852437 ], [ -86.309707, 39.85239 ], [ -86.309978, 39.852359 ], [ -86.31006, 39.852347 ] ] } },
{ "type": "Feature", "properties": { "cls": "separated", "highway": "cycleway", "name": null }, "geometry": { "type": "LineString", "coordinates": [ [ -86.307524, 39.852566 ], [ -86.308272, 39.852541 ], [ -86.308834, 39.852509 ], [ -86.309959, 39.852385 ], [ -86.310046, 39.852378 ] ] } },
{ "type": "Feature", "properties": { "cls": "painted", "highway": "primary", "name": "West 56th Street" }, "geometry": { "type": "LineString", "coordinates": [ [ -86.307635, 39.85246 ], [ -86.306735, 39.852477 ] ] } },
{ "type": "Feature", "properties": { "cls": "painted", "highway": "primary", "name": "West 56th Street" }, "geometry": { "type": "LineString", "coordinates": [ [ -86.306735, 39.852477 ], [ -86.306452, 39.852482 ], [ -86.305195, 39.852502 ], [ -86.304474, 39.852519 ], [ -86.303793, 39.852529 ], [ -86.302771, 39.852549 ], [ -86.301875, 39.852566 ], [ -86.301051, 39.85257 ], [ -86.300437, 39.852578 ], [ -86.299907, 39.852591 ], [ -86.29964, 39.852593 ], [ -86.299338, 39.852587 ], [ -86.299101, 39.852578 ], [ -86.298903, 39.852572 ], [ -86.298855, 39.85257 ], [ -86.298751, 39.852565 ] ] } },
{ "type": "Feature", "properties": { "cls": "separated", "highway": "primary", "name": "West 56th Street" }, "geometry": { "type": "LineString", "coordinates": [ [ -86.306725, 39.852556 ], [ -86.307653, 39.85254 ] ] } },
{ "type": "Feature", "properties": { "cls": "separated", "highway": "cycleway", "name": null }, "geometry": { "type": "LineString", "coordinates": [ [ -86.306699, 39.852582 ], [ -86.306931, 39.852578 ], [ -86.307524, 39.852566 ] ] } },
{ "type": "Feature", "properties": { "cls": "separated", "highway": "primary", "name": "West 56th Street" }, "geometry": { "type": "LineString", "coordinates": [ [ -86.298754, 39.852644 ], [ -86.298901, 39.852651 ], [ -86.299128, 39.85266 ], [ -86.299391, 39.852667 ], [ -86.299678, 39.852669 ], [ -86.300287, 39.85266 ], [ -86.301043, 39.852646 ], [ -86.301805, 39.85264 ], [ -86.302553, 39.852632 ], [ -86.303345, 39.852615 ], [ -86.304439, 39.852595 ], [ -86.306725, 39.852556 ] ] } },
{ "type": "Feature", "properties": { "cls": "separated", "highway": "cycleway", "name": null }, "geometry": { "type": "LineString", "coordinates": [ [ -86.299, 39.852689 ], [ -86.299234, 39.852695 ], [ -86.29974, 39.852693 ], [ -86.300436, 39.852686 ], [ -86.301349, 39.852672 ], [ -86.302224, 39.852655 ], [ -86.302904, 39.852647 ], [ -86.3039, 39.852621 ], [ -86.304729, 39.852614 ], [ -86.305555, 39.852599 ], [ -86.306699, 39.852582 ] ] } },
{ "type": "Feature", "properties": { "cls": "separated", "highway": "cycleway", "name": null }, "geometry": { "type": "MultiLineString", "coordinates": [ [ [ -86.297864, 39.852658 ], [ -86.298038, 39.852649 ] ], [ [ -86.298757, 39.852694 ], [ -86.298811, 39.852697 ] ] ] } },
{ "type": "Feature", "properties": { "cls": "separated", "highway": "cycleway", "name": null }, "geometry": { "type": "LineString", "coordinates": [ [ -86.298811, 39.852697 ], [ -86.298901, 39.852694 ], [ -86.299, 39.852689 ] ] } },
{ "type": "Feature", "properties": { "cls": "separated", "highway": "cycleway", "name": null }, "geometry": { "type": "MultiLineString", "coordinates": [ [ [ -86.310046, 39.852378 ], [ -86.310162, 39.852389 ], [ -86.310326, 39.852397 ], [ -86.310728, 39.852356 ], [ -86.311003, 39.852327 ], [ -86.311206, 39.852414 ], [ -86.31136, 39.852506 ], [ -86.311538, 39.852547 ], [ -86.312302, 39.852501 ], [ -86.31272, 39.852474 ], [ -86.312904, 39.852497 ], [ -86.313103, 39.85258 ], [ -86.31359, 39.852772 ], [ -86.313778, 39.852828 ], [ -86.314818, 39.852852 ], [ -86.314904, 39.852838 ], [ -86.315018, 39.852819 ] ], [ [ -86.315018, 39.852819 ], [ -86.315316, 39.852698 ], [ -86.315577, 39.852648 ], [ -86.315951, 39.852648 ], [ -86.317704, 39.852687 ], [ -86.317977, 39.852755 ], [ -86.318249, 39.852851 ], [ -86.318478, 39.85307 ], [ -86.318775, 39.853319 ], [ -86.319448, 39.853687 ], [ -86.319523, 39.853722 ], [ -86.319631, 39.853713 ], [ -86.319957, 39.853411 ], [ -86.320822, 39.852731 ], [ -86.320954, 39.852712 ], [ -86.321149, 39.852718 ], [ -86.321686, 39.852616 ], [ -86.322215, 39.852528 ], [ -86.32257, 39.852372 ], [ -86.322865, 39.852331 ], [ -86.323419, 39.852292 ], [ -86.323875, 39.85229 ], [ -86.324501, 39.852295 ], [ -86.324805, 39.852323 ], [ -86.325108, 39.852306 ], [ -86.325499, 39.852261 ], [ -86.327301, 39.852255 ], [ -86.327538, 39.852212 ], [ -86.327636, 39.852163 ], [ -86.3277, 39.852141 ], [ -86.327789, 39.852126 ] ] ] } },
{ "type": "Feature", "properties": { "cls": "shared", "highway": "cycleway", "name": "56th Street Trail" }, "geometry": { "type": "LineString", "coordinates": [ [ -86.297864, 39.852658 ], [ -86.297779, 39.852662 ], [ -86.297656, 39.852644 ], [ -86.297517, 39.852614 ], [ -86.296599, 39.852517 ], [ -86.296368, 39.852558 ], [ -86.295945, 39.852594 ], [ -86.295353, 39.852662 ], [ -86.29514, 39.852716 ], [ -86.294823, 39.852624 ], [ -86.294649, 39.852608 ], [ -86.294539, 39.852632 ], [ -86.293434, 39.852768 ], [ -86.29312, 39.852802 ], [ -86.29285, 39.852902 ], [ -86.292574, 39.853021 ], [ -86.292382, 39.853101 ], [ -86.292236, 39.853101 ] ] } },
{ "type": "Feature", "properties": { "cls": "shared", "highway": "cycleway", "name": "Eagle Creek Greenway" }, "geometry": { "type": "LineString", "coordinates": [ [ -86.289732, 39.852458 ], [ -86.289723, 39.852399 ], [ -86.289704, 39.8523 ], [ -86.289708, 39.852187 ], [ -86.289748, 39.851983 ], [ -86.289748, 39.85168 ], [ -86.289744, 39.851264 ], [ -86.289727, 39.849854 ], [ -86.289714, 39.849249 ], [ -86.28962, 39.849047 ], [ -86.289411, 39.848874 ], [ -86.289212, 39.848699 ], [ -86.289083, 39.84852 ], [ -86.288979, 39.848297 ], [ -86.288842, 39.847924 ], [ -86.288823, 39.847879 ], [ -86.288748, 39.847842 ], [ -86.288694, 39.847826 ], [ -86.288662, 39.847803 ], [ -86.288646, 39.847756 ], [ -86.288617, 39.846897 ], [ -86.28863, 39.846815 ], [ -86.288673, 39.846749 ], [ -86.288726, 39.846697 ], [ -86.288962, 39.846557 ], [ -86.289038, 39.846495 ], [ -86.289102, 39.846409 ], [ -86.289158, 39.846304 ], [ -86.289204, 39.84617 ], [ -86.289215, 39.846005 ], [ -86.289228, 39.845775 ], [ -86.289212, 39.845678 ], [ -86.289158, 39.845583 ], [ -86.289035, 39.845486 ], [ -86.288866, 39.845433 ], [ -86.288651, 39.845427 ], [ -86.286846, 39.845468 ], [ -86.286629, 39.845482 ], [ -86.286417, 39.8455 ], [ -86.285787, 39.84562 ], [ -86.285656, 39.845635 ], [ -86.2855, 39.845645 ], [ -86.285127, 39.845649 ], [ -86.284974, 39.845641 ], [ -86.284835, 39.84561 ], [ -86.284695, 39.845554 ], [ -86.284508, 39.845474 ], [ -86.28439, 39.845451 ], [ -86.284247, 39.845455 ], [ -86.284057, 39.845472 ], [ -86.283888, 39.84547 ], [ -86.283746, 39.845422 ], [ -86.283604, 39.845342 ], [ -86.283565, 39.845309 ] ] } },
{ "type": "Feature", "properties": { "cls": "shared", "highway": "cycleway", "name": "Eagle Creek Greenway" }, "geometry": { "type": "LineString", "coordinates": [ [ -86.289734, 39.852565 ], [ -86.289735, 39.852502 ], [ -86.289732, 39.852458 ] ] } },
{ "type": "Feature", "properties": { "cls": "shared", "highway": "cycleway", "name": null }, "geometry": { "type": "LineString", "coordinates": [ [ -86.289734, 39.852648 ], [ -86.289734, 39.852565 ] ] } },
{ "type": "Feature", "properties": { "cls": "shared", "highway": "cycleway", "name": "56th Street Trail" }, "geometry": { "type": "LineString", "coordinates": [ [ -86.289734, 39.852648 ], [ -86.285521, 39.85276 ], [ -86.283949, 39.852788 ], [ -86.281503, 39.852842 ], [ -86.280935, 39.852887 ], [ -86.280356, 39.8529 ], [ -86.279702, 39.8529 ] ] } },
{ "type": "Feature", "properties": { "cls": "shared", "highway": "cycleway", "name": "Eagle Creek Greenway" }, "geometry": { "type": "LineString", "coordinates": [ [ -86.292236, 39.853101 ], [ -86.292076, 39.853101 ], [ -86.291626, 39.852854 ], [ -86.291485, 39.852795 ], [ -86.291248, 39.852793 ], [ -86.291077, 39.85278 ], [ -86.290889, 39.852668 ], [ -86.290732, 39.852628 ], [ -86.290591, 39.852636 ], [ -86.289734, 39.852648 ] ] } },
{ "type": "Feature", "properties": { "cls": "shared", "highway": "cycleway", "name": null }, "geometry": { "type": "LineString", "coordinates": [ [ -86.295042, 39.87794 ], [ -86.295073, 39.877939 ], [ -86.295146, 39.877935 ], [ -86.295175, 39.877935 ] ] } },
{ "type": "Feature", "properties": { "cls": "shared", "highway": "cycleway", "name": "Northtown Trail" }, "geometry": { "type": "LineString", "coordinates": [ [ -86.295042, 39.87794 ], [ -86.294788, 39.877941 ], [ -86.294542, 39.877892 ], [ -86.294451, 39.877894 ], [ -86.294352, 39.87793 ], [ -86.294296, 39.877982 ], [ -86.294252, 39.878048 ], [ -86.294188, 39.878284 ], [ -86.294137, 39.878371 ], [ -86.294017, 39.878472 ], [ -86.293932, 39.878576 ], [ -86.293895, 39.878665 ], [ -86.293883, 39.878777 ], [ -86.293868, 39.878918 ], [ -86.293817, 39.879017 ], [ -86.293733, 39.879071 ], [ -86.293634, 39.879089 ], [ -86.293407, 39.879055 ], [ -86.293268, 39.87904 ], [ -86.293167, 39.879052 ], [ -86.2931, 39.879094 ], [ -86.293068, 39.879169 ], [ -86.293068, 39.879261 ], [ -86.293077, 39.879353 ], [ -86.293125, 39.879428 ], [ -86.293194, 39.879555 ], [ -86.293212, 39.879601 ] ] } },
{ "type": "Feature", "properties": { "cls": "painted", "highway": "secondary", "name": "Lafayette Road" }, "geometry": { "type": "LineString", "coordinates": [ [ -86.300053, 39.887459 ], [ -86.299833, 39.887225 ], [ -86.299771, 39.887157 ], [ -86.299617, 39.887003 ], [ -86.299473, 39.886862 ], [ -86.299328, 39.886726 ], [ -86.29917, 39.886576 ], [ -86.299157, 39.886567 ], [ -86.299072, 39.886492 ] ] } },
{ "type": "Feature", "properties": { "cls": "painted", "highway": "secondary", "name": "Lafayette Road" }, "geometry": { "type": "LineString", "coordinates": [ [ -86.300578, 39.888076 ], [ -86.300491, 39.887954 ], [ -86.300464, 39.887918 ], [ -86.300225, 39.887641 ], [ -86.300053, 39.887459 ] ] } },
{ "type": "Feature", "properties": { "cls": "painted", "highway": "secondary", "name": "Lafayette Road" }, "geometry": { "type": "LineString", "coordinates": [ [ -86.30059, 39.888094 ], [ -86.300578, 39.888076 ] ] } },
{ "type": "Feature", "properties": { "cls": "separated", "highway": "cycleway", "name": "Eagle Creek Trail" }, "geometry": { "type": "MultiLineString", "coordinates": [ [ [ -86.263843, 39.853182 ], [ -86.263874, 39.85319 ], [ -86.264334, 39.853171 ], [ -86.264603, 39.853119 ], [ -86.265067, 39.853074 ] ], [ [ -86.265384, 39.853064 ], [ -86.266181, 39.853247 ], [ -86.270472, 39.853257 ], [ -86.270816, 39.85324 ], [ -86.270966, 39.853225 ] ] ] } },
{ "type": "Feature", "properties": { "cls": "separated", "highway": "cycleway", "name": "Eagle Creek Trail" }, "geometry": { "type": "LineString", "coordinates": [ [ -86.271501, 39.853049 ], [ -86.271364, 39.853096 ], [ -86.271177, 39.853132 ], [ -86.271035, 39.853194 ] ] } }
]
}
