{
"type": "FeatureCollection",
"name": "052-memphis-shelby-farms",
"crs": { "type": "name", "properties": { "name": "urn:ogc:def:crs:OGC:1.3:CRS84" } },
"xy_coordinate_resolution": 1e-06,
"features": [
{ "type": "Feature", "properties": { "cls": "separated", "highway": "cycleway", "name": "Wolf River Trail Yellow" }, "geometry": { "type": "LineString", "coordinates": [ [ -89.818195, 35.11817 ], [ -89.818426, 35.118236 ] ] } },
{ "type": "Feature", "properties": { "cls": "separated", "highway": "cycleway", "name": "Wolf River Trail Yellow" }, "geometry": { "type": "LineString", "coordinates": [ [ -89.807773, 35.118143 ], [ -89.807783, 35.117901 ], [ -89.807798, 35.11761 ], [ -89.807829, 35.117375 ], [ -89.80781, 35.117173 ], [ -89.807811, 35.116974 ], [ -89.807828, 35.116918 ], [ -89.807833, 35.11678 ], [ -89.807863, 35.11668 ], [ -89.807892, 35.116633 ], [ -89.807936, 35.116591 ], [ -89.807992, 35.116559 ], [ -89.808055, 35.116538 ], [ -89.808226, 35.116522 ], [ -89.808401, 35.116521 ], [ -89.80903, 35.116594 ], [ -89.809323, 35.11666 ], [ -89.809549, 35.116724 ], [ -89.809684, 35.116754 ], [ -89.809816, 35.116774 ], [ -89.810242, 35.11682 ], [ -89.810618, 35.116873 ], [ -89.811058, 35.116952 ], [ -89.811425, 35.117032 ], [ -89.811564, 35.117083 ], [ -89.811706, 35.117146 ], [ -89.811772, 35.117164 ], [ -89.812055, 35.117191 ], [ -89.812202, 35.117191 ], [ -89.812364, 35.117179 ], [ -89.812504, 35.117182 ], [ -89.812621, 35.117199 ], [ -89.81279, 35.117236 ], [ -89.81296, 35.117255 ], [ -89.813335, 35.117352 ], [ -89.813449, 35.117392 ], [ -89.813641, 35.117481 ], [ -89.813812, 35.11755 ], [ -89.814039, 35.117626 ], [ -89.814177, 35.117657 ], [ -89.814341, 35.117673 ], [ -89.814644, 35.117683 ], [ -89.81493, 35.117734 ], [ -89.815111, 35.117755 ], [ -89.815601, 35.117777 ], [ -89.815707, 35.117799 ], [ -89.815892, 35.117859 ], [ -89.816335, 35.117938 ], [ -89.81677, 35.11798 ], [ -89.817017, 35.118011 ], [ -89.817404, 35.118024 ], [ -89.81797, 35.118107 ], [ -89.818195, 35.11817 ] ] } },
{ "type": "Feature", "properties": { "cls": "separated", "highway": "cycleway", "name": "Wolf River Trail Yellow" }, "geometry": { "type": "LineString", "coordinates": [ [ -89.818426, 35.118236 ], [ -89.818571, 35.118295 ], [ -89.818818, 35.118436 ], [ -89.818965, 35.118509 ], [ -89.819039, 35.118579 ], [ -89.819046, 35.118626 ], [ -89.819087, 35.118745 ], [ -89.81913, 35.118788 ], [ -89.819169, 35.118805 ], [ -89.819237, 35.118811 ], [ -89.819355, 35.118797 ], [ -89.819449, 35.118806 ], [ -89.81986, 35.118945 ], [ -89.819948, 35.118973 ], [ -89.820024, 35.118988 ], [ -89.820099, 35.118963 ] ] } },
{ "type": "Feature", "properties": { "cls": "separated", "highway": "cycleway", "name": "Wolf River Trail Yellow" }, "geometry": { "type": "LineString", "coordinates": [ [ -89.820099, 35.118963 ], [ -89.820232, 35.118864 ] ] } },
{ "type": "Feature", "properties": { "cls": "separated", "highway": "cycleway", "name": "Wolf River Trail Blue" }, "geometry": { "type": "LineString", "coordinates": [ [ -89.820218, 35.120496 ], [ -89.820422, 35.120544 ] ] } },
{ "type": "Feature", "properties": { "cls": "separated", "highway": "cycleway", "name": null }, "geometry": { "type": "LineString", "coordinates": [ [ -89.827985, 35.120792 ], [ -89.827867, 35.120767 ], [ -89.82776, 35.120711 ], [ -89.827659, 35.120626 ], [ -89.827627, 35.120496 ], [ -89.827617, 35.120342 ], [ -89.827633, 35.120185 ], [ -89.827614, 35.120097 ], [ -89.82761, 35.120091 ], [ -89.827572, 35.120081 ], [ -89.827554, 35.120066 ] ] } },
{ "type": "Feature", "properties": { "cls": "separated", "highway": "cycleway", "name": null }, "geometry": { "type": "LineString", "coordinates": [ [ -89.828415, 35.120772 ], [ -89.828227, 35.120773 ] ] } },
{ "type": "Feature", "properties": { "cls": "separated", "highway": "cycleway", "name": "Bridge" }, "geometry": { "type": "LineString", "coordinates": [ [ -89.827985, 35.120792 ], [ -89.828227, 35.120773 ] ] } },
{ "type": "Feature", "properties": { "cls": "separated", "highway": "cycleway", "name": null }, "geometry": { "type": "LineString", "coordinates": [ [ -89.82065, 35.119014 ], [ -89.820559, 35.119669 ], [ -89.820492, 35.120187 ], [ -89.820488, 35.120343 ], [ -89.820475, 35.120525 ], [ -89.820474, 35.120557 ], [ -89.820411, 35.120839 ], [ -89.820387, 35.121257 ], [ -89.820328, 35.121604 ], [ -89.820321, 35.12175 ], [ -89.820265, 35.122123 ], [ -89.820213, 35.122583 ], [ -89.820196, 35.122663 ], [ -89.82019, 35.122873 ], [ -89.820174, 35.122936 ], [ -89.820168, 35.123059 ], [ -89.820154, 35.123119 ], [ -89.820147, 35.123312 ], [ -89.820131, 35.123378 ], [ -89.820127, 35.123516 ], [ -89.82011, 35.123588 ], [ -89.820107, 35.12366 ], [ -89.820043, 35.124091 ], [ -89.82004, 35.124194 ], [ -89.820022, 35.124299 ], [ -89.819999, 35.124566 ], [ -89.81996, 35.124762 ], [ -89.819956, 35.124872 ], [ -89.819915, 35.125122 ], [ -89.819917, 35.125239 ] ] } },
{ "type": "Feature", "properties": { "cls": "separated", "highway": "cycleway", "name": "Wolf RIver Trail Red" }, "geometry": { "type": "LineString", "coordinates": [ [ -89.819917, 35.125239 ], [ -89.819929, 35.125254 ], [ -89.819955, 35.125378 ], [ -89.820086, 35.125474 ], [ -89.820221, 35.125536 ], [ -89.820358, 35.125615 ], [ -89.820618, 35.125747 ], [ -89.820733, 35.125822 ], [ -89.820892, 35.125986 ], [ -89.820983, 35.12604 ], [ -89.821185, 35.126102 ], [ -89.821285, 35.12611 ], [ -89.82132, 35.12611 ], [ -89.821471, 35.12611 ], [ -89.821628, 35.126132 ], [ -89.821743, 35.12614 ], [ -89.822024, 35.126205 ], [ -89.822168, 35.126224 ], [ -89.822292, 35.126227 ], [ -89.822445, 35.126203 ], [ -89.822549, 35.126212 ], [ -89.822608, 35.126227 ], [ -89.822784, 35.126241 ], [ -89.822853, 35.126231 ], [ -89.823026, 35.126184 ], [ -89.823123, 35.126175 ], [ -89.823177, 35.126183 ], [ -89.823289, 35.126222 ], [ -89.823437, 35.126237 ], [ -89.82354, 35.126269 ], [ -89.823593, 35.126278 ], [ -89.823736, 35.126283 ], [ -89.824033, 35.126279 ], [ -89.824072, 35.126272 ], [ -89.824118, 35.126235 ], [ -89.824124, 35.126182 ], [ -89.824145, 35.12614 ], [ -89.824193, 35.126106 ], [ -89.824427, 35.126023 ], [ -89.824513, 35.125974 ], [ -89.824588, 35.125908 ], [ -89.824651, 35.125837 ], [ -89.82475, 35.125789 ], [ -89.824922, 35.125684 ], [ -89.825039, 35.125658 ], [ -89.825319, 35.12564 ], [ -89.825465, 35.125598 ], [ -89.82562, 35.125541 ], [ -89.825773, 35.125447 ], [ -89.825874, 35.125297 ], [ -89.825929, 35.125127 ], [ -89.825984, 35.12499 ], [ -89.826112, 35.124814 ], [ -89.826215, 35.1246 ], [ -89.82639, 35.124372 ], [ -89.826395, 35.124356 ], [ -89.826384, 35.124346 ] ] } },
{ "type": "Feature", "properties": { "cls": "separated", "highway": "cycleway", "name": "Levee 1" }, "geometry": { "type": "LineString", "coordinates": [ [ -89.828667, 35.120284 ], [ -89.828546, 35.120483 ], [ -89.828476, 35.12064 ], [ -89.828438, 35.120729 ], [ -89.828415, 35.120772 ], [ -89.82837, 35.120912 ], [ -89.828325, 35.121073 ], [ -89.828215, 35.121361 ], [ -89.828157, 35.121478 ], [ -89.828071, 35.121689 ], [ -89.827903, 35.122022 ], [ -89.827892, 35.122094 ], [ -89.827832, 35.122231 ], [ -89.827793, 35.122298 ], [ -89.827548, 35.122929 ], [ -89.827513, 35.122993 ], [ -89.827438, 35.123194 ], [ -89.827274, 35.123546 ], [ -89.827244, 35.123669 ], [ -89.827186, 35.123797 ], [ -89.827142, 35.123943 ], [ -89.827075, 35.124114 ], [ -89.826901, 35.124475 ], [ -89.826886, 35.12453 ], [ -89.826242, 35.12636 ], [ -89.826233, 35.126435 ], [ -89.826145, 35.126643 ], [ -89.826038, 35.126968 ], [ -89.826006, 35.127293 ], [ -89.825979, 35.127538 ], [ -89.825974, 35.127859 ], [ -89.825952, 35.128205 ], [ -89.825968, 35.128425 ], [ -89.825963, 35.128741 ], [ -89.825931, 35.129026 ], [ -89.825925, 35.129381 ], [ -89.825893, 35.129846 ], [ -89.825883, 35.130263 ], [ -89.825834, 35.130395 ], [ -89.825834, 35.130623 ], [ -89.825807, 35.130921 ], [ -89.825818, 35.131075 ], [ -89.825845, 35.131211 ], [ -89.825714, 35.131433 ] ] } },
{ "type": "Feature", "properties": { "cls": "separated", "highway": "cycleway", "name": "By-Pass" }, "geometry": { "type": "LineString", "coordinates": [ [ -89.834175, 35.125948 ], [ -89.834095, 35.125924 ], [ -89.834022, 35.125912 ], [ -89.833775, 35.12596 ], [ -89.833665, 35.125974 ], [ -89.833589, 35.126004 ], [ -89.833465, 35.126103 ], [ -89.833401, 35.126167 ], [ -89.833325, 35.126196 ], [ -89.833269, 35.126206 ], [ -89.833175, 35.126202 ], [ -89.832954, 35.126146 ], [ -89.832749, 35.126144 ], [ -89.832619, 35.126118 ], [ -89.832561, 35.12605 ], [ -89.832433, 35.126039 ] ] } },
{ "type": "Feature", "properties": { "cls": "separated", "highway": "cycleway", "name": null }, "geometry": { "type": "LineString", "coordinates": [ [ -89.807667, 35.118156 ], [ -89.807587, 35.118163 ], [ -89.807129, 35.118084 ] ] } },
{ "type": "Feature", "properties": { "cls": "separated", "highway": "cycleway", "name": "Wolf River Trail Blue" }, "geometry": { "type": "LineString", "coordinates": [ [ -89.807667, 35.118156 ], [ -89.807773, 35.118143 ], [ -89.807845, 35.118158 ], [ -89.808108, 35.118228 ], [ -89.808336, 35.118275 ], [ -89.809137, 35.118421 ], [ -89.809401, 35.118483 ], [ -89.809659, 35.118512 ], [ -89.809761, 35.118531 ], [ -89.809889, 35.118568 ], [ -89.810238, 35.11861 ], [ -89.810433, 35.118648 ], [ -89.810603, 35.118671 ], [ -89.810829, 35.118731 ], [ -89.811092, 35.118785 ], [ -89.811358, 35.118774 ], [ -89.811543, 35.118921 ], [ -89.81181, 35.118842 ], [ -89.812024, 35.118955 ], [ -89.812742, 35.119104 ], [ -89.812911, 35.119121 ], [ -89.813121, 35.119129 ], [ -89.813243, 35.119147 ], [ -89.813305, 35.119159 ], [ -89.81356, 35.119238 ], [ -89.813685, 35.11927 ], [ -89.813841, 35.119307 ], [ -89.813958, 35.119264 ], [ -89.814083, 35.119362 ], [ -89.814236, 35.119367 ], [ -89.814548, 35.119399 ], [ -89.814764, 35.119444 ], [ -89.81487, 35.119494 ], [ -89.815027, 35.119417 ], [ -89.815136, 35.119394 ], [ -89.815191, 35.11942 ], [ -89.815223, 35.11946 ], [ -89.815415, 35.119568 ], [ -89.815536, 35.119602 ], [ -89.815753, 35.119632 ], [ -89.816091, 35.119695 ], [ -89.816486, 35.11979 ], [ -89.816771, 35.119843 ], [ -89.816873, 35.119849 ], [ -89.817051, 35.119828 ], [ -89.817133, 35.11983 ], [ -89.817194, 35.119844 ], [ -89.817471, 35.119939 ], [ -89.817619, 35.119973 ], [ -89.817964, 35.120078 ], [ -89.81809, 35.120105 ], [ -89.818274, 35.120129 ], [ -89.81872, 35.120223 ], [ -89.819124, 35.120288 ], [ -89.819277, 35.120295 ], [ -89.819478, 35.120355 ], [ -89.819669, 35.12037 ], [ -89.820218, 35.120496 ] ] } },
{ "type": "Feature", "properties": { "cls": "separated", "highway": "cycleway", "name": null }, "geometry": { "type": "LineString", "coordinates": [ [ -89.807129, 35.118084 ], [ -89.807006, 35.118096 ], [ -89.806958, 35.118059 ], [ -89.806827, 35.117987 ], [ -89.806644, 35.117925 ], [ -89.806324, 35.117831 ], [ -89.805974, 35.117701 ], [ -89.805892, 35.117678 ], [ -89.805797, 35.117639 ], [ -89.805602, 35.117582 ], [ -89.805549, 35.117574 ], [ -89.805494, 35.117579 ], [ -89.805306, 35.11764 ], [ -89.805218, 35.11768 ], [ -89.804999, 35.117821 ], [ -89.804813, 35.117876 ], [ -89.804591, 35.117986 ], [ -89.804468, 35.118038 ], [ -89.804383, 35.118089 ], [ -89.804207, 35.118242 ], [ -89.804114, 35.118304 ], [ -89.804055, 35.11833 ], [ -89.803702, 35.118437 ], [ -89.80351, 35.118522 ], [ -89.803306, 35.11863 ], [ -89.803212, 35.118673 ], [ -89.803135, 35.118735 ], [ -89.80309, 35.118757 ], [ -89.803032, 35.118783 ], [ -89.802946, 35.118838 ], [ -89.802769, 35.118928 ], [ -89.802577, 35.119035 ], [ -89.801821, 35.119389 ], [ -89.801309, 35.119691 ], [ -89.801244, 35.119749 ], [ -89.801191, 35.119826 ], [ -89.801039, 35.120057 ], [ -89.800881, 35.120267 ], [ -89.800837, 35.120348 ], [ -89.800807, 35.120411 ], [ -89.800753, 35.120564 ], [ -89.800706, 35.120722 ], [ -89.800665, 35.120885 ], [ -89.800633, 35.121014 ], [ -89.800615, 35.121098 ], [ -89.800581, 35.12125 ], [ -89.800528, 35.121487 ], [ -89.800482, 35.121661 ], [ -89.80045, 35.121716 ], [ -89.80041, 35.121768 ], [ -89.800357, 35.121801 ] ] } },
{ "type": "Feature", "properties": { "cls": "sharrow", "highway": "residential", "name": "Moore Road" }, "geometry": { "type": "LineString", "coordinates": [ [ -89.799217, 35.12596 ], [ -89.800364, 35.125979 ], [ -89.800829, 35.125984 ] ] } },
{ "type": "Feature", "properties": { "cls": "sharrow", "highway": "residential", "name": "Belz View Circle South" }, "geometry": { "type": "LineString", "coordinates": [ [ -89.800829, 35.125984 ], [ -89.800827, 35.126074 ] ] } },
{ "type": "Feature", "properties": { "cls": "sharrow", "highway": "residential", "name": "Belz View Circle South" }, "geometry": { "type": "LineString", "coordinates": [ [ -89.800827, 35.126074 ], [ -89.800756, 35.126133 ], [ -89.800747, 35.12691 ] ] } },
{ "type": "Feature", "properties": { "cls": "separated", "highway": "cycleway", "name": "Wolf River Trail Red" }, "geometry": { "type": "LineString", "coordinates": [ [ -89.826242, 35.12636 ], [ -89.826201, 35.126399 ], [ -89.82619, 35.126434 ], [ -89.826079, 35.126615 ], [ -89.825856, 35.126641 ], [ -89.825689, 35.126599 ], [ -89.825608, 35.126537 ], [ -89.825199, 35.126389 ], [ -89.825075, 35.126323 ], [ -89.824939, 35.126292 ], [ -89.824791, 35.126298 ], [ -89.824516, 35.126281 ], [ -89.824376, 35.126285 ], [ -89.824239, 35.126276 ], [ -89.824118, 35.126235 ] ] } },
{ "type": "Feature", "properties": { "cls": "separated", "highway": "cycleway", "name": null }, "geometry": { "type": "LineString", "coordinates": [ [ -89.82132, 35.12611 ], [ -89.821299, 35.126146 ], [ -89.82127, 35.12624 ], [ -89.821237, 35.126307 ], [ -89.821156, 35.126401 ], [ -89.821041, 35.126506 ], [ -89.821014, 35.126545 ], [ -89.821, 35.126587 ], [ -89.820916, 35.126701 ], [ -89.820858, 35.126764 ], [ -89.820828, 35.126845 ], [ -89.82076, 35.126967 ], [ -89.820729, 35.127135 ], [ -89.820675, 35.127243 ], [ -89.820646, 35.12744 ], [ -89.820644, 35.127483 ], [ -89.820664, 35.127511 ] ] } },
{ "type": "Feature", "properties": { "cls": "separated", "highway": "cycleway", "name": null }, "geometry": { "type": "LineString", "coordinates": [ [ -89.820175, 35.134058 ], [ -89.823638, 35.134213 ], [ -89.823851, 35.13423 ], [ -89.824015, 35.134273 ], [ -89.824162, 35.134339 ], [ -89.824659, 35.134593 ], [ -89.824868, 35.134673 ], [ -89.824892, 35.134758 ] ] } },
{ "type": "Feature", "properties": { "cls": "shared", "highway": "cycleway", "name": null }, "geometry": { "type": "MultiLineString", "coordinates": [ [ [ -89.828638, 35.143037 ], [ -89.828665, 35.142968 ], [ -89.828541, 35.14294 ], [ -89.828456, 35.142923 ], [ -89.828304, 35.142897 ], [ -89.828168, 35.142874 ], [ -89.82809, 35.142845 ], [ -89.828043, 35.142791 ], [ -89.828062, 35.142706 ], [ -89.828152, 35.142498 ], [ -89.828295, 35.142323 ], [ -89.82853, 35.14211 ], [ -89.828808, 35.141841 ], [ -89.829125, 35.141554 ], [ -89.829419, 35.141279 ], [ -89.829587, 35.141123 ], [ -89.829666, 35.141051 ] ], [ [ -89.829666, 35.141051 ], [ -89.829936, 35.140807 ], [ -89.830229, 35.140561 ], [ -89.830451, 35.140411 ], [ -89.830663, 35.140316 ], [ -89.831024, 35.14014 ], [ -89.831437, 35.139958 ], [ -89.831672, 35.139843 ], [ -89.831772, 35.139794 ], [ -89.831842, 35.139761 ], [ -89.832221, 35.139577 ], [ -89.832336, 35.139532 ], [ -89.832522, 35.139459 ], [ -89.832526, 35.139457 ], [ -89.832698, 35.13941 ], [ -89.832905, 35.139352 ], [ -89.833106, 35.139318 ], [ -89.833341, 35.139279 ], [ -89.833614, 35.13926 ], [ -89.833906, 35.139258 ], [ -89.834179, 35.139282 ], [ -89.834515, 35.139333 ], [ -89.834629, 35.139361 ], [ -89.834651, 35.139298 ], [ -89.834698, 35.139148 ], [ -89.834872, 35.139196 ], [ -89.835032, 35.139263 ], [ -89.835359, 35.139418 ], [ -89.835627, 35.139558 ], [ -89.835816, 35.139705 ], [ -89.835957, 35.139835 ], [ -89.836134, 35.140064 ], [ -89.836223, 35.140216 ], [ -89.836329, 35.140475 ], [ -89.836443, 35.14068 ], [ -89.836627, 35.140837 ], [ -89.83678, 35.140941 ], [ -89.837037, 35.141031 ], [ -89.837229, 35.141063 ], [ -89.837445, 35.141084 ], [ -89.837579, 35.141091 ], [ -89.837747, 35.141124 ], [ -89.837958, 35.141163 ], [ -89.838249, 35.141251 ], [ -89.838543, 35.141379 ], [ -89.838965, 35.141552 ], [ -89.839339, 35.141705 ], [ -89.839673, 35.141853 ], [ -89.839918, 35.141944 ], [ -89.840153, 35.141992 ], [ -89.840347, 35.141977 ], [ -89.840512, 35.141909 ], [ -89.840591, 35.141799 ], [ -89.840614, 35.141696 ], [ -89.840587, 35.141585 ], [ -89.840528, 35.141471 ], [ -89.84043, 35.141292 ], [ -89.840317, 35.141093 ], [ -89.840241, 35.140954 ], [ -89.840062, 35.140648 ], [ -89.839974, 35.140515 ], [ -89.839807, 35.140244 ], [ -89.839599, 35.139872 ], [ -89.839475, 35.139612 ], [ -89.839318, 35.139336 ], [ -89.839111, 35.139027 ], [ -89.838898, 35.13873 ], [ -89.838702, 35.138481 ], [ -89.838528, 35.138221 ], [ -89.838318, 35.137885 ], [ -89.838136, 35.137596 ], [ -89.838074, 35.137413 ], [ -89.838055, 35.13719 ], [ -89.838056, 35.137028 ], [ -89.838032, 35.136913 ], [ -89.837975, 35.136803 ], [ -89.837917, 35.136736 ], [ -89.837827, 35.136653 ], [ -89.837691, 35.136572 ], [ -89.837673, 35.136565 ], [ -89.837489, 35.136508 ], [ -89.837082, 35.136428 ], [ -89.836964, 35.13638 ], [ -89.8369, 35.136343 ], [ -89.836813, 35.13627 ], [ -89.836696, 35.136142 ], [ -89.836542, 35.135965 ], [ -89.836444, 35.135903 ], [ -89.836123, 35.13571 ], [ -89.836035, 35.135662 ], [ -89.835911, 35.135594 ], [ -89.835736, 35.135498 ], [ -89.835425, 35.135376 ], [ -89.835354, 35.135354 ], [ -89.835274, 35.135306 ], [ -89.834965, 35.135246 ], [ -89.834595, 35.135211 ], [ -89.834229, 35.135204 ], [ -89.833918, 35.135193 ], [ -89.833741, 35.135151 ], [ -89.83357, 35.135079 ], [ -89.833397, 35.134988 ], [ -89.833265, 35.134929 ], [ -89.83312, 35.134888 ], [ -89.832989, 35.134868 ], [ -89.832859, 35.134867 ], [ -89.832708, 35.134881 ], [ -89.832563, 35.134914 ], [ -89.832288, 35.134973 ], [ -89.832174, 35.134984 ], [ -89.83206, 35.134989 ], [ -89.831809, 35.134977 ], [ -89.831797, 35.134975 ], [ -89.831696, 35.134961 ], [ -89.830484, 35.134791 ], [ -89.830302, 35.1348 ], [ -89.830074, 35.134841 ], [ -89.829835, 35.134857 ], [ -89.829594, 35.134841 ], [ -89.829366, 35.134808 ], [ -89.82909, 35.13474 ], [ -89.828937, 35.134734 ], [ -89.828593, 35.13481 ], [ -89.828403, 35.134874 ], [ -89.828325, 35.134894 ], [ -89.828258, 35.1349 ], [ -89.828167, 35.134887 ], [ -89.827834, 35.134803 ], [ -89.827423, 35.134683 ], [ -89.827294, 35.134663 ], [ -89.827145, 35.134652 ], [ -89.826088, 35.134624 ], [ -89.825717, 35.134629 ], [ -89.825527, 35.134642 ], [ -89.825075, 35.134718 ], [ -89.824981, 35.134739 ], [ -89.824892, 35.134758 ], [ -89.82493, 35.134888 ], [ -89.825002, 35.13505 ], [ -89.825079, 35.135167 ], [ -89.825166, 35.135271 ], [ -89.825328, 35.135406 ], [ -89.825411, 35.135486 ], [ -89.825604, 35.135679 ], [ -89.825739, 35.135826 ], [ -89.825806, 35.135906 ], [ -89.825898, 35.136039 ], [ -89.825936, 35.136151 ], [ -89.826043, 35.136532 ], [ -89.826118, 35.136833 ], [ -89.826124, 35.136902 ], [ -89.826115, 35.136978 ], [ -89.826016, 35.137214 ], [ -89.82601, 35.137331 ], [ -89.826026, 35.137455 ], [ -89.826077, 35.137561 ], [ -89.826166, 35.137676 ], [ -89.826319, 35.137807 ], [ -89.826497, 35.138005 ], [ -89.826618, 35.138153 ], [ -89.826737, 35.138365 ], [ -89.826847, 35.138515 ], [ -89.826853, 35.138521 ], [ -89.827097, 35.138731 ], [ -89.827271, 35.138834 ], [ -89.827497, 35.13894 ], [ -89.82768, 35.139066 ], [ -89.827816, 35.139209 ], [ -89.827915, 35.139346 ], [ -89.828018, 35.13958 ], [ -89.828136, 35.139793 ], [ -89.82828, 35.139962 ], [ -89.828504, 35.140164 ], [ -89.828735, 35.140301 ], [ -89.82899, 35.140417 ], [ -89.829124, 35.140513 ], [ -89.829242, 35.140611 ], [ -89.829334, 35.140746 ], [ -89.829447, 35.140882 ], [ -89.829619, 35.141015 ], [ -89.829666, 35.141051 ] ] ] } },
{ "type": "Feature", "properties": { "cls": "shared", "highway": "cycleway", "name": null }, "geometry": { "type": "LineString", "coordinates": [ [ -89.826834, 35.147439 ], [ -89.826598, 35.147611 ], [ -89.826421, 35.147743 ], [ -89.826224, 35.147843 ], [ -89.825921, 35.147987 ], [ -89.825694, 35.148167 ], [ -89.825604, 35.148219 ], [ -89.825493, 35.148256 ], [ -89.82536, 35.148256 ], [ -89.825166, 35.14824 ], [ -89.824905, 35.148199 ], [ -89.824409, 35.148092 ], [ -89.824305, 35.148098 ], [ -89.82421, 35.148134 ], [ -89.824141, 35.148156 ], [ -89.82406, 35.148204 ], [ -89.823768, 35.148371 ], [ -89.823646, 35.148415 ], [ -89.82352, 35.14843 ], [ -89.823351, 35.148412 ], [ -89.823047, 35.148348 ], [ -89.82303, 35.148406 ] ] } },
{ "type": "Feature", "properties": { "cls": "separated", "highway": "cycleway", "name": "Wolf River overlook" }, "geometry": { "type": "LineString", "coordinates": [ [ -89.843321, 35.121508 ], [ -89.843425, 35.121438 ], [ -89.843542, 35.121316 ] ] } },
{ "type": "Feature", "properties": { "cls": "separated", "highway": "cycleway", "name": "Wolf River Trail Yellow" }, "geometry": { "type": "LineString", "coordinates": [ [ -89.820232, 35.118864 ], [ -89.820288, 35.118831 ], [ -89.82034, 35.11883 ], [ -89.820392, 35.11888 ], [ -89.820434, 35.118946 ], [ -89.820533, 35.118998 ], [ -89.82065, 35.119014 ], [ -89.820798, 35.11896 ], [ -89.821089, 35.118914 ], [ -89.821496, 35.118872 ], [ -89.821852, 35.118875 ], [ -89.822016, 35.118892 ], [ -89.82217, 35.118927 ], [ -89.822358, 35.118981 ], [ -89.822665, 35.119102 ], [ -89.822857, 35.119195 ], [ -89.822968, 35.119234 ], [ -89.823235, 35.119273 ], [ -89.82346, 35.119287 ], [ -89.823538, 35.1193 ], [ -89.823739, 35.119372 ], [ -89.823863, 35.119408 ], [ -89.824253, 35.119493 ], [ -89.824463, 35.119546 ], [ -89.824555, 35.119608 ], [ -89.824742, 35.119711 ], [ -89.825152, 35.119786 ], [ -89.825357, 35.119836 ], [ -89.82552, 35.119836 ], [ -89.825622, 35.11977 ], [ -89.825918, 35.119822 ], [ -89.826073, 35.119844 ], [ -89.826203, 35.119847 ], [ -89.826421, 35.119816 ], [ -89.826551, 35.119814 ], [ -89.826896, 35.119879 ], [ -89.827088, 35.119872 ], [ -89.827196, 35.119887 ], [ -89.827324, 35.119896 ], [ -89.827477, 35.120044 ], [ -89.827554, 35.120066 ], [ -89.827606, 35.120076 ], [ -89.827691, 35.12007 ], [ -89.827755, 35.12011 ], [ -89.827839, 35.120227 ], [ -89.827942, 35.120278 ], [ -89.828062, 35.120308 ], [ -89.828132, 35.120294 ], [ -89.828094, 35.120209 ], [ -89.828101, 35.120122 ], [ -89.828144, 35.120092 ], [ -89.828224, 35.120089 ], [ -89.828388, 35.120185 ], [ -89.828472, 35.120208 ], [ -89.828647, 35.120247 ], [ -89.828667, 35.120284 ], [ -89.828789, 35.120302 ], [ -89.829027, 35.120347 ], [ -89.829632, 35.120437 ], [ -89.829836, 35.120583 ], [ -89.830139, 35.120645 ], [ -89.830332, 35.120611 ], [ -89.830474, 35.120628 ], [ -89.830609, 35.120582 ], [ -89.831019, 35.120701 ], [ -89.831548, 35.120837 ], [ -89.831794, 35.120889 ], [ -89.832075, 35.120968 ], [ -89.832359, 35.121064 ], [ -89.832652, 35.121118 ], [ -89.83284, 35.121183 ], [ -89.832923, 35.121201 ], [ -89.833175, 35.121225 ], [ -89.833647, 35.121301 ], [ -89.833724, 35.121297 ], [ -89.833831, 35.12128 ], [ -89.833933, 35.121277 ], [ -89.834384, 35.121345 ], [ -89.8346, 35.121393 ], [ -89.834769, 35.121421 ], [ -89.835122, 35.121439 ], [ -89.835432, 35.121469 ], [ -89.835576, 35.12149 ], [ -89.836041, 35.121599 ], [ -89.836183, 35.121671 ], [ -89.836302, 35.121623 ], [ -89.836466, 35.121626 ], [ -89.836603, 35.121642 ], [ -89.836882, 35.121696 ], [ -89.837001, 35.121706 ], [ -89.837209, 35.121705 ], [ -89.837317, 35.121715 ], [ -89.837659, 35.121816 ], [ -89.837774, 35.121919 ], [ -89.837838, 35.121952 ], [ -89.838243, 35.121881 ], [ -89.838429, 35.121777 ], [ -89.838559, 35.121845 ], [ -89.838739, 35.121788 ], [ -89.838949, 35.121749 ], [ -89.839093, 35.121776 ], [ -89.839237, 35.121685 ], [ -89.83962, 35.121659 ], [ -89.839762, 35.121587 ], [ -89.840115, 35.121527 ], [ -89.840404, 35.121433 ], [ -89.840963, 35.12141 ], [ -89.841231, 35.121392 ], [ -89.841736, 35.121386 ], [ -89.841852, 35.121376 ], [ -89.841975, 35.121379 ], [ -89.842202, 35.121444 ], [ -89.842575, 35.121369 ], [ -89.842722, 35.121392 ], [ -89.84292, 35.12133 ], [ -89.842981, 35.121382 ], [ -89.843095, 35.121459 ], [ -89.843238, 35.121463 ], [ -89.843321, 35.121508 ], [ -89.843392, 35.121577 ], [ -89.843723, 35.121843 ], [ -89.843977, 35.122027 ], [ -89.84416, 35.122162 ], [ -89.844181, 35.122192 ], [ -89.84425, 35.122372 ], [ -89.844361, 35.122565 ], [ -89.8444, 35.122618 ], [ -89.844426, 35.122676 ], [ -89.844486, 35.122757 ], [ -89.84459, 35.122852 ], [ -89.844679, 35.122949 ], [ -89.844912, 35.123257 ], [ -89.845005, 35.123402 ], [ -89.845154, 35.123542 ], [ -89.845219, 35.123586 ], [ -89.845386, 35.123674 ], [ -89.845453, 35.123725 ], [ -89.845514, 35.123788 ], [ -89.845602, 35.123901 ], [ -89.845693, 35.123999 ], [ -89.845741, 35.12404 ], [ -89.845905, 35.12412 ], [ -89.845974, 35.124172 ], [ -89.846031, 35.124246 ], [ -89.846121, 35.124407 ], [ -89.846153, 35.124445 ], [ -89.846186, 35.124476 ], [ -89.846393, 35.124593 ], [ -89.846485, 35.124673 ], [ -89.84657, 35.124771 ], [ -89.846634, 35.124889 ], [ -89.846711, 35.124993 ], [ -89.846839, 35.12508 ], [ -89.84693, 35.125211 ], [ -89.846975, 35.125373 ], [ -89.846977, 35.125526 ] ] } },
{ "type": "Feature", "properties": { "cls": "separated", "highway": "cycleway", "name": "East Yellow-Blue connector trail" }, "geometry": { "type": "LineString", "coordinates": [ [ -89.835122, 35.121439 ], [ -89.835131, 35.121679 ], [ -89.835038, 35.121873 ], [ -89.834724, 35.122137 ], [ -89.834435, 35.122531 ], [ -89.834337, 35.122639 ], [ -89.83427, 35.12275 ], [ -89.834262, 35.122861 ], [ -89.834224, 35.122954 ], [ -89.834221, 35.123037 ], [ -89.834252, 35.123105 ], [ -89.834287, 35.123143 ], [ -89.834342, 35.123162 ], [ -89.834378, 35.123164 ], [ -89.834443, 35.12315 ], [ -89.834515, 35.123119 ], [ -89.834607, 35.123102 ], [ -89.834703, 35.123127 ], [ -89.834863, 35.123217 ], [ -89.834907, 35.123271 ], [ -89.834929, 35.123327 ], [ -89.83493, 35.123442 ], [ -89.834921, 35.123502 ], [ -89.834821, 35.123687 ], [ -89.834777, 35.123825 ], [ -89.834735, 35.1239 ], [ -89.834713, 35.123984 ], [ -89.834719, 35.124228 ], [ -89.83474, 35.124316 ], [ -89.834783, 35.124416 ], [ -89.8348, 35.124522 ], [ -89.834789, 35.124771 ], [ -89.834799, 35.124914 ], [ -89.834828, 35.125066 ], [ -89.834891, 35.125221 ], [ -89.834934, 35.125398 ], [ -89.834929, 35.125599 ], [ -89.834962, 35.125773 ], [ -89.834945, 35.125835 ], [ -89.834912, 35.12585 ] ] } },
{ "type": "Feature", "properties": { "cls": "separated", "highway": "cycleway", "name": "West Yellow-Blue connector trail" }, "geometry": { "type": "LineString", "coordinates": [ [ -89.84416, 35.122162 ], [ -89.843908, 35.12219 ], [ -89.84385, 35.122205 ], [ -89.843748, 35.122166 ], [ -89.843604, 35.122339 ], [ -89.843407, 35.122507 ], [ -89.843359, 35.122633 ], [ -89.843327, 35.122757 ], [ -89.84335, 35.122909 ], [ -89.843282, 35.123018 ], [ -89.843123, 35.123198 ], [ -89.842963, 35.123339 ], [ -89.84281, 35.123448 ], [ -89.842771, 35.123515 ], [ -89.842728, 35.123561 ], [ -89.842624, 35.123673 ], [ -89.842426, 35.123825 ], [ -89.842318, 35.123928 ], [ -89.842252, 35.124006 ], [ -89.84215, 35.123992 ], [ -89.841992, 35.123934 ], [ -89.841909, 35.123959 ], [ -89.841779, 35.123911 ], [ -89.841613, 35.123968 ], [ -89.841396, 35.123939 ], [ -89.841337, 35.123865 ], [ -89.841197, 35.123801 ], [ -89.840987, 35.123786 ], [ -89.840872, 35.123793 ], [ -89.840763, 35.123828 ], [ -89.840654, 35.123878 ], [ -89.840558, 35.123948 ], [ -89.840482, 35.12404 ], [ -89.840428, 35.124151 ], [ -89.840412, 35.124265 ], [ -89.840621, 35.124522 ], [ -89.840713, 35.124553 ], [ -89.840644, 35.124674 ], [ -89.840648, 35.124861 ], [ -89.840554, 35.12504 ], [ -89.840401, 35.125216 ] ] } },
{ "type": "Feature", "properties": { "cls": "separated", "highway": "cycleway", "name": "Wolf River Trail Yellow" }, "geometry": { "type": "LineString", "coordinates": [ [ -89.846977, 35.125526 ], [ -89.84703, 35.125676 ] ] } },
{ "type": "Feature", "properties": { "cls": "separated", "highway": "cycleway", "name": "Wolf River Trail Yellow" }, "geometry": { "type": "LineString", "coordinates": [ [ -89.84703, 35.125676 ], [ -89.847035, 35.125745 ], [ -89.847141, 35.125744 ], [ -89.847223, 35.125758 ], [ -89.847317, 35.125827 ], [ -89.847402, 35.125962 ], [ -89.847551, 35.126022 ], [ -89.847691, 35.126112 ], [ -89.847799, 35.126237 ], [ -89.848034, 35.126477 ], [ -89.848138, 35.126597 ], [ -89.848399, 35.126932 ], [ -89.848477, 35.127007 ], [ -89.848474, 35.127069 ], [ -89.848462, 35.127107 ], [ -89.848441, 35.127146 ], [ -89.84843, 35.127181 ], [ -89.848421, 35.12722 ], [ -89.848426, 35.127245 ], [ -89.848471, 35.127291 ], [ -89.848511, 35.127311 ], [ -89.848542, 35.127327 ], [ -89.848569, 35.127344 ], [ -89.848623, 35.127395 ], [ -89.848646, 35.12746 ], [ -89.848703, 35.127513 ], [ -89.849013, 35.127814 ], [ -89.849204, 35.127954 ], [ -89.849379, 35.128136 ], [ -89.849525, 35.128259 ], [ -89.849724, 35.128459 ], [ -89.849912, 35.128613 ], [ -89.849939, 35.128649 ], [ -89.850104, 35.128813 ], [ -89.850112, 35.12883 ], [ -89.850147, 35.128859 ], [ -89.850364, 35.129116 ], [ -89.850731, 35.129434 ], [ -89.850806, 35.129472 ], [ -89.850896, 35.129502 ], [ -89.850965, 35.129535 ], [ -89.851052, 35.129599 ], [ -89.851255, 35.129822 ], [ -89.851702, 35.130374 ], [ -89.851753, 35.130457 ], [ -89.851831, 35.130525 ], [ -89.851882, 35.130608 ], [ -89.851935, 35.130687 ], [ -89.85197, 35.130736 ], [ -89.852027, 35.130817 ], [ -89.852054, 35.130874 ], [ -89.852109, 35.130952 ], [ -89.852125, 35.131048 ], [ -89.852132, 35.131363 ], [ -89.852114, 35.131481 ], [ -89.852113, 35.131568 ], [ -89.852151, 35.131666 ], [ -89.852237, 35.131812 ], [ -89.852325, 35.131899 ], [ -89.852475, 35.132008 ], [ -89.852559, 35.132062 ], [ -89.852754, 35.132167 ], [ -89.853077, 35.132379 ], [ -89.853159, 35.132474 ], [ -89.853224, 35.132588 ], [ -89.853222, 35.132663 ], [ -89.853155, 35.132766 ], [ -89.853081, 35.132852 ], [ -89.853056, 35.132881 ], [ -89.853001, 35.132956 ], [ -89.852949, 35.133084 ], [ -89.852937, 35.13319 ], [ -89.852963, 35.133261 ], [ -89.853258, 35.133483 ], [ -89.853291, 35.133515 ], [ -89.853313, 35.133537 ], [ -89.85335, 35.13356 ], [ -89.853394, 35.133612 ], [ -89.853608, 35.133486 ], [ -89.85373, 35.133445 ], [ -89.853776, 35.133435 ], [ -89.853824, 35.133435 ], [ -89.853875, 35.133444 ], [ -89.853929, 35.13346 ], [ -89.854028, 35.133511 ], [ -89.854157, 35.133616 ], [ -89.854196, 35.133655 ], [ -89.854223, 35.133697 ], [ -89.854285, 35.133816 ], [ -89.854303, 35.133884 ], [ -89.854286, 35.133956 ], [ -89.854224, 35.134014 ], [ -89.854205, 35.134096 ], [ -89.854245, 35.134188 ], [ -89.854281, 35.134249 ], [ -89.85426, 35.134324 ], [ -89.854199, 35.134467 ], [ -89.854134, 35.134543 ], [ -89.85407, 35.134631 ], [ -89.85373, 35.134975 ], [ -89.85368, 35.135026 ], [ -89.853663, 35.13504 ], [ -89.853705, 35.135197 ], [ -89.85371, 35.135247 ], [ -89.853734, 35.135351 ], [ -89.853776, 35.135383 ], [ -89.853838, 35.135403 ], [ -89.854014, 35.135412 ], [ -89.854251, 35.135477 ], [ -89.854275, 35.135492 ], [ -89.85431, 35.135494 ], [ -89.854343, 35.135487 ], [ -89.854367, 35.13547 ], [ -89.854391, 35.135375 ], [ -89.854503, 35.135127 ], [ -89.854567, 35.135032 ], [ -89.854631, 35.134947 ], [ -89.854766, 35.134806 ], [ -89.855035, 35.134561 ], [ -89.855278, 35.134321 ], [ -89.855638, 35.133995 ], [ -89.855668, 35.133973 ], [ -89.855747, 35.13395 ], [ -89.855829, 35.133956 ], [ -89.855876, 35.13397 ], [ -89.855982, 35.134027 ], [ -89.856069, 35.1341 ], [ -89.856223, 35.134255 ], [ -89.856473, 35.134418 ], [ -89.856581, 35.134514 ], [ -89.856782, 35.134673 ], [ -89.85699, 35.134825 ], [ -89.857149, 35.134971 ], [ -89.857297, 35.135133 ], [ -89.857334, 35.135161 ], [ -89.857618, 35.13532 ], [ -89.857768, 35.135441 ], [ -89.857854, 35.135496 ], [ -89.858132, 35.135628 ], [ -89.858261, 35.135703 ], [ -89.858537, 35.135922 ], [ -89.858841, 35.136123 ], [ -89.858922, 35.136197 ], [ -89.859014, 35.136309 ], [ -89.85909, 35.136376 ], [ -89.859251, 35.136552 ], [ -89.859358, 35.136649 ], [ -89.859655, 35.136851 ], [ -89.859847, 35.137042 ], [ -89.859939, 35.137154 ], [ -89.859979, 35.137188 ], [ -89.86014, 35.137266 ], [ -89.860254, 35.137344 ], [ -89.860597, 35.137639 ], [ -89.860705, 35.137741 ], [ -89.860839, 35.137905 ], [ -89.861031, 35.13805 ], [ -89.861081, 35.138109 ], [ -89.861182, 35.138094 ], [ -89.861278, 35.138123 ], [ -89.861337, 35.138162 ], [ -89.861639, 35.138325 ], [ -89.861731, 35.13838 ], [ -89.861802, 35.138453 ], [ -89.862012, 35.13861 ], [ -89.862124, 35.138735 ], [ -89.862166, 35.138766 ], [ -89.862336, 35.138855 ], [ -89.862361, 35.138879 ], [ -89.862496, 35.138963 ], [ -89.862822, 35.139103 ], [ -89.863128, 35.139258 ], [ -89.863275, 35.139431 ], [ -89.863286, 35.139438 ], [ -89.863305, 35.139436 ], [ -89.863361, 35.139428 ], [ -89.863513, 35.139434 ], [ -89.863625, 35.139449 ], [ -89.863746, 35.139477 ], [ -89.863861, 35.139517 ], [ -89.864015, 35.139599 ], [ -89.864166, 35.139695 ], [ -89.864249, 35.139761 ], [ -89.86434, 35.139863 ], [ -89.864442, 35.139945 ], [ -89.864724, 35.140107 ], [ -89.864876, 35.140231 ], [ -89.865088, 35.140341 ], [ -89.865281, 35.140483 ], [ -89.865562, 35.140623 ], [ -89.865643, 35.140678 ], [ -89.865799, 35.140804 ], [ -89.865888, 35.140862 ], [ -89.865983, 35.140905 ], [ -89.866072, 35.140923 ], [ -89.866245, 35.140959 ], [ -89.866296, 35.140982 ], [ -89.86646, 35.141052 ], [ -89.866481, 35.141066 ], [ -89.866494, 35.14109 ], [ -89.866489, 35.141122 ], [ -89.866469, 35.141152 ] ] } },
{ "type": "Feature", "properties": { "cls": "separated", "highway": "cycleway", "name": "Sand By-Pass" }, "geometry": { "type": "LineString", "coordinates": [ [ -89.861081, 35.138109 ], [ -89.861081, 35.138209 ], [ -89.861117, 35.138329 ], [ -89.861157, 35.138395 ], [ -89.861244, 35.138479 ], [ -89.861372, 35.138564 ], [ -89.861477, 35.138675 ], [ -89.861569, 35.138797 ], [ -89.861771, 35.138961 ], [ -89.861819, 35.138989 ], [ -89.861913, 35.139021 ], [ -89.862118, 35.139039 ], [ -89.862218, 35.139056 ], [ -89.862277, 35.139074 ], [ -89.862336, 35.139104 ], [ -89.862509, 35.13923 ], [ -89.86279, 35.139484 ], [ -89.862843, 35.139515 ], [ -89.862904, 35.139538 ], [ -89.863019, 35.139556 ], [ -89.863074, 35.139555 ], [ -89.863135, 35.139538 ], [ -89.863286, 35.139438 ] ] } },
{ "type": "Feature", "properties": { "cls": "separated", "highway": "cycleway", "name": "3 Plank Bridge" }, "geometry": { "type": "LineString", "coordinates": [ [ -89.866578, 35.141174 ], [ -89.866469, 35.141152 ] ] } },
{ "type": "Feature", "properties": { "cls": "separated", "highway": "cycleway", "name": "3-Plank Connector" }, "geometry": { "type": "LineString", "coordinates": [ [ -89.866469, 35.141152 ], [ -89.86634, 35.141199 ], [ -89.86616, 35.141266 ], [ -89.866114, 35.141298 ], [ -89.866053, 35.14134 ], [ -89.865981, 35.141442 ], [ -89.865937, 35.141552 ], [ -89.865862, 35.141647 ], [ -89.865759, 35.141735 ], [ -89.865627, 35.14179 ], [ -89.865511, 35.141808 ], [ -89.865481, 35.141807 ] ] } },
{ "type": "Feature", "properties": { "cls": "separated", "highway": "cycleway", "name": "Bedpan Connector" }, "geometry": { "type": "LineString", "coordinates": [ [ -89.866857, 35.141402 ], [ -89.866634, 35.141693 ], [ -89.866568, 35.141778 ], [ -89.866474, 35.141872 ], [ -89.866208, 35.142065 ], [ -89.865988, 35.142271 ], [ -89.865686, 35.142502 ], [ -89.865515, 35.142661 ], [ -89.865465, 35.142735 ], [ -89.865446, 35.142785 ], [ -89.865428, 35.1428 ] ] } },
{ "type": "Feature", "properties": { "cls": "separated", "highway": "cycleway", "name": null }, "geometry": { "type": "LineString", "coordinates": [ [ -89.877284, 35.149029 ], [ -89.877438, 35.14911 ], [ -89.877734, 35.14931 ], [ -89.877992, 35.149574 ], [ -89.878244, 35.149912 ] ] } },
{ "type": "Feature", "properties": { "cls": "separated", "highway": "cycleway", "name": "Wolf River Trail White" }, "geometry": { "type": "LineString", "coordinates": [ [ -89.845176, 35.125896 ], [ -89.845082, 35.125975 ], [ -89.845022, 35.126151 ], [ -89.844979, 35.12619 ], [ -89.84491, 35.126227 ], [ -89.844813, 35.126229 ], [ -89.844752, 35.126261 ], [ -89.84467, 35.126327 ], [ -89.844638, 35.126447 ], [ -89.844603, 35.126542 ], [ -89.844635, 35.126774 ], [ -89.844593, 35.126869 ], [ -89.84449, 35.126944 ], [ -89.844336, 35.126993 ], [ -89.844299, 35.126965 ], [ -89.844198, 35.126976 ], [ -89.844019, 35.126971 ], [ -89.843824, 35.126976 ], [ -89.843385, 35.126954 ], [ -89.84306, 35.126946 ], [ -89.842955, 35.126949 ], [ -89.842745, 35.126925 ], [ -89.842474, 35.126909 ], [ -89.840278, 35.126828 ], [ -89.839826, 35.126795 ], [ -89.838945, 35.126757 ], [ -89.838648, 35.126733 ], [ -89.838403, 35.12675 ], [ -89.838336, 35.126748 ], [ -89.837516, 35.126679 ], [ -89.837086, 35.126664 ], [ -89.836712, 35.126663 ], [ -89.836396, 35.126639 ], [ -89.835929, 35.126654 ], [ -89.835385, 35.126642 ], [ -89.835046, 35.126622 ], [ -89.834922, 35.126622 ], [ -89.834748, 35.126635 ], [ -89.834446, 35.12662 ], [ -89.834368, 35.126627 ], [ -89.834088, 35.126681 ], [ -89.833869, 35.126686 ], [ -89.833478, 35.126654 ], [ -89.833151, 35.126669 ], [ -89.833031, 35.126642 ], [ -89.832945, 35.126603 ], [ -89.832865, 35.126582 ], [ -89.832572, 35.126569 ], [ -89.83231, 35.126567 ], [ -89.831995, 35.126548 ], [ -89.831731, 35.126543 ], [ -89.831701, 35.126542 ], [ -89.831339, 35.126551 ], [ -89.831222, 35.12656 ], [ -89.830909, 35.126602 ], [ -89.830514, 35.126611 ], [ -89.829673, 35.126572 ], [ -89.829288, 35.126573 ], [ -89.829001, 35.12659 ], [ -89.82888, 35.126579 ], [ -89.828717, 35.126546 ], [ -89.828519, 35.126531 ], [ -89.827753, 35.126515 ], [ -89.8274, 35.126528 ], [ -89.827162, 35.126528 ], [ -89.826927, 35.126508 ], [ -89.826806, 35.126485 ], [ -89.826548, 35.126455 ], [ -89.826371, 35.12642 ], [ -89.826312, 35.126403 ], [ -89.826242, 35.12636 ] ] } },
{ "type": "Feature", "properties": { "cls": "separated", "highway": "cycleway", "name": "Wolf River Trail Blue" }, "geometry": { "type": "LineString", "coordinates": [ [ -89.820422, 35.120544 ], [ -89.820474, 35.120557 ], [ -89.820536, 35.120568 ], [ -89.820727, 35.120585 ], [ -89.821256, 35.120592 ], [ -89.821514, 35.120577 ], [ -89.82165, 35.120545 ], [ -89.821765, 35.120492 ], [ -89.821911, 35.120399 ], [ -89.822039, 35.120299 ], [ -89.822126, 35.120217 ], [ -89.822186, 35.120114 ], [ -89.822273, 35.120122 ], [ -89.822372, 35.120161 ], [ -89.822439, 35.120255 ], [ -89.82253, 35.120332 ], [ -89.822704, 35.120594 ], [ -89.822873, 35.120953 ], [ -89.822879, 35.121074 ], [ -89.822919, 35.12116 ], [ -89.822959, 35.121207 ], [ -89.823046, 35.121286 ], [ -89.823095, 35.121319 ], [ -89.823262, 35.121394 ], [ -89.823367, 35.12145 ], [ -89.823458, 35.121526 ], [ -89.823498, 35.121568 ], [ -89.823523, 35.121611 ], [ -89.823582, 35.121741 ], [ -89.82361, 35.121847 ], [ -89.823675, 35.121951 ], [ -89.823798, 35.12207 ], [ -89.824165, 35.122254 ], [ -89.824093, 35.122481 ], [ -89.824291, 35.122618 ], [ -89.824383, 35.122942 ], [ -89.824257, 35.123116 ], [ -89.824321, 35.12319 ], [ -89.824424, 35.123204 ], [ -89.824521, 35.123258 ], [ -89.824935, 35.123398 ], [ -89.82511, 35.123518 ], [ -89.825345, 35.123766 ], [ -89.825429, 35.123926 ], [ -89.825436, 35.123961 ], [ -89.825455, 35.123992 ], [ -89.825448, 35.124066 ], [ -89.825514, 35.124097 ], [ -89.825576, 35.12411 ], [ -89.825661, 35.124098 ], [ -89.825802, 35.12405 ], [ -89.825904, 35.124013 ], [ -89.825989, 35.12403 ], [ -89.826049, 35.124055 ], [ -89.826125, 35.124113 ], [ -89.826244, 35.124298 ], [ -89.826384, 35.124346 ], [ -89.826531, 35.124407 ], [ -89.826707, 35.124446 ], [ -89.826886, 35.12453 ], [ -89.826982, 35.124612 ], [ -89.827142, 35.124705 ], [ -89.827232, 35.124733 ], [ -89.827322, 35.124745 ], [ -89.827663, 35.124767 ], [ -89.827741, 35.124759 ], [ -89.827813, 35.124742 ], [ -89.828058, 35.12467 ], [ -89.828226, 35.124596 ], [ -89.828305, 35.12457 ], [ -89.828365, 35.124555 ], [ -89.828413, 35.124553 ], [ -89.828457, 35.12456 ], [ -89.828521, 35.124584 ], [ -89.828675, 35.124673 ], [ -89.828778, 35.124713 ], [ -89.828883, 35.124744 ], [ -89.829038, 35.124773 ], [ -89.829304, 35.124785 ], [ -89.829718, 35.124841 ], [ -89.830025, 35.12484 ], [ -89.830205, 35.124873 ], [ -89.830328, 35.124931 ], [ -89.830451, 35.125046 ], [ -89.83054, 35.12519 ], [ -89.830549, 35.125234 ], [ -89.830582, 35.125276 ], [ -89.830592, 35.125314 ], [ -89.830625, 35.125356 ], [ -89.830638, 35.125412 ], [ -89.830711, 35.125546 ], [ -89.830724, 35.125604 ], [ -89.830754, 35.125639 ], [ -89.830768, 35.125698 ], [ -89.830905, 35.125892 ], [ -89.830951, 35.12599 ], [ -89.831062, 35.12596 ], [ -89.831134, 35.125977 ], [ -89.831217, 35.126011 ], [ -89.831333, 35.126075 ], [ -89.831467, 35.126162 ], [ -89.831523, 35.126187 ], [ -89.831565, 35.1262 ], [ -89.831649, 35.126208 ], [ -89.831747, 35.1262 ], [ -89.831824, 35.126193 ], [ -89.831918, 35.126177 ], [ -89.832, 35.126159 ], [ -89.832294, 35.126097 ], [ -89.832398, 35.126058 ], [ -89.832433, 35.126039 ], [ -89.832469, 35.126021 ], [ -89.832571, 35.125953 ], [ -89.832644, 35.12592 ], [ -89.83295, 35.12584 ], [ -89.833038, 35.125795 ], [ -89.833079, 35.125755 ], [ -89.83316, 35.12563 ], [ -89.833212, 35.125587 ], [ -89.833265, 35.125557 ], [ -89.833321, 35.125557 ], [ -89.833392, 35.125574 ], [ -89.833485, 35.125607 ], [ -89.833688, 35.125702 ], [ -89.833805, 35.125735 ], [ -89.833862, 35.125758 ], [ -89.833996, 35.125835 ], [ -89.834122, 35.125928 ], [ -89.834175, 35.125948 ], [ -89.834329, 35.125966 ], [ -89.834461, 35.125961 ], [ -89.834587, 35.125932 ], [ -89.834726, 35.125882 ], [ -89.834846, 35.125863 ], [ -89.834912, 35.12585 ], [ -89.835127, 35.125879 ], [ -89.835201, 35.12581 ], [ -89.835393, 35.125741 ], [ -89.835617, 35.125687 ], [ -89.835795, 35.125587 ], [ -89.835924, 35.125611 ], [ -89.836023, 35.125499 ], [ -89.836122, 35.125537 ], [ -89.836298, 35.125536 ], [ -89.836388, 35.125519 ], [ -89.836542, 35.125455 ], [ -89.836733, 35.125352 ], [ -89.836816, 35.125319 ], [ -89.836962, 35.125282 ], [ -89.83711, 35.125262 ], [ -89.837155, 35.125266 ], [ -89.837201, 35.125284 ], [ -89.837367, 35.1254 ], [ -89.837458, 35.125433 ], [ -89.83755, 35.12543 ], [ -89.837716, 35.125396 ], [ -89.837791, 35.125376 ], [ -89.838145, 35.125249 ], [ -89.838189, 35.125227 ], [ -89.83837, 35.12509 ], [ -89.838522, 35.125014 ], [ -89.838642, 35.124983 ], [ -89.838909, 35.124956 ], [ -89.839082, 35.124892 ], [ -89.839176, 35.124838 ], [ -89.839229, 35.124817 ], [ -89.839356, 35.124793 ], [ -89.839483, 35.12479 ], [ -89.83961, 35.124809 ], [ -89.839732, 35.124845 ], [ -89.839831, 35.124883 ], [ -89.839906, 35.124925 ], [ -89.84003, 35.125009 ], [ -89.840045, 35.125027 ], [ -89.840203, 35.125104 ], [ -89.840382, 35.125203 ], [ -89.840401, 35.125216 ], [ -89.840521, 35.125295 ], [ -89.840593, 35.125333 ], [ -89.840641, 35.125349 ], [ -89.840679, 35.125352 ], [ -89.840845, 35.12533 ], [ -89.841025, 35.125275 ], [ -89.84124, 35.125167 ], [ -89.84164, 35.124908 ], [ -89.841836, 35.124866 ], [ -89.841919, 35.124859 ], [ -89.84207, 35.124867 ], [ -89.842358, 35.124934 ], [ -89.842615, 35.124881 ], [ -89.842808, 35.124932 ], [ -89.842899, 35.12493 ], [ -89.84297, 35.124896 ], [ -89.843003, 35.12486 ], [ -89.843163, 35.124745 ], [ -89.843329, 35.124616 ], [ -89.843428, 35.124578 ], [ -89.843524, 35.124568 ], [ -89.843598, 35.124566 ], [ -89.843704, 35.124608 ], [ -89.843769, 35.124621 ], [ -89.84387, 35.124622 ], [ -89.844041, 35.124695 ], [ -89.844173, 35.12476 ], [ -89.844268, 35.124813 ], [ -89.844298, 35.124859 ], [ -89.844321, 35.124932 ], [ -89.844434, 35.125022 ], [ -89.844498, 35.125052 ], [ -89.844627, 35.125068 ], [ -89.844727, 35.125106 ], [ -89.844775, 35.125135 ], [ -89.844801, 35.125177 ], [ -89.844803, 35.125237 ], [ -89.844779, 35.125265 ], [ -89.844706, 35.125333 ], [ -89.844625, 35.125398 ], [ -89.844611, 35.125444 ], [ -89.844622, 35.125491 ], [ -89.844659, 35.125543 ], [ -89.844707, 35.125555 ], [ -89.844775, 35.12555 ], [ -89.844821, 35.125589 ], [ -89.844872, 35.125661 ], [ -89.844964, 35.125735 ], [ -89.845082, 35.125802 ], [ -89.845176, 35.125896 ], [ -89.845236, 35.125947 ], [ -89.845333, 35.125964 ], [ -89.845389, 35.125944 ], [ -89.845674, 35.125911 ], [ -89.84578, 35.125888 ], [ -89.845978, 35.12581 ], [ -89.84611, 35.12578 ], [ -89.846536, 35.125755 ], [ -89.846928, 35.125736 ], [ -89.847035, 35.125745 ], [ -89.847086, 35.125813 ], [ -89.847168, 35.125904 ], [ -89.847201, 35.125942 ], [ -89.847205, 35.125982 ], [ -89.847205, 35.125993 ], [ -89.847217, 35.12604 ], [ -89.847249, 35.126086 ], [ -89.84726, 35.126135 ], [ -89.847291, 35.12618 ], [ -89.847304, 35.12627 ], [ -89.847334, 35.126313 ], [ -89.847343, 35.126366 ], [ -89.847378, 35.126427 ], [ -89.847387, 35.126485 ], [ -89.847418, 35.126541 ], [ -89.847418, 35.126591 ], [ -89.84739, 35.126629 ], [ -89.847375, 35.126685 ], [ -89.847349, 35.126707 ], [ -89.847345, 35.126737 ], [ -89.847347, 35.126776 ], [ -89.847417, 35.126884 ], [ -89.847433, 35.12694 ], [ -89.847555, 35.127122 ], [ -89.847574, 35.127147 ], [ -89.847658, 35.127214 ], [ -89.847727, 35.127266 ], [ -89.847858, 35.12735 ], [ -89.847972, 35.127508 ], [ -89.847961, 35.12758 ], [ -89.847972, 35.12765 ], [ -89.848045, 35.127719 ], [ -89.848088, 35.12777 ], [ -89.848441, 35.12808 ], [ -89.848509, 35.128149 ], [ -89.84857, 35.128176 ], [ -89.848572, 35.128248 ], [ -89.848578, 35.128319 ], [ -89.848662, 35.128342 ], [ -89.84883, 35.128357 ], [ -89.84893, 35.128372 ], [ -89.848971, 35.128437 ], [ -89.848966, 35.12851 ], [ -89.848974, 35.128694 ], [ -89.848995, 35.128826 ], [ -89.849008, 35.128836 ], [ -89.849017, 35.128896 ], [ -89.849036, 35.128952 ], [ -89.849076, 35.129004 ], [ -89.849229, 35.129147 ], [ -89.849271, 35.129196 ], [ -89.849288, 35.129221 ], [ -89.849308, 35.129303 ], [ -89.849361, 35.129395 ], [ -89.849551, 35.12954 ], [ -89.849633, 35.129575 ], [ -89.849834, 35.129611 ], [ -89.850167, 35.129607 ], [ -89.850246, 35.129619 ], [ -89.850316, 35.129642 ], [ -89.850427, 35.129718 ], [ -89.85062, 35.129936 ], [ -89.850665, 35.130011 ], [ -89.850689, 35.130111 ], [ -89.850736, 35.130209 ], [ -89.85082, 35.130284 ], [ -89.850883, 35.130314 ], [ -89.851096, 35.130377 ], [ -89.851189, 35.130412 ], [ -89.85138, 35.130457 ], [ -89.851456, 35.130482 ], [ -89.851508, 35.130517 ], [ -89.851619, 35.130616 ], [ -89.851809, 35.130731 ], [ -89.851842, 35.130758 ], [ -89.851896, 35.130777 ], [ -89.851952, 35.130833 ], [ -89.851957, 35.130928 ], [ -89.85192, 35.130961 ], [ -89.851845, 35.130974 ], [ -89.851746, 35.130949 ], [ -89.851512, 35.130909 ], [ -89.851294, 35.1309 ], [ -89.851187, 35.130928 ], [ -89.851058, 35.130899 ], [ -89.851008, 35.130921 ], [ -89.850971, 35.130955 ], [ -89.850989, 35.131076 ], [ -89.850967, 35.131129 ], [ -89.850846, 35.131223 ], [ -89.850815, 35.131292 ], [ -89.850826, 35.131366 ], [ -89.850891, 35.131417 ], [ -89.851029, 35.131439 ], [ -89.851064, 35.131469 ], [ -89.851148, 35.131623 ], [ -89.851268, 35.131697 ], [ -89.851338, 35.131797 ], [ -89.851485, 35.131818 ], [ -89.851652, 35.13186 ], [ -89.851714, 35.131883 ], [ -89.851805, 35.131944 ], [ -89.851917, 35.132101 ], [ -89.852019, 35.13219 ], [ -89.852209, 35.132357 ], [ -89.852299, 35.132511 ], [ -89.852345, 35.13259 ], [ -89.852378, 35.132691 ], [ -89.852441, 35.132769 ], [ -89.852546, 35.132909 ], [ -89.852571, 35.13301 ], [ -89.852615, 35.133083 ], [ -89.852678, 35.133159 ], [ -89.852715, 35.133188 ], [ -89.852737, 35.133213 ], [ -89.852782, 35.133264 ], [ -89.852859, 35.133291 ], [ -89.852963, 35.133261 ] ] } },
{ "type": "Feature", "properties": { "cls": "separated", "highway": "cycleway", "name": "Wolf River Trail Yellow" }, "geometry": { "type": "LineString", "coordinates": [ [ -89.848477, 35.127007 ], [ -89.848534, 35.127048 ], [ -89.848591, 35.127102 ], [ -89.848643, 35.127153 ], [ -89.848691, 35.127223 ], [ -89.848708, 35.127271 ], [ -89.84869, 35.127321 ], [ -89.848653, 35.127356 ], [ -89.848636, 35.127381 ], [ -89.848623, 35.127395 ] ] } },
{ "type": "Feature", "properties": { "cls": "separated", "highway": "cycleway", "name": null }, "geometry": { "type": "LineString", "coordinates": [ [ -89.852019, 35.13219 ], [ -89.852221, 35.132213 ], [ -89.852311, 35.132282 ], [ -89.852434, 35.132381 ], [ -89.852518, 35.132475 ], [ -89.852563, 35.132523 ], [ -89.852646, 35.13273 ], [ -89.852796, 35.132982 ], [ -89.852751, 35.133041 ], [ -89.852715, 35.133188 ] ] } },
{ "type": "Feature", "properties": { "cls": "separated", "highway": "cycleway", "name": null }, "geometry": { "type": "LineString", "coordinates": [ [ -89.842578, 35.134424 ], [ -89.842504, 35.134466 ], [ -89.842158, 35.134486 ], [ -89.842074, 35.134475 ], [ -89.841992, 35.134452 ], [ -89.841681, 35.134306 ], [ -89.84156, 35.134259 ], [ -89.841424, 35.134224 ], [ -89.840856, 35.134171 ], [ -89.840621, 35.134214 ] ] } },
{ "type": "Feature", "properties": { "cls": "shared", "highway": "path", "name": "Shelby Farms Greenline" }, "geometry": { "type": "LineString", "coordinates": [ [ -89.880928, 35.149977 ], [ -89.880611, 35.150019 ], [ -89.879486, 35.150202 ] ] } },
{ "type": "Feature", "properties": { "cls": "shared", "highway": "path", "name": "Shelby Farms Greenline" }, "geometry": { "type": "LineString", "coordinates": [ [ -89.879486, 35.150202 ], [ -89.878833, 35.150292 ], [ -89.878075, 35.15041 ] ] } },
{ "type": "Feature", "properties": { "cls": "shared", "highway": "path", "name": "Shelby Farms Greenline" }, "geometry": { "type": "LineString", "coordinates": [ [ -89.878075, 35.15041 ], [ -89.87797, 35.150425 ], [ -89.877252, 35.150537 ], [ -89.876411, 35.150663 ], [ -89.875971, 35.150728 ], [ -89.87491, 35.150889 ], [ -89.872207, 35.151295 ], [ -89.871232, 35.151427 ] ] } },
{ "type": "Feature", "properties": { "cls": "shared", "highway": "path", "name": "Shelby Farms Greenline" }, "geometry": { "type": "LineString", "coordinates": [ [ -89.871232, 35.151427 ], [ -89.869854, 35.151638 ] ] } }
]
}
