{
"type": "FeatureCollection",
"name": "054-santiago-santiago-metropolitan-park",
"crs": { "type": "name", "properties": { "name": "urn:ogc:def:crs:OGC:1.3:CRS84" } },
"xy_coordinate_resolution": 1e-06,
"features": [
{ "type": "Feature", "properties": { "cls": "painted", "highway": "residential", "name": "Avenida Carlos Reed" }, "geometry": { "type": "LineString", "coordinates": [ [ -70.634113, -33.430716 ], [ -70.634185, -33.430717 ], [ -70.634272, -33.430716 ] ] } },
{ "type": "Feature", "properties": { "cls": "shared", "highway": "pedestrian", "name": "Paseo Metropolitano" }, "geometry": { "type": "LineString", "coordinates": [ [ -70.634118, -33.430685 ], [ -70.634113, -33.430716 ] ] } },
{ "type": "Feature", "properties": { "cls": "shared", "highway": "pedestrian", "name": "Paseo Metropolitano - Sendero de los Sentidos" }, "geometry": { "type": "LineString", "coordinates": [ [ -70.634761, -33.430379 ], [ -70.634466, -33.430594 ], [ -70.634268, -33.430687 ], [ -70.634118, -33.430685 ] ] } },
{ "type": "Feature", "properties": { "cls": "painted", "highway": "residential", "name": "Avenida Carlos Reed" }, "geometry": { "type": "LineString", "coordinates": [ [ -70.634272, -33.430716 ], [ -70.634398, -33.430673 ], [ -70.634522, -33.430604 ], [ -70.634804, -33.430397 ], [ -70.635076, -33.430275 ], [ -70.635253, -33.430199 ], [ -70.635344, -33.430156 ], [ -70.635426, -33.430102 ], [ -70.635548, -33.430002 ], [ -70.63569, -33.429872 ] ] } },
{ "type": "Feature", "properties": { "cls": "shared", "highway": "pedestrian", "name": "Paseo Metropolitano - Sendero de los Sentidos" }, "geometry": { "type": "LineString", "coordinates": [ [ -70.635492, -33.429575 ], [ -70.635451, -33.429693 ], [ -70.63535, -33.429874 ], [ -70.635205, -33.430031 ], [ -70.635026, -33.430197 ], [ -70.634904, -33.430287 ], [ -70.634761, -33.430379 ] ] } },
{ "type": "Feature", "properties": { "cls": "sharrow", "highway": "residential", "name": "Avenida Alberto Mackenna" }, "geometry": { "type": "LineString", "coordinates": [ [ -70.636153, -33.430443 ], [ -70.636087, -33.430213 ], [ -70.636062, -33.430127 ], [ -70.636014, -33.429898 ], [ -70.636016, -33.42987 ], [ -70.636041, -33.429807 ], [ -70.636146, -33.429629 ], [ -70.63616, -33.429582 ], [ -70.63617, -33.429518 ], [ -70.63616, -33.429462 ] ] } },
{ "type": "Feature", "properties": { "cls": "painted", "highway": "residential", "name": "Avenida Carlos Reed" }, "geometry": { "type": "LineString", "coordinates": [ [ -70.63569, -33.429872 ], [ -70.635749, -33.429817 ] ] } },
{ "type": "Feature", "properties": { "cls": "painted", "highway": "residential", "name": "Avenida Carlos Reed" }, "geometry": { "type": "LineString", "coordinates": [ [ -70.635749, -33.429817 ], [ -70.635928, -33.429611 ], [ -70.63604, -33.429508 ], [ -70.636111, -33.429481 ], [ -70.63616, -33.429462 ] ] } },
{ "type": "Feature", "properties": { "cls": "shared", "highway": "pedestrian", "name": "Paseo Metropolitano - Sendero de los Sentidos" }, "geometry": { "type": "LineString", "coordinates": [ [ -70.635526, -33.429476 ], [ -70.635492, -33.429575 ] ] } },
{ "type": "Feature", "properties": { "cls": "shared", "highway": "pedestrian", "name": "Paseo Metropolitano - Sendero de los Sentidos" }, "geometry": { "type": "LineString", "coordinates": [ [ -70.637879, -33.427479 ], [ -70.637823, -33.427576 ], [ -70.637753, -33.427699 ], [ -70.637729, -33.427791 ], [ -70.637788, -33.427903 ], [ -70.637901, -33.428002 ], [ -70.637911, -33.428066 ], [ -70.637774, -33.428173 ], [ -70.637544, -33.428272 ], [ -70.637342, -33.428379 ], [ -70.637133, -33.428495 ], [ -70.636986, -33.428567 ], [ -70.636921, -33.428657 ], [ -70.636787, -33.428809 ], [ -70.636623, -33.428977 ], [ -70.636497, -33.429073 ], [ -70.636374, -33.429133 ], [ -70.636141, -33.429171 ], [ -70.63598, -33.42923 ], [ -70.635741, -33.42933 ], [ -70.635537, -33.429445 ], [ -70.635526, -33.429476 ] ] } },
{ "type": "Feature", "properties": { "cls": "painted", "highway": "residential", "name": "Avenida Carlos Reed" }, "geometry": { "type": "LineString", "coordinates": [ [ -70.625576, -33.425428 ], [ -70.625703, -33.425431 ], [ -70.625844, -33.425465 ], [ -70.625999, -33.425518 ], [ -70.62606, -33.425539 ], [ -70.62629, -33.425623 ], [ -70.626361, -33.425654 ], [ -70.626484, -33.425718 ], [ -70.626699, -33.425843 ], [ -70.626812, -33.425899 ], [ -70.626976, -33.426 ], [ -70.627221, -33.426217 ], [ -70.627611, -33.426505 ], [ -70.627964, -33.426747 ], [ -70.628204, -33.426888 ], [ -70.628407, -33.427011 ], [ -70.628589, -33.427141 ], [ -70.628863, -33.427363 ], [ -70.629057, -33.427524 ], [ -70.629206, -33.427682 ], [ -70.629225, -33.427706 ], [ -70.629338, -33.427854 ], [ -70.629456, -33.428039 ], [ -70.629647, -33.428218 ], [ -70.629838, -33.4284 ], [ -70.629968, -33.428521 ], [ -70.630276, -33.428773 ], [ -70.630543, -33.428993 ], [ -70.630742, -33.429198 ], [ -70.630906, -33.429343 ], [ -70.631012, -33.42944 ], [ -70.631198, -33.429542 ], [ -70.631294, -33.4296 ], [ -70.631409, -33.429666 ], [ -70.631694, -33.429816 ], [ -70.631823, -33.429883 ], [ -70.632298, -33.430119 ], [ -70.632338, -33.430136 ], [ -70.632569, -33.430238 ], [ -70.632773, -33.430315 ], [ -70.633055, -33.430358 ], [ -70.633278, -33.430413 ], [ -70.633512, -33.430499 ], [ -70.633731, -33.43058 ], [ -70.633817, -33.430611 ], [ -70.634052, -33.430695 ], [ -70.634113, -33.430716 ] ] } },
{ "type": "Feature", "properties": { "cls": "separated", "highway": "cycleway", "name": null }, "geometry": { "type": "LineString", "coordinates": [ [ -70.627178, -33.425385 ], [ -70.627028, -33.425248 ], [ -70.626902, -33.425174 ], [ -70.626709, -33.425134 ], [ -70.626513, -33.425007 ], [ -70.62625, -33.424984 ], [ -70.626001, -33.424973 ], [ -70.625786, -33.424966 ], [ -70.625545, -33.424953 ], [ -70.625376, -33.424957 ], [ -70.625242, -33.424962 ], [ -70.62513, -33.424944 ] ] } },
{ "type": "Feature", "properties": { "cls": "separated", "highway": "cycleway", "name": "Sendero Ciclista Centenario" }, "geometry": { "type": "LineString", "coordinates": [ [ -70.629686, -33.424413 ], [ -70.629686, -33.424516 ], [ -70.629694, -33.424588 ], [ -70.629586, -33.42456 ], [ -70.629518, -33.42449 ], [ -70.629406, -33.424477 ], [ -70.629333, -33.42445 ], [ -70.629226, -33.424393 ], [ -70.629148, -33.424358 ], [ -70.629085, -33.424342 ], [ -70.62903, -33.424345 ], [ -70.628987, -33.424369 ], [ -70.628982, -33.424459 ], [ -70.628993, -33.424548 ], [ -70.62899, -33.424721 ], [ -70.628997, -33.424937 ], [ -70.628973, -33.425031 ], [ -70.628931, -33.425076 ], [ -70.628885, -33.425082 ], [ -70.62883, -33.42505 ], [ -70.628782, -33.424988 ], [ -70.628742, -33.424963 ], [ -70.628689, -33.424969 ], [ -70.628645, -33.425002 ], [ -70.628581, -33.425091 ], [ -70.628525, -33.42511 ], [ -70.628488, -33.425101 ], [ -70.628417, -33.425046 ], [ -70.62838, -33.425037 ], [ -70.628322, -33.425055 ], [ -70.628234, -33.425115 ], [ -70.628087, -33.425208 ] ] } },
{ "type": "Feature", "properties": { "cls": "separated", "highway": "cycleway", "name": "Sendero Ciclista Centenario" }, "geometry": { "type": "LineString", "coordinates": [ [ -70.628087, -33.425208 ], [ -70.628111, -33.425114 ], [ -70.628118, -33.424983 ], [ -70.628126, -33.424915 ], [ -70.62813, -33.424808 ], [ -70.628089, -33.424717 ], [ -70.628066, -33.424638 ], [ -70.62802, -33.424581 ], [ -70.627896, -33.424524 ], [ -70.627786, -33.424477 ], [ -70.627684, -33.424436 ], [ -70.627529, -33.424363 ], [ -70.627434, -33.424341 ], [ -70.627359, -33.424355 ], [ -70.627226, -33.424379 ], [ -70.627161, -33.424396 ] ] } },
{ "type": "Feature", "properties": { "cls": "shared", "highway": "pedestrian", "name": "Paseo Metropolitano - Sendero Bellavista" }, "geometry": { "type": "LineString", "coordinates": [ [ -70.625576, -33.425428 ], [ -70.625417, -33.425372 ], [ -70.625118, -33.425349 ], [ -70.624642, -33.425351 ], [ -70.624186, -33.425367 ], [ -70.623913, -33.425313 ], [ -70.623702, -33.425202 ], [ -70.623578, -33.4251 ], [ -70.623574, -33.424977 ], [ -70.623495, -33.424772 ], [ -70.623387, -33.424051 ] ] } },
{ "type": "Feature", "properties": { "cls": "separated", "highway": "cycleway", "name": "Sendero Ciclista 4 ½" }, "geometry": { "type": "LineString", "coordinates": [ [ -70.627161, -33.424396 ], [ -70.627044, -33.424426 ], [ -70.626897, -33.42447 ], [ -70.626776, -33.42453 ], [ -70.626646, -33.424537 ], [ -70.626583, -33.424546 ], [ -70.626462, -33.424559 ], [ -70.626345, -33.424595 ], [ -70.626269, -33.424595 ], [ -70.626107, -33.424599 ], [ -70.625972, -33.424648 ], [ -70.62584, -33.424686 ], [ -70.625698, -33.424743 ], [ -70.625353, -33.424866 ], [ -70.625229, -33.424917 ], [ -70.62513, -33.424944 ], [ -70.625051, -33.424944 ], [ -70.624866, -33.424938 ], [ -70.624815, -33.424949 ], [ -70.624698, -33.424993 ], [ -70.624592, -33.425004 ], [ -70.624569, -33.424944 ], [ -70.624483, -33.424919 ], [ -70.62448, -33.424885 ], [ -70.62446, -33.424815 ], [ -70.624427, -33.424756 ], [ -70.624379, -33.424701 ], [ -70.62431, -33.424695 ], [ -70.624237, -33.424673 ], [ -70.624186, -33.424637 ], [ -70.624153, -33.424597 ], [ -70.62412, -33.424553 ], [ -70.624089, -33.424491 ], [ -70.624067, -33.424438 ], [ -70.624041, -33.424356 ], [ -70.624024, -33.424303 ], [ -70.624001, -33.424199 ], [ -70.623998, -33.424135 ], [ -70.623973, -33.424074 ], [ -70.623953, -33.424006 ], [ -70.623902, -33.423951 ], [ -70.623833, -33.423928 ], [ -70.62378, -33.42396 ], [ -70.623724, -33.423996 ], [ -70.623709, -33.424059 ], [ -70.623711, -33.424123 ], [ -70.623719, -33.424205 ], [ -70.623724, -33.424307 ], [ -70.623732, -33.424392 ], [ -70.623752, -33.424495 ], [ -70.623775, -33.424578 ], [ -70.623813, -33.424701 ], [ -70.623856, -33.424796 ], [ -70.623859, -33.424843 ], [ -70.62377, -33.4249 ], [ -70.623668, -33.424892 ], [ -70.623633, -33.424847 ], [ -70.623605, -33.424815 ], [ -70.623495, -33.424772 ] ] } },
{ "type": "Feature", "properties": { "cls": "painted", "highway": "residential", "name": "Avenida Pedro Bannen" }, "geometry": { "type": "LineString", "coordinates": [ [ -70.632583, -33.424026 ], [ -70.632516, -33.424028 ], [ -70.632474, -33.424016 ], [ -70.632426, -33.423987 ], [ -70.632406, -33.423961 ], [ -70.632386, -33.42391 ] ] } },
{ "type": "Feature", "properties": { "cls": "painted", "highway": "residential", "name": "Avenida Pedro Bannen" }, "geometry": { "type": "LineString", "coordinates": [ [ -70.63256, -33.423744 ], [ -70.632679, -33.42383 ], [ -70.632694, -33.423873 ], [ -70.632692, -33.423935 ], [ -70.632661, -33.423977 ], [ -70.632622, -33.424007 ], [ -70.632583, -33.424026 ] ] } },
{ "type": "Feature", "properties": { "cls": "painted", "highway": "residential", "name": "Avenida Pedro Bannen" }, "geometry": { "type": "LineString", "coordinates": [ [ -70.632386, -33.42391 ], [ -70.632405, -33.423803 ] ] } },
{ "type": "Feature", "properties": { "cls": "painted", "highway": "residential", "name": "Avenida Pedro Bannen" }, "geometry": { "type": "LineString", "coordinates": [ [ -70.632405, -33.423803 ], [ -70.632434, -33.423772 ], [ -70.632479, -33.42375 ], [ -70.63256, -33.423744 ] ] } },
{ "type": "Feature", "properties": { "cls": "painted", "highway": "residential", "name": "Avenida Pedro Bannen" }, "geometry": { "type": "LineString", "coordinates": [ [ -70.632405, -33.423803 ], [ -70.632407, -33.423735 ], [ -70.63235, -33.42359 ] ] } },
{ "type": "Feature", "properties": { "cls": "painted", "highway": "residential", "name": "Avenida Pedro Bannen" }, "geometry": { "type": "LineString", "coordinates": [ [ -70.63235, -33.42359 ], [ -70.63256, -33.423744 ] ] } },
{ "type": "Feature", "properties": { "cls": "shared", "highway": "pedestrian", "name": "Paseo Metropolitano - Sendero Pedro de Valdivia Norte" }, "geometry": { "type": "LineString", "coordinates": [ [ -70.623387, -33.424051 ], [ -70.623323, -33.423712 ], [ -70.623146, -33.422986 ], [ -70.622997, -33.422553 ], [ -70.622316, -33.421169 ], [ -70.622267, -33.420998 ], [ -70.622063, -33.420284 ], [ -70.621777, -33.419432 ], [ -70.62171, -33.418888 ], [ -70.621595, -33.418709 ], [ -70.62122, -33.418271 ] ] } },
{ "type": "Feature", "properties": { "cls": "shared", "highway": "pedestrian", "name": "Paseo Metropolitano - Tramo Pedro de Valdivia Norte" }, "geometry": { "type": "LineString", "coordinates": [ [ -70.62122, -33.418271 ], [ -70.621179, -33.418038 ], [ -70.621167, -33.418011 ], [ -70.621141, -33.41798 ], [ -70.621078, -33.417916 ], [ -70.620826, -33.417748 ], [ -70.620684, -33.417559 ], [ -70.62059, -33.417444 ], [ -70.620454, -33.417337 ], [ -70.620114, -33.417108 ], [ -70.619579, -33.41652 ], [ -70.619487, -33.416404 ] ] } },
{ "type": "Feature", "properties": { "cls": "shared", "highway": "pedestrian", "name": "Paseo Metropolitano - Tramo Pedro de Valdivia Norte" }, "geometry": { "type": "LineString", "coordinates": [ [ -70.619487, -33.416404 ], [ -70.619366, -33.416471 ], [ -70.619259, -33.416469 ], [ -70.619101, -33.416379 ], [ -70.61898, -33.416243 ], [ -70.619039, -33.416194 ], [ -70.619117, -33.416262 ], [ -70.619145, -33.416238 ], [ -70.619196, -33.416198 ] ] } },
{ "type": "Feature", "properties": { "cls": "shared", "highway": "pedestrian", "name": "Paseo Metropolitano - Sendero Pedro de Valdivia Norte" }, "geometry": { "type": "LineString", "coordinates": [ [ -70.619758, -33.417349 ], [ -70.618037, -33.415769 ], [ -70.617887, -33.41552 ], [ -70.6178, -33.415433 ], [ -70.617687, -33.415328 ], [ -70.617566, -33.415299 ], [ -70.617535, -33.415292 ] ] } },
{ "type": "Feature", "properties": { "cls": "sharrow", "highway": "residential", "name": "Avenida Alberto Mackenna" }, "geometry": { "type": "LineString", "coordinates": [ [ -70.623005, -33.416121 ], [ -70.622924, -33.41623 ] ] } },
{ "type": "Feature", "properties": { "cls": "sharrow", "highway": "residential", "name": "Avenida Pedro Bannen" }, "geometry": { "type": "LineString", "coordinates": [ [ -70.622924, -33.41623 ], [ -70.622879, -33.416167 ], [ -70.622847, -33.416127 ], [ -70.622803, -33.416087 ], [ -70.622767, -33.416062 ], [ -70.622688, -33.415997 ], [ -70.622581, -33.415885 ] ] } },
{ "type": "Feature", "properties": { "cls": "sharrow", "highway": "residential", "name": "Avenida Pedro Bannen" }, "geometry": { "type": "LineString", "coordinates": [ [ -70.622581, -33.415885 ], [ -70.622764, -33.415946 ], [ -70.622899, -33.416033 ], [ -70.623005, -33.416121 ] ] } },
{ "type": "Feature", "properties": { "cls": "painted", "highway": "residential", "name": "Avenida Abate Molina" }, "geometry": { "type": "LineString", "coordinates": [ [ -70.619253, -33.416321 ], [ -70.619214, -33.416304 ], [ -70.619145, -33.416238 ], [ -70.618801, -33.415915 ], [ -70.6186, -33.415727 ], [ -70.618537, -33.415653 ], [ -70.618376, -33.41554 ], [ -70.618138, -33.415403 ], [ -70.617977, -33.415304 ], [ -70.617934, -33.415279 ], [ -70.617822, -33.415212 ], [ -70.61775, -33.415173 ], [ -70.617702, -33.415158 ], [ -70.617657, -33.415153 ], [ -70.617606, -33.415154 ], [ -70.617565, -33.415171 ], [ -70.617544, -33.41519 ], [ -70.617527, -33.415219 ] ] } },
{ "type": "Feature", "properties": { "cls": "painted", "highway": "residential", "name": "Avenida Abate Molina" }, "geometry": { "type": "LineString", "coordinates": [ [ -70.617448, -33.415396 ], [ -70.617419, -33.415452 ] ] } },
{ "type": "Feature", "properties": { "cls": "separated", "highway": "cycleway", "name": "Sendero Ciclista Centenario" }, "geometry": { "type": "LineString", "coordinates": [ [ -70.629459, -33.422905 ], [ -70.629479, -33.422958 ], [ -70.62952, -33.423 ], [ -70.62955, -33.42305 ], [ -70.629574, -33.423097 ], [ -70.629565, -33.423145 ], [ -70.62959, -33.423163 ], [ -70.629599, -33.423207 ], [ -70.62957, -33.423263 ], [ -70.629578, -33.423328 ], [ -70.629596, -33.423365 ], [ -70.62961, -33.423394 ], [ -70.629613, -33.423443 ], [ -70.629607, -33.423484 ], [ -70.629607, -33.423528 ], [ -70.629607, -33.423569 ], [ -70.629622, -33.423606 ], [ -70.629628, -33.42369 ], [ -70.629642, -33.42377 ], [ -70.629642, -33.423811 ], [ -70.629654, -33.42386 ], [ -70.629639, -33.423911 ], [ -70.629642, -33.423945 ], [ -70.629666, -33.423989 ], [ -70.629689, -33.424023 ], [ -70.629704, -33.424069 ], [ -70.629674, -33.424137 ], [ -70.629709, -33.424239 ], [ -70.629686, -33.424413 ] ] } },
{ "type": "Feature", "properties": { "cls": "shared", "highway": "pedestrian", "name": "Paseo Metropolitano - Parque Bicentenario de la Infancia" }, "geometry": { "type": "LineString", "coordinates": [ [ -70.637879, -33.427479 ], [ -70.637966, -33.427368 ], [ -70.637974, -33.427312 ], [ -70.637945, -33.427159 ], [ -70.637893, -33.426865 ], [ -70.637863, -33.426767 ], [ -70.637782, -33.426371 ], [ -70.637753, -33.426082 ], [ -70.637694, -33.425571 ], [ -70.637595, -33.425007 ], [ -70.637536, -33.424634 ], [ -70.637516, -33.424542 ], [ -70.63738, -33.424111 ], [ -70.637324, -33.424037 ], [ -70.637223, -33.423916 ], [ -70.63715, -33.423792 ], [ -70.637013, -33.423614 ], [ -70.636983, -33.423575 ], [ -70.636898, -33.423455 ], [ -70.636884, -33.423405 ], [ -70.636893, -33.423353 ], [ -70.636921, -33.423298 ], [ -70.63701, -33.423148 ], [ -70.637087, -33.423018 ], [ -70.637165, -33.422918 ], [ -70.637212, -33.422877 ], [ -70.637271, -33.422822 ], [ -70.63739, -33.422751 ], [ -70.6377, -33.422569 ], [ -70.637828, -33.422481 ], [ -70.637994, -33.422333 ], [ -70.638249, -33.422076 ], [ -70.63914, -33.421014 ], [ -70.639264, -33.420833 ], [ -70.639439, -33.420564 ], [ -70.63951, -33.420376 ], [ -70.639526, -33.420235 ], [ -70.6395, -33.420139 ], [ -70.639425, -33.420096 ], [ -70.6391, -33.420093 ], [ -70.638965, -33.420094 ], [ -70.638899, -33.420056 ], [ -70.638812, -33.419989 ], [ -70.63827, -33.419577 ] ] } },
{ "type": "Feature", "properties": { "cls": "separated", "highway": "cycleway", "name": "Sendero Ciclista 4 ½" }, "geometry": { "type": "LineString", "coordinates": [ [ -70.627193, -33.421873 ], [ -70.62719, -33.421896 ], [ -70.627192, -33.421928 ], [ -70.627264, -33.421945 ], [ -70.62728, -33.421985 ], [ -70.627335, -33.421972 ], [ -70.62737, -33.421996 ], [ -70.627372, -33.422031 ], [ -70.627365, -33.422044 ], [ -70.627352, -33.422054 ], [ -70.627344, -33.422068 ], [ -70.627328, -33.422087 ], [ -70.627312, -33.422101 ], [ -70.627296, -33.422118 ], [ -70.627281, -33.422134 ], [ -70.62728, -33.422151 ], [ -70.627291, -33.422167 ], [ -70.62731, -33.42216 ], [ -70.627354, -33.422155 ], [ -70.627386, -33.42215 ], [ -70.627426, -33.422147 ], [ -70.627478, -33.422153 ], [ -70.62754, -33.422163 ], [ -70.627572, -33.42217 ], [ -70.627604, -33.422177 ], [ -70.627632, -33.422187 ], [ -70.627666, -33.4222 ], [ -70.62771, -33.422222 ], [ -70.62773, -33.422238 ], [ -70.62776, -33.422253 ], [ -70.627788, -33.42226 ], [ -70.627822, -33.422265 ], [ -70.627848, -33.42227 ], [ -70.627894, -33.42227 ], [ -70.627932, -33.42228 ], [ -70.62795, -33.422305 ], [ -70.627924, -33.422332 ], [ -70.627904, -33.422359 ], [ -70.627887, -33.422403 ], [ -70.627862, -33.422449 ], [ -70.627856, -33.422493 ], [ -70.627867, -33.422527 ], [ -70.627892, -33.422564 ], [ -70.627916, -33.422602 ], [ -70.627925, -33.422635 ], [ -70.627902, -33.422656 ], [ -70.627837, -33.422706 ], [ -70.627846, -33.422715 ], [ -70.627879, -33.422753 ], [ -70.627935, -33.422805 ], [ -70.628296, -33.422963 ], [ -70.628561, -33.423166 ], [ -70.628718, -33.423221 ], [ -70.62884, -33.423282 ], [ -70.628954, -33.42335 ], [ -70.629052, -33.423418 ], [ -70.62907, -33.423472 ], [ -70.629091, -33.423527 ], [ -70.629095, -33.42356 ], [ -70.629098, -33.423637 ], [ -70.62888, -33.423673 ], [ -70.628797, -33.423691 ], [ -70.628693, -33.423703 ], [ -70.628553, -33.423774 ], [ -70.628387, -33.423811 ], [ -70.628305, -33.423802 ], [ -70.628199, -33.423788 ], [ -70.628092, -33.423752 ], [ -70.627879, -33.423762 ], [ -70.627696, -33.423771 ], [ -70.627524, -33.42376 ], [ -70.627336, -33.423774 ], [ -70.627208, -33.423829 ], [ -70.627115, -33.423906 ], [ -70.627048, -33.423966 ], [ -70.627019, -33.424 ], [ -70.627172, -33.424014 ], [ -70.627382, -33.424098 ], [ -70.627495, -33.424251 ], [ -70.627271, -33.424314 ], [ -70.627161, -33.424396 ] ] } },
{ "type": "Feature", "properties": { "cls": "painted", "highway": "residential", "name": "Avenida Alberto Mackenna" }, "geometry": { "type": "LineString", "coordinates": [ [ -70.63616, -33.429462 ], [ -70.636527, -33.429336 ], [ -70.636638, -33.429292 ], [ -70.636744, -33.429216 ], [ -70.636803, -33.429164 ], [ -70.636841, -33.429114 ], [ -70.637148, -33.428732 ], [ -70.637183, -33.428697 ], [ -70.63722, -33.428665 ], [ -70.637532, -33.42846 ], [ -70.637864, -33.428199 ], [ -70.638009, -33.428079 ], [ -70.638053, -33.428036 ], [ -70.638069, -33.427993 ], [ -70.638059, -33.427951 ], [ -70.638004, -33.427878 ], [ -70.637933, -33.427786 ], [ -70.6379, -33.42772 ], [ -70.637885, -33.42768 ], [ -70.637871, -33.427628 ], [ -70.637868, -33.427561 ], [ -70.637879, -33.427479 ], [ -70.637881, -33.427419 ], [ -70.637876, -33.427358 ], [ -70.637855, -33.427235 ], [ -70.637746, -33.426853 ], [ -70.637666, -33.426596 ], [ -70.637646, -33.426506 ], [ -70.637577, -33.426256 ], [ -70.637523, -33.426033 ], [ -70.637477, -33.425771 ], [ -70.637429, -33.425504 ], [ -70.637411, -33.425336 ], [ -70.637399, -33.425177 ], [ -70.637395, -33.42516 ], [ -70.637342, -33.424997 ], [ -70.637308, -33.424899 ], [ -70.637242, -33.424689 ], [ -70.637208, -33.424597 ], [ -70.637187, -33.424551 ], [ -70.637037, -33.424298 ], [ -70.637028, -33.424279 ], [ -70.636983, -33.424189 ], [ -70.636978, -33.42417 ], [ -70.636963, -33.424143 ], [ -70.636939, -33.424111 ], [ -70.636846, -33.424 ], [ -70.636656, -33.423736 ], [ -70.636574, -33.423648 ], [ -70.636522, -33.423594 ], [ -70.636452, -33.423538 ], [ -70.636393, -33.423482 ], [ -70.636361, -33.42344 ], [ -70.636329, -33.423375 ], [ -70.636305, -33.4233 ], [ -70.636294, -33.423213 ], [ -70.636296, -33.423032 ], [ -70.636306, -33.422874 ], [ -70.636326, -33.422766 ], [ -70.636359, -33.422674 ], [ -70.636381, -33.422625 ], [ -70.636432, -33.422538 ], [ -70.636526, -33.422392 ], [ -70.6366, -33.422317 ], [ -70.636695, -33.422266 ], [ -70.636902, -33.422189 ], [ -70.636983, -33.422158 ], [ -70.63709, -33.4221 ], [ -70.637171, -33.422044 ], [ -70.637351, -33.421897 ], [ -70.637484, -33.421768 ], [ -70.637536, -33.421686 ], [ -70.637572, -33.421594 ], [ -70.637588, -33.42151 ], [ -70.637589, -33.421352 ], [ -70.637596, -33.421276 ], [ -70.637608, -33.421201 ], [ -70.637631, -33.421112 ], [ -70.63768, -33.420963 ], [ -70.637754, -33.420788 ], [ -70.637827, -33.420646 ], [ -70.637888, -33.420552 ], [ -70.637909, -33.420526 ], [ -70.637936, -33.420498 ], [ -70.637974, -33.420468 ], [ -70.637991, -33.420442 ], [ -70.637992, -33.420418 ], [ -70.63798, -33.420384 ], [ -70.63795, -33.420349 ], [ -70.637886, -33.420293 ], [ -70.637781, -33.420198 ], [ -70.637691, -33.420125 ], [ -70.637654, -33.420098 ], [ -70.637542, -33.420028 ], [ -70.637504, -33.420001 ], [ -70.637474, -33.419976 ], [ -70.637409, -33.419906 ], [ -70.637314, -33.419788 ], [ -70.637216, -33.419671 ], [ -70.637151, -33.419609 ], [ -70.637084, -33.41955 ], [ -70.63704, -33.41952 ], [ -70.636921, -33.419444 ], [ -70.636841, -33.419395 ], [ -70.636792, -33.419363 ], [ -70.636749, -33.419334 ], [ -70.636706, -33.4193 ], [ -70.63664, -33.419237 ], [ -70.636578, -33.419159 ], [ -70.636547, -33.419103 ], [ -70.636482, -33.419002 ], [ -70.636423, -33.418926 ], [ -70.636365, -33.418875 ], [ -70.636315, -33.418836 ], [ -70.636269, -33.418815 ], [ -70.636222, -33.418797 ], [ -70.636123, -33.418789 ], [ -70.636056, -33.418796 ], [ -70.635969, -33.418809 ], [ -70.635917, -33.418824 ], [ -70.635869, -33.418849 ], [ -70.635833, -33.418882 ], [ -70.635808, -33.418917 ], [ -70.635797, -33.418946 ], [ -70.635763, -33.41901 ], [ -70.635742, -33.419046 ], [ -70.635703, -33.419081 ], [ -70.635646, -33.419104 ], [ -70.635583, -33.419117 ], [ -70.635505, -33.419123 ], [ -70.635465, -33.419122 ], [ -70.635435, -33.419117 ], [ -70.635391, -33.419107 ], [ -70.63532, -33.419087 ], [ -70.635268, -33.419072 ], [ -70.635204, -33.419043 ], [ -70.635159, -33.419015 ], [ -70.635051, -33.418944 ], [ -70.634968, -33.418897 ], [ -70.634889, -33.41885 ], [ -70.634776, -33.418779 ], [ -70.634702, -33.418728 ], [ -70.634595, -33.418637 ], [ -70.634492, -33.418531 ], [ -70.634434, -33.418478 ], [ -70.63437, -33.418433 ], [ -70.634274, -33.418394 ], [ -70.634202, -33.418381 ], [ -70.634058, -33.418361 ], [ -70.633917, -33.418349 ], [ -70.633672, -33.418394 ], [ -70.633463, -33.418414 ], [ -70.633353, -33.418402 ], [ -70.633226, -33.41839 ], [ -70.632958, -33.418344 ], [ -70.632699, -33.418278 ], [ -70.632457, -33.418188 ], [ -70.632336, -33.418161 ], [ -70.63225, -33.418129 ], [ -70.632175, -33.418085 ], [ -70.632115, -33.418038 ], [ -70.632062, -33.417987 ], [ -70.631983, -33.417897 ], [ -70.631895, -33.417792 ], [ -70.631783, -33.417656 ], [ -70.631705, -33.417541 ], [ -70.631558, -33.417251 ], [ -70.63154, -33.417203 ], [ -70.631503, -33.417144 ], [ -70.631464, -33.417095 ], [ -70.631372, -33.417036 ], [ -70.631326, -33.417021 ], [ -70.631265, -33.417017 ], [ -70.631172, -33.417044 ], [ -70.631093, -33.417082 ], [ -70.630821, -33.417208 ], [ -70.63069, -33.417265 ], [ -70.630466, -33.417328 ], [ -70.630015, -33.417474 ], [ -70.629841, -33.417501 ], [ -70.629639, -33.417504 ], [ -70.629209, -33.417481 ], [ -70.628954, -33.417472 ], [ -70.628847, -33.417483 ], [ -70.628667, -33.417539 ], [ -70.628541, -33.417585 ], [ -70.628401, -33.417598 ], [ -70.628206, -33.417572 ], [ -70.628003, -33.417527 ], [ -70.627855, -33.417478 ], [ -70.627655, -33.417407 ], [ -70.627403, -33.417333 ], [ -70.626636, -33.417159 ], [ -70.626486, -33.417121 ], [ -70.626187, -33.41702 ], [ -70.626076, -33.416987 ], [ -70.625998, -33.416979 ], [ -70.625863, -33.416994 ], [ -70.625606, -33.417058 ], [ -70.625475, -33.417115 ], [ -70.625383, -33.417146 ], [ -70.625299, -33.417158 ], [ -70.625244, -33.417143 ], [ -70.625199, -33.417115 ], [ -70.625051, -33.417032 ], [ -70.624897, -33.416943 ], [ -70.624761, -33.416845 ], [ -70.624698, -33.416794 ], [ -70.624548, -33.416619 ], [ -70.624477, -33.416548 ], [ -70.624426, -33.416514 ], [ -70.624392, -33.416492 ], [ -70.62425, -33.416423 ], [ -70.623955, -33.416291 ], [ -70.623694, -33.416212 ], [ -70.623216, -33.416117 ], [ -70.623102, -33.416106 ], [ -70.623066, -33.416111 ], [ -70.623005, -33.416121 ] ] } },
{ "type": "Feature", "properties": { "cls": "separated", "highway": "cycleway", "name": "Sendero Ciclista 4 ½" }, "geometry": { "type": "LineString", "coordinates": [ [ -70.62728, -33.421985 ], [ -70.627168, -33.422013 ], [ -70.627092, -33.422051 ], [ -70.627018, -33.422091 ], [ -70.626972, -33.422122 ], [ -70.626965, -33.422155 ], [ -70.626939, -33.422181 ], [ -70.626934, -33.422208 ], [ -70.62692, -33.422234 ], [ -70.626874, -33.422283 ], [ -70.626848, -33.422304 ], [ -70.626805, -33.422332 ], [ -70.626772, -33.422375 ], [ -70.626743, -33.422403 ], [ -70.626719, -33.422454 ], [ -70.626719, -33.422498 ], [ -70.6267, -33.422562 ], [ -70.626636, -33.422599 ], [ -70.626636, -33.422629 ], [ -70.626664, -33.422658 ], [ -70.626665, -33.422681 ], [ -70.626677, -33.422702 ], [ -70.62671, -33.422704 ], [ -70.626777, -33.422743 ], [ -70.626858, -33.42276 ], [ -70.626937, -33.422802 ], [ -70.626973, -33.422794 ], [ -70.627051, -33.42279 ], [ -70.627133, -33.422793 ], [ -70.627283, -33.422786 ], [ -70.627371, -33.422802 ], [ -70.627415, -33.42281 ], [ -70.627443, -33.422778 ], [ -70.627477, -33.42274 ], [ -70.627534, -33.42276 ], [ -70.627616, -33.422727 ], [ -70.627695, -33.422683 ], [ -70.627748, -33.422708 ], [ -70.62781, -33.422705 ], [ -70.627846, -33.422715 ], [ -70.627923, -33.422737 ], [ -70.627974, -33.422714 ], [ -70.628017, -33.422689 ], [ -70.628108, -33.42268 ], [ -70.628225, -33.42268 ], [ -70.628324, -33.422679 ], [ -70.628433, -33.422675 ], [ -70.628566, -33.422696 ], [ -70.628682, -33.422739 ], [ -70.62873, -33.422775 ], [ -70.628807, -33.422754 ], [ -70.628931, -33.422781 ], [ -70.628972, -33.422793 ], [ -70.629032, -33.422833 ], [ -70.629093, -33.422837 ], [ -70.629175, -33.422815 ], [ -70.629249, -33.422848 ], [ -70.629326, -33.42288 ], [ -70.629364, -33.422891 ], [ -70.629431, -33.422894 ], [ -70.629459, -33.422905 ] ] } },
{ "type": "Feature", "properties": { "cls": "painted", "highway": "residential", "name": "Avenida Pedro Bannen" }, "geometry": { "type": "LineString", "coordinates": [ [ -70.63235, -33.42359 ], [ -70.632252, -33.423508 ], [ -70.632143, -33.423413 ], [ -70.63192, -33.42323 ], [ -70.631738, -33.423088 ], [ -70.631563, -33.422968 ], [ -70.631015, -33.422442 ], [ -70.630912, -33.422392 ], [ -70.630841, -33.422357 ], [ -70.630672, -33.422311 ], [ -70.630493, -33.422249 ], [ -70.630457, -33.422237 ], [ -70.630153, -33.42213 ], [ -70.629983, -33.42209 ], [ -70.629841, -33.422064 ], [ -70.629562, -33.422022 ], [ -70.629274, -33.421942 ], [ -70.628901, -33.421883 ], [ -70.628581, -33.421836 ], [ -70.628336, -33.421833 ], [ -70.627762, -33.421882 ], [ -70.627464, -33.421922 ], [ -70.627292, -33.4219 ], [ -70.627193, -33.421873 ], [ -70.627024, -33.42181 ], [ -70.626869, -33.421723 ], [ -70.626741, -33.421657 ], [ -70.6266, -33.421499 ], [ -70.626506, -33.421335 ], [ -70.626429, -33.421181 ], [ -70.626378, -33.421008 ], [ -70.626273, -33.420813 ], [ -70.626203, -33.420725 ], [ -70.626113, -33.420636 ], [ -70.625991, -33.420529 ], [ -70.625852, -33.420411 ], [ -70.625737, -33.420304 ], [ -70.625624, -33.420161 ], [ -70.625441, -33.419784 ], [ -70.625251, -33.419518 ], [ -70.625105, -33.419294 ], [ -70.625092, -33.419247 ], [ -70.625096, -33.419158 ], [ -70.625112, -33.419068 ], [ -70.625136, -33.418992 ], [ -70.625181, -33.418831 ], [ -70.625305, -33.41864 ], [ -70.625596, -33.418363 ], [ -70.625934, -33.418104 ], [ -70.626064, -33.418005 ], [ -70.626209, -33.417941 ], [ -70.626239, -33.41793 ], [ -70.626288, -33.417926 ], [ -70.626566, -33.417925 ], [ -70.626995, -33.417947 ], [ -70.627161, -33.417962 ], [ -70.627335, -33.417997 ], [ -70.627487, -33.418041 ], [ -70.627553, -33.418069 ], [ -70.627677, -33.418139 ], [ -70.627815, -33.418204 ], [ -70.627944, -33.418267 ], [ -70.628068, -33.418324 ], [ -70.628186, -33.418341 ], [ -70.628302, -33.418318 ], [ -70.628417, -33.418291 ], [ -70.628593, -33.418282 ], [ -70.628672, -33.418286 ], [ -70.628787, -33.418289 ], [ -70.62884, -33.41825 ], [ -70.628868, -33.418207 ], [ -70.628861, -33.418164 ], [ -70.628825, -33.418119 ], [ -70.628752, -33.418106 ], [ -70.628613, -33.418102 ], [ -70.628497, -33.418125 ], [ -70.628374, -33.418172 ], [ -70.628224, -33.418205 ], [ -70.628099, -33.418208 ], [ -70.627988, -33.418172 ], [ -70.6279, -33.418124 ], [ -70.627826, -33.418082 ], [ -70.627701, -33.418008 ], [ -70.627528, -33.417919 ], [ -70.627348, -33.417851 ], [ -70.627188, -33.417803 ], [ -70.626421, -33.417575 ], [ -70.626159, -33.417474 ], [ -70.625998, -33.417418 ], [ -70.62592, -33.417408 ], [ -70.625814, -33.417425 ], [ -70.625651, -33.417492 ], [ -70.62542, -33.417546 ], [ -70.625297, -33.417577 ], [ -70.6252, -33.417586 ], [ -70.625077, -33.417584 ], [ -70.625037, -33.417566 ], [ -70.624961, -33.417532 ], [ -70.624825, -33.417389 ], [ -70.624695, -33.417262 ], [ -70.624413, -33.416984 ], [ -70.624126, -33.416716 ], [ -70.624061, -33.416645 ], [ -70.624009, -33.416598 ], [ -70.623928, -33.416558 ], [ -70.623863, -33.416542 ], [ -70.623791, -33.416536 ], [ -70.623686, -33.416542 ], [ -70.62362, -33.416575 ], [ -70.623567, -33.416606 ], [ -70.623535, -33.416649 ], [ -70.62352, -33.416691 ], [ -70.623513, -33.416737 ], [ -70.623497, -33.416789 ], [ -70.623485, -33.41682 ], [ -70.623467, -33.416859 ], [ -70.623445, -33.416878 ], [ -70.623396, -33.416888 ], [ -70.623351, -33.416889 ], [ -70.62332, -33.416876 ], [ -70.623291, -33.416861 ], [ -70.623266, -33.416845 ], [ -70.623246, -33.416828 ], [ -70.623222, -33.416803 ], [ -70.623154, -33.416719 ], [ -70.623081, -33.416608 ], [ -70.623057, -33.416565 ], [ -70.622999, -33.416413 ], [ -70.622975, -33.416341 ], [ -70.622944, -33.416278 ], [ -70.622924, -33.41623 ] ] } },
{ "type": "Feature", "properties": { "cls": "painted", "highway": "residential", "name": "Avenida Abate Molina" }, "geometry": { "type": "LineString", "coordinates": [ [ -70.614678, -33.413802 ], [ -70.614703, -33.413813 ], [ -70.614801, -33.413814 ], [ -70.614919, -33.413807 ], [ -70.614986, -33.413806 ], [ -70.615093, -33.413804 ], [ -70.615248, -33.413759 ], [ -70.615366, -33.4137 ], [ -70.61554, -33.41357 ], [ -70.615783, -33.413292 ], [ -70.61584, -33.413257 ], [ -70.615916, -33.413229 ], [ -70.616058, -33.413221 ], [ -70.616367, -33.41321 ], [ -70.616603, -33.413214 ], [ -70.616758, -33.413199 ], [ -70.616903, -33.413199 ], [ -70.616994, -33.413223 ], [ -70.617111, -33.41328 ], [ -70.617258, -33.413427 ], [ -70.617456, -33.413626 ], [ -70.617732, -33.413833 ], [ -70.617873, -33.41396 ], [ -70.617944, -33.414073 ], [ -70.617993, -33.414184 ], [ -70.618075, -33.414417 ], [ -70.618221, -33.414696 ], [ -70.618383, -33.414898 ], [ -70.618577, -33.41516 ], [ -70.618773, -33.4154 ], [ -70.618961, -33.415697 ], [ -70.619127, -33.415971 ], [ -70.619333, -33.416174 ], [ -70.619371, -33.416225 ], [ -70.619367, -33.416264 ], [ -70.619345, -33.416296 ], [ -70.619306, -33.416318 ], [ -70.619253, -33.416321 ] ] } },
{ "type": "Feature", "properties": { "cls": "painted", "highway": "residential", "name": "Avenida Abate Molina" }, "geometry": { "type": "LineString", "coordinates": [ [ -70.615624, -33.413102 ], [ -70.615559, -33.413207 ], [ -70.615433, -33.413389 ], [ -70.615356, -33.41348 ], [ -70.615289, -33.413532 ], [ -70.615225, -33.413569 ], [ -70.615163, -33.413598 ], [ -70.615062, -33.41362 ], [ -70.614961, -33.413633 ], [ -70.614908, -33.413634 ], [ -70.614756, -33.413636 ], [ -70.614692, -33.413649 ], [ -70.614644, -33.413679 ], [ -70.614624, -33.413715 ], [ -70.614628, -33.41374 ], [ -70.614643, -33.413768 ], [ -70.614678, -33.413802 ] ] } },
{ "type": "Feature", "properties": { "cls": "shared", "highway": "pedestrian", "name": "Paseo Metropolitano - Tramo Jardín Japonés / Pirámide" }, "geometry": { "type": "LineString", "coordinates": [ [ -70.615443, -33.412996 ], [ -70.615509, -33.413034 ], [ -70.615577, -33.413074 ], [ -70.615624, -33.413102 ] ] } },
{ "type": "Feature", "properties": { "cls": "shared", "highway": "pedestrian", "name": "Paseo Metropolitano - Tramo Jardín Japonés / Pirámide" }, "geometry": { "type": "LineString", "coordinates": [ [ -70.612848, -33.412606 ], [ -70.613034, -33.412662 ], [ -70.613285, -33.412681 ], [ -70.613512, -33.412668 ], [ -70.613658, -33.412654 ], [ -70.613754, -33.41263 ], [ -70.613848, -33.412598 ], [ -70.613933, -33.412571 ], [ -70.614087, -33.412554 ], [ -70.614102, -33.412555 ], [ -70.614201, -33.412566 ], [ -70.614328, -33.412609 ], [ -70.614828, -33.412756 ], [ -70.615103, -33.412843 ], [ -70.615277, -33.412916 ], [ -70.61533, -33.412939 ], [ -70.615443, -33.412996 ] ] } },
{ "type": "Feature", "properties": { "cls": "painted", "highway": "residential", "name": "Avenida Carlos Martner" }, "geometry": { "type": "LineString", "coordinates": [ [ -70.61758, -33.411845 ], [ -70.617427, -33.41177 ], [ -70.616652, -33.411479 ], [ -70.616196, -33.411324 ], [ -70.616029, -33.411266 ], [ -70.615887, -33.411233 ], [ -70.615705, -33.411215 ], [ -70.615348, -33.411244 ], [ -70.615177, -33.411239 ], [ -70.615029, -33.411235 ], [ -70.614841, -33.411215 ], [ -70.614603, -33.411143 ], [ -70.614224, -33.411045 ], [ -70.613884, -33.410953 ], [ -70.613554, -33.41085 ], [ -70.613221, -33.410727 ], [ -70.612953, -33.410592 ], [ -70.612524, -33.410357 ], [ -70.612339, -33.41023 ], [ -70.612213, -33.410116 ], [ -70.612079, -33.409968 ], [ -70.612001, -33.409869 ], [ -70.611923, -33.409737 ], [ -70.611884, -33.409644 ] ] } },
{ "type": "Feature", "properties": { "cls": "shared", "highway": "pedestrian", "name": "Paseo Metropolitano - Tramo Jardín Japonés / Pirámide" }, "geometry": { "type": "LineString", "coordinates": [ [ -70.612848, -33.412606 ], [ -70.612719, -33.412556 ], [ -70.61254, -33.412488 ], [ -70.612287, -33.412355 ], [ -70.612047, -33.41222 ], [ -70.611887, -33.41212 ], [ -70.611822, -33.412072 ], [ -70.611718, -33.411989 ], [ -70.61148, -33.411689 ], [ -70.611186, -33.411395 ], [ -70.611016, -33.411225 ], [ -70.610955, -33.411183 ], [ -70.610914, -33.411157 ], [ -70.610833, -33.411128 ], [ -70.610701, -33.411103 ], [ -70.610486, -33.411084 ], [ -70.610309, -33.41107 ], [ -70.610139, -33.411094 ], [ -70.60996, -33.411195 ], [ -70.609823, -33.41132 ], [ -70.609741, -33.411453 ], [ -70.609658, -33.411576 ], [ -70.60962, -33.411622 ], [ -70.609564, -33.411678 ], [ -70.609521, -33.411711 ], [ -70.609463, -33.411731 ], [ -70.609349, -33.41176 ], [ -70.609189, -33.41176 ], [ -70.609059, -33.41174 ], [ -70.608995, -33.411723 ], [ -70.608927, -33.411696 ], [ -70.608829, -33.411632 ], [ -70.608756, -33.411554 ], [ -70.60865, -33.411407 ], [ -70.60854, -33.411262 ], [ -70.608426, -33.411126 ], [ -70.608337, -33.411021 ], [ -70.608232, -33.410845 ], [ -70.608163, -33.410661 ], [ -70.608085, -33.41042 ], [ -70.608023, -33.410256 ], [ -70.607935, -33.41012 ], [ -70.607865, -33.409952 ], [ -70.607838, -33.409818 ], [ -70.607846, -33.409666 ], [ -70.607815, -33.40959 ], [ -70.607683, -33.409489 ], [ -70.607519, -33.409414 ], [ -70.607357, -33.409338 ], [ -70.607103, -33.409263 ], [ -70.60697, -33.409203 ], [ -70.606881, -33.409124 ], [ -70.606798, -33.408996 ] ] } },
{ "type": "Feature", "properties": { "cls": "sharrow", "highway": "residential", "name": "Antilen" }, "geometry": { "type": "LineString", "coordinates": [ [ -70.613138, -33.408576 ], [ -70.613323, -33.408591 ], [ -70.613433, -33.408603 ], [ -70.613877, -33.408668 ], [ -70.614001, -33.408713 ], [ -70.61417, -33.408785 ], [ -70.61436, -33.408876 ], [ -70.614493, -33.408957 ], [ -70.614536, -33.409002 ], [ -70.614566, -33.409055 ], [ -70.614585, -33.409112 ], [ -70.61461, -33.409227 ], [ -70.614626, -33.409332 ], [ -70.614645, -33.409461 ], [ -70.614644, -33.409529 ], [ -70.614633, -33.409563 ], [ -70.614615, -33.409589 ], [ -70.614588, -33.409619 ], [ -70.614557, -33.409649 ], [ -70.614495, -33.409678 ], [ -70.614406, -33.409694 ], [ -70.614208, -33.4097 ], [ -70.613875, -33.409713 ], [ -70.613446, -33.409719 ], [ -70.613021, -33.40968 ], [ -70.612919, -33.409662 ], [ -70.612837, -33.409636 ], [ -70.612709, -33.409543 ], [ -70.612552, -33.40935 ], [ -70.612406, -33.409147 ], [ -70.612302, -33.408991 ], [ -70.612076, -33.408653 ], [ -70.612013, -33.408541 ], [ -70.611971, -33.408432 ], [ -70.611915, -33.408262 ], [ -70.611882, -33.408112 ], [ -70.61186, -33.407971 ], [ -70.61185, -33.40781 ], [ -70.611849, -33.407724 ], [ -70.61185, -33.407674 ], [ -70.611827, -33.407624 ], [ -70.61174, -33.407592 ], [ -70.611715, -33.407589 ], [ -70.611576, -33.407583 ], [ -70.611405, -33.40759 ], [ -70.611302, -33.40759 ] ] } },
{ "type": "Feature", "properties": { "cls": "painted", "highway": "residential", "name": "Avenida Carlos Martner" }, "geometry": { "type": "LineString", "coordinates": [ [ -70.611884, -33.409644 ], [ -70.611863, -33.409585 ], [ -70.611809, -33.40943 ], [ -70.611724, -33.409086 ], [ -70.611685, -33.408907 ], [ -70.611669, -33.408762 ], [ -70.611658, -33.408527 ], [ -70.611675, -33.408245 ], [ -70.611683, -33.408102 ], [ -70.61168, -33.408086 ], [ -70.611671, -33.408036 ], [ -70.611643, -33.407991 ], [ -70.611612, -33.407946 ], [ -70.611609, -33.407943 ], [ -70.611535, -33.407862 ], [ -70.611471, -33.4078 ], [ -70.611416, -33.407756 ], [ -70.611368, -33.407725 ], [ -70.611322, -33.407694 ], [ -70.611263, -33.407652 ] ] } },
{ "type": "Feature", "properties": { "cls": "painted", "highway": "residential", "name": "Plaza Antilén" }, "geometry": { "type": "LineString", "coordinates": [ [ -70.611206, -33.407509 ], [ -70.611238, -33.407513 ], [ -70.611264, -33.407525 ], [ -70.611284, -33.407543 ], [ -70.611297, -33.407565 ], [ -70.611302, -33.40759 ], [ -70.611297, -33.407613 ], [ -70.611284, -33.407635 ], [ -70.611263, -33.407652 ], [ -70.611239, -33.407663 ], [ -70.611211, -33.407668 ], [ -70.611184, -33.407666 ], [ -70.611158, -33.407657 ], [ -70.611136, -33.407642 ], [ -70.61112, -33.407623 ], [ -70.611111, -33.407597 ], [ -70.611113, -33.40757 ], [ -70.611125, -33.407546 ], [ -70.611147, -33.407526 ], [ -70.611175, -33.407513 ], [ -70.611206, -33.407509 ] ] } },
{ "type": "Feature", "properties": { "cls": "separated", "highway": "cycleway", "name": "Sendero Ciclista Anfiteatro" }, "geometry": { "type": "LineString", "coordinates": [ [ -70.610615, -33.407245 ], [ -70.610493, -33.407248 ], [ -70.610406, -33.407239 ], [ -70.6103, -33.407194 ], [ -70.610246, -33.407158 ], [ -70.610212, -33.407107 ], [ -70.610159, -33.407047 ], [ -70.610071, -33.406983 ], [ -70.609981, -33.406928 ], [ -70.609894, -33.40686 ], [ -70.609851, -33.4068 ], [ -70.609814, -33.406684 ], [ -70.609785, -33.406617 ], [ -70.609728, -33.406543 ], [ -70.609676, -33.4064 ], [ -70.60969, -33.406352 ], [ -70.609723, -33.406282 ], [ -70.609754, -33.406194 ], [ -70.609786, -33.406112 ], [ -70.609818, -33.406054 ], [ -70.609857, -33.405988 ], [ -70.609837, -33.405949 ], [ -70.609745, -33.405872 ], [ -70.609644, -33.405767 ], [ -70.609588, -33.405682 ], [ -70.609558, -33.405608 ], [ -70.60953, -33.405552 ], [ -70.609516, -33.405519 ] ] } },
{ "type": "Feature", "properties": { "cls": "sharrow", "highway": "residential", "name": "Avenida Pablo Neruda" }, "geometry": { "type": "LineString", "coordinates": [ [ -70.610145, -33.403946 ], [ -70.610124, -33.404031 ], [ -70.610114, -33.404069 ], [ -70.610144, -33.404108 ], [ -70.610335, -33.404146 ], [ -70.610373, -33.404153 ], [ -70.610411, -33.404171 ], [ -70.610448, -33.404208 ], [ -70.61048, -33.404288 ], [ -70.610603, -33.404718 ], [ -70.610636, -33.404821 ], [ -70.610672, -33.404896 ], [ -70.610715, -33.405009 ], [ -70.610913, -33.405318 ], [ -70.611006, -33.405446 ], [ -70.611087, -33.405574 ], [ -70.611207, -33.405691 ], [ -70.61122, -33.405711 ], [ -70.611229, -33.405726 ], [ -70.61124, -33.405764 ], [ -70.611245, -33.405812 ], [ -70.611243, -33.405859 ], [ -70.61124, -33.405924 ], [ -70.611233, -33.40599 ], [ -70.611219, -33.406115 ], [ -70.611207, -33.4062 ], [ -70.611202, -33.406265 ], [ -70.611192, -33.406329 ], [ -70.611148, -33.406517 ], [ -70.611124, -33.40661 ], [ -70.611095, -33.406702 ], [ -70.611063, -33.406782 ], [ -70.61099, -33.406895 ], [ -70.610939, -33.406973 ], [ -70.610902, -33.407024 ], [ -70.610849, -33.407072 ], [ -70.610794, -33.40711 ], [ -70.610713, -33.407158 ], [ -70.610687, -33.407173 ], [ -70.61063, -33.407209 ], [ -70.610621, -33.407225 ], [ -70.610615, -33.407245 ], [ -70.610619, -33.407266 ], [ -70.610635, -33.407288 ], [ -70.610653, -33.407302 ], [ -70.610681, -33.407319 ], [ -70.610717, -33.407332 ], [ -70.610755, -33.407349 ], [ -70.610787, -33.407369 ], [ -70.610844, -33.407413 ], [ -70.610992, -33.407543 ], [ -70.611111, -33.407597 ] ] } },
{ "type": "Feature", "properties": { "cls": "shared", "highway": "pedestrian", "name": "Paseo Metropolitano - Tramo Jardín Japonés / Pirámide" }, "geometry": { "type": "LineString", "coordinates": [ [ -70.606597, -33.408444 ], [ -70.606656, -33.408496 ], [ -70.606691, -33.408559 ], [ -70.606704, -33.408837 ], [ -70.606722, -33.408918 ], [ -70.606798, -33.408996 ] ] } },
{ "type": "Feature", "properties": { "cls": "shared", "highway": "pedestrian", "name": "Paseo Metropolitano - Tramo Jardín Japonés / Pirámide" }, "geometry": { "type": "LineString", "coordinates": [ [ -70.606074, -33.407954 ], [ -70.606208, -33.408029 ], [ -70.606276, -33.408094 ], [ -70.606271, -33.408207 ], [ -70.606245, -33.408283 ], [ -70.606291, -33.408348 ], [ -70.606397, -33.408423 ], [ -70.606516, -33.408431 ], [ -70.606597, -33.408444 ] ] } },
{ "type": "Feature", "properties": { "cls": "shared", "highway": "pedestrian", "name": "Paseo Metropolitano - Tramo Jardín Japonés / Pirámide" }, "geometry": { "type": "LineString", "coordinates": [ [ -70.605192, -33.406238 ], [ -70.605287, -33.406556 ], [ -70.60534, -33.406673 ], [ -70.605656, -33.407374 ], [ -70.605683, -33.407427 ], [ -70.605714, -33.407465 ], [ -70.605882, -33.407834 ], [ -70.605942, -33.407894 ], [ -70.606074, -33.407954 ] ] } },
{ "type": "Feature", "properties": { "cls": "separated", "highway": "cycleway", "name": "Sendero Ciclista Torre 5" }, "geometry": { "type": "LineString", "coordinates": [ [ -70.606768, -33.403431 ], [ -70.60666, -33.403522 ], [ -70.606591, -33.4036 ], [ -70.606551, -33.403645 ], [ -70.606546, -33.403696 ], [ -70.606541, -33.403813 ], [ -70.606533, -33.403962 ], [ -70.606563, -33.404076 ], [ -70.606619, -33.404179 ], [ -70.606752, -33.404361 ], [ -70.606783, -33.404477 ], [ -70.606808, -33.40461 ], [ -70.606832, -33.404767 ], [ -70.606881, -33.404854 ], [ -70.606993, -33.40496 ], [ -70.607076, -33.405055 ], [ -70.607149, -33.405186 ], [ -70.607202, -33.405328 ], [ -70.607204, -33.405429 ], [ -70.60721, -33.405502 ], [ -70.607211, -33.405652 ], [ -70.607235, -33.405799 ], [ -70.607286, -33.40592 ], [ -70.607286, -33.406056 ], [ -70.607289, -33.406166 ], [ -70.607404, -33.406247 ], [ -70.607475, -33.406295 ], [ -70.607569, -33.406408 ], [ -70.607677, -33.406529 ], [ -70.607748, -33.406617 ], [ -70.607803, -33.406688 ], [ -70.607877, -33.406799 ], [ -70.607962, -33.40691 ], [ -70.608053, -33.407022 ], [ -70.608165, -33.407184 ], [ -70.608191, -33.407341 ], [ -70.608183, -33.40754 ], [ -70.608073, -33.407625 ], [ -70.607945, -33.407727 ], [ -70.607851, -33.407819 ], [ -70.607681, -33.407888 ], [ -70.607664, -33.407894 ], [ -70.607532, -33.407933 ], [ -70.607477, -33.407932 ], [ -70.607331, -33.407958 ], [ -70.607224, -33.40799 ], [ -70.607106, -33.407987 ], [ -70.606939, -33.408048 ] ] } },
{ "type": "Feature", "properties": { "cls": "shared", "highway": "pedestrian", "name": "Paseo Metropolitano - Tramo Jardín Japonés / Pirámide" }, "geometry": { "type": "LineString", "coordinates": [ [ -70.604748, -33.404299 ], [ -70.604726, -33.404297 ], [ -70.604721, -33.404313 ], [ -70.60473, -33.404345 ], [ -70.604756, -33.404386 ], [ -70.604784, -33.404443 ], [ -70.604808, -33.404492 ], [ -70.604837, -33.404558 ], [ -70.604862, -33.40463 ], [ -70.604903, -33.404741 ], [ -70.604937, -33.404827 ], [ -70.604954, -33.404915 ], [ -70.604972, -33.405014 ], [ -70.604987, -33.405149 ], [ -70.605052, -33.405622 ], [ -70.605192, -33.406238 ] ] } },
{ "type": "Feature", "properties": { "cls": "separated", "highway": "cycleway", "name": "Sendero Ciclista Torre 5" }, "geometry": { "type": "LineString", "coordinates": [ [ -70.608129, -33.403368 ], [ -70.607953, -33.40338 ] ] } },
{ "type": "Feature", "properties": { "cls": "separated", "highway": "cycleway", "name": "Sendero Ciclista Anfiteatro" }, "geometry": { "type": "LineString", "coordinates": [ [ -70.609516, -33.405519 ], [ -70.609508, -33.405502 ], [ -70.609476, -33.405463 ], [ -70.60941, -33.405408 ], [ -70.609294, -33.405284 ], [ -70.609239, -33.405203 ] ] } },
{ "type": "Feature", "properties": { "cls": "separated", "highway": "cycleway", "name": "Sendero Ciclista Anfiteatro" }, "geometry": { "type": "LineString", "coordinates": [ [ -70.609239, -33.405203 ], [ -70.609395, -33.405252 ], [ -70.609499, -33.405276 ], [ -70.609552, -33.405291 ], [ -70.609572, -33.40535 ], [ -70.609595, -33.405402 ], [ -70.609631, -33.405429 ], [ -70.609687, -33.405451 ], [ -70.609745, -33.405453 ], [ -70.609785, -33.405415 ], [ -70.60979, -33.405371 ], [ -70.609823, -33.405339 ] ] } },
{ "type": "Feature", "properties": { "cls": "separated", "highway": "cycleway", "name": "Sendero Ciclista Anfiteatro" }, "geometry": { "type": "LineString", "coordinates": [ [ -70.610335, -33.404146 ], [ -70.610376, -33.404053 ], [ -70.610423, -33.404014 ], [ -70.610529, -33.404013 ], [ -70.610728, -33.403765 ], [ -70.610873, -33.403608 ] ] } },
{ "type": "Feature", "properties": { "cls": "painted", "highway": "unclassified", "name": "Avenida Claudio Gay" }, "geometry": { "type": "LineString", "coordinates": [ [ -70.61112, -33.407623 ], [ -70.610969, -33.407587 ], [ -70.610453, -33.407483 ], [ -70.610205, -33.40746 ], [ -70.610049, -33.407442 ], [ -70.609945, -33.407408 ], [ -70.609861, -33.407348 ], [ -70.609834, -33.407322 ], [ -70.609734, -33.407165 ], [ -70.609514, -33.406841 ], [ -70.609249, -33.40652 ], [ -70.608964, -33.406288 ], [ -70.608853, -33.406216 ], [ -70.608786, -33.406136 ], [ -70.608746, -33.406059 ], [ -70.608714, -33.405933 ], [ -70.608703, -33.405817 ], [ -70.608665, -33.405617 ], [ -70.608571, -33.405326 ], [ -70.608542, -33.405255 ], [ -70.608493, -33.405175 ], [ -70.608415, -33.405074 ], [ -70.608321, -33.404985 ], [ -70.607925, -33.404688 ], [ -70.607762, -33.404556 ], [ -70.607685, -33.404463 ], [ -70.607628, -33.404362 ], [ -70.607595, -33.404289 ], [ -70.607578, -33.40422 ], [ -70.607589, -33.404099 ], [ -70.607619, -33.404013 ], [ -70.607672, -33.40392 ], [ -70.60773, -33.403836 ], [ -70.607794, -33.403768 ], [ -70.607916, -33.403652 ], [ -70.60804, -33.403524 ], [ -70.608115, -33.403434 ], [ -70.608139, -33.403368 ], [ -70.608156, -33.403318 ], [ -70.608124, -33.403069 ], [ -70.608097, -33.402922 ], [ -70.608105, -33.402821 ], [ -70.608158, -33.402651 ], [ -70.608258, -33.402449 ], [ -70.608389, -33.402158 ], [ -70.608365, -33.402008 ], [ -70.608229, -33.401666 ], [ -70.607971, -33.401014 ], [ -70.60793, -33.400875 ], [ -70.607933, -33.400752 ], [ -70.607979, -33.400512 ], [ -70.608105, -33.400221 ], [ -70.60829, -33.399965 ], [ -70.608323, -33.399902 ], [ -70.608389, -33.399794 ], [ -70.608467, -33.399664 ], [ -70.608478, -33.399615 ], [ -70.608468, -33.39955 ], [ -70.608406, -33.399379 ] ] } },
{ "type": "Feature", "properties": { "cls": "painted", "highway": "unclassified", "name": "Avenida Federico Albert" }, "geometry": { "type": "LineString", "coordinates": [ [ -70.608406, -33.399379 ], [ -70.608506, -33.399428 ], [ -70.608588, -33.399469 ], [ -70.608654, -33.399503 ], [ -70.608725, -33.399535 ], [ -70.60881, -33.399573 ], [ -70.608981, -33.399638 ], [ -70.609321, -33.399736 ], [ -70.609568, -33.399783 ], [ -70.609661, -33.399792 ], [ -70.609828, -33.399774 ], [ -70.610064, -33.399734 ], [ -70.610217, -33.399738 ], [ -70.610301, -33.399764 ], [ -70.610401, -33.399813 ], [ -70.610483, -33.399875 ], [ -70.61057, -33.399963 ], [ -70.610578, -33.400033 ], [ -70.610566, -33.400106 ], [ -70.610531, -33.400235 ], [ -70.610462, -33.400486 ], [ -70.610428, -33.400648 ], [ -70.610422, -33.400788 ], [ -70.610431, -33.400905 ], [ -70.610475, -33.40108 ], [ -70.610635, -33.401502 ], [ -70.610705, -33.401593 ], [ -70.610879, -33.40176 ], [ -70.611049, -33.401928 ], [ -70.611198, -33.402042 ], [ -70.611288, -33.402103 ], [ -70.61137, -33.40217 ], [ -70.611511, -33.40232 ], [ -70.6116, -33.402445 ], [ -70.611755, -33.402775 ], [ -70.611798, -33.402891 ], [ -70.611818, -33.402952 ], [ -70.61182, -33.403013 ], [ -70.611743, -33.403293 ], [ -70.611735, -33.403336 ], [ -70.611735, -33.403396 ], [ -70.61173, -33.403551 ], [ -70.61173, -33.403625 ], [ -70.611707, -33.403715 ], [ -70.611633, -33.403869 ], [ -70.611513, -33.404028 ], [ -70.611303, -33.404215 ], [ -70.611246, -33.404271 ], [ -70.611206, -33.404343 ], [ -70.61119, -33.404401 ], [ -70.611194, -33.404442 ], [ -70.6112, -33.404499 ], [ -70.611218, -33.404603 ], [ -70.611235, -33.404671 ], [ -70.61125, -33.404738 ], [ -70.611274, -33.404804 ], [ -70.611296, -33.404845 ], [ -70.611359, -33.404905 ], [ -70.611462, -33.40495 ], [ -70.611563, -33.404981 ], [ -70.611663, -33.405013 ], [ -70.611745, -33.405049 ], [ -70.61183, -33.405108 ], [ -70.611905, -33.405171 ], [ -70.611987, -33.405259 ], [ -70.612078, -33.40538 ], [ -70.612122, -33.405448 ], [ -70.612164, -33.405545 ], [ -70.61219, -33.40563 ], [ -70.612196, -33.40573 ], [ -70.612176, -33.405857 ], [ -70.612144, -33.405945 ], [ -70.612063, -33.406053 ], [ -70.611985, -33.406135 ], [ -70.611886, -33.406239 ], [ -70.611833, -33.406303 ], [ -70.61179, -33.406377 ], [ -70.611764, -33.406458 ], [ -70.611747, -33.406556 ], [ -70.61174, -33.406699 ], [ -70.611728, -33.406867 ], [ -70.6117, -33.406952 ], [ -70.611639, -33.407024 ], [ -70.611542, -33.407119 ], [ -70.611386, -33.407277 ], [ -70.611314, -33.407359 ], [ -70.611241, -33.407469 ], [ -70.611238, -33.407513 ] ] } },
{ "type": "Feature", "properties": { "cls": "separated", "highway": "cycleway", "name": "Sendero Ciclista La S" }, "geometry": { "type": "LineString", "coordinates": [ [ -70.610195, -33.403311 ], [ -70.61025, -33.40329 ], [ -70.610286, -33.403271 ], [ -70.610298, -33.403238 ], [ -70.610296, -33.403206 ], [ -70.61029, -33.403177 ], [ -70.61029, -33.403156 ], [ -70.610298, -33.403149 ], [ -70.610319, -33.403148 ], [ -70.610338, -33.403155 ], [ -70.610361, -33.403162 ], [ -70.610382, -33.403162 ], [ -70.61039, -33.403162 ], [ -70.610394, -33.40316 ], [ -70.610401, -33.403153 ], [ -70.610409, -33.403141 ], [ -70.610415, -33.40313 ], [ -70.610422, -33.403112 ], [ -70.610429, -33.403106 ], [ -70.61045, -33.403096 ], [ -70.610475, -33.403092 ], [ -70.610492, -33.403092 ], [ -70.610511, -33.403099 ], [ -70.610557, -33.403121 ], [ -70.610597, -33.403143 ], [ -70.610618, -33.40316 ], [ -70.610657, -33.403199 ], [ -70.61069, -33.403242 ], [ -70.610722, -33.403293 ], [ -70.610736, -33.403316 ], [ -70.610747, -33.403328 ], [ -70.610762, -33.403335 ], [ -70.610779, -33.403338 ], [ -70.610799, -33.403329 ], [ -70.610815, -33.40331 ], [ -70.610834, -33.403291 ], [ -70.610842, -33.403285 ], [ -70.610854, -33.403281 ], [ -70.610864, -33.40328 ], [ -70.610878, -33.403288 ], [ -70.610882, -33.403299 ], [ -70.610883, -33.403314 ], [ -70.610887, -33.403345 ], [ -70.610893, -33.403382 ], [ -70.610898, -33.403411 ], [ -70.610904, -33.403422 ], [ -70.610917, -33.403428 ], [ -70.61093, -33.403427 ], [ -70.610945, -33.403425 ], [ -70.610958, -33.403424 ], [ -70.611013, -33.403416 ], [ -70.611032, -33.403409 ], [ -70.611053, -33.403392 ], [ -70.611065, -33.403377 ], [ -70.611113, -33.403282 ], [ -70.611145, -33.403226 ], [ -70.611156, -33.403165 ], [ -70.611142, -33.4031 ], [ -70.611123, -33.403039 ], [ -70.611085, -33.402991 ], [ -70.611053, -33.402947 ], [ -70.611043, -33.402909 ], [ -70.611029, -33.40283 ], [ -70.611034, -33.402791 ], [ -70.611014, -33.40272 ], [ -70.610966, -33.402644 ], [ -70.610916, -33.402588 ], [ -70.610795, -33.402458 ], [ -70.610663, -33.40233 ], [ -70.610586, -33.402183 ], [ -70.610514, -33.40211 ], [ -70.610422, -33.40201 ], [ -70.61039, -33.401967 ], [ -70.610305, -33.401901 ], [ -70.610241, -33.401852 ], [ -70.610223, -33.401814 ], [ -70.610234, -33.401741 ], [ -70.610232, -33.401627 ], [ -70.610188, -33.401502 ], [ -70.61016, -33.401413 ], [ -70.61013, -33.401334 ], [ -70.610127, -33.401267 ], [ -70.61015, -33.401202 ], [ -70.61018, -33.4011 ], [ -70.610228, -33.400985 ], [ -70.610256, -33.400891 ], [ -70.610268, -33.400798 ], [ -70.610315, -33.400729 ] ] } },
{ "type": "Feature", "properties": { "cls": "separated", "highway": "cycleway", "name": "Sendero Ciclista Anfiteatro" }, "geometry": { "type": "LineString", "coordinates": [ [ -70.610873, -33.403608 ], [ -70.611009, -33.40358 ], [ -70.611075, -33.40353 ], [ -70.611135, -33.403356 ], [ -70.611186, -33.403282 ], [ -70.611214, -33.403135 ], [ -70.611247, -33.403029 ], [ -70.611304, -33.402892 ], [ -70.611226, -33.402771 ], [ -70.611175, -33.402615 ], [ -70.611105, -33.402529 ], [ -70.610754, -33.402254 ], [ -70.610711, -33.40207 ], [ -70.610622, -33.401983 ], [ -70.61052, -33.401851 ], [ -70.610497, -33.40175 ], [ -70.610411, -33.401637 ], [ -70.610367, -33.401484 ], [ -70.61037, -33.401378 ], [ -70.610325, -33.401258 ], [ -70.610372, -33.40103 ], [ -70.610329, -33.400867 ], [ -70.610315, -33.400729 ], [ -70.610346, -33.400559 ], [ -70.610369, -33.400394 ], [ -70.610399, -33.400242 ], [ -70.610373, -33.400024 ], [ -70.610326, -33.399933 ], [ -70.610269, -33.39989 ], [ -70.610174, -33.399878 ], [ -70.610099, -33.399905 ], [ -70.61, -33.399957 ], [ -70.609761, -33.399997 ], [ -70.609638, -33.400009 ], [ -70.609409, -33.399993 ], [ -70.609284, -33.399993 ] ] } },
{ "type": "Feature", "properties": { "cls": "shared", "highway": "pedestrian", "name": "Paseo Metropolitano - Tramo Jardín Japonés / Pirámide" }, "geometry": { "type": "LineString", "coordinates": [ [ -70.601834, -33.391014 ], [ -70.601835, -33.391015 ] ] } },
{ "type": "Feature", "properties": { "cls": "shared", "highway": "pedestrian", "name": "Paseo Metropolitano - Tramo Jardín Japonés / Pirámide" }, "geometry": { "type": "LineString", "coordinates": [ [ -70.601833, -33.391014 ], [ -70.601834, -33.391014 ] ] } },
{ "type": "Feature", "properties": { "cls": "shared", "highway": "pedestrian", "name": "Paseo Metropolitano - Tramo Jardín Japonés / Pirámide" }, "geometry": { "type": "LineString", "coordinates": [ [ -70.601624, -33.389896 ], [ -70.601633, -33.389946 ], [ -70.601675, -33.390129 ], [ -70.601669, -33.390231 ], [ -70.601516, -33.390418 ], [ -70.601477, -33.390517 ], [ -70.601468, -33.390597 ], [ -70.601453, -33.390665 ], [ -70.601472, -33.390771 ], [ -70.601574, -33.390875 ], [ -70.60171, -33.390942 ], [ -70.601833, -33.391014 ] ] } },
{ "type": "Feature", "properties": { "cls": "painted", "highway": "residential", "name": "Avenida Abate Molina" }, "geometry": { "type": "LineString", "coordinates": [ [ -70.617448, -33.415396 ], [ -70.617435, -33.415349 ], [ -70.617465, -33.415274 ], [ -70.617476, -33.415247 ], [ -70.617527, -33.415219 ] ] } },
{ "type": "Feature", "properties": { "cls": "painted", "highway": "residential", "name": "Avenida Abate Molina" }, "geometry": { "type": "LineString", "coordinates": [ [ -70.617527, -33.415219 ], [ -70.617546, -33.415267 ], [ -70.617535, -33.415292 ], [ -70.617504, -33.415371 ], [ -70.617448, -33.415396 ] ] } },
{ "type": "Feature", "properties": { "cls": "painted", "highway": "residential", "name": "Avenida Carlos Martner" }, "geometry": { "type": "LineString", "coordinates": [ [ -70.622581, -33.415885 ], [ -70.6225, -33.415864 ], [ -70.622289, -33.415818 ], [ -70.62207, -33.415781 ], [ -70.622018, -33.415765 ], [ -70.621968, -33.415744 ], [ -70.621799, -33.415664 ], [ -70.621642, -33.415589 ], [ -70.621416, -33.415473 ], [ -70.621316, -33.415426 ], [ -70.621248, -33.415396 ], [ -70.621167, -33.41537 ], [ -70.621015, -33.415329 ], [ -70.620949, -33.415295 ], [ -70.62091, -33.41526 ], [ -70.620892, -33.415208 ], [ -70.620841, -33.414829 ], [ -70.620804, -33.41464 ], [ -70.620807, -33.414598 ], [ -70.620818, -33.414558 ], [ -70.620923, -33.414384 ], [ -70.62099, -33.414303 ], [ -70.621108, -33.414257 ], [ -70.621247, -33.414228 ], [ -70.621386, -33.414179 ], [ -70.62143, -33.414147 ], [ -70.621445, -33.41409 ], [ -70.621435, -33.414015 ], [ -70.621431, -33.413985 ], [ -70.621413, -33.413941 ], [ -70.621377, -33.413903 ], [ -70.621331, -33.413869 ] ] } },
{ "type": "Feature", "properties": { "cls": "painted", "highway": "residential", "name": "Avenida Carlos Martner" }, "geometry": { "type": "LineString", "coordinates": [ [ -70.621331, -33.413869 ], [ -70.621285, -33.413846 ], [ -70.621199, -33.41382 ], [ -70.621126, -33.41381 ] ] } },
{ "type": "Feature", "properties": { "cls": "painted", "highway": "residential", "name": "Avenida Abate Molina" }, "geometry": { "type": "LineString", "coordinates": [ [ -70.621126, -33.41381 ], [ -70.62076, -33.413798 ] ] } },
{ "type": "Feature", "properties": { "cls": "painted", "highway": "residential", "name": "Avenida Abate Molina" }, "geometry": { "type": "LineString", "coordinates": [ [ -70.62076, -33.413798 ], [ -70.620719, -33.413796 ], [ -70.620542, -33.413768 ], [ -70.620431, -33.413753 ], [ -70.620302, -33.413719 ], [ -70.619892, -33.413596 ], [ -70.619663, -33.413532 ], [ -70.619539, -33.413514 ], [ -70.619346, -33.413522 ], [ -70.619251, -33.413506 ], [ -70.619119, -33.413477 ], [ -70.619012, -33.413451 ], [ -70.618894, -33.413427 ], [ -70.61849, -33.413396 ], [ -70.618307, -33.413412 ], [ -70.618138, -33.413438 ], [ -70.618046, -33.413435 ], [ -70.617957, -33.4134 ], [ -70.617907, -33.413364 ], [ -70.617849, -33.413316 ], [ -70.61778, -33.413243 ], [ -70.617702, -33.413119 ], [ -70.61764, -33.413022 ], [ -70.617609, -33.412992 ], [ -70.617556, -33.412941 ], [ -70.617499, -33.412895 ], [ -70.617398, -33.412827 ], [ -70.61734, -33.412792 ], [ -70.617283, -33.41276 ], [ -70.617179, -33.412735 ], [ -70.617074, -33.41273 ], [ -70.616958, -33.412734 ], [ -70.616906, -33.412748 ], [ -70.61682, -33.412778 ], [ -70.616734, -33.412813 ], [ -70.616627, -33.412884 ], [ -70.616512, -33.412926 ], [ -70.616332, -33.412957 ], [ -70.615996, -33.412986 ], [ -70.61583, -33.413019 ], [ -70.61574, -33.413033 ], [ -70.615624, -33.413102 ] ] } },
{ "type": "Feature", "properties": { "cls": "painted", "highway": "residential", "name": "Avenida Carlos Martner" }, "geometry": { "type": "LineString", "coordinates": [ [ -70.62076, -33.413798 ], [ -70.620808, -33.413728 ], [ -70.620801, -33.413681 ], [ -70.620767, -33.413632 ], [ -70.620537, -33.413402 ], [ -70.620252, -33.413155 ], [ -70.620086, -33.413015 ], [ -70.620044, -33.412989 ], [ -70.619972, -33.412951 ], [ -70.619881, -33.412909 ], [ -70.619788, -33.412891 ], [ -70.619418, -33.41285 ], [ -70.618971, -33.412819 ], [ -70.618853, -33.412801 ], [ -70.618723, -33.412765 ], [ -70.61862, -33.412723 ], [ -70.618349, -33.41258 ], [ -70.618236, -33.412492 ], [ -70.618099, -33.412345 ], [ -70.617912, -33.412155 ], [ -70.617747, -33.411953 ], [ -70.617653, -33.411887 ], [ -70.61758, -33.411845 ] ] } },
{ "type": "Feature", "properties": { "cls": "painted", "highway": "residential", "name": "Avenida La Montaña" }, "geometry": { "type": "LineString", "coordinates": [ [ -70.617261, -33.405259 ], [ -70.61721, -33.405355 ], [ -70.617204, -33.405483 ], [ -70.617224, -33.405611 ], [ -70.617358, -33.405984 ], [ -70.617384, -33.406036 ], [ -70.618044, -33.407122 ], [ -70.618129, -33.407236 ], [ -70.618265, -33.407373 ], [ -70.618418, -33.407486 ], [ -70.618593, -33.407586 ], [ -70.618758, -33.407631 ], [ -70.618871, -33.40766 ], [ -70.619107, -33.407703 ], [ -70.619206, -33.407709 ], [ -70.619285, -33.407709 ], [ -70.619409, -33.407691 ], [ -70.619645, -33.407658 ], [ -70.619881, -33.407646 ], [ -70.620098, -33.40765 ], [ -70.620301, -33.40768 ], [ -70.620519, -33.40772 ], [ -70.62066, -33.407735 ], [ -70.620907, -33.407731 ], [ -70.621146, -33.407725 ], [ -70.621207, -33.407727 ], [ -70.62133, -33.407746 ], [ -70.62154, -33.407806 ], [ -70.621648, -33.407864 ], [ -70.621711, -33.407903 ], [ -70.621817, -33.407985 ], [ -70.621863, -33.408028 ], [ -70.621965, -33.408128 ], [ -70.622143, -33.408391 ], [ -70.62282, -33.409475 ], [ -70.622874, -33.409602 ], [ -70.622899, -33.409688 ], [ -70.622911, -33.409752 ], [ -70.622919, -33.409824 ], [ -70.622924, -33.409952 ], [ -70.622905, -33.41014 ], [ -70.622846, -33.41046 ], [ -70.622841, -33.410662 ], [ -70.622922, -33.411309 ], [ -70.622944, -33.411435 ], [ -70.622956, -33.411562 ], [ -70.622957, -33.411621 ], [ -70.622955, -33.411666 ], [ -70.622943, -33.411712 ], [ -70.622907, -33.411764 ], [ -70.622885, -33.41178 ], [ -70.622855, -33.411794 ], [ -70.622814, -33.411794 ], [ -70.62278, -33.411778 ], [ -70.622759, -33.411763 ], [ -70.622732, -33.411733 ], [ -70.622682, -33.411649 ], [ -70.622652, -33.411585 ], [ -70.622602, -33.411452 ], [ -70.622546, -33.411291 ], [ -70.622446, -33.411024 ], [ -70.622414, -33.410866 ], [ -70.622382, -33.410674 ], [ -70.622336, -33.410346 ], [ -70.622303, -33.41016 ], [ -70.622275, -33.410014 ], [ -70.622254, -33.409959 ], [ -70.622177, -33.409808 ], [ -70.622104, -33.409699 ], [ -70.622059, -33.409644 ], [ -70.622005, -33.409587 ], [ -70.621965, -33.409549 ], [ -70.621904, -33.409496 ], [ -70.621826, -33.40944 ], [ -70.621664, -33.409356 ], [ -70.621276, -33.409177 ], [ -70.621202, -33.409151 ], [ -70.621136, -33.409151 ], [ -70.621087, -33.40917 ], [ -70.621054, -33.409204 ], [ -70.621042, -33.409242 ], [ -70.621042, -33.409281 ], [ -70.621056, -33.409322 ], [ -70.621082, -33.409365 ], [ -70.621127, -33.409411 ], [ -70.62118, -33.409455 ], [ -70.621344, -33.409598 ], [ -70.62141, -33.409669 ], [ -70.62148, -33.409755 ], [ -70.621551, -33.409856 ], [ -70.621595, -33.409931 ], [ -70.621623, -33.409987 ], [ -70.621658, -33.410063 ], [ -70.621706, -33.410183 ], [ -70.621741, -33.410311 ], [ -70.62175, -33.410416 ], [ -70.62173, -33.410748 ], [ -70.621708, -33.410897 ], [ -70.621673, -33.41109 ], [ -70.621622, -33.411256 ], [ -70.621571, -33.41147 ], [ -70.621526, -33.411745 ], [ -70.621516, -33.411815 ], [ -70.621492, -33.412098 ], [ -70.621493, -33.412577 ], [ -70.6215, -33.412782 ], [ -70.621498, -33.413086 ], [ -70.621497, -33.41318 ], [ -70.621536, -33.413339 ], [ -70.62169, -33.413655 ], [ -70.621703, -33.413706 ], [ -70.621728, -33.413804 ], [ -70.621715, -33.41383 ], [ -70.621692, -33.413844 ], [ -70.621481, -33.413857 ] ] } },
{ "type": "Feature", "properties": { "cls": "painted", "highway": "residential", "name": "Avenida La Montaña" }, "geometry": { "type": "LineString", "coordinates": [ [ -70.619676, -33.399899 ], [ -70.619624, -33.399902 ], [ -70.619453, -33.399958 ], [ -70.619089, -33.400085 ], [ -70.618705, -33.400317 ], [ -70.618453, -33.400494 ], [ -70.618227, -33.400649 ], [ -70.617841, -33.400976 ], [ -70.617581, -33.401268 ], [ -70.617533, -33.401349 ], [ -70.617471, -33.401469 ], [ -70.617435, -33.401613 ], [ -70.617424, -33.401713 ], [ -70.617414, -33.401825 ], [ -70.617423, -33.401997 ], [ -70.617444, -33.402119 ], [ -70.617483, -33.402277 ], [ -70.617537, -33.402377 ], [ -70.61761, -33.402503 ], [ -70.617732, -33.402709 ], [ -70.617773, -33.40279 ], [ -70.617801, -33.402886 ], [ -70.617816, -33.402978 ], [ -70.617811, -33.403156 ], [ -70.617779, -33.403335 ], [ -70.617783, -33.40343 ], [ -70.617813, -33.403547 ], [ -70.617885, -33.403641 ], [ -70.617966, -33.403703 ], [ -70.618016, -33.403732 ], [ -70.618098, -33.403764 ], [ -70.618182, -33.403775 ], [ -70.618425, -33.403772 ], [ -70.618516, -33.403778 ], [ -70.618633, -33.403822 ], [ -70.618719, -33.403895 ], [ -70.618768, -33.403978 ], [ -70.618852, -33.40453 ], [ -70.618842, -33.404703 ], [ -70.618792, -33.404836 ], [ -70.618678, -33.404968 ], [ -70.618576, -33.405039 ], [ -70.618383, -33.405108 ], [ -70.618114, -33.40509 ], [ -70.617785, -33.405014 ], [ -70.61772, -33.405006 ], [ -70.617628, -33.405011 ], [ -70.617539, -33.40503 ], [ -70.617435, -33.405075 ], [ -70.617311, -33.405182 ], [ -70.617261, -33.405259 ] ] } },
{ "type": "Feature", "properties": { "cls": "separated", "highway": "cycleway", "name": "Sendero Ciclista Torre 5" }, "geometry": { "type": "LineString", "coordinates": [ [ -70.607953, -33.40338 ], [ -70.6079, -33.40329 ], [ -70.607827, -33.403232 ], [ -70.607675, -33.403197 ], [ -70.607547, -33.403253 ], [ -70.607377, -33.403421 ], [ -70.607059, -33.403439 ], [ -70.606768, -33.403431 ] ] } },
{ "type": "Feature", "properties": { "cls": "shared", "highway": "pedestrian", "name": "Paseo Metropolitano - Tramo Jardín Japonés / Pirámide" }, "geometry": { "type": "LineString", "coordinates": [ [ -70.605903, -33.399727 ], [ -70.605947, -33.399861 ], [ -70.606003, -33.400392 ], [ -70.605932, -33.400792 ], [ -70.60591, -33.401147 ], [ -70.605823, -33.401379 ], [ -70.605678, -33.401691 ], [ -70.605582, -33.401769 ], [ -70.605485, -33.401847 ], [ -70.605319, -33.401836 ], [ -70.604976, -33.401801 ], [ -70.60482, -33.401923 ], [ -70.60477, -33.402017 ], [ -70.604723, -33.402226 ], [ -70.604689, -33.402482 ], [ -70.604594, -33.402798 ], [ -70.604528, -33.403057 ], [ -70.604509, -33.403305 ], [ -70.604531, -33.403602 ], [ -70.604665, -33.403963 ], [ -70.604732, -33.404066 ], [ -70.604869, -33.404233 ], [ -70.605135, -33.404771 ], [ -70.605213, -33.404908 ], [ -70.605184, -33.404914 ], [ -70.605164, -33.404917 ], [ -70.605035, -33.404746 ], [ -70.604839, -33.404471 ], [ -70.604772, -33.404329 ], [ -70.604748, -33.404299 ] ] } },
{ "type": "Feature", "properties": { "cls": "painted", "highway": "unclassified", "name": "Avenida Claudio Gay" }, "geometry": { "type": "LineString", "coordinates": [ [ -70.608478, -33.399615 ], [ -70.608654, -33.399503 ] ] } },
{ "type": "Feature", "properties": { "cls": "shared", "highway": "pedestrian", "name": "Paseo Metropolitano - Tramo Jardín Japonés / Pirámide" }, "geometry": { "type": "LineString", "coordinates": [ [ -70.601835, -33.391015 ], [ -70.602048, -33.391128 ], [ -70.602163, -33.391227 ], [ -70.602297, -33.391369 ], [ -70.602646, -33.392073 ], [ -70.602915, -33.392783 ], [ -70.603118, -33.393073 ], [ -70.603356, -33.393313 ], [ -70.603435, -33.393413 ], [ -70.603706, -33.393924 ], [ -70.603823, -33.394279 ], [ -70.603935, -33.39445 ], [ -70.604124, -33.394578 ], [ -70.604397, -33.394762 ], [ -70.604714, -33.395072 ], [ -70.604971, -33.395397 ], [ -70.605089, -33.395556 ], [ -70.605178, -33.395669 ], [ -70.605404, -33.395821 ], [ -70.605493, -33.395931 ], [ -70.605592, -33.396148 ], [ -70.605717, -33.396271 ], [ -70.605787, -33.396379 ], [ -70.60583, -33.396567 ], [ -70.605842, -33.396649 ], [ -70.605875, -33.396721 ], [ -70.606007, -33.396808 ], [ -70.606136, -33.396909 ], [ -70.606199, -33.397005 ], [ -70.606199, -33.397102 ], [ -70.606142, -33.397198 ], [ -70.606093, -33.397282 ], [ -70.606037, -33.397399 ], [ -70.606016, -33.397496 ], [ -70.605944, -33.397576 ], [ -70.605832, -33.397621 ], [ -70.605709, -33.397661 ], [ -70.605558, -33.39771 ], [ -70.605451, -33.397774 ], [ -70.60536, -33.397857 ], [ -70.605219, -33.397942 ], [ -70.605143, -33.398027 ], [ -70.605102, -33.398096 ], [ -70.605086, -33.39819 ], [ -70.605086, -33.398341 ], [ -70.605131, -33.398527 ], [ -70.605214, -33.398712 ], [ -70.605342, -33.398845 ], [ -70.605547, -33.398971 ], [ -70.605628, -33.399037 ], [ -70.605701, -33.399208 ], [ -70.605749, -33.399388 ], [ -70.605823, -33.399602 ], [ -70.605903, -33.399727 ] ] } },
{ "type": "Feature", "properties": { "cls": "painted", "highway": "unclassified", "name": "Avenida Manuel Zañartu" }, "geometry": { "type": "LineString", "coordinates": [ [ -70.608406, -33.399379 ], [ -70.608279, -33.399251 ], [ -70.608065, -33.399061 ], [ -70.607918, -33.398919 ], [ -70.607584, -33.398798 ], [ -70.607348, -33.398675 ], [ -70.607267, -33.398556 ], [ -70.607227, -33.398406 ], [ -70.60724, -33.398213 ], [ -70.607315, -33.3979 ], [ -70.607393, -33.397541 ], [ -70.607471, -33.397284 ], [ -70.607514, -33.39712 ], [ -70.607527, -33.39702 ], [ -70.607519, -33.396901 ], [ -70.607471, -33.396798 ], [ -70.607404, -33.39667 ], [ -70.607377, -33.396523 ], [ -70.607364, -33.396377 ], [ -70.607372, -33.396175 ], [ -70.607383, -33.396014 ], [ -70.607377, -33.395905 ], [ -70.607375, -33.39579 ], [ -70.607342, -33.395689 ], [ -70.607305, -33.395591 ], [ -70.607267, -33.395522 ], [ -70.607133, -33.395434 ], [ -70.607045, -33.395369 ], [ -70.60687, -33.395226 ], [ -70.606666, -33.3951 ], [ -70.60643, -33.394944 ], [ -70.606165, -33.394769 ], [ -70.605966, -33.394644 ], [ -70.605781, -33.394543 ], [ -70.605572, -33.394407 ], [ -70.605422, -33.394317 ], [ -70.60529, -33.394223 ], [ -70.605052, -33.394015 ], [ -70.604888, -33.393883 ], [ -70.604749, -33.393782 ], [ -70.604612, -33.393686 ], [ -70.604502, -33.393589 ], [ -70.604368, -33.393477 ], [ -70.604105, -33.393124 ], [ -70.603998, -33.392953 ], [ -70.603853, -33.392781 ], [ -70.603719, -33.392622 ], [ -70.603536, -33.392387 ], [ -70.603397, -33.392208 ], [ -70.603276, -33.392067 ], [ -70.603182, -33.391919 ], [ -70.603113, -33.391789 ], [ -70.60301, -33.391529 ], [ -70.602941, -33.391366 ], [ -70.602874, -33.391263 ], [ -70.602785, -33.391182 ], [ -70.602699, -33.391104 ], [ -70.602587, -33.391016 ], [ -70.60245, -33.390931 ], [ -70.602297, -33.390862 ], [ -70.602147, -33.390806 ], [ -70.601935, -33.390714 ], [ -70.601855, -33.390647 ], [ -70.601825, -33.390548 ], [ -70.601833, -33.390461 ], [ -70.601884, -33.39038 ], [ -70.601895, -33.390304 ], [ -70.60186, -33.390215 ], [ -70.601777, -33.390076 ], [ -70.601728, -33.389953 ], [ -70.601723, -33.389823 ], [ -70.601779, -33.389755 ], [ -70.601907, -33.389665 ] ] } },
{ "type": "Feature", "properties": { "cls": "separated", "highway": "cycleway", "name": "Sendero Ciclista Pirámide" }, "geometry": { "type": "LineString", "coordinates": [ [ -70.601981, -33.389488 ], [ -70.602045, -33.389576 ], [ -70.602074, -33.3896 ], [ -70.602154, -33.38962 ], [ -70.602193, -33.38966 ], [ -70.602231, -33.389712 ], [ -70.602237, -33.389797 ], [ -70.602203, -33.389857 ], [ -70.602208, -33.389958 ], [ -70.602232, -33.390046 ], [ -70.602239, -33.390121 ], [ -70.602214, -33.390206 ], [ -70.602196, -33.390289 ], [ -70.602221, -33.390348 ], [ -70.602264, -33.390404 ], [ -70.602323, -33.390435 ], [ -70.602403, -33.390435 ], [ -70.602443, -33.390461 ], [ -70.602478, -33.390492 ], [ -70.602509, -33.390539 ], [ -70.602586, -33.390565 ], [ -70.602631, -33.390592 ], [ -70.602666, -33.390632 ], [ -70.602704, -33.390666 ], [ -70.602747, -33.390703 ], [ -70.602787, -33.390757 ], [ -70.602816, -33.390815 ], [ -70.602851, -33.390837 ], [ -70.602877, -33.390875 ], [ -70.602908, -33.390901 ], [ -70.602946, -33.390943 ], [ -70.602985, -33.390981 ], [ -70.603015, -33.391012 ], [ -70.603042, -33.391039 ], [ -70.603084, -33.391082 ], [ -70.603121, -33.391122 ], [ -70.603154, -33.391161 ], [ -70.603201, -33.391216 ], [ -70.603255, -33.391286 ], [ -70.603301, -33.391342 ], [ -70.60334, -33.391402 ], [ -70.603352, -33.391411 ], [ -70.603367, -33.391422 ], [ -70.603392, -33.391436 ], [ -70.603405, -33.391466 ], [ -70.603431, -33.391486 ], [ -70.603475, -33.391524 ], [ -70.603502, -33.391588 ], [ -70.603545, -33.391663 ], [ -70.603564, -33.391697 ], [ -70.603599, -33.391736 ], [ -70.603644, -33.391792 ], [ -70.603702, -33.391871 ], [ -70.603779, -33.391969 ], [ -70.603854, -33.392033 ], [ -70.603894, -33.392072 ], [ -70.603949, -33.392122 ], [ -70.603995, -33.39218 ], [ -70.604047, -33.39223 ], [ -70.604148, -33.392295 ], [ -70.604223, -33.392384 ], [ -70.604301, -33.392493 ], [ -70.604368, -33.392585 ], [ -70.604429, -33.392654 ], [ -70.604549, -33.392775 ], [ -70.604603, -33.392875 ], [ -70.60469, -33.392972 ], [ -70.60475, -33.393046 ], [ -70.604817, -33.393094 ], [ -70.604877, -33.393145 ], [ -70.604921, -33.393198 ], [ -70.605007, -33.393251 ], [ -70.605093, -33.393299 ], [ -70.605165, -33.393342 ], [ -70.605278, -33.393455 ], [ -70.605327, -33.393518 ], [ -70.605411, -33.3936 ], [ -70.605578, -33.393715 ], [ -70.605702, -33.393828 ], [ -70.605759, -33.3939 ], [ -70.605843, -33.39399 ], [ -70.605935, -33.394081 ], [ -70.60603, -33.39417 ], [ -70.606128, -33.394255 ], [ -70.606197, -33.394326 ], [ -70.606284, -33.394423 ], [ -70.606356, -33.394507 ], [ -70.606397, -33.394563 ], [ -70.606569, -33.394687 ], [ -70.606688, -33.394748 ], [ -70.60677, -33.394809 ], [ -70.606824, -33.394899 ], [ -70.606898, -33.394979 ], [ -70.607053, -33.395068 ], [ -70.607092, -33.395146 ], [ -70.607131, -33.395266 ], [ -70.607045, -33.395369 ] ] } },
{ "type": "Feature", "properties": { "cls": "painted", "highway": "residential", "name": "Avenida Manuel Zañartu" }, "geometry": { "type": "LineString", "coordinates": [ [ -70.601907, -33.389665 ], [ -70.60196, -33.389585 ], [ -70.601981, -33.389488 ] ] } },
{ "type": "Feature", "properties": { "cls": "painted", "highway": "residential", "name": "Avenida Manuel Zañartu" }, "geometry": { "type": "LineString", "coordinates": [ [ -70.601981, -33.389479 ], [ -70.601981, -33.389488 ] ] } },
{ "type": "Feature", "properties": { "cls": "painted", "highway": "residential", "name": "Avenida Manuel Zañartu" }, "geometry": { "type": "LineString", "coordinates": [ [ -70.601864, -33.388405 ], [ -70.601904, -33.388512 ], [ -70.601929, -33.388598 ], [ -70.601952, -33.388704 ], [ -70.601964, -33.388773 ], [ -70.601981, -33.389479 ] ] } },
{ "type": "Feature", "properties": { "cls": "painted", "highway": "residential", "name": "Avenida Manuel Zañartu" }, "geometry": { "type": "LineString", "coordinates": [ [ -70.601349, -33.387379 ], [ -70.60167, -33.388019 ], [ -70.601754, -33.388184 ] ] } },
{ "type": "Feature", "properties": { "cls": "painted", "highway": "residential", "name": "Avenida Manuel Zañartu" }, "geometry": { "type": "LineString", "coordinates": [ [ -70.601481, -33.386765 ], [ -70.601474, -33.386779 ], [ -70.601401, -33.386878 ], [ -70.601329, -33.386981 ], [ -70.601297, -33.387068 ], [ -70.601297, -33.3872 ], [ -70.601312, -33.387286 ], [ -70.601349, -33.387379 ] ] } }
]
}
