{
"type": "FeatureCollection",
"name": "055-halifax-blue-mountain-birch-cove-lakes-wilderness-area",
"crs": { "type": "name", "properties": { "name": "urn:ogc:def:crs:OGC:1.3:CRS84" } },
"xy_coordinate_resolution": 1e-06,
"features": [
{ "type": "Feature", "properties": { "cls": "separated", "highway": "cycleway", "name": "Whopper MTB Trails" }, "geometry": { "type": "LineString", "coordinates": [ [ -63.68891, 44.649938 ], [ -63.688921, 44.650025 ] ] } },
{ "type": "Feature", "properties": { "cls": "separated", "highway": "cycleway", "name": null }, "geometry": { "type": "LineString", "coordinates": [ [ -63.68731, 44.650297 ], [ -63.687348, 44.650373 ], [ -63.687464, 44.650405 ], [ -63.687582, 44.650432 ], [ -63.687668, 44.650538 ], [ -63.687642, 44.650639 ], [ -63.687689, 44.650743 ], [ -63.6877, 44.650814 ], [ -63.687686, 44.650871 ], [ -63.687515, 44.650888 ], [ -63.687429, 44.650888 ], [ -63.687302, 44.650867 ], [ -63.687255, 44.650863 ], [ -63.687202, 44.650885 ], [ -63.687176, 44.65087 ], [ -63.687113, 44.650871 ], [ -63.687046, 44.650898 ], [ -63.687024, 44.650887 ], [ -63.686976, 44.650871 ], [ -63.686921, 44.650873 ], [ -63.686887, 44.650881 ] ] } },
{ "type": "Feature", "properties": { "cls": "separated", "highway": "cycleway", "name": null }, "geometry": { "type": "LineString", "coordinates": [ [ -63.687686, 44.650871 ], [ -63.687715, 44.650944 ], [ -63.687732, 44.651043 ], [ -63.687741, 44.651092 ], [ -63.687779, 44.651144 ], [ -63.687817, 44.651178 ], [ -63.687859, 44.651231 ], [ -63.687876, 44.651272 ], [ -63.687947, 44.651312 ], [ -63.688017, 44.651368 ], [ -63.688145, 44.651512 ], [ -63.688174, 44.65156 ] ] } },
{ "type": "Feature", "properties": { "cls": "separated", "highway": "cycleway", "name": "Whopper MTB Trails" }, "geometry": { "type": "MultiLineString", "coordinates": [ [ [ -63.685632, 44.651839 ], [ -63.685675, 44.651832 ], [ -63.685715, 44.651851 ], [ -63.685821, 44.651887 ], [ -63.685923, 44.651903 ], [ -63.685966, 44.65188 ], [ -63.685984, 44.651826 ], [ -63.686026, 44.651753 ], [ -63.685992, 44.651656 ], [ -63.685932, 44.65159 ], [ -63.685863, 44.651547 ], [ -63.685874, 44.651522 ] ], [ [ -63.686419, 44.651429 ], [ -63.686449, 44.651479 ], [ -63.686501, 44.65147 ], [ -63.686541, 44.651438 ], [ -63.686607, 44.651339 ], [ -63.686762, 44.651122 ], [ -63.686835, 44.651017 ], [ -63.68684, 44.650954 ] ], [ [ -63.68725, 44.650318 ], [ -63.68731, 44.650297 ], [ -63.687449, 44.650237 ], [ -63.687587, 44.650162 ], [ -63.687615, 44.65005 ], [ -63.687669, 44.649997 ], [ -63.687733, 44.649984 ], [ -63.687824, 44.650021 ], [ -63.68792, 44.650002 ], [ -63.687986, 44.649924 ], [ -63.688053, 44.649854 ], [ -63.688206, 44.649909 ], [ -63.688222, 44.649959 ], [ -63.688308, 44.650007 ], [ -63.688342, 44.650072 ], [ -63.688459, 44.650118 ], [ -63.688595, 44.650165 ], [ -63.68869, 44.650149 ], [ -63.688649, 44.650067 ], [ -63.688766, 44.650019 ], [ -63.688921, 44.650025 ], [ -63.689078, 44.650214 ], [ -63.68934, 44.650496 ], [ -63.689603, 44.650736 ] ], [ [ -63.690086, 44.651292 ], [ -63.690093, 44.651302 ], [ -63.690072, 44.651532 ], [ -63.690009, 44.651564 ], [ -63.689764, 44.651887 ], [ -63.690202, 44.652084 ], [ -63.690347, 44.652186 ], [ -63.690466, 44.652198 ], [ -63.690748, 44.652341 ], [ -63.690773, 44.652442 ], [ -63.690609, 44.652702 ], [ -63.690682, 44.652814 ], [ -63.690774, 44.65281 ] ] ] } },
{ "type": "Feature", "properties": { "cls": "separated", "highway": "cycleway", "name": null }, "geometry": { "type": "LineString", "coordinates": [ [ -63.686501, 44.65147 ], [ -63.686602, 44.651571 ], [ -63.686613, 44.651604 ], [ -63.686627, 44.651705 ], [ -63.686644, 44.651731 ], [ -63.686673, 44.651743 ], [ -63.686695, 44.651743 ], [ -63.686719, 44.651746 ], [ -63.686829, 44.65183 ], [ -63.68688, 44.651863 ], [ -63.686913, 44.65187 ], [ -63.686933, 44.651887 ], [ -63.686976, 44.651904 ], [ -63.687007, 44.651918 ], [ -63.687051, 44.651929 ], [ -63.687106, 44.651926 ], [ -63.687177, 44.651914 ], [ -63.68721, 44.651904 ], [ -63.687288, 44.651896 ], [ -63.687324, 44.651902 ], [ -63.687455, 44.651966 ], [ -63.687515, 44.652006 ], [ -63.687522, 44.65203 ], [ -63.687517, 44.652059 ], [ -63.687514, 44.652079 ], [ -63.687532, 44.6521 ], [ -63.687576, 44.652127 ], [ -63.687611, 44.65217 ], [ -63.687664, 44.652203 ], [ -63.687744, 44.652243 ], [ -63.687795, 44.652256 ], [ -63.687856, 44.652309 ], [ -63.687905, 44.652342 ], [ -63.687933, 44.652355 ], [ -63.688054, 44.652485 ], [ -63.688086, 44.652503 ], [ -63.688146, 44.652527 ], [ -63.688179, 44.652534 ], [ -63.688216, 44.652534 ], [ -63.688241, 44.652541 ], [ -63.688297, 44.652573 ], [ -63.688343, 44.652621 ], [ -63.688377, 44.652664 ], [ -63.688406, 44.65269 ] ] } },
{ "type": "Feature", "properties": { "cls": "separated", "highway": "cycleway", "name": "Whopper MTB Trails" }, "geometry": { "type": "MultiLineString", "coordinates": [ [ [ -63.691159, 44.652527 ], [ -63.690956, 44.652737 ], [ -63.690774, 44.65281 ], [ -63.690696, 44.652842 ], [ -63.690658, 44.652908 ], [ -63.690499, 44.653048 ], [ -63.690453, 44.65315 ], [ -63.690492, 44.653216 ], [ -63.690643, 44.653312 ], [ -63.690727, 44.653401 ], [ -63.69075, 44.653471 ], [ -63.690739, 44.653542 ], [ -63.69082, 44.653712 ], [ -63.690897, 44.653758 ], [ -63.691077, 44.653823 ], [ -63.691209, 44.653932 ], [ -63.691261, 44.653993 ], [ -63.691293, 44.654097 ], [ -63.691321, 44.654125 ], [ -63.691368, 44.654135 ], [ -63.691669, 44.654104 ], [ -63.691871, 44.654108 ], [ -63.692165, 44.654162 ], [ -63.692373, 44.654262 ], [ -63.692669, 44.654298 ], [ -63.692727, 44.654357 ], [ -63.692764, 44.654534 ], [ -63.692711, 44.654745 ], [ -63.692764, 44.654955 ], [ -63.692924, 44.655139 ], [ -63.692997, 44.655174 ], [ -63.693012, 44.655191 ], [ -63.693048, 44.655232 ], [ -63.693093, 44.655257 ], [ -63.693131, 44.655295 ], [ -63.693142, 44.655359 ], [ -63.693116, 44.655408 ], [ -63.693099, 44.65544 ], [ -63.693089, 44.655493 ], [ -63.692977, 44.655544 ], [ -63.69285, 44.655601 ], [ -63.692818, 44.655669 ], [ -63.692912, 44.655751 ], [ -63.693003, 44.655794 ], [ -63.693348, 44.655839 ], [ -63.693442, 44.655866 ], [ -63.693566, 44.655928 ], [ -63.693616, 44.65599 ], [ -63.693659, 44.65613 ], [ -63.693766, 44.656293 ], [ -63.693836, 44.656465 ], [ -63.694001, 44.6566 ], [ -63.694189, 44.656813 ], [ -63.694439, 44.656991 ], [ -63.694785, 44.657301 ], [ -63.694914, 44.657353 ], [ -63.695266, 44.657325 ], [ -63.695379, 44.657395 ], [ -63.695436, 44.657454 ], [ -63.695489, 44.657553 ], [ -63.695563, 44.657602 ], [ -63.695609, 44.65765 ] ], [ [ -63.695777, 44.657842 ], [ -63.695908, 44.65804 ], [ -63.695918, 44.658069 ], [ -63.695945, 44.658145 ], [ -63.695913, 44.658287 ], [ -63.695961, 44.658387 ], [ -63.696005, 44.658403 ], [ -63.696257, 44.658388 ], [ -63.696459, 44.658398 ], [ -63.696754, 44.658446 ], [ -63.696906, 44.658441 ], [ -63.697002, 44.658419 ], [ -63.697024, 44.658389 ], [ -63.697003, 44.658358 ], [ -63.696794, 44.658159 ], [ -63.697023, 44.658083 ], [ -63.697476, 44.657854 ], [ -63.697607, 44.65762 ], [ -63.697653, 44.657528 ], [ -63.697654, 44.657498 ], [ -63.697668, 44.657471 ], [ -63.697713, 44.65747 ], [ -63.697741, 44.657453 ], [ -63.697809, 44.657433 ], [ -63.697772, 44.657361 ], [ -63.69774, 44.657297 ], [ -63.697721, 44.657259 ], [ -63.697686, 44.65724 ], [ -63.697451, 44.657214 ] ], [ [ -63.698152, 44.6569 ], [ -63.698155, 44.656901 ], [ -63.698406, 44.656891 ], [ -63.698632, 44.656899 ], [ -63.698854, 44.656845 ], [ -63.699022, 44.656844 ], [ -63.699099, 44.656816 ], [ -63.699299, 44.656825 ], [ -63.699508, 44.656882 ], [ -63.699751, 44.656917 ], [ -63.699927, 44.656849 ], [ -63.699936, 44.656847 ] ] ] } },
{ "type": "Feature", "properties": { "cls": "separated", "highway": "cycleway", "name": "Whopper MTB Trails" }, "geometry": { "type": "LineString", "coordinates": [ [ -63.682603, 44.655658 ], [ -63.683424, 44.655267 ], [ -63.685487, 44.65209 ], [ -63.685534, 44.652107 ], [ -63.68577, 44.652202 ], [ -63.685941, 44.652328 ], [ -63.686042, 44.652484 ], [ -63.68631, 44.652731 ], [ -63.686342, 44.6528 ], [ -63.686321, 44.653059 ], [ -63.686359, 44.653154 ], [ -63.686453, 44.653255 ], [ -63.686553, 44.65329 ], [ -63.686705, 44.653267 ], [ -63.686751, 44.653227 ], [ -63.68681, 44.65324 ], [ -63.686941, 44.653307 ], [ -63.686936, 44.653368 ], [ -63.686872, 44.653452 ], [ -63.686797, 44.653578 ], [ -63.686834, 44.653679 ], [ -63.686909, 44.653732 ], [ -63.686925, 44.653828 ], [ -63.686992, 44.653879 ], [ -63.687035, 44.653915 ], [ -63.687118, 44.653929 ], [ -63.68718, 44.653954 ], [ -63.687247, 44.654001 ], [ -63.687287, 44.654074 ], [ -63.687328, 44.654131 ], [ -63.687379, 44.654186 ], [ -63.687453, 44.654203 ], [ -63.687495, 44.65421 ], [ -63.687509, 44.654273 ], [ -63.687556, 44.654359 ], [ -63.687584, 44.654428 ], [ -63.687668, 44.654501 ], [ -63.687688, 44.654516 ], [ -63.687695, 44.654557 ], [ -63.687684, 44.654623 ], [ -63.687673, 44.654678 ], [ -63.687672, 44.654709 ], [ -63.687682, 44.654733 ], [ -63.687711, 44.654751 ], [ -63.687769, 44.654764 ], [ -63.687796, 44.654764 ], [ -63.687836, 44.65477 ], [ -63.687905, 44.654785 ], [ -63.687936, 44.654799 ], [ -63.687947, 44.65482 ], [ -63.68794, 44.654839 ], [ -63.687914, 44.654862 ], [ -63.687812, 44.654899 ], [ -63.687791, 44.654921 ], [ -63.687792, 44.654946 ], [ -63.687804, 44.654972 ], [ -63.687837, 44.654995 ], [ -63.68797, 44.655034 ], [ -63.6882, 44.655092 ], [ -63.688297, 44.655127 ], [ -63.68836, 44.655161 ], [ -63.68838, 44.655189 ], [ -63.688419, 44.65525 ], [ -63.688441, 44.655373 ], [ -63.688437, 44.655507 ], [ -63.68846, 44.655578 ], [ -63.688476, 44.655667 ], [ -63.688437, 44.655714 ], [ -63.68836, 44.655753 ], [ -63.688324, 44.655824 ], [ -63.688337, 44.655844 ], [ -63.688406, 44.655866 ], [ -63.68848, 44.655903 ], [ -63.688493, 44.655988 ], [ -63.688496, 44.656066 ], [ -63.688517, 44.656125 ], [ -63.688555, 44.656143 ], [ -63.688775, 44.656099 ], [ -63.688806, 44.656136 ], [ -63.68879, 44.65625 ], [ -63.68889, 44.65628 ], [ -63.689105, 44.656297 ], [ -63.689192, 44.656359 ], [ -63.689209, 44.656508 ], [ -63.689161, 44.656647 ], [ -63.689156, 44.656704 ], [ -63.689212, 44.656756 ], [ -63.689538, 44.656847 ], [ -63.689735, 44.656833 ], [ -63.689837, 44.656865 ], [ -63.690045, 44.656945 ], [ -63.690089, 44.656955 ] ] } },
{ "type": "Feature", "properties": { "cls": "separated", "highway": "cycleway", "name": "Whopper MTB Trails" }, "geometry": { "type": "MultiLineString", "coordinates": [ [ [ -63.682551, 44.655647 ], [ -63.682603, 44.655658 ], [ -63.682725, 44.655716 ], [ -63.682893, 44.655774 ], [ -63.682979, 44.655817 ], [ -63.683113, 44.655913 ], [ -63.683185, 44.655937 ], [ -63.6833, 44.655976 ], [ -63.683347, 44.656041 ] ], [ [ -63.683511, 44.656115 ], [ -63.683593, 44.656136 ], [ -63.683615, 44.656163 ] ], [ [ -63.683782, 44.656238 ], [ -63.683832, 44.656243 ], [ -63.683949, 44.65629 ], [ -63.684026, 44.656335 ], [ -63.684077, 44.656341 ], [ -63.684117, 44.656379 ], [ -63.684153, 44.656391 ], [ -63.684186, 44.656424 ], [ -63.684241, 44.656453 ], [ -63.684702, 44.657013 ], [ -63.685022, 44.657344 ], [ -63.685313, 44.657678 ], [ -63.685586, 44.657993 ], [ -63.685752, 44.658151 ], [ -63.685923, 44.658328 ], [ -63.686128, 44.658546 ], [ -63.686232, 44.658647 ], [ -63.686348, 44.658634 ], [ -63.686425, 44.658596 ], [ -63.686579, 44.658518 ], [ -63.686797, 44.658441 ], [ -63.68699, 44.658441 ], [ -63.687106, 44.658416 ], [ -63.687196, 44.658351 ], [ -63.687453, 44.658184 ], [ -63.687607, 44.658146 ], [ -63.687748, 44.658172 ], [ -63.687903, 44.658236 ], [ -63.688018, 44.658287 ], [ -63.688121, 44.658262 ], [ -63.688224, 44.658223 ], [ -63.688391, 44.658159 ], [ -63.688571, 44.658056 ], [ -63.688737, 44.657966 ], [ -63.688791, 44.657921 ], [ -63.688831, 44.657902 ], [ -63.688883, 44.657869 ], [ -63.688928, 44.657867 ], [ -63.688958, 44.657883 ], [ -63.689, 44.657914 ], [ -63.689083, 44.65798 ] ], [ [ -63.689083, 44.65798 ], [ -63.689176, 44.658019 ], [ -63.689233, 44.658046 ], [ -63.689275, 44.658108 ], [ -63.689278, 44.658172 ], [ -63.68925, 44.658242 ], [ -63.689339, 44.658328 ], [ -63.689393, 44.658364 ], [ -63.689514, 44.658361 ], [ -63.689612, 44.658339 ], [ -63.68966, 44.658297 ], [ -63.689665, 44.658227 ], [ -63.689584, 44.658139 ], [ -63.689509, 44.658107 ], [ -63.68947, 44.65803 ], [ -63.689406, 44.657927 ], [ -63.689303, 44.657876 ], [ -63.689191, 44.657919 ], [ -63.689083, 44.65798 ] ] ] } },
{ "type": "Feature", "properties": { "cls": "separated", "highway": "cycleway", "name": null }, "geometry": { "type": "LineString", "coordinates": [ [ -63.693012, 44.655191 ], [ -63.692744, 44.655308 ], [ -63.692444, 44.655416 ], [ -63.69224, 44.655543 ], [ -63.692211, 44.655611 ], [ -63.692229, 44.655691 ], [ -63.692227, 44.655831 ], [ -63.692224, 44.656 ], [ -63.692042, 44.656138 ], [ -63.692004, 44.656224 ], [ -63.692007, 44.656327 ], [ -63.691991, 44.656413 ], [ -63.691865, 44.656546 ], [ -63.691902, 44.656605 ], [ -63.692101, 44.656666 ], [ -63.692136, 44.65671 ], [ -63.692152, 44.656737 ], [ -63.69216, 44.656785 ], [ -63.691967, 44.656838 ], [ -63.691803, 44.656968 ], [ -63.691784, 44.657143 ], [ -63.691428, 44.657485 ], [ -63.691374, 44.657521 ], [ -63.690974, 44.657384 ], [ -63.690749, 44.657346 ], [ -63.69069, 44.657292 ], [ -63.690674, 44.657199 ], [ -63.690714, 44.657107 ], [ -63.69069, 44.657069 ], [ -63.690508, 44.657035 ], [ -63.690457, 44.656985 ], [ -63.690301, 44.656844 ], [ -63.690199, 44.656813 ], [ -63.690135, 44.656818 ], [ -63.690088, 44.656893 ], [ -63.690089, 44.656955 ], [ -63.690123, 44.657029 ], [ -63.690162, 44.657079 ], [ -63.690176, 44.657169 ], [ -63.690139, 44.657351 ], [ -63.690061, 44.657449 ], [ -63.689984, 44.657516 ], [ -63.689873, 44.657693 ], [ -63.689711, 44.657834 ], [ -63.689622, 44.657817 ], [ -63.689534, 44.657809 ], [ -63.689412, 44.657827 ], [ -63.689303, 44.657876 ] ] } }
]
}
