{
"type": "FeatureCollection",
"name": "056-virginia-beach-false-cape-state-park",
"crs": { "type": "name", "properties": { "name": "urn:ogc:def:crs:OGC:1.3:CRS84" } },
"xy_coordinate_resolution": 1e-06,
"features": [
{ "type": "Feature", "properties": { "cls": "separated", "highway": "cycleway", "name": null }, "geometry": { "type": "LineString", "coordinates": [ [ -75.868662, 36.551512 ], [ -75.868635, 36.551464 ], [ -75.868623, 36.551425 ], [ -75.868622, 36.551402 ], [ -75.868628, 36.551348 ], [ -75.868636, 36.551272 ], [ -75.868636, 36.551204 ], [ -75.868636, 36.551169 ], [ -75.868617, 36.551126 ], [ -75.868586, 36.551082 ], [ -75.868523, 36.551045 ], [ -75.868424, 36.551034 ], [ -75.868319, 36.551012 ], [ -75.868238, 36.550975 ], [ -75.868069, 36.550848 ], [ -75.868003, 36.550776 ], [ -75.867964, 36.550727 ], [ -75.867913, 36.550634 ], [ -75.867874, 36.550581 ], [ -75.867857, 36.55055 ] ] } },
{ "type": "Feature", "properties": { "cls": "separated", "highway": "cycleway", "name": null }, "geometry": { "type": "LineString", "coordinates": [ [ -75.868227, 36.551868 ], [ -75.868317, 36.551793 ], [ -75.868485, 36.551689 ], [ -75.868544, 36.551641 ], [ -75.868593, 36.551587 ], [ -75.868627, 36.551533 ], [ -75.868662, 36.551512 ], [ -75.868663, 36.551512 ], [ -75.868714, 36.551502 ], [ -75.868766, 36.551507 ], [ -75.868862, 36.551545 ], [ -75.869105, 36.551653 ], [ -75.869338, 36.551774 ], [ -75.869398, 36.551835 ], [ -75.869441, 36.551905 ], [ -75.869463, 36.551965 ], [ -75.869471, 36.552082 ], [ -75.869491, 36.552199 ], [ -75.869528, 36.552317 ], [ -75.869589, 36.552449 ], [ -75.869631, 36.552589 ], [ -75.869648, 36.552733 ], [ -75.869633, 36.552953 ], [ -75.869649, 36.553053 ], [ -75.869676, 36.55313 ], [ -75.869743, 36.553461 ], [ -75.869837, 36.553765 ], [ -75.869883, 36.553946 ], [ -75.869887, 36.554032 ], [ -75.869873, 36.554117 ], [ -75.869817, 36.554278 ], [ -75.869812, 36.554371 ], [ -75.869821, 36.554425 ], [ -75.869847, 36.554488 ], [ -75.869862, 36.554513 ], [ -75.869927, 36.554568 ], [ -75.869996, 36.554618 ], [ -75.870041, 36.554659 ], [ -75.870108, 36.554753 ], [ -75.870126, 36.554815 ], [ -75.870124, 36.554879 ], [ -75.870062, 36.555099 ], [ -75.870065, 36.55515 ], [ -75.870087, 36.555199 ], [ -75.870204, 36.555377 ], [ -75.870275, 36.555499 ], [ -75.870348, 36.555725 ], [ -75.870397, 36.555906 ], [ -75.870354, 36.556179 ], [ -75.870328, 36.556272 ], [ -75.870309, 36.556419 ], [ -75.870318, 36.556559 ], [ -75.870337, 36.556639 ], [ -75.870517, 36.5571 ], [ -75.870574, 36.557213 ], [ -75.87077, 36.557504 ], [ -75.870862, 36.55766 ], [ -75.870879, 36.55772 ], [ -75.870886, 36.557775 ], [ -75.870921, 36.557861 ], [ -75.870969, 36.557926 ], [ -75.871033, 36.55798 ], [ -75.871094, 36.558015 ], [ -75.871177, 36.558047 ], [ -75.871244, 36.558062 ], [ -75.871315, 36.558062 ], [ -75.871383, 36.558046 ], [ -75.871428, 36.558028 ], [ -75.871473, 36.558025 ], [ -75.871555, 36.558037 ], [ -75.871648, 36.558037 ], [ -75.871722, 36.558026 ], [ -75.87181, 36.558001 ], [ -75.871874, 36.557971 ], [ -75.872075, 36.557829 ], [ -75.872149, 36.557792 ], [ -75.872289, 36.557755 ], [ -75.8724, 36.557712 ], [ -75.872502, 36.557656 ], [ -75.872593, 36.557588 ], [ -75.872745, 36.557434 ], [ -75.87287, 36.557282 ], [ -75.872902, 36.557217 ], [ -75.872916, 36.557148 ], [ -75.872917, 36.55712 ], [ -75.872902, 36.556947 ], [ -75.872918, 36.556884 ], [ -75.872944, 36.556837 ], [ -75.873009, 36.556752 ], [ -75.873033, 36.556694 ], [ -75.873053, 36.556452 ], [ -75.87307, 36.556396 ], [ -75.873102, 36.556345 ], [ -75.873149, 36.556302 ], [ -75.873226, 36.556258 ], [ -75.873326, 36.556219 ], [ -75.873405, 36.556196 ], [ -75.87347, 36.556161 ], [ -75.873504, 36.556129 ], [ -75.873829, 36.555728 ], [ -75.873874, 36.555645 ], [ -75.873887, 36.555605 ], [ -75.873911, 36.555577 ], [ -75.873935, 36.555561 ], [ -75.874084, 36.555507 ], [ -75.874271, 36.555459 ], [ -75.874362, 36.555446 ], [ -75.874413, 36.555451 ], [ -75.874518, 36.555494 ], [ -75.874578, 36.555501 ], [ -75.874639, 36.555494 ], [ -75.874684, 36.555479 ], [ -75.874757, 36.555437 ], [ -75.874802, 36.555399 ], [ -75.874837, 36.555355 ], [ -75.874873, 36.555274 ], [ -75.874894, 36.555203 ], [ -75.874907, 36.555126 ], [ -75.87491, 36.554985 ], [ -75.874932, 36.554904 ], [ -75.875015, 36.55474 ], [ -75.875105, 36.554607 ], [ -75.875154, 36.554494 ], [ -75.875225, 36.554254 ], [ -75.875286, 36.554091 ], [ -75.875368, 36.553959 ], [ -75.875466, 36.553834 ], [ -75.875564, 36.553733 ], [ -75.875627, 36.553679 ], [ -75.875724, 36.553619 ], [ -75.875854, 36.553557 ], [ -75.875995, 36.553503 ], [ -75.876112, 36.553467 ], [ -75.876237, 36.553441 ], [ -75.876407, 36.553425 ], [ -75.876579, 36.553424 ], [ -75.876843, 36.553436 ], [ -75.877054, 36.553441 ], [ -75.877153, 36.553439 ], [ -75.877236, 36.55343 ], [ -75.877457, 36.553422 ], [ -75.877678, 36.55343 ], [ -75.877822, 36.55345 ], [ -75.878018, 36.553498 ], [ -75.878174, 36.553554 ], [ -75.878418, 36.553664 ] ] } },
{ "type": "Feature", "properties": { "cls": "separated", "highway": "cycleway", "name": "False Cape Interior Trail" }, "geometry": { "type": "LineString", "coordinates": [ [ -75.885959, 36.597029 ], [ -75.885711, 36.59677 ], [ -75.885612, 36.59669 ], [ -75.885571, 36.596666 ], [ -75.88552, 36.596653 ], [ -75.885454, 36.59665 ], [ -75.885276, 36.596682 ], [ -75.885187, 36.596682 ], [ -75.885148, 36.596675 ], [ -75.885043, 36.596613 ], [ -75.88498, 36.596567 ], [ -75.884899, 36.596491 ], [ -75.884811, 36.596389 ], [ -75.884738, 36.59628 ], [ -75.884691, 36.596188 ], [ -75.884587, 36.595827 ], [ -75.884501, 36.595463 ], [ -75.884448, 36.595182 ], [ -75.884446, 36.59512 ], [ -75.884452, 36.595052 ], [ -75.884427, 36.594788 ], [ -75.884433, 36.594688 ], [ -75.884448, 36.594591 ], [ -75.884484, 36.594491 ], [ -75.88456, 36.594371 ], [ -75.884618, 36.594306 ], [ -75.884685, 36.594243 ], [ -75.884723, 36.594197 ], [ -75.884742, 36.594143 ], [ -75.884745, 36.59411 ], [ -75.884741, 36.594009 ], [ -75.884752, 36.593868 ], [ -75.884747, 36.593712 ], [ -75.884764, 36.593537 ], [ -75.884758, 36.593422 ], [ -75.884735, 36.593309 ], [ -75.884703, 36.593226 ], [ -75.884663, 36.593143 ], [ -75.884643, 36.593061 ], [ -75.884645, 36.593007 ], [ -75.884665, 36.592941 ], [ -75.88475, 36.59279 ], [ -75.884773, 36.592675 ], [ -75.884775, 36.592547 ], [ -75.884759, 36.59245 ], [ -75.884724, 36.592356 ], [ -75.884662, 36.592243 ], [ -75.884622, 36.592136 ], [ -75.884601, 36.592026 ], [ -75.88459, 36.591911 ], [ -75.884601, 36.591819 ], [ -75.884645, 36.591659 ], [ -75.884655, 36.59153 ], [ -75.88464, 36.591476 ], [ -75.884614, 36.591418 ], [ -75.884602, 36.591343 ], [ -75.88461, 36.591253 ], [ -75.884636, 36.59118 ], [ -75.884766, 36.590903 ], [ -75.884896, 36.590566 ], [ -75.884944, 36.590485 ], [ -75.884993, 36.590426 ], [ -75.8851, 36.590332 ], [ -75.885231, 36.590239 ], [ -75.885292, 36.590151 ], [ -75.885336, 36.590057 ], [ -75.885349, 36.590018 ], [ -75.885359, 36.589901 ], [ -75.885354, 36.589756 ], [ -75.885339, 36.58962 ], [ -75.885344, 36.589484 ], [ -75.885369, 36.589338 ], [ -75.88536, 36.589283 ], [ -75.885334, 36.589232 ], [ -75.885224, 36.589101 ], [ -75.885073, 36.588938 ], [ -75.885004, 36.58884 ], [ -75.884953, 36.588735 ], [ -75.884878, 36.588525 ], [ -75.88483, 36.588349 ], [ -75.884813, 36.588248 ], [ -75.884821, 36.588185 ], [ -75.884846, 36.588125 ], [ -75.8849, 36.588054 ], [ -75.884977, 36.587988 ], [ -75.885129, 36.587898 ], [ -75.885208, 36.587834 ], [ -75.885232, 36.587805 ], [ -75.885274, 36.587731 ], [ -75.885338, 36.587533 ], [ -75.885415, 36.587371 ], [ -75.885517, 36.587197 ], [ -75.88556, 36.587079 ], [ -75.885587, 36.586948 ], [ -75.885583, 36.586892 ], [ -75.885562, 36.586838 ], [ -75.885541, 36.586808 ], [ -75.885447, 36.586708 ], [ -75.885396, 36.586625 ], [ -75.885361, 36.586536 ], [ -75.885317, 36.586336 ], [ -75.885274, 36.586182 ], [ -75.885205, 36.586022 ], [ -75.885177, 36.585932 ], [ -75.885175, 36.585865 ], [ -75.885206, 36.585739 ], [ -75.885196, 36.585583 ], [ -75.885165, 36.585434 ], [ -75.885131, 36.585186 ], [ -75.885094, 36.584992 ], [ -75.885075, 36.584846 ], [ -75.88508, 36.584777 ], [ -75.885124, 36.584684 ], [ -75.885149, 36.584652 ], [ -75.885228, 36.584585 ], [ -75.885319, 36.58453 ], [ -75.885434, 36.584471 ], [ -75.885553, 36.584395 ], [ -75.885656, 36.584311 ], [ -75.88574, 36.584227 ], [ -75.88577, 36.584188 ], [ -75.885812, 36.584103 ], [ -75.885826, 36.584043 ], [ -75.885832, 36.583771 ], [ -75.88583, 36.583642 ], [ -75.885841, 36.58354 ], [ -75.88587, 36.583421 ], [ -75.885895, 36.583352 ], [ -75.885967, 36.583234 ], [ -75.886058, 36.583105 ], [ -75.886116, 36.582995 ], [ -75.886143, 36.582927 ], [ -75.886157, 36.582801 ], [ -75.886155, 36.5827 ], [ -75.88613, 36.582525 ], [ -75.886104, 36.582414 ], [ -75.886036, 36.582221 ], [ -75.886022, 36.582118 ], [ -75.886022, 36.582077 ], [ -75.886048, 36.581893 ], [ -75.886076, 36.581771 ], [ -75.886122, 36.581671 ], [ -75.886129, 36.581615 ], [ -75.886117, 36.581503 ], [ -75.886087, 36.581404 ], [ -75.886038, 36.581295 ], [ -75.885957, 36.581156 ], [ -75.885829, 36.580882 ], [ -75.885777, 36.580725 ], [ -75.885758, 36.580635 ], [ -75.885747, 36.580541 ], [ -75.885719, 36.580455 ], [ -75.885673, 36.580373 ], [ -75.885442, 36.580025 ], [ -75.88541, 36.579946 ], [ -75.885401, 36.57989 ], [ -75.885402, 36.579837 ], [ -75.885405, 36.579811 ], [ -75.885427, 36.57975 ], [ -75.885449, 36.579716 ], [ -75.885511, 36.579655 ], [ -75.885676, 36.579527 ], [ -75.885818, 36.579432 ], [ -75.885783, 36.579339 ], [ -75.885767, 36.579247 ], [ -75.885766, 36.579191 ], [ -75.885787, 36.579064 ], [ -75.885811, 36.57897 ], [ -75.88588, 36.578794 ], [ -75.88599, 36.578626 ], [ -75.88604, 36.578563 ], [ -75.886064, 36.578505 ], [ -75.886072, 36.578443 ], [ -75.886063, 36.578382 ], [ -75.886021, 36.578326 ], [ -75.885965, 36.578279 ], [ -75.885897, 36.578243 ], [ -75.885825, 36.578211 ], [ -75.885764, 36.578166 ], [ -75.885725, 36.578117 ], [ -75.885691, 36.578042 ], [ -75.885666, 36.57794 ], [ -75.88564, 36.57789 ], [ -75.885602, 36.577844 ], [ -75.885552, 36.577798 ], [ -75.88547, 36.577693 ], [ -75.88543, 36.577659 ], [ -75.885357, 36.577621 ], [ -75.885288, 36.577603 ], [ -75.885189, 36.577587 ], [ -75.885088, 36.577556 ], [ -75.884915, 36.577474 ], [ -75.884755, 36.577381 ], [ -75.884607, 36.577276 ], [ -75.884347, 36.577061 ], [ -75.884284, 36.577013 ], [ -75.884112, 36.576921 ], [ -75.884065, 36.576884 ], [ -75.884015, 36.576808 ], [ -75.883983, 36.576726 ], [ -75.883917, 36.576467 ], [ -75.883912, 36.576378 ], [ -75.883899, 36.576255 ], [ -75.883915, 36.576122 ], [ -75.88396, 36.576008 ], [ -75.883982, 36.575874 ], [ -75.883995, 36.575704 ], [ -75.884001, 36.575573 ], [ -75.884005, 36.575472 ], [ -75.883974, 36.575322 ], [ -75.883914, 36.575218 ], [ -75.883785, 36.575045 ], [ -75.883699, 36.574941 ], [ -75.883629, 36.574799 ], [ -75.883604, 36.574661 ], [ -75.883588, 36.574464 ], [ -75.883597, 36.57436 ], [ -75.883608, 36.574192 ], [ -75.883602, 36.573996 ], [ -75.883585, 36.573857 ], [ -75.883538, 36.573747 ], [ -75.883458, 36.573621 ], [ -75.883323, 36.573542 ], [ -75.883207, 36.573486 ], [ -75.883114, 36.573433 ], [ -75.88316, 36.57334 ], [ -75.883158, 36.573248 ], [ -75.883122, 36.573123 ], [ -75.883077, 36.573032 ], [ -75.883011, 36.572907 ], [ -75.882941, 36.572757 ], [ -75.88285, 36.572633 ], [ -75.882748, 36.572492 ], [ -75.882669, 36.57236 ], [ -75.882641, 36.572252 ], [ -75.88265, 36.572144 ], [ -75.882651, 36.572034 ], [ -75.882606, 36.571916 ], [ -75.882547, 36.571818 ], [ -75.882514, 36.571631 ], [ -75.882453, 36.571555 ], [ -75.882467, 36.57145 ], [ -75.882495, 36.571336 ], [ -75.882468, 36.571255 ], [ -75.882427, 36.571158 ], [ -75.882434, 36.571022 ], [ -75.88241, 36.570832 ], [ -75.882349, 36.570702 ], [ -75.882307, 36.57058 ], [ -75.882231, 36.570428 ], [ -75.882131, 36.570422 ], [ -75.881962, 36.570396 ], [ -75.881782, 36.570393 ], [ -75.881662, 36.570414 ], [ -75.881569, 36.570385 ], [ -75.881363, 36.57036 ], [ -75.881148, 36.570363 ], [ -75.881033, 36.570395 ], [ -75.880979, 36.570475 ], [ -75.880918, 36.570508 ], [ -75.880834, 36.570538 ], [ -75.880744, 36.570553 ], [ -75.880592, 36.570552 ], [ -75.880394, 36.570566 ], [ -75.880314, 36.570561 ], [ -75.880252, 36.570544 ], [ -75.880196, 36.570508 ], [ -75.880149, 36.570464 ], [ -75.880098, 36.570393 ], [ -75.880043, 36.570284 ], [ -75.880022, 36.570208 ], [ -75.880024, 36.57014 ], [ -75.880076, 36.569937 ], [ -75.880086, 36.569862 ], [ -75.880073, 36.569756 ], [ -75.88001, 36.569541 ], [ -75.880012, 36.569308 ], [ -75.880003, 36.569235 ], [ -75.879949, 36.569074 ], [ -75.879937, 36.569 ], [ -75.879937, 36.568924 ], [ -75.879954, 36.568819 ], [ -75.880001, 36.568681 ], [ -75.880176, 36.56835 ], [ -75.880204, 36.568262 ], [ -75.880218, 36.568135 ], [ -75.880213, 36.568014 ], [ -75.880188, 36.567878 ], [ -75.880153, 36.567794 ], [ -75.879839, 36.567326 ], [ -75.87964, 36.567104 ], [ -75.879584, 36.567028 ], [ -75.879536, 36.56693 ], [ -75.879511, 36.566827 ], [ -75.87951, 36.566725 ], [ -75.879498, 36.566646 ], [ -75.879467, 36.566571 ], [ -75.879376, 36.566427 ], [ -75.879291, 36.566332 ], [ -75.879228, 36.56624 ], [ -75.879169, 36.566096 ], [ -75.879112, 36.565897 ], [ -75.879088, 36.565779 ], [ -75.879072, 36.565643 ], [ -75.879079, 36.56541 ], [ -75.879064, 36.565298 ], [ -75.87901, 36.565107 ], [ -75.878981, 36.564955 ], [ -75.878837, 36.564472 ], [ -75.878816, 36.564343 ], [ -75.878811, 36.564198 ], [ -75.87884, 36.563924 ], [ -75.878841, 36.563689 ], [ -75.878853, 36.563517 ], [ -75.878866, 36.563458 ], [ -75.878887, 36.563309 ], [ -75.878886, 36.563272 ], [ -75.878871, 36.563181 ], [ -75.878839, 36.563094 ], [ -75.878782, 36.563005 ], [ -75.878653, 36.562851 ], [ -75.878611, 36.56277 ], [ -75.878523, 36.562455 ], [ -75.878503, 36.562408 ], [ -75.878417, 36.562285 ], [ -75.87832, 36.56218 ], [ -75.878287, 36.562133 ], [ -75.878245, 36.56205 ], [ -75.878214, 36.561897 ], [ -75.878176, 36.561799 ], [ -75.878132, 36.561725 ], [ -75.87811, 36.561674 ], [ -75.878075, 36.561569 ], [ -75.878045, 36.56142 ], [ -75.878042, 36.561348 ], [ -75.877984, 36.561086 ], [ -75.877969, 36.560934 ], [ -75.877947, 36.560785 ], [ -75.877916, 36.560695 ], [ -75.87786, 36.560598 ], [ -75.877828, 36.560523 ], [ -75.877813, 36.560444 ], [ -75.877823, 36.560313 ], [ -75.877811, 36.560115 ], [ -75.87781, 36.559899 ], [ -75.877803, 36.559754 ], [ -75.877778, 36.559574 ], [ -75.877732, 36.559399 ], [ -75.87773, 36.559357 ], [ -75.877739, 36.559198 ], [ -75.877702, 36.558991 ], [ -75.877681, 36.558937 ], [ -75.877643, 36.558889 ], [ -75.87758, 36.558842 ], [ -75.87752, 36.558811 ], [ -75.877452, 36.558767 ], [ -75.877378, 36.558703 ], [ -75.877308, 36.558616 ], [ -75.87726, 36.55852 ], [ -75.877235, 36.558418 ], [ -75.877222, 36.558299 ], [ -75.877206, 36.558216 ], [ -75.877188, 36.558188 ], [ -75.877134, 36.558125 ], [ -75.877066, 36.558071 ], [ -75.876774, 36.557955 ], [ -75.876465, 36.557824 ], [ -75.876379, 36.557777 ], [ -75.876135, 36.557596 ], [ -75.875994, 36.557471 ], [ -75.87598, 36.55745 ], [ -75.875956, 36.557138 ], [ -75.875912, 36.557037 ], [ -75.875758, 36.556803 ], [ -75.875687, 36.556654 ], [ -75.875651, 36.556528 ], [ -75.875634, 36.556399 ], [ -75.875667, 36.555949 ], [ -75.875664, 36.555897 ], [ -75.875645, 36.555833 ], [ -75.875616, 36.555786 ], [ -75.875588, 36.555757 ], [ -75.875479, 36.55567 ], [ -75.875359, 36.555594 ], [ -75.875287, 36.555564 ], [ -75.875166, 36.555532 ], [ -75.875107, 36.555508 ], [ -75.875026, 36.555444 ], [ -75.874986, 36.555397 ], [ -75.874944, 36.555323 ], [ -75.874894, 36.555203 ] ] } },
{ "type": "Feature", "properties": { "cls": "separated", "highway": "cycleway", "name": "Wash Woods Trail" }, "geometry": { "type": "LineString", "coordinates": [ [ -75.890466, 36.581385 ], [ -75.890426, 36.581388 ], [ -75.890387, 36.581376 ], [ -75.890359, 36.581352 ], [ -75.890347, 36.581328 ], [ -75.890344, 36.581245 ], [ -75.89035, 36.581119 ], [ -75.890337, 36.581076 ], [ -75.890307, 36.581039 ], [ -75.89027, 36.581025 ], [ -75.890216, 36.581012 ], [ -75.890147, 36.581009 ], [ -75.890043, 36.581023 ], [ -75.889935, 36.581052 ], [ -75.8897, 36.58115 ], [ -75.889562, 36.581192 ], [ -75.889493, 36.581204 ], [ -75.889424, 36.581206 ], [ -75.889342, 36.581196 ], [ -75.889308, 36.58124 ], [ -75.889263, 36.58127 ], [ -75.889094, 36.581322 ], [ -75.888922, 36.581363 ], [ -75.888401, 36.58147 ], [ -75.888216, 36.581497 ], [ -75.887556, 36.581567 ], [ -75.886832, 36.581665 ], [ -75.886669, 36.581694 ], [ -75.886076, 36.581771 ], [ -75.885768, 36.581817 ], [ -75.885561, 36.581852 ], [ -75.88534, 36.58187 ], [ -75.885094, 36.581902 ], [ -75.884851, 36.581941 ], [ -75.884721, 36.581954 ], [ -75.884393, 36.581995 ], [ -75.884119, 36.582042 ], [ -75.883603, 36.582111 ], [ -75.882904, 36.582204 ], [ -75.882683, 36.58224 ], [ -75.882157, 36.582299 ], [ -75.881267, 36.582431 ], [ -75.880888, 36.582496 ], [ -75.880592, 36.582535 ], [ -75.880104, 36.582579 ], [ -75.879936, 36.582588 ], [ -75.87974, 36.582599 ], [ -75.879607, 36.582613 ], [ -75.879243, 36.58267 ], [ -75.878773, 36.582755 ], [ -75.878572, 36.582778 ], [ -75.878264, 36.582821 ], [ -75.878176, 36.582828 ], [ -75.877909, 36.582864 ], [ -75.8777, 36.582901 ], [ -75.877422, 36.582947 ], [ -75.877108, 36.583001 ], [ -75.875929, 36.583178 ], [ -75.87577, 36.583189 ], [ -75.875552, 36.583197 ], [ -75.875377, 36.583214 ], [ -75.875231, 36.583244 ], [ -75.87509, 36.583295 ], [ -75.874984, 36.583346 ] ] } },
{ "type": "Feature", "properties": { "cls": "separated", "highway": "cycleway", "name": null }, "geometry": { "type": "LineString", "coordinates": [ [ -75.887706, 36.594074 ], [ -75.887694, 36.594078 ], [ -75.887665, 36.594106 ], [ -75.887658, 36.594142 ], [ -75.887669, 36.594226 ], [ -75.887666, 36.594344 ], [ -75.88765, 36.594435 ], [ -75.887613, 36.594535 ], [ -75.887557, 36.594629 ], [ -75.887501, 36.594699 ], [ -75.887209, 36.594991 ], [ -75.887161, 36.595059 ], [ -75.88711, 36.59517 ], [ -75.887054, 36.595612 ], [ -75.887015, 36.595721 ], [ -75.886995, 36.595764 ], [ -75.886936, 36.595853 ], [ -75.886878, 36.595971 ], [ -75.886821, 36.59612 ], [ -75.886766, 36.59621 ], [ -75.886725, 36.59626 ], [ -75.886576, 36.596476 ], [ -75.886537, 36.596504 ], [ -75.886499, 36.596519 ], [ -75.886447, 36.596523 ], [ -75.886186, 36.596508 ], [ -75.885841, 36.596526 ], [ -75.885787, 36.596542 ], [ -75.885726, 36.596574 ], [ -75.88566, 36.596632 ], [ -75.885612, 36.59669 ] ] } },
{ "type": "Feature", "properties": { "cls": "separated", "highway": "cycleway", "name": "False Cape Landing Trail" }, "geometry": { "type": "LineString", "coordinates": [ [ -75.87987, 36.599374 ], [ -75.879882, 36.599295 ], [ -75.879911, 36.599237 ], [ -75.879945, 36.599195 ], [ -75.880004, 36.599159 ], [ -75.880072, 36.599136 ], [ -75.880176, 36.599125 ], [ -75.880251, 36.599121 ], [ -75.880324, 36.599105 ], [ -75.880391, 36.599077 ], [ -75.880448, 36.599037 ], [ -75.880556, 36.598938 ], [ -75.880665, 36.598807 ], [ -75.880689, 36.598784 ], [ -75.880745, 36.598756 ], [ -75.880782, 36.598744 ], [ -75.880941, 36.598727 ], [ -75.881094, 36.598702 ], [ -75.881342, 36.598639 ], [ -75.881392, 36.598632 ], [ -75.881562, 36.598627 ], [ -75.881802, 36.598638 ], [ -75.881915, 36.598636 ], [ -75.882023, 36.598624 ], [ -75.882139, 36.598596 ], [ -75.882248, 36.598555 ], [ -75.88233, 36.598512 ], [ -75.882558, 36.598348 ], [ -75.882648, 36.598294 ], [ -75.882917, 36.598184 ], [ -75.882994, 36.598157 ], [ -75.883126, 36.598125 ], [ -75.883167, 36.598127 ], [ -75.88322, 36.598137 ], [ -75.883325, 36.598178 ], [ -75.883469, 36.598227 ], [ -75.883601, 36.598259 ], [ -75.883667, 36.598265 ], [ -75.883732, 36.598257 ], [ -75.883781, 36.59824 ], [ -75.883947, 36.598142 ], [ -75.884068, 36.59805 ], [ -75.884166, 36.59796 ], [ -75.884225, 36.597918 ], [ -75.884296, 36.597889 ], [ -75.884401, 36.597868 ], [ -75.884486, 36.597844 ], [ -75.884727, 36.59773 ], [ -75.88501, 36.597611 ], [ -75.885171, 36.597537 ], [ -75.885326, 36.597456 ], [ -75.885704, 36.597226 ], [ -75.885851, 36.597121 ], [ -75.885959, 36.597029 ] ] } },
{ "type": "Feature", "properties": { "cls": "separated", "highway": "cycleway", "name": "False Cape Interior Trail" }, "geometry": { "type": "LineString", "coordinates": [ [ -75.885959, 36.597029 ], [ -75.888234, 36.600152 ], [ -75.88927, 36.601377 ], [ -75.890018, 36.601853 ], [ -75.890336, 36.602147 ], [ -75.892011, 36.604536 ], [ -75.892954, 36.6053 ], [ -75.894222, 36.606481 ], [ -75.895114, 36.607637 ], [ -75.895632, 36.608393 ], [ -75.895748, 36.608516 ], [ -75.895806, 36.608589 ], [ -75.89594, 36.608778 ], [ -75.896487, 36.609626 ], [ -75.896535, 36.609723 ], [ -75.896569, 36.609818 ], [ -75.896581, 36.609889 ], [ -75.896585, 36.610148 ], [ -75.896606, 36.610281 ], [ -75.896644, 36.61041 ], [ -75.896713, 36.61056 ], [ -75.896791, 36.610774 ], [ -75.896856, 36.610929 ], [ -75.896879, 36.611037 ], [ -75.896882, 36.61107 ], [ -75.896968, 36.611258 ], [ -75.897093, 36.611487 ], [ -75.89718, 36.611618 ], [ -75.897425, 36.611957 ], [ -75.897561, 36.612098 ], [ -75.897802, 36.612315 ], [ -75.897986, 36.612495 ], [ -75.897998, 36.612521 ], [ -75.897997, 36.612556 ], [ -75.897965, 36.612608 ], [ -75.89795, 36.612649 ], [ -75.897922, 36.61305 ], [ -75.897884, 36.613359 ], [ -75.897888, 36.613497 ], [ -75.897917, 36.613661 ], [ -75.89805, 36.613993 ], [ -75.898119, 36.614128 ], [ -75.898228, 36.614263 ], [ -75.898427, 36.614469 ], [ -75.898515, 36.614587 ], [ -75.898565, 36.614671 ], [ -75.898593, 36.614751 ], [ -75.89863, 36.615094 ], [ -75.898626, 36.615137 ], [ -75.898557, 36.615309 ], [ -75.898528, 36.61544 ], [ -75.898518, 36.615555 ], [ -75.898511, 36.615825 ], [ -75.898496, 36.61585 ], [ -75.898379, 36.615942 ], [ -75.898234, 36.616028 ], [ -75.897979, 36.616147 ], [ -75.897712, 36.616278 ], [ -75.897623, 36.616304 ], [ -75.897529, 36.616316 ], [ -75.897159, 36.616333 ], [ -75.896984, 36.616334 ], [ -75.896906, 36.616324 ], [ -75.896692, 36.616262 ], [ -75.896631, 36.616251 ], [ -75.896572, 36.616254 ], [ -75.896527, 36.616266 ], [ -75.896478, 36.616293 ], [ -75.896447, 36.616321 ], [ -75.896345, 36.61645 ], [ -75.896288, 36.616542 ], [ -75.896244, 36.616647 ], [ -75.89621, 36.616791 ], [ -75.89618, 36.616864 ], [ -75.896115, 36.616948 ], [ -75.896053, 36.616999 ], [ -75.895981, 36.61704 ], [ -75.895855, 36.617089 ], [ -75.8958, 36.617122 ], [ -75.895759, 36.61716 ], [ -75.895745, 36.617205 ], [ -75.895749, 36.617252 ], [ -75.895759, 36.617278 ], [ -75.89588, 36.617423 ], [ -75.895959, 36.617506 ], [ -75.896152, 36.617728 ], [ -75.896462, 36.618065 ], [ -75.896718, 36.618409 ], [ -75.896833, 36.61857 ], [ -75.896875, 36.618648 ], [ -75.896935, 36.618811 ], [ -75.896963, 36.618942 ], [ -75.897053, 36.619637 ], [ -75.897144, 36.620164 ], [ -75.897204, 36.620916 ], [ -75.897251, 36.62131 ], [ -75.89728, 36.621383 ], [ -75.897318, 36.62144 ], [ -75.897383, 36.621507 ], [ -75.897483, 36.621575 ] ] } },
{ "type": "Feature", "properties": { "cls": "separated", "highway": "cycleway", "name": "Barbour Hill Trail" }, "geometry": { "type": "LineString", "coordinates": [ [ -75.907449, 36.621566 ], [ -75.907348, 36.621599 ], [ -75.90724, 36.621617 ], [ -75.907148, 36.621616 ], [ -75.907075, 36.621605 ], [ -75.906986, 36.621578 ], [ -75.906886, 36.621527 ], [ -75.906814, 36.621473 ], [ -75.906755, 36.621409 ], [ -75.906706, 36.621332 ], [ -75.90666, 36.621219 ], [ -75.906581, 36.620926 ], [ -75.906516, 36.620742 ], [ -75.906443, 36.62058 ], [ -75.90635, 36.620418 ], [ -75.906265, 36.620293 ], [ -75.906156, 36.620156 ], [ -75.906036, 36.620032 ], [ -75.905953, 36.619962 ], [ -75.905868, 36.619913 ], [ -75.905793, 36.619882 ], [ -75.905693, 36.619857 ], [ -75.905548, 36.619849 ], [ -75.905431, 36.619853 ], [ -75.905374, 36.619859 ], [ -75.90494, 36.619943 ], [ -75.904651, 36.620007 ], [ -75.903968, 36.620143 ], [ -75.902656, 36.620412 ], [ -75.902352, 36.620464 ], [ -75.901711, 36.620595 ], [ -75.901261, 36.620674 ], [ -75.900524, 36.620815 ], [ -75.900183, 36.620886 ], [ -75.900088, 36.620901 ], [ -75.899709, 36.620945 ], [ -75.899356, 36.621003 ], [ -75.899245, 36.621031 ], [ -75.899109, 36.621082 ], [ -75.898674, 36.621318 ], [ -75.898543, 36.621367 ], [ -75.898167, 36.621451 ], [ -75.897636, 36.621552 ], [ -75.897483, 36.621575 ], [ -75.897141, 36.621634 ], [ -75.896705, 36.621723 ], [ -75.894148, 36.622151 ], [ -75.893946, 36.622182 ], [ -75.893794, 36.622191 ], [ -75.89328, 36.622176 ], [ -75.893114, 36.622186 ], [ -75.892952, 36.622211 ], [ -75.892528, 36.622316 ], [ -75.892401, 36.622361 ], [ -75.892283, 36.62242 ], [ -75.892195, 36.622476 ], [ -75.892095, 36.622561 ], [ -75.89191, 36.622751 ], [ -75.891765, 36.622879 ], [ -75.891655, 36.622953 ], [ -75.891559, 36.623004 ], [ -75.891269, 36.623125 ], [ -75.891076, 36.623225 ], [ -75.890808, 36.623379 ], [ -75.890589, 36.623523 ], [ -75.890285, 36.623755 ], [ -75.889313, 36.624466 ], [ -75.8892, 36.624544 ], [ -75.888646, 36.624754 ] ] } },
{ "type": "Feature", "properties": { "cls": "separated", "highway": "cycleway", "name": null }, "geometry": { "type": "MultiLineString", "coordinates": [ [ [ -75.9042, 36.630527 ], [ -75.904217, 36.630507 ], [ -75.90426, 36.630474 ], [ -75.904398, 36.630395 ], [ -75.90468, 36.630269 ], [ -75.905097, 36.630096 ], [ -75.905921, 36.62978 ], [ -75.906023, 36.629726 ], [ -75.906047, 36.629714 ], [ -75.906147, 36.629648 ], [ -75.906258, 36.629561 ], [ -75.906422, 36.629463 ], [ -75.906534, 36.629409 ], [ -75.906725, 36.629336 ], [ -75.906798, 36.629292 ], [ -75.906859, 36.629237 ], [ -75.906894, 36.629185 ], [ -75.906912, 36.629128 ], [ -75.906924, 36.628954 ], [ -75.906921, 36.628892 ] ], [ [ -75.906918, 36.62883 ], [ -75.906916, 36.628792 ], [ -75.906909, 36.62876 ], [ -75.906885, 36.62871 ], [ -75.906854, 36.628675 ], [ -75.906603, 36.628488 ], [ -75.906353, 36.628265 ], [ -75.906138, 36.62806 ], [ -75.905938, 36.627845 ], [ -75.905702, 36.627574 ], [ -75.905518, 36.62734 ], [ -75.905454, 36.627231 ], [ -75.905389, 36.627091 ], [ -75.905342, 36.626946 ], [ -75.90534, 36.626935 ], [ -75.905316, 36.626814 ], [ -75.905312, 36.626704 ], [ -75.905325, 36.626594 ], [ -75.905345, 36.626543 ], [ -75.905385, 36.626484 ], [ -75.905455, 36.626422 ], [ -75.905533, 36.626369 ], [ -75.905621, 36.626326 ], [ -75.905799, 36.626266 ], [ -75.905884, 36.626226 ], [ -75.905945, 36.626186 ], [ -75.905999, 36.62614 ], [ -75.906044, 36.626088 ], [ -75.906079, 36.626027 ], [ -75.906107, 36.625947 ], [ -75.906117, 36.625863 ], [ -75.906094, 36.625701 ], [ -75.906002, 36.62534 ], [ -75.905995, 36.62526 ], [ -75.906004, 36.625173 ], [ -75.906004, 36.625084 ], [ -75.905988, 36.624974 ], [ -75.90593, 36.624867 ], [ -75.905883, 36.624755 ], [ -75.905848, 36.624613 ], [ -75.905846, 36.624529 ], [ -75.905863, 36.624446 ], [ -75.905895, 36.624373 ], [ -75.905971, 36.624251 ], [ -75.906062, 36.624136 ], [ -75.906146, 36.62405 ], [ -75.906271, 36.623948 ], [ -75.906377, 36.623837 ], [ -75.906436, 36.623757 ], [ -75.906509, 36.623623 ], [ -75.906551, 36.623561 ], [ -75.906616, 36.62349 ], [ -75.906774, 36.62337 ], [ -75.90684, 36.623303 ], [ -75.9069, 36.623213 ], [ -75.906928, 36.623148 ], [ -75.906961, 36.62302 ], [ -75.907002, 36.622901 ], [ -75.907069, 36.622756 ], [ -75.907108, 36.622657 ], [ -75.907159, 36.622394 ], [ -75.907232, 36.622139 ], [ -75.907331, 36.621852 ], [ -75.907449, 36.621566 ], [ -75.90752, 36.621534 ], [ -75.907616, 36.621478 ], [ -75.907837, 36.621305 ], [ -75.908092, 36.621061 ], [ -75.908436, 36.620765 ], [ -75.908656, 36.620544 ], [ -75.908791, 36.620425 ], [ -75.908928, 36.620291 ], [ -75.909038, 36.62017 ], [ -75.909108, 36.620106 ], [ -75.909175, 36.620064 ] ] ] } },
{ "type": "Feature", "properties": { "cls": "separated", "highway": "cycleway", "name": null }, "geometry": { "type": "LineString", "coordinates": [ [ -75.899536, 36.630665 ], [ -75.899535, 36.630649 ], [ -75.899542, 36.630514 ], [ -75.899582, 36.630152 ], [ -75.89963, 36.629975 ], [ -75.899721, 36.629711 ], [ -75.89976, 36.629534 ], [ -75.899771, 36.629395 ], [ -75.89977, 36.629312 ], [ -75.899713, 36.628886 ], [ -75.899622, 36.628414 ], [ -75.899595, 36.628028 ], [ -75.899578, 36.627676 ], [ -75.899517, 36.627031 ], [ -75.899417, 36.626199 ], [ -75.899215, 36.624897 ], [ -75.899073, 36.623905 ], [ -75.89904, 36.623648 ], [ -75.898976, 36.622908 ], [ -75.898982, 36.62277 ], [ -75.899006, 36.622634 ], [ -75.899047, 36.622507 ], [ -75.899106, 36.622384 ], [ -75.899417, 36.62183 ], [ -75.899491, 36.621725 ], [ -75.89958, 36.621628 ], [ -75.899935, 36.621328 ], [ -75.89999, 36.621263 ], [ -75.900052, 36.621155 ], [ -75.900081, 36.621068 ], [ -75.900093, 36.620978 ], [ -75.900088, 36.620901 ] ] } }
]
}
