{
"type": "FeatureCollection",
"name": "057-madrid-casa-de-campo",
"crs": { "type": "name", "properties": { "name": "urn:ogc:def:crs:OGC:1.3:CRS84" } },
"xy_coordinate_resolution": 1e-06,
"features": [
{ "type": "Feature", "properties": { "cls": "separated", "highway": "cycleway", "name": "Anillo Verde Ciclista" }, "geometry": { "type": "LineString", "coordinates": [ [ -3.765349, 40.400594 ], [ -3.765452, 40.400488 ], [ -3.765583, 40.400372 ], [ -3.765655, 40.400302 ], [ -3.766201, 40.399934 ], [ -3.76624, 40.399908 ], [ -3.766574, 40.399721 ], [ -3.766773, 40.39952 ], [ -3.766796, 40.399474 ], [ -3.766836, 40.399395 ], [ -3.766881, 40.399366 ], [ -3.766977, 40.399303 ], [ -3.767118, 40.399284 ], [ -3.767275, 40.399311 ], [ -3.76765, 40.399364 ], [ -3.767707, 40.399374 ], [ -3.768464, 40.399514 ], [ -3.769197, 40.399649 ], [ -3.769745, 40.399604 ], [ -3.769785, 40.399599 ], [ -3.770468, 40.399569 ], [ -3.771046, 40.399669 ], [ -3.771745, 40.399802 ], [ -3.772062, 40.399892 ], [ -3.772381, 40.400144 ], [ -3.772432, 40.400187 ], [ -3.772551, 40.400288 ], [ -3.772691, 40.400406 ], [ -3.772739, 40.400461 ], [ -3.772799, 40.400568 ] ] } },
{ "type": "Feature", "properties": { "cls": "separated", "highway": "cycleway", "name": "Anillo Verde Ciclista" }, "geometry": { "type": "LineString", "coordinates": [ [ -3.764605, 40.399876 ], [ -3.764556, 40.399831 ], [ -3.764552, 40.39983 ] ] } },
{ "type": "Feature", "properties": { "cls": "separated", "highway": "cycleway", "name": "Anillo Verde Ciclista" }, "geometry": { "type": "LineString", "coordinates": [ [ -3.764944, 40.400639 ], [ -3.764928, 40.400609 ], [ -3.764909, 40.400582 ], [ -3.764894, 40.400551 ], [ -3.764818, 40.400285 ], [ -3.764763, 40.400118 ], [ -3.764745, 40.400088 ], [ -3.764724, 40.400045 ], [ -3.764691, 40.399989 ], [ -3.764652, 40.399925 ], [ -3.764605, 40.399876 ] ] } },
{ "type": "Feature", "properties": { "cls": "separated", "highway": "cycleway", "name": null }, "geometry": { "type": "LineString", "coordinates": [ [ -3.772816, 40.400629 ], [ -3.772799, 40.400568 ] ] } },
{ "type": "Feature", "properties": { "cls": "separated", "highway": "cycleway", "name": "Anillo Verde Ciclista" }, "geometry": { "type": "LineString", "coordinates": [ [ -3.765349, 40.400594 ], [ -3.765285, 40.400671 ], [ -3.765252, 40.400701 ], [ -3.765218, 40.400725 ], [ -3.76519, 40.400741 ], [ -3.765159, 40.400754 ], [ -3.765134, 40.400759 ], [ -3.765116, 40.400759 ], [ -3.765089, 40.400755 ], [ -3.765068, 40.400746 ], [ -3.76505, 40.400736 ], [ -3.765034, 40.400724 ], [ -3.764972, 40.400666 ], [ -3.764947, 40.400642 ], [ -3.764944, 40.400639 ] ] } },
{ "type": "Feature", "properties": { "cls": "separated", "highway": "cycleway", "name": "Anillo Verde Ciclista" }, "geometry": { "type": "LineString", "coordinates": [ [ -3.772816, 40.400629 ], [ -3.772836, 40.400839 ], [ -3.77286, 40.400927 ], [ -3.772908, 40.401107 ], [ -3.772923, 40.4012 ] ] } },
{ "type": "Feature", "properties": { "cls": "separated", "highway": "cycleway", "name": null }, "geometry": { "type": "LineString", "coordinates": [ [ -3.764605, 40.399876 ], [ -3.764376, 40.400018 ], [ -3.763984, 40.400275 ], [ -3.763809, 40.400391 ], [ -3.763722, 40.400445 ], [ -3.763557, 40.400539 ], [ -3.763136, 40.400802 ], [ -3.762577, 40.401169 ], [ -3.761928, 40.401561 ], [ -3.761766, 40.401677 ], [ -3.761189, 40.40233 ], [ -3.761135, 40.402394 ], [ -3.760957, 40.402608 ], [ -3.760953, 40.402623 ] ] } },
{ "type": "Feature", "properties": { "cls": "separated", "highway": "cycleway", "name": "Anillo Verde Ciclista" }, "geometry": { "type": "LineString", "coordinates": [ [ -3.772923, 40.4012 ], [ -3.772919, 40.401265 ], [ -3.772922, 40.401325 ], [ -3.772929, 40.401393 ], [ -3.772946, 40.401461 ], [ -3.772953, 40.40149 ], [ -3.772994, 40.401584 ], [ -3.773024, 40.401628 ], [ -3.773031, 40.401638 ], [ -3.773042, 40.401653 ], [ -3.773083, 40.401744 ], [ -3.773078, 40.401778 ], [ -3.773076, 40.401816 ], [ -3.773058, 40.401852 ], [ -3.773048, 40.401872 ], [ -3.772984, 40.401942 ] ] } },
{ "type": "Feature", "properties": { "cls": "separated", "highway": "cycleway", "name": "Camino del Zarzón" }, "geometry": { "type": "LineString", "coordinates": [ [ -3.77257, 40.402084 ], [ -3.772679, 40.402037 ], [ -3.772723, 40.402019 ], [ -3.772806, 40.401997 ], [ -3.77293, 40.40198 ], [ -3.772984, 40.401942 ] ] } },
{ "type": "Feature", "properties": { "cls": "shared", "highway": "cycleway", "name": null }, "geometry": { "type": "LineString", "coordinates": [ [ -3.76103, 40.403044 ], [ -3.761015, 40.403054 ] ] } },
{ "type": "Feature", "properties": { "cls": "shared", "highway": "cycleway", "name": null }, "geometry": { "type": "LineString", "coordinates": [ [ -3.744782, 40.409621 ], [ -3.744788, 40.409612 ], [ -3.744788, 40.409603 ], [ -3.744717, 40.409499 ], [ -3.744714, 40.409482 ], [ -3.744722, 40.409464 ], [ -3.744733, 40.409443 ], [ -3.744751, 40.409426 ], [ -3.744774, 40.409414 ], [ -3.744802, 40.409406 ], [ -3.744891, 40.409386 ], [ -3.745131, 40.409338 ], [ -3.745439, 40.409282 ], [ -3.745518, 40.409267 ], [ -3.74554, 40.409263 ], [ -3.745734, 40.409228 ], [ -3.745852, 40.409219 ], [ -3.745993, 40.409215 ], [ -3.746546, 40.40919 ], [ -3.746687, 40.409178 ], [ -3.746795, 40.409162 ], [ -3.747464, 40.409071 ], [ -3.747853, 40.409009 ], [ -3.748325, 40.408942 ], [ -3.748901, 40.408853 ], [ -3.749165, 40.408819 ], [ -3.749313, 40.408803 ], [ -3.74957, 40.408783 ], [ -3.749673, 40.408778 ], [ -3.749785, 40.40877 ], [ -3.749834, 40.408765 ], [ -3.749871, 40.408758 ], [ -3.749903, 40.408753 ], [ -3.749989, 40.408736 ], [ -3.750257, 40.408673 ], [ -3.750575, 40.408579 ], [ -3.750651, 40.408553 ], [ -3.75071, 40.408534 ], [ -3.750763, 40.408506 ], [ -3.750807, 40.408479 ], [ -3.750841, 40.408459 ], [ -3.750872, 40.408444 ], [ -3.750903, 40.408431 ], [ -3.750973, 40.408414 ], [ -3.751034, 40.408398 ], [ -3.751117, 40.408378 ], [ -3.751198, 40.408369 ], [ -3.751265, 40.408348 ], [ -3.751333, 40.408312 ], [ -3.751358, 40.408278 ], [ -3.751379, 40.40825 ], [ -3.751454, 40.40812 ], [ -3.751498, 40.408059 ], [ -3.751536, 40.408012 ], [ -3.75157, 40.407975 ], [ -3.75167, 40.407885 ], [ -3.751744, 40.407821 ], [ -3.751838, 40.407756 ], [ -3.752142, 40.407592 ], [ -3.752264, 40.407546 ], [ -3.752321, 40.407522 ], [ -3.752366, 40.407507 ], [ -3.752438, 40.407508 ], [ -3.752506, 40.407524 ], [ -3.752539, 40.407536 ] ] } },
{ "type": "Feature", "properties": { "cls": "shared", "highway": "cycleway", "name": null }, "geometry": { "type": "LineString", "coordinates": [ [ -3.761015, 40.403054 ], [ -3.760967, 40.403087 ] ] } },
{ "type": "Feature", "properties": { "cls": "separated", "highway": "cycleway", "name": "Camino del Zarzón" }, "geometry": { "type": "LineString", "coordinates": [ [ -3.77257, 40.402084 ], [ -3.77253, 40.402135 ], [ -3.772462, 40.402212 ], [ -3.772379, 40.402304 ], [ -3.772189, 40.402535 ], [ -3.772111, 40.402611 ], [ -3.771805, 40.402906 ], [ -3.771613, 40.40314 ], [ -3.771504, 40.40326 ], [ -3.771467, 40.403285 ], [ -3.771359, 40.403309 ], [ -3.771241, 40.403367 ], [ -3.771067, 40.403472 ], [ -3.770908, 40.403604 ], [ -3.770496, 40.403937 ], [ -3.770243, 40.40414 ], [ -3.769896, 40.404343 ], [ -3.769485, 40.40451 ], [ -3.769252, 40.404612 ], [ -3.768296, 40.4052 ], [ -3.767848, 40.405464 ], [ -3.767683, 40.405536 ], [ -3.767593, 40.405577 ], [ -3.767506, 40.405602 ], [ -3.767417, 40.405658 ], [ -3.767173, 40.405931 ], [ -3.766723, 40.406218 ], [ -3.766438, 40.40642 ], [ -3.766187, 40.406671 ], [ -3.765971, 40.406897 ], [ -3.765869, 40.406975 ], [ -3.765746, 40.407006 ], [ -3.765665, 40.407015 ], [ -3.765623, 40.407012 ], [ -3.765583, 40.407001 ], [ -3.765534, 40.406976 ], [ -3.765477, 40.406947 ] ] } },
{ "type": "Feature", "properties": { "cls": "separated", "highway": "cycleway", "name": "Camino del Zarzón" }, "geometry": { "type": "LineString", "coordinates": [ [ -3.764164, 40.406663 ], [ -3.764127, 40.406666 ] ] } },
{ "type": "Feature", "properties": { "cls": "separated", "highway": "cycleway", "name": "Camino del Zarzón" }, "geometry": { "type": "LineString", "coordinates": [ [ -3.765348, 40.406849 ], [ -3.765273, 40.406793 ], [ -3.765116, 40.406698 ], [ -3.765052, 40.406675 ], [ -3.764979, 40.406652 ], [ -3.764948, 40.406646 ], [ -3.764887, 40.406634 ], [ -3.764824, 40.406624 ], [ -3.764768, 40.406622 ], [ -3.764672, 40.406623 ], [ -3.764561, 40.406633 ], [ -3.764346, 40.406651 ], [ -3.764164, 40.406663 ] ] } },
{ "type": "Feature", "properties": { "cls": "painted", "highway": "unclassified", "name": "Paseo del Embarcadero" }, "geometry": { "type": "LineString", "coordinates": [ [ -3.734566, 40.417365 ], [ -3.734515, 40.41739 ], [ -3.734474, 40.417406 ], [ -3.734428, 40.417418 ], [ -3.734372, 40.417427 ], [ -3.734336, 40.41743 ], [ -3.734277, 40.417428 ], [ -3.733852, 40.417361 ], [ -3.733728, 40.417343 ], [ -3.73362, 40.417326 ], [ -3.733447, 40.417299 ], [ -3.733266, 40.417268 ], [ -3.73308, 40.417238 ], [ -3.732903, 40.417208 ], [ -3.732745, 40.41718 ], [ -3.732683, 40.417166 ], [ -3.732637, 40.417152 ], [ -3.732235, 40.417032 ], [ -3.731603, 40.416859 ], [ -3.731442, 40.416826 ], [ -3.73136, 40.416818 ], [ -3.731253, 40.416812 ], [ -3.731139, 40.41682 ], [ -3.731089, 40.416831 ], [ -3.731025, 40.416862 ], [ -3.730966, 40.416909 ], [ -3.730928, 40.416972 ], [ -3.730913, 40.417027 ], [ -3.730915, 40.417104 ], [ -3.730924, 40.417202 ], [ -3.730954, 40.41738 ], [ -3.730973, 40.417489 ], [ -3.730976, 40.417553 ], [ -3.730965, 40.417596 ], [ -3.730943, 40.417647 ], [ -3.730898, 40.417691 ], [ -3.730842, 40.417721 ], [ -3.730775, 40.417737 ], [ -3.730661, 40.417754 ], [ -3.730279, 40.417809 ] ] } },
{ "type": "Feature", "properties": { "cls": "separated", "highway": "cycleway", "name": null }, "geometry": { "type": "LineString", "coordinates": [ [ -3.734336, 40.41743 ], [ -3.734272, 40.417461 ] ] } },
{ "type": "Feature", "properties": { "cls": "separated", "highway": "cycleway", "name": null }, "geometry": { "type": "LineString", "coordinates": [ [ -3.728811, 40.418121 ], [ -3.728974, 40.418082 ], [ -3.729166, 40.41804 ], [ -3.729823, 40.417903 ], [ -3.729886, 40.417894 ], [ -3.730663, 40.417792 ], [ -3.730723, 40.417784 ], [ -3.730778, 40.417773 ], [ -3.730822, 40.417764 ], [ -3.730852, 40.417754 ], [ -3.730895, 40.417735 ], [ -3.730924, 40.417719 ], [ -3.730942, 40.417706 ], [ -3.730967, 40.417684 ], [ -3.730986, 40.417662 ], [ -3.731001, 40.417637 ], [ -3.731014, 40.417603 ], [ -3.73102, 40.41755 ], [ -3.731019, 40.417514 ], [ -3.731015, 40.417477 ], [ -3.730995, 40.417377 ], [ -3.730971, 40.417225 ], [ -3.730966, 40.417184 ], [ -3.730963, 40.417146 ], [ -3.73096, 40.417107 ], [ -3.730959, 40.417074 ], [ -3.730961, 40.417046 ], [ -3.730967, 40.417017 ], [ -3.730973, 40.416991 ], [ -3.73098, 40.416969 ], [ -3.731001, 40.416941 ], [ -3.731018, 40.416921 ], [ -3.731044, 40.416907 ], [ -3.731083, 40.416889 ], [ -3.731126, 40.416873 ], [ -3.731166, 40.416863 ], [ -3.731212, 40.416853 ], [ -3.731255, 40.41685 ], [ -3.731336, 40.416851 ], [ -3.73141, 40.416857 ], [ -3.731483, 40.416867 ], [ -3.731587, 40.41689 ], [ -3.732177, 40.417055 ], [ -3.732629, 40.417186 ], [ -3.73268, 40.417199 ], [ -3.732721, 40.417209 ], [ -3.733442, 40.417325 ], [ -3.733525, 40.417339 ], [ -3.734272, 40.417461 ] ] } },
{ "type": "Feature", "properties": { "cls": "sharrow", "highway": "unclassified", "name": "Paseo de la Puerta del Ángel" }, "geometry": { "type": "LineString", "coordinates": [ [ -3.734842, 40.417724 ], [ -3.734877, 40.417659 ], [ -3.734912, 40.417586 ] ] } },
{ "type": "Feature", "properties": { "cls": "sharrow", "highway": "unclassified", "name": "Paseo de la Puerta del Ángel" }, "geometry": { "type": "LineString", "coordinates": [ [ -3.734681, 40.41762 ], [ -3.734842, 40.417724 ] ] } },
{ "type": "Feature", "properties": { "cls": "painted", "highway": "unclassified", "name": "Paseo del Embarcadero" }, "geometry": { "type": "LineString", "coordinates": [ [ -3.730279, 40.417809 ], [ -3.729882, 40.417861 ], [ -3.729591, 40.417918 ], [ -3.729364, 40.417969 ], [ -3.729179, 40.418009 ], [ -3.72878, 40.418101 ] ] } },
{ "type": "Feature", "properties": { "cls": "sharrow", "highway": "unclassified", "name": "Paseo de la Puerta del Ángel" }, "geometry": { "type": "LineString", "coordinates": [ [ -3.735175, 40.419097 ], [ -3.735169, 40.419075 ], [ -3.735149, 40.419006 ], [ -3.735069, 40.418675 ], [ -3.735025, 40.418493 ], [ -3.734914, 40.418034 ], [ -3.734842, 40.417724 ] ] } },
{ "type": "Feature", "properties": { "cls": "sharrow", "highway": "unclassified", "name": null }, "geometry": { "type": "LineString", "coordinates": [ [ -3.735256, 40.419154 ], [ -3.735255, 40.419132 ], [ -3.73524, 40.419112 ], [ -3.735214, 40.4191 ], [ -3.735175, 40.419097 ], [ -3.735152, 40.419109 ], [ -3.735141, 40.419125 ], [ -3.735135, 40.419146 ], [ -3.735142, 40.419167 ], [ -3.735161, 40.419183 ], [ -3.735188, 40.419191 ] ] } },
{ "type": "Feature", "properties": { "cls": "sharrow", "highway": "unclassified", "name": null }, "geometry": { "type": "LineString", "coordinates": [ [ -3.735244, 40.419173 ], [ -3.735256, 40.419154 ] ] } },
{ "type": "Feature", "properties": { "cls": "sharrow", "highway": "unclassified", "name": null }, "geometry": { "type": "LineString", "coordinates": [ [ -3.735188, 40.419191 ], [ -3.735206, 40.41919 ], [ -3.735224, 40.419186 ], [ -3.735244, 40.419173 ] ] } },
{ "type": "Feature", "properties": { "cls": "painted", "highway": "unclassified", "name": "Paseo de la Puerta del Ángel" }, "geometry": { "type": "LineString", "coordinates": [ [ -3.735188, 40.419191 ], [ -3.735177, 40.419218 ], [ -3.735104, 40.419351 ] ] } },
{ "type": "Feature", "properties": { "cls": "separated", "highway": "cycleway", "name": null }, "geometry": { "type": "LineString", "coordinates": [ [ -3.752515, 40.408582 ], [ -3.752486, 40.408581 ], [ -3.752458, 40.408584 ] ] } },
{ "type": "Feature", "properties": { "cls": "shared", "highway": "cycleway", "name": null }, "geometry": { "type": "LineString", "coordinates": [ [ -3.74478, 40.409622 ], [ -3.744782, 40.409621 ] ] } },
{ "type": "Feature", "properties": { "cls": "sharrow", "highway": "service", "name": "Carretera del Zoo" }, "geometry": { "type": "LineString", "coordinates": [ [ -3.759383, 40.41032 ], [ -3.759428, 40.410308 ], [ -3.759469, 40.410292 ], [ -3.759494, 40.410276 ], [ -3.759518, 40.410251 ], [ -3.759564, 40.410183 ], [ -3.759746, 40.409926 ], [ -3.759772, 40.409891 ], [ -3.759809, 40.409851 ], [ -3.759897, 40.409782 ], [ -3.76001, 40.409681 ], [ -3.760284, 40.409457 ], [ -3.760315, 40.409431 ], [ -3.760419, 40.40934 ], [ -3.760441, 40.409321 ], [ -3.760481, 40.409286 ] ] } },
{ "type": "Feature", "properties": { "cls": "separated", "highway": "cycleway", "name": "Anillo Verde Ciclista" }, "geometry": { "type": "LineString", "coordinates": [ [ -3.759383, 40.41032 ], [ -3.759349, 40.410376 ], [ -3.759303, 40.410444 ], [ -3.759216, 40.410556 ], [ -3.75919, 40.410583 ], [ -3.759147, 40.410625 ], [ -3.759065, 40.410696 ], [ -3.759046, 40.410712 ], [ -3.759015, 40.410739 ], [ -3.758959, 40.410778 ], [ -3.758873, 40.41083 ], [ -3.758779, 40.410883 ], [ -3.758733, 40.410906 ], [ -3.758689, 40.410923 ], [ -3.75862, 40.410953 ], [ -3.758551, 40.410978 ], [ -3.758427, 40.411014 ], [ -3.75832, 40.411041 ], [ -3.75825, 40.411061 ], [ -3.758139, 40.411094 ], [ -3.7581, 40.411113 ], [ -3.758073, 40.411137 ], [ -3.758056, 40.411161 ], [ -3.758047, 40.411181 ], [ -3.758043, 40.411214 ], [ -3.758044, 40.411232 ], [ -3.758048, 40.411253 ], [ -3.758083, 40.411413 ], [ -3.758082, 40.41143 ], [ -3.758075, 40.411448 ], [ -3.758066, 40.411459 ], [ -3.758048, 40.411469 ], [ -3.757999, 40.411474 ] ] } },
{ "type": "Feature", "properties": { "cls": "separated", "highway": "cycleway", "name": "Camino del Zarzón" }, "geometry": { "type": "LineString", "coordinates": [ [ -3.764127, 40.406666 ], [ -3.763943, 40.406683 ], [ -3.763873, 40.406695 ], [ -3.763838, 40.406704 ], [ -3.763812, 40.406715 ], [ -3.763664, 40.406802 ], [ -3.763606, 40.40684 ], [ -3.763556, 40.406883 ], [ -3.763432, 40.406989 ], [ -3.763297, 40.407038 ], [ -3.763273, 40.407023 ] ] } },
{ "type": "Feature", "properties": { "cls": "separated", "highway": "cycleway", "name": "Puente del Álamo Negro" }, "geometry": { "type": "LineString", "coordinates": [ [ -3.765348, 40.406849 ], [ -3.765477, 40.406947 ] ] } },
{ "type": "Feature", "properties": { "cls": "sharrow", "highway": "service", "name": "Carretera del Zoo" }, "geometry": { "type": "LineString", "coordinates": [ [ -3.761312, 40.408689 ], [ -3.761333, 40.408681 ], [ -3.761353, 40.408674 ], [ -3.761492, 40.408547 ], [ -3.761854, 40.408239 ], [ -3.762096, 40.408045 ], [ -3.762254, 40.407905 ], [ -3.762418, 40.407763 ], [ -3.762612, 40.407592 ], [ -3.762771, 40.407455 ], [ -3.76296, 40.40729 ], [ -3.763273, 40.407023 ] ] } },
{ "type": "Feature", "properties": { "cls": "sharrow", "highway": "service", "name": null }, "geometry": { "type": "LineString", "coordinates": [ [ -3.761312, 40.408689 ], [ -3.761277, 40.408663 ], [ -3.760985, 40.408664 ], [ -3.760939, 40.40867 ], [ -3.760909, 40.40868 ], [ -3.76089, 40.40869 ], [ -3.76088, 40.408729 ], [ -3.760892, 40.408887 ], [ -3.760902, 40.408915 ] ] } },
{ "type": "Feature", "properties": { "cls": "sharrow", "highway": "service", "name": null }, "geometry": { "type": "LineString", "coordinates": [ [ -3.760902, 40.408915 ], [ -3.76096, 40.408946 ], [ -3.761017, 40.408949 ], [ -3.761075, 40.408933 ], [ -3.761305, 40.408731 ], [ -3.761312, 40.408689 ] ] } },
{ "type": "Feature", "properties": { "cls": "sharrow", "highway": "service", "name": "Carretera del Zoo" }, "geometry": { "type": "LineString", "coordinates": [ [ -3.7607, 40.409079 ], [ -3.760739, 40.40904 ], [ -3.760808, 40.408986 ], [ -3.760879, 40.408934 ], [ -3.760902, 40.408915 ] ] } },
{ "type": "Feature", "properties": { "cls": "sharrow", "highway": "service", "name": null }, "geometry": { "type": "LineString", "coordinates": [ [ -3.7607, 40.409079 ], [ -3.760654, 40.409059 ], [ -3.760602, 40.40905 ], [ -3.760549, 40.409054 ], [ -3.7605, 40.40907 ], [ -3.76046, 40.409096 ], [ -3.760431, 40.409131 ], [ -3.760419, 40.40917 ], [ -3.760422, 40.409211 ], [ -3.760441, 40.409248 ], [ -3.760481, 40.409286 ] ] } },
{ "type": "Feature", "properties": { "cls": "sharrow", "highway": "service", "name": null }, "geometry": { "type": "LineString", "coordinates": [ [ -3.760481, 40.409286 ], [ -3.760521, 40.409303 ], [ -3.760574, 40.409314 ], [ -3.76063, 40.409312 ], [ -3.760681, 40.409296 ], [ -3.760724, 40.409269 ], [ -3.760753, 40.409232 ], [ -3.760765, 40.409191 ], [ -3.76076, 40.409149 ], [ -3.760738, 40.40911 ], [ -3.7607, 40.409079 ] ] } },
{ "type": "Feature", "properties": { "cls": "separated", "highway": "cycleway", "name": "Anillo Verde Ciclista" }, "geometry": { "type": "LineString", "coordinates": [ [ -3.7401, 40.434985 ], [ -3.740061, 40.434943 ], [ -3.740038, 40.434936 ], [ -3.740017, 40.434939 ], [ -3.739984, 40.43495 ], [ -3.739961, 40.434951 ], [ -3.73993, 40.434945 ], [ -3.73991, 40.434935 ], [ -3.739896, 40.434923 ], [ -3.739714, 40.43471 ], [ -3.739656, 40.43464 ], [ -3.739641, 40.434606 ], [ -3.739634, 40.434574 ], [ -3.739632, 40.43454 ], [ -3.739635, 40.434495 ], [ -3.739632, 40.434444 ], [ -3.739616, 40.434395 ], [ -3.739598, 40.434361 ], [ -3.739572, 40.434333 ], [ -3.73952, 40.434275 ], [ -3.739311, 40.434059 ], [ -3.739281, 40.434019 ], [ -3.73927, 40.433995 ], [ -3.739271, 40.433971 ], [ -3.739284, 40.433952 ], [ -3.739306, 40.433941 ] ] } },
{ "type": "Feature", "properties": { "cls": "separated", "highway": "cycleway", "name": "Anillo Verde Ciclista" }, "geometry": { "type": "LineString", "coordinates": [ [ -3.740275, 40.43559 ], [ -3.740401, 40.435532 ], [ -3.740444, 40.435484 ], [ -3.740451, 40.435443 ], [ -3.740417, 40.43539 ], [ -3.7401, 40.434985 ] ] } },
{ "type": "Feature", "properties": { "cls": "painted", "highway": "unclassified", "name": "Paseo del Embarcadero" }, "geometry": { "type": "LineString", "coordinates": [ [ -3.72878, 40.418101 ], [ -3.728737, 40.418119 ], [ -3.728707, 40.418135 ] ] } },
{ "type": "Feature", "properties": { "cls": "separated", "highway": "cycleway", "name": null }, "geometry": { "type": "LineString", "coordinates": [ [ -3.728679, 40.418227 ], [ -3.728679, 40.418202 ], [ -3.72869, 40.418182 ], [ -3.728704, 40.418167 ], [ -3.728721, 40.418155 ], [ -3.728743, 40.418143 ], [ -3.728763, 40.418135 ], [ -3.72879, 40.418126 ], [ -3.728811, 40.418121 ] ] } },
{ "type": "Feature", "properties": { "cls": "painted", "highway": "unclassified", "name": "Paseo Azul" }, "geometry": { "type": "LineString", "coordinates": [ [ -3.728707, 40.418135 ], [ -3.728682, 40.418157 ], [ -3.728656, 40.418178 ], [ -3.728646, 40.418211 ], [ -3.728651, 40.418243 ], [ -3.72868, 40.418301 ], [ -3.728756, 40.418423 ] ] } },
{ "type": "Feature", "properties": { "cls": "painted", "highway": "unclassified", "name": "Paseo Azul" }, "geometry": { "type": "LineString", "coordinates": [ [ -3.728756, 40.418423 ], [ -3.728805, 40.418558 ], [ -3.729051, 40.419255 ] ] } },
{ "type": "Feature", "properties": { "cls": "separated", "highway": "cycleway", "name": null }, "geometry": { "type": "LineString", "coordinates": [ [ -3.729834, 40.420638 ], [ -3.7298, 40.420595 ], [ -3.729772, 40.420561 ], [ -3.729743, 40.420523 ], [ -3.729683, 40.420459 ], [ -3.72964, 40.420415 ], [ -3.729613, 40.420393 ], [ -3.729525, 40.420324 ], [ -3.729387, 40.420221 ], [ -3.729344, 40.420186 ], [ -3.729312, 40.420158 ], [ -3.729293, 40.420136 ], [ -3.729278, 40.420109 ], [ -3.729266, 40.420077 ], [ -3.729252, 40.420024 ], [ -3.729198, 40.419713 ], [ -3.729138, 40.419448 ], [ -3.729082, 40.419259 ], [ -3.728779, 40.418416 ], [ -3.728679, 40.418227 ] ] } },
{ "type": "Feature", "properties": { "cls": "painted", "highway": "unclassified", "name": "Paseo Azul" }, "geometry": { "type": "LineString", "coordinates": [ [ -3.729051, 40.419255 ], [ -3.729114, 40.419454 ], [ -3.729168, 40.419711 ], [ -3.72918, 40.419808 ], [ -3.729217, 40.420055 ], [ -3.729226, 40.420093 ], [ -3.729241, 40.420118 ] ] } },
{ "type": "Feature", "properties": { "cls": "separated", "highway": "cycleway", "name": null }, "geometry": { "type": "LineString", "coordinates": [ [ -3.730057, 40.420518 ], [ -3.730112, 40.420521 ], [ -3.730161, 40.420524 ], [ -3.730237, 40.420531 ], [ -3.730328, 40.420541 ], [ -3.730466, 40.42056 ], [ -3.730547, 40.42057 ], [ -3.730645, 40.420578 ], [ -3.730759, 40.420583 ], [ -3.730805, 40.420585 ], [ -3.730889, 40.420583 ], [ -3.730938, 40.420579 ], [ -3.730997, 40.420573 ], [ -3.731055, 40.420564 ], [ -3.731109, 40.420555 ], [ -3.73123, 40.420535 ], [ -3.731292, 40.420525 ], [ -3.731328, 40.420521 ], [ -3.731388, 40.420519 ], [ -3.731444, 40.420521 ], [ -3.731564, 40.420531 ], [ -3.731931, 40.420577 ], [ -3.732939, 40.420715 ], [ -3.733, 40.420717 ], [ -3.733088, 40.420717 ], [ -3.733202, 40.420711 ], [ -3.733338, 40.420701 ], [ -3.733403, 40.420695 ], [ -3.733434, 40.42069 ], [ -3.733454, 40.420685 ], [ -3.733474, 40.420676 ], [ -3.733488, 40.420668 ], [ -3.733503, 40.420655 ], [ -3.733514, 40.420639 ], [ -3.733522, 40.420622 ], [ -3.73353, 40.420609 ], [ -3.733538, 40.420597 ], [ -3.73355, 40.420588 ], [ -3.73357, 40.420575 ], [ -3.734062, 40.42028 ], [ -3.734217, 40.420176 ], [ -3.734253, 40.420155 ], [ -3.734289, 40.420133 ], [ -3.734322, 40.42011 ], [ -3.734348, 40.420089 ], [ -3.734371, 40.420068 ], [ -3.734393, 40.420047 ], [ -3.734413, 40.420025 ], [ -3.734436, 40.42 ], [ -3.734475, 40.419951 ], [ -3.734509, 40.419905 ], [ -3.7346, 40.419784 ], [ -3.734624, 40.419752 ], [ -3.734651, 40.419723 ], [ -3.734681, 40.419695 ], [ -3.734713, 40.419666 ], [ -3.734767, 40.419627 ], [ -3.734842, 40.419581 ], [ -3.73501, 40.419477 ], [ -3.735046, 40.419452 ], [ -3.73507, 40.419436 ], [ -3.735085, 40.419421 ], [ -3.735108, 40.419399 ], [ -3.735129, 40.419375 ], [ -3.735138, 40.419365 ], [ -3.735155, 40.419342 ], [ -3.735247, 40.419218 ], [ -3.73525, 40.41921 ], [ -3.735251, 40.419203 ], [ -3.735244, 40.419173 ] ] } },
{ "type": "Feature", "properties": { "cls": "painted", "highway": "unclassified", "name": "Paseo de la Puerta del Ángel" }, "geometry": { "type": "LineString", "coordinates": [ [ -3.735104, 40.419351 ], [ -3.735081, 40.419387 ], [ -3.735052, 40.419409 ], [ -3.734908, 40.419493 ], [ -3.734798, 40.419552 ], [ -3.734734, 40.419596 ], [ -3.734687, 40.419632 ], [ -3.734605, 40.419711 ], [ -3.734563, 40.419766 ], [ -3.734476, 40.419878 ], [ -3.73443, 40.419936 ], [ -3.734373, 40.420003 ], [ -3.734319, 40.420056 ], [ -3.73426, 40.420099 ], [ -3.734136, 40.420175 ], [ -3.734021, 40.420244 ], [ -3.733449, 40.420575 ] ] } },
{ "type": "Feature", "properties": { "cls": "painted", "highway": "unclassified", "name": "Paseo Azul" }, "geometry": { "type": "LineString", "coordinates": [ [ -3.729241, 40.420118 ], [ -3.729261, 40.420142 ], [ -3.729288, 40.42017 ], [ -3.72931, 40.420191 ], [ -3.72934, 40.420218 ], [ -3.729456, 40.420306 ], [ -3.729531, 40.420373 ] ] } },
{ "type": "Feature", "properties": { "cls": "painted", "highway": "unclassified", "name": "Paseo Azul" }, "geometry": { "type": "LineString", "coordinates": [ [ -3.729531, 40.420373 ], [ -3.729802, 40.420641 ] ] } },
{ "type": "Feature", "properties": { "cls": "separated", "highway": "cycleway", "name": null }, "geometry": { "type": "LineString", "coordinates": [ [ -3.729802, 40.420641 ], [ -3.729834, 40.420638 ], [ -3.72983, 40.420617 ], [ -3.729834, 40.420598 ], [ -3.729839, 40.420585 ], [ -3.729853, 40.420564 ], [ -3.729875, 40.420548 ], [ -3.729898, 40.42054 ], [ -3.729924, 40.420534 ], [ -3.729972, 40.420526 ], [ -3.730038, 40.420519 ], [ -3.730057, 40.420518 ] ] } },
{ "type": "Feature", "properties": { "cls": "painted", "highway": "unclassified", "name": "Paseo de Torrecilla" }, "geometry": { "type": "LineString", "coordinates": [ [ -3.733323, 40.420616 ], [ -3.733268, 40.420634 ], [ -3.733145, 40.420668 ], [ -3.733105, 40.420675 ], [ -3.733072, 40.420681 ], [ -3.733041, 40.420683 ], [ -3.733006, 40.420682 ], [ -3.732946, 40.420679 ], [ -3.731885, 40.420534 ], [ -3.73173, 40.420516 ], [ -3.73159, 40.420505 ], [ -3.731466, 40.420495 ], [ -3.731382, 40.420493 ], [ -3.731286, 40.420497 ], [ -3.731161, 40.420513 ], [ -3.731069, 40.420525 ], [ -3.730988, 40.420536 ], [ -3.730903, 40.420545 ], [ -3.730844, 40.420548 ], [ -3.73077, 40.42055 ], [ -3.730663, 40.420547 ], [ -3.730576, 40.420542 ], [ -3.730505, 40.420536 ], [ -3.730442, 40.42053 ], [ -3.730291, 40.42051 ], [ -3.730087, 40.420484 ], [ -3.730009, 40.420485 ], [ -3.729945, 40.420493 ], [ -3.729889, 40.420503 ], [ -3.729838, 40.420533 ], [ -3.729816, 40.420551 ], [ -3.729803, 40.420572 ], [ -3.7298, 40.420595 ], [ -3.729802, 40.420641 ] ] } },
{ "type": "Feature", "properties": { "cls": "painted", "highway": "unclassified", "name": "Paseo de Torrecilla" }, "geometry": { "type": "LineString", "coordinates": [ [ -3.733323, 40.420616 ], [ -3.733333, 40.420629 ], [ -3.733348, 40.42064 ], [ -3.733367, 40.420647 ], [ -3.733387, 40.42065 ], [ -3.733406, 40.420648 ], [ -3.733424, 40.420642 ], [ -3.733439, 40.420632 ], [ -3.733449, 40.42062 ], [ -3.733455, 40.420605 ], [ -3.733455, 40.420589 ], [ -3.733449, 40.420575 ] ] } },
{ "type": "Feature", "properties": { "cls": "painted", "highway": "unclassified", "name": "Paseo Piñonero" }, "geometry": { "type": "LineString", "coordinates": [ [ -3.729802, 40.420641 ], [ -3.730135, 40.421064 ], [ -3.730723, 40.421796 ], [ -3.731566, 40.422809 ], [ -3.731808, 40.4231 ], [ -3.732534, 40.423982 ], [ -3.733184, 40.424788 ], [ -3.733277, 40.424913 ], [ -3.733333, 40.424981 ] ] } }
]
}
