{
"type": "FeatureCollection",
"name": "058-los-angeles-griffith-park",
"crs": { "type": "name", "properties": { "name": "urn:ogc:def:crs:OGC:1.3:CRS84" } },
"xy_coordinate_resolution": 1e-06,
"features": [
{ "type": "Feature", "properties": { "cls": "separated", "highway": "secondary", "name": "Riverside Drive" }, "geometry": { "type": "LineString", "coordinates": [ [ -118.269317, 34.114057 ], [ -118.269396, 34.114138 ], [ -118.269794, 34.114548 ] ] } },
{ "type": "Feature", "properties": { "cls": "separated", "highway": "secondary", "name": "Riverside Drive" }, "geometry": { "type": "LineString", "coordinates": [ [ -118.269794, 34.114548 ], [ -118.270038, 34.114798 ], [ -118.270193, 34.114968 ], [ -118.270205, 34.114982 ], [ -118.270315, 34.115101 ] ] } },
{ "type": "Feature", "properties": { "cls": "separated", "highway": "secondary", "name": "Riverside Drive" }, "geometry": { "type": "LineString", "coordinates": [ [ -118.270315, 34.115101 ], [ -118.270451, 34.115257 ] ] } },
{ "type": "Feature", "properties": { "cls": "separated", "highway": "secondary", "name": "Riverside Drive" }, "geometry": { "type": "LineString", "coordinates": [ [ -118.270451, 34.115257 ], [ -118.270767, 34.115661 ] ] } },
{ "type": "Feature", "properties": { "cls": "separated", "highway": "secondary", "name": "Riverside Drive" }, "geometry": { "type": "LineString", "coordinates": [ [ -118.270767, 34.115661 ], [ -118.270867, 34.115806 ] ] } },
{ "type": "Feature", "properties": { "cls": "separated", "highway": "secondary", "name": "Riverside Drive" }, "geometry": { "type": "LineString", "coordinates": [ [ -118.270867, 34.115806 ], [ -118.271184, 34.116265 ], [ -118.271294, 34.116424 ], [ -118.271379, 34.116554 ] ] } },
{ "type": "Feature", "properties": { "cls": "shared", "highway": "cycleway", "name": null }, "geometry": { "type": "LineString", "coordinates": [ [ -118.269081, 34.115795 ], [ -118.269094, 34.11579 ], [ -118.269303, 34.116192 ], [ -118.269438, 34.116456 ], [ -118.269464, 34.116472 ], [ -118.269626, 34.116764 ], [ -118.269667, 34.116775 ], [ -118.27043, 34.116561 ], [ -118.270395, 34.116357 ], [ -118.270472, 34.116326 ] ] } },
{ "type": "Feature", "properties": { "cls": "painted", "highway": "secondary", "name": "Riverside Drive" }, "geometry": { "type": "LineString", "coordinates": [ [ -118.271379, 34.116554 ], [ -118.27156, 34.116827 ], [ -118.271581, 34.116859 ], [ -118.271693, 34.117024 ] ] } },
{ "type": "Feature", "properties": { "cls": "painted", "highway": "tertiary", "name": "Griffith Park Road" }, "geometry": { "type": "LineString", "coordinates": [ [ -118.272084, 34.117444 ], [ -118.272005, 34.117359 ], [ -118.271879, 34.117202 ], [ -118.271851, 34.117169 ], [ -118.271693, 34.117024 ] ] } },
{ "type": "Feature", "properties": { "cls": "painted", "highway": "tertiary", "name": "Crystal Springs Drive" }, "geometry": { "type": "LineString", "coordinates": [ [ -118.271693, 34.117024 ], [ -118.271836, 34.117306 ], [ -118.27195, 34.117463 ], [ -118.272055, 34.117588 ], [ -118.27216, 34.117697 ], [ -118.272408, 34.117935 ] ] } },
{ "type": "Feature", "properties": { "cls": "painted", "highway": "tertiary", "name": "Crystal Springs Drive" }, "geometry": { "type": "LineString", "coordinates": [ [ -118.272408, 34.117935 ], [ -118.272592, 34.118119 ] ] } },
{ "type": "Feature", "properties": { "cls": "shared", "highway": "cycleway", "name": null }, "geometry": { "type": "LineString", "coordinates": [ [ -118.273779, 34.119369 ], [ -118.273837, 34.119303 ], [ -118.273833, 34.119264 ], [ -118.273785, 34.119115 ] ] } },
{ "type": "Feature", "properties": { "cls": "painted", "highway": "tertiary", "name": "Griffith Park Road" }, "geometry": { "type": "LineString", "coordinates": [ [ -118.274626, 34.121303 ], [ -118.274598, 34.121202 ], [ -118.274559, 34.121103 ], [ -118.274421, 34.120891 ], [ -118.274352, 34.120781 ], [ -118.274267, 34.120649 ], [ -118.274154, 34.120446 ], [ -118.274066, 34.120252 ], [ -118.273944, 34.11995 ], [ -118.273877, 34.119744 ], [ -118.273808, 34.119463 ], [ -118.273779, 34.119369 ], [ -118.273699, 34.119173 ], [ -118.273582, 34.11894 ], [ -118.27349, 34.118785 ], [ -118.273321, 34.118549 ], [ -118.273003, 34.118192 ], [ -118.272838, 34.118039 ], [ -118.272491, 34.117759 ], [ -118.27235, 34.11766 ], [ -118.27216, 34.117517 ], [ -118.272084, 34.117444 ] ] } },
{ "type": "Feature", "properties": { "cls": "painted", "highway": "tertiary", "name": "Crystal Springs Drive" }, "geometry": { "type": "LineString", "coordinates": [ [ -118.272592, 34.118119 ], [ -118.272655, 34.118184 ], [ -118.272752, 34.118283 ], [ -118.273017, 34.118551 ], [ -118.273138, 34.11869 ], [ -118.27322, 34.118818 ], [ -118.273257, 34.118875 ], [ -118.273336, 34.119029 ], [ -118.273429, 34.119286 ], [ -118.273452, 34.119358 ], [ -118.273617, 34.119859 ], [ -118.273633, 34.119919 ], [ -118.273745, 34.120325 ], [ -118.273791, 34.120526 ], [ -118.273818, 34.12064 ] ] } },
{ "type": "Feature", "properties": { "cls": "painted", "highway": "tertiary", "name": "Crystal Springs Drive" }, "geometry": { "type": "LineString", "coordinates": [ [ -118.273818, 34.12064 ], [ -118.273887, 34.120951 ] ] } },
{ "type": "Feature", "properties": { "cls": "painted", "highway": "tertiary", "name": "Crystal Springs Drive" }, "geometry": { "type": "LineString", "coordinates": [ [ -118.273887, 34.120951 ], [ -118.273901, 34.12104 ], [ -118.273937, 34.121189 ], [ -118.273971, 34.121284 ], [ -118.274009, 34.121368 ] ] } },
{ "type": "Feature", "properties": { "cls": "painted", "highway": "tertiary", "name": "Griffith Park Road" }, "geometry": { "type": "LineString", "coordinates": [ [ -118.274664, 34.121566 ], [ -118.274626, 34.121303 ] ] } },
{ "type": "Feature", "properties": { "cls": "painted", "highway": "tertiary", "name": "Crystal Springs Drive" }, "geometry": { "type": "LineString", "coordinates": [ [ -118.274009, 34.121368 ], [ -118.274048, 34.121454 ], [ -118.274078, 34.12153 ], [ -118.27412, 34.121674 ], [ -118.274149, 34.121822 ], [ -118.274187, 34.122242 ], [ -118.274213, 34.122545 ], [ -118.274212, 34.122662 ] ] } },
{ "type": "Feature", "properties": { "cls": "painted", "highway": "tertiary", "name": "Griffith Park Road" }, "geometry": { "type": "LineString", "coordinates": [ [ -118.274255, 34.124844 ], [ -118.274196, 34.124454 ], [ -118.274181, 34.124311 ], [ -118.274178, 34.124148 ], [ -118.274183, 34.123983 ], [ -118.274193, 34.123872 ], [ -118.274221, 34.123696 ], [ -118.274256, 34.123531 ], [ -118.274314, 34.123333 ], [ -118.274378, 34.123143 ], [ -118.274566, 34.122743 ], [ -118.274668, 34.12253 ], [ -118.274704, 34.122446 ], [ -118.274721, 34.122375 ], [ -118.274735, 34.122279 ], [ -118.274724, 34.122127 ], [ -118.27472, 34.122042 ], [ -118.274664, 34.121566 ] ] } },
{ "type": "Feature", "properties": { "cls": "painted", "highway": "tertiary", "name": "Crystal Springs Drive" }, "geometry": { "type": "LineString", "coordinates": [ [ -118.274212, 34.122662 ], [ -118.274198, 34.122739 ], [ -118.274179, 34.122831 ], [ -118.274145, 34.122921 ], [ -118.27407, 34.123067 ], [ -118.274019, 34.123195 ], [ -118.273995, 34.123295 ], [ -118.273985, 34.12334 ], [ -118.273975, 34.123476 ], [ -118.273971, 34.123611 ], [ -118.273974, 34.123726 ], [ -118.273977, 34.123776 ], [ -118.273989, 34.123868 ], [ -118.274098, 34.124673 ], [ -118.274128, 34.124856 ], [ -118.274141, 34.124961 ] ] } },
{ "type": "Feature", "properties": { "cls": "painted", "highway": "tertiary", "name": "Griffith Park Road" }, "geometry": { "type": "LineString", "coordinates": [ [ -118.274266, 34.124948 ], [ -118.274255, 34.124844 ] ] } },
{ "type": "Feature", "properties": { "cls": "painted", "highway": "tertiary", "name": "Griffith Park Road" }, "geometry": { "type": "LineString", "coordinates": [ [ -118.274339, 34.125369 ], [ -118.27428, 34.125024 ], [ -118.274266, 34.124948 ] ] } },
{ "type": "Feature", "properties": { "cls": "painted", "highway": "tertiary", "name": "Crystal Springs Drive" }, "geometry": { "type": "LineString", "coordinates": [ [ -118.274141, 34.124961 ], [ -118.274259, 34.125757 ], [ -118.274384, 34.126404 ], [ -118.2744, 34.126584 ], [ -118.274388, 34.126779 ], [ -118.274291, 34.127767 ], [ -118.274291, 34.127983 ], [ -118.274305, 34.128191 ], [ -118.274347, 34.128443 ], [ -118.274641, 34.129464 ], [ -118.274693, 34.129605 ], [ -118.274702, 34.129622 ], [ -118.274767, 34.12974 ], [ -118.274846, 34.129854 ], [ -118.274933, 34.129961 ], [ -118.274982, 34.130023 ], [ -118.275102, 34.130143 ], [ -118.275465, 34.130472 ], [ -118.275724, 34.13067 ], [ -118.276696, 34.131286 ], [ -118.276888, 34.131387 ], [ -118.277086, 34.131486 ], [ -118.277302, 34.131576 ], [ -118.277517, 34.131643 ], [ -118.277724, 34.131698 ], [ -118.277952, 34.13174 ], [ -118.278172, 34.131774 ], [ -118.278444, 34.131791 ], [ -118.278644, 34.131815 ], [ -118.278876, 34.131867 ], [ -118.279085, 34.131931 ], [ -118.279635, 34.132107 ], [ -118.280154, 34.132278 ] ] } },
{ "type": "Feature", "properties": { "cls": "painted", "highway": "tertiary", "name": "Griffith Park Road" }, "geometry": { "type": "LineString", "coordinates": [ [ -118.281159, 34.132836 ], [ -118.281121, 34.132759 ], [ -118.281079, 34.132682 ], [ -118.281022, 34.132587 ], [ -118.280908, 34.132439 ], [ -118.280807, 34.132349 ], [ -118.280689, 34.132265 ], [ -118.280557, 34.132173 ], [ -118.280396, 34.132084 ], [ -118.280074, 34.131924 ], [ -118.279914, 34.13186 ], [ -118.27974, 34.1318 ], [ -118.279493, 34.13173 ], [ -118.279354, 34.131696 ], [ -118.279212, 34.131672 ], [ -118.279078, 34.13165 ], [ -118.278953, 34.13164 ], [ -118.278796, 34.13163 ], [ -118.278403, 34.13162 ], [ -118.278274, 34.131615 ], [ -118.278081, 34.131593 ], [ -118.277935, 34.131568 ], [ -118.277748, 34.13153 ], [ -118.277608, 34.131493 ], [ -118.277458, 34.13145 ], [ -118.277278, 34.131385 ], [ -118.277097, 34.131308 ], [ -118.276893, 34.1312 ], [ -118.275525, 34.130246 ], [ -118.275396, 34.130128 ], [ -118.275171, 34.129918 ], [ -118.27509, 34.129823 ], [ -118.275017, 34.129732 ], [ -118.274936, 34.129631 ], [ -118.274887, 34.12953 ], [ -118.274843, 34.129372 ], [ -118.274781, 34.129108 ], [ -118.274681, 34.128642 ], [ -118.274662, 34.12843 ], [ -118.274658, 34.128274 ], [ -118.274696, 34.127616 ], [ -118.274699, 34.127391 ], [ -118.274693, 34.127211 ], [ -118.274674, 34.127028 ], [ -118.274652, 34.126829 ], [ -118.274582, 34.126467 ], [ -118.27451, 34.126157 ], [ -118.274339, 34.125369 ] ] } },
{ "type": "Feature", "properties": { "cls": "painted", "highway": "tertiary", "name": "Crystal Springs Drive" }, "geometry": { "type": "LineString", "coordinates": [ [ -118.280154, 34.132278 ], [ -118.28025, 34.13231 ], [ -118.280369, 34.132349 ], [ -118.280495, 34.132396 ], [ -118.280594, 34.132445 ], [ -118.280651, 34.132481 ], [ -118.280697, 34.132509 ], [ -118.280772, 34.132569 ], [ -118.280862, 34.132675 ], [ -118.280912, 34.132751 ], [ -118.280944, 34.13281 ], [ -118.280987, 34.132896 ] ] } },
{ "type": "Feature", "properties": { "cls": "shared", "highway": "cycleway", "name": "Los Angeles River Bike Path" }, "geometry": { "type": "LineString", "coordinates": [ [ -118.291237, 34.155588 ], [ -118.291288, 34.155587 ], [ -118.291455, 34.155586 ], [ -118.29219, 34.155591 ], [ -118.292869, 34.155619 ] ] } },
{ "type": "Feature", "properties": { "cls": "painted", "highway": "tertiary", "name": "Crystal Springs Drive" }, "geometry": { "type": "LineString", "coordinates": [ [ -118.285159, 34.144804 ], [ -118.285159, 34.144773 ], [ -118.285145, 34.144642 ], [ -118.285116, 34.144518 ], [ -118.285029, 34.144247 ], [ -118.284813, 34.1437 ], [ -118.284252, 34.142241 ], [ -118.284034, 34.141659 ], [ -118.283862, 34.14124 ], [ -118.283743, 34.140956 ], [ -118.282743, 34.139038 ], [ -118.28262, 34.138764 ], [ -118.282507, 34.138468 ], [ -118.282415, 34.138157 ], [ -118.282364, 34.137919 ], [ -118.282322, 34.137677 ], [ -118.282131, 34.135927 ], [ -118.282086, 34.135529 ], [ -118.282083, 34.135507 ] ] } },
{ "type": "Feature", "properties": { "cls": "painted", "highway": "tertiary", "name": "Crystal Springs Drive" }, "geometry": { "type": "LineString", "coordinates": [ [ -118.285159, 34.144804 ], [ -118.285153, 34.144919 ], [ -118.285143, 34.145054 ], [ -118.285109, 34.145197 ], [ -118.285069, 34.145319 ], [ -118.284785, 34.146223 ], [ -118.284721, 34.146346 ], [ -118.284657, 34.146426 ], [ -118.284575, 34.146502 ], [ -118.284496, 34.146562 ], [ -118.284402, 34.146613 ] ] } },
{ "type": "Feature", "properties": { "cls": "painted", "highway": "tertiary", "name": "Western Heritage Way" }, "geometry": { "type": "LineString", "coordinates": [ [ -118.284402, 34.146613 ], [ -118.284282, 34.146655 ], [ -118.284152, 34.146685 ], [ -118.284014, 34.146697 ] ] } },
{ "type": "Feature", "properties": { "cls": "painted", "highway": "tertiary", "name": "Western Heritage Way" }, "geometry": { "type": "LineString", "coordinates": [ [ -118.284014, 34.146697 ], [ -118.283889, 34.146699 ], [ -118.283834, 34.146699 ], [ -118.283799, 34.146698 ], [ -118.283496, 34.146696 ], [ -118.28317, 34.146694 ], [ -118.282973, 34.146701 ], [ -118.282816, 34.146724 ], [ -118.282695, 34.146766 ], [ -118.282542, 34.146848 ], [ -118.28242, 34.146964 ], [ -118.282359, 34.147045 ], [ -118.282311, 34.147162 ], [ -118.282292, 34.147288 ], [ -118.282292, 34.147488 ], [ -118.282292, 34.14812 ], [ -118.282291, 34.14831 ], [ -118.282291, 34.148358 ], [ -118.282292, 34.148403 ], [ -118.282292, 34.14859 ], [ -118.282297, 34.149478 ] ] } },
{ "type": "Feature", "properties": { "cls": "painted", "highway": "tertiary", "name": "Western Heritage Way" }, "geometry": { "type": "LineString", "coordinates": [ [ -118.282289, 34.149919 ], [ -118.282297, 34.149478 ] ] } },
{ "type": "Feature", "properties": { "cls": "painted", "highway": "tertiary", "name": "Western Heritage Way" }, "geometry": { "type": "LineString", "coordinates": [ [ -118.282293, 34.150463 ], [ -118.282289, 34.149919 ] ] } },
{ "type": "Feature", "properties": { "cls": "separated", "highway": "cycleway", "name": "Griffith Park Drive" }, "geometry": { "type": "LineString", "coordinates": [ [ -118.302226, 34.149501 ], [ -118.302302, 34.149536 ], [ -118.302384, 34.149564 ], [ -118.302486, 34.149586 ], [ -118.303003, 34.149621 ], [ -118.303101, 34.149615 ], [ -118.303195, 34.149596 ], [ -118.303318, 34.149547 ], [ -118.303441, 34.149503 ], [ -118.303618, 34.149461 ], [ -118.303992, 34.149416 ], [ -118.304176, 34.149398 ], [ -118.304366, 34.149391 ], [ -118.304565, 34.14939 ], [ -118.304894, 34.149407 ], [ -118.30505, 34.149407 ], [ -118.305227, 34.14939 ], [ -118.305413, 34.149346 ], [ -118.306541, 34.149043 ], [ -118.306756, 34.148985 ], [ -118.306914, 34.14893 ], [ -118.307061, 34.148872 ], [ -118.307157, 34.148838 ], [ -118.307263, 34.148826 ], [ -118.307373, 34.148827 ], [ -118.30813, 34.148955 ], [ -118.308225, 34.148997 ], [ -118.308297, 34.149038 ], [ -118.308371, 34.149099 ], [ -118.308457, 34.149187 ], [ -118.308548, 34.149284 ], [ -118.308651, 34.149429 ], [ -118.30875, 34.149608 ], [ -118.30884, 34.149813 ], [ -118.308913, 34.149922 ], [ -118.308996, 34.150021 ], [ -118.309085, 34.15011 ], [ -118.309173, 34.150202 ], [ -118.309249, 34.150338 ], [ -118.309283, 34.150439 ], [ -118.309305, 34.150559 ], [ -118.309301, 34.150725 ], [ -118.309161, 34.151569 ], [ -118.309136, 34.151777 ], [ -118.309116, 34.151866 ], [ -118.309069, 34.151992 ], [ -118.309023, 34.152088 ], [ -118.308973, 34.152168 ], [ -118.308907, 34.15225 ], [ -118.308727, 34.152436 ], [ -118.308684, 34.152508 ], [ -118.308663, 34.152568 ], [ -118.308653, 34.152648 ], [ -118.30866, 34.152742 ], [ -118.308684, 34.152824 ], [ -118.308845, 34.153135 ] ] } },
{ "type": "Feature", "properties": { "cls": "painted", "highway": "tertiary", "name": "Zoo Drive" }, "geometry": { "type": "LineString", "coordinates": [ [ -118.293629, 34.154768 ], [ -118.293368, 34.154695 ], [ -118.292104, 34.154283 ], [ -118.291872, 34.154209 ], [ -118.291629, 34.154145 ], [ -118.2913, 34.154075 ], [ -118.29114, 34.154043 ], [ -118.290871, 34.153999 ], [ -118.289579, 34.153805 ], [ -118.289161, 34.153707 ], [ -118.28892, 34.153625 ], [ -118.288592, 34.153483 ], [ -118.288356, 34.153349 ], [ -118.287445, 34.152762 ], [ -118.286532, 34.152169 ], [ -118.286118, 34.15191 ], [ -118.285946, 34.15183 ], [ -118.285745, 34.151761 ], [ -118.28528, 34.151635 ], [ -118.28408, 34.151377 ], [ -118.283378, 34.151211 ], [ -118.282904, 34.1511 ], [ -118.282732, 34.151031 ], [ -118.282545, 34.150902 ], [ -118.282431, 34.150756 ], [ -118.282338, 34.15062 ], [ -118.282293, 34.150463 ] ] } },
{ "type": "Feature", "properties": { "cls": "painted", "highway": "tertiary", "name": "Zoo Drive" }, "geometry": { "type": "LineString", "coordinates": [ [ -118.293948, 34.154846 ], [ -118.293793, 34.154811 ], [ -118.293629, 34.154768 ] ] } },
{ "type": "Feature", "properties": { "cls": "painted", "highway": "tertiary", "name": "Crystal Springs Drive" }, "geometry": { "type": "LineString", "coordinates": [ [ -118.280987, 34.132896 ], [ -118.281031, 34.132994 ], [ -118.281095, 34.133126 ], [ -118.281262, 34.133509 ], [ -118.281361, 34.133743 ], [ -118.281418, 34.133876 ] ] } },
{ "type": "Feature", "properties": { "cls": "painted", "highway": "tertiary", "name": "Crystal Springs Drive" }, "geometry": { "type": "LineString", "coordinates": [ [ -118.281724, 34.134392 ], [ -118.281739, 34.134215 ], [ -118.281724, 34.134105 ], [ -118.281695, 34.134019 ], [ -118.281269, 34.13308 ], [ -118.28122, 34.132979 ], [ -118.281205, 34.132943 ], [ -118.281159, 34.132836 ] ] } },
{ "type": "Feature", "properties": { "cls": "separated", "highway": "cycleway", "name": null }, "geometry": { "type": "LineString", "coordinates": [ [ -118.281418, 34.133876 ], [ -118.281363, 34.133968 ], [ -118.281355, 34.133988 ], [ -118.281354, 34.134014 ], [ -118.281364, 34.134065 ], [ -118.281389, 34.13415 ], [ -118.281414, 34.134203 ], [ -118.281467, 34.134275 ], [ -118.281938, 34.135356 ], [ -118.28197, 34.135426 ], [ -118.282005, 34.135502 ], [ -118.282029, 34.13552 ], [ -118.282086, 34.135529 ] ] } },
{ "type": "Feature", "properties": { "cls": "separated", "highway": "cycleway", "name": null }, "geometry": { "type": "LineString", "coordinates": [ [ -118.282063, 34.135399 ], [ -118.282135, 34.135285 ], [ -118.282141, 34.135264 ], [ -118.282136, 34.135238 ], [ -118.281938, 34.134775 ], [ -118.281852, 34.134493 ], [ -118.281831, 34.134453 ], [ -118.281801, 34.134428 ], [ -118.281724, 34.134392 ] ] } },
{ "type": "Feature", "properties": { "cls": "separated", "highway": "cycleway", "name": "Mount Hollywood Drive" }, "geometry": { "type": "LineString", "coordinates": [ [ -118.301815, 34.12362 ], [ -118.301977, 34.123724 ], [ -118.302411, 34.123853 ], [ -118.302836, 34.124008 ], [ -118.302979, 34.124076 ], [ -118.303057, 34.124139 ], [ -118.303111, 34.124211 ], [ -118.303258, 34.124449 ], [ -118.303321, 34.124519 ], [ -118.303418, 34.124578 ], [ -118.303853, 34.124722 ], [ -118.303945, 34.124772 ], [ -118.30399, 34.124832 ], [ -118.30401, 34.124891 ], [ -118.304016, 34.124977 ], [ -118.303998, 34.12507 ], [ -118.303883, 34.12534 ], [ -118.303867, 34.125395 ], [ -118.303882, 34.125449 ], [ -118.303925, 34.125482 ], [ -118.303995, 34.125495 ], [ -118.304077, 34.125481 ], [ -118.304409, 34.125361 ], [ -118.304518, 34.125344 ], [ -118.304621, 34.125352 ], [ -118.304699, 34.125383 ], [ -118.304805, 34.125444 ], [ -118.304936, 34.125511 ], [ -118.305134, 34.125576 ], [ -118.305272, 34.125593 ], [ -118.305385, 34.125589 ], [ -118.305489, 34.125569 ], [ -118.30573, 34.125493 ], [ -118.305828, 34.125491 ], [ -118.305921, 34.12552 ], [ -118.305971, 34.125584 ], [ -118.30606, 34.12583 ], [ -118.306112, 34.125896 ], [ -118.30619, 34.125935 ], [ -118.306302, 34.125953 ], [ -118.306595, 34.12596 ], [ -118.306707, 34.125959 ], [ -118.306811, 34.125994 ], [ -118.306863, 34.126055 ], [ -118.306875, 34.126146 ], [ -118.306863, 34.126233 ], [ -118.306816, 34.126327 ], [ -118.306727, 34.126403 ], [ -118.306644, 34.126444 ], [ -118.306489, 34.126472 ], [ -118.30606, 34.126537 ], [ -118.305908, 34.126574 ], [ -118.305797, 34.126622 ], [ -118.305678, 34.126695 ], [ -118.305561, 34.12679 ], [ -118.305323, 34.127042 ], [ -118.305221, 34.127165 ], [ -118.305093, 34.127274 ], [ -118.304724, 34.127521 ], [ -118.304647, 34.127577 ], [ -118.304564, 34.127661 ], [ -118.30436, 34.127903 ], [ -118.304284, 34.128018 ], [ -118.304246, 34.128118 ], [ -118.304239, 34.12823 ], [ -118.304256, 34.128293 ], [ -118.304299, 34.128389 ], [ -118.304357, 34.128458 ], [ -118.304488, 34.128542 ], [ -118.305675, 34.128965 ], [ -118.305815, 34.12903 ], [ -118.305875, 34.129099 ], [ -118.305886, 34.129167 ], [ -118.305881, 34.129288 ], [ -118.305783, 34.129881 ], [ -118.305751, 34.129959 ], [ -118.30569, 34.130027 ], [ -118.304417, 34.130874 ], [ -118.304281, 34.130942 ], [ -118.304167, 34.130976 ], [ -118.304042, 34.130983 ], [ -118.303888, 34.130969 ], [ -118.303181, 34.130843 ], [ -118.302974, 34.130815 ], [ -118.302833, 34.130804 ], [ -118.302684, 34.130804 ], [ -118.30252, 34.130823 ], [ -118.302355, 34.130871 ], [ -118.301888, 34.131097 ], [ -118.301615, 34.131208 ], [ -118.301338, 34.131363 ], [ -118.301146, 34.131456 ], [ -118.300988, 34.131515 ], [ -118.300873, 34.13158 ], [ -118.300817, 34.131637 ], [ -118.300796, 34.1317 ], [ -118.300805, 34.13177 ], [ -118.300835, 34.131843 ], [ -118.300968, 34.132082 ], [ -118.301012, 34.132163 ], [ -118.301038, 34.132227 ], [ -118.301053, 34.132272 ], [ -118.301044, 34.132337 ], [ -118.301015, 34.132427 ], [ -118.300935, 34.132605 ], [ -118.300904, 34.132699 ], [ -118.300891, 34.132819 ], [ -118.300907, 34.132911 ], [ -118.30095, 34.132996 ], [ -118.300991, 34.13304 ], [ -118.301266, 34.133328 ], [ -118.301315, 34.133413 ], [ -118.301381, 34.133585 ], [ -118.301489, 34.133894 ], [ -118.30154, 34.134028 ], [ -118.301635, 34.134194 ], [ -118.301717, 34.134273 ], [ -118.301829, 34.134313 ], [ -118.301947, 34.134323 ], [ -118.302036, 34.134302 ], [ -118.302309, 34.134166 ], [ -118.30247, 34.134074 ], [ -118.30256, 34.134025 ], [ -118.302637, 34.134001 ], [ -118.302713, 34.134003 ], [ -118.302765, 34.134044 ], [ -118.302791, 34.1341 ], [ -118.302808, 34.134191 ], [ -118.302864, 34.134467 ], [ -118.302914, 34.134606 ], [ -118.303004, 34.134717 ], [ -118.303095, 34.134791 ], [ -118.303213, 34.134859 ], [ -118.303346, 34.134944 ], [ -118.303427, 34.135047 ], [ -118.303527, 34.135199 ], [ -118.303615, 34.135289 ], [ -118.303713, 34.135371 ], [ -118.303845, 34.135421 ], [ -118.304007, 34.135447 ], [ -118.304455, 34.135447 ], [ -118.304891, 34.135467 ], [ -118.305104, 34.135488 ], [ -118.305292, 34.135532 ], [ -118.305426, 34.135576 ], [ -118.305539, 34.135646 ], [ -118.305627, 34.1358 ], [ -118.305677, 34.135936 ], [ -118.305737, 34.136101 ], [ -118.305832, 34.1362 ], [ -118.306037, 34.136351 ], [ -118.306128, 34.136449 ], [ -118.306167, 34.136531 ], [ -118.306206, 34.136654 ], [ -118.306319, 34.137093 ], [ -118.306361, 34.137149 ], [ -118.306425, 34.137168 ], [ -118.306577, 34.137187 ], [ -118.306636, 34.137207 ], [ -118.306678, 34.137248 ], [ -118.306705, 34.137309 ], [ -118.306765, 34.137567 ], [ -118.306811, 34.137651 ], [ -118.306883, 34.137716 ], [ -118.306966, 34.137751 ], [ -118.307061, 34.137772 ], [ -118.307162, 34.137794 ], [ -118.307218, 34.137825 ], [ -118.307247, 34.137874 ], [ -118.307273, 34.137965 ], [ -118.307281, 34.138057 ], [ -118.307294, 34.138122 ], [ -118.307323, 34.138199 ], [ -118.307367, 34.138252 ], [ -118.307432, 34.138294 ], [ -118.307637, 34.138387 ], [ -118.307789, 34.138484 ], [ -118.307893, 34.138583 ], [ -118.308004, 34.13866 ], [ -118.308266, 34.138857 ], [ -118.30833, 34.138953 ], [ -118.308358, 34.139023 ], [ -118.308363, 34.139095 ], [ -118.308341, 34.139158 ], [ -118.308309, 34.139207 ], [ -118.30827, 34.139251 ], [ -118.308218, 34.139277 ], [ -118.308153, 34.139275 ], [ -118.308111, 34.13924 ], [ -118.308071, 34.139178 ], [ -118.308025, 34.139117 ], [ -118.307725, 34.138871 ], [ -118.307568, 34.138751 ], [ -118.307483, 34.138711 ], [ -118.307221, 34.138646 ], [ -118.307159, 34.138616 ], [ -118.306973, 34.138449 ], [ -118.306904, 34.138406 ], [ -118.306825, 34.138394 ], [ -118.306744, 34.138412 ], [ -118.306656, 34.138456 ], [ -118.30648, 34.1386 ], [ -118.306412, 34.138628 ], [ -118.306334, 34.138632 ], [ -118.306264, 34.138611 ], [ -118.3062, 34.138566 ], [ -118.306122, 34.1385 ], [ -118.306048, 34.13842 ], [ -118.30597, 34.138281 ], [ -118.305927, 34.138214 ], [ -118.305854, 34.138163 ], [ -118.305741, 34.13812 ], [ -118.305481, 34.138008 ], [ -118.305334, 34.137968 ], [ -118.305232, 34.137952 ], [ -118.30514, 34.137968 ], [ -118.305056, 34.138008 ], [ -118.304982, 34.138068 ], [ -118.304923, 34.138152 ], [ -118.304882, 34.1383 ], [ -118.304833, 34.138456 ], [ -118.304771, 34.138547 ], [ -118.30468, 34.138649 ], [ -118.3046, 34.138708 ], [ -118.304513, 34.138742 ], [ -118.304269, 34.13882 ], [ -118.304214, 34.138856 ], [ -118.304161, 34.138925 ], [ -118.304146, 34.138992 ], [ -118.304171, 34.139059 ], [ -118.30423, 34.13914 ], [ -118.304302, 34.13922 ], [ -118.304346, 34.13931 ], [ -118.304354, 34.139366 ], [ -118.304329, 34.139416 ], [ -118.304279, 34.139457 ], [ -118.304206, 34.13949 ], [ -118.304044, 34.139522 ], [ -118.303885, 34.139535 ], [ -118.303804, 34.139556 ], [ -118.303757, 34.139584 ], [ -118.303714, 34.139631 ], [ -118.303601, 34.13976 ], [ -118.303468, 34.139883 ], [ -118.303387, 34.139944 ], [ -118.303302, 34.139999 ], [ -118.303193, 34.140054 ], [ -118.303036, 34.140095 ], [ -118.30291, 34.140136 ], [ -118.302849, 34.140174 ], [ -118.302789, 34.140251 ], [ -118.302731, 34.140345 ], [ -118.302714, 34.140437 ], [ -118.30273, 34.140494 ], [ -118.302783, 34.140568 ], [ -118.302896, 34.140692 ], [ -118.302951, 34.140734 ], [ -118.30301, 34.140752 ], [ -118.303066, 34.140754 ], [ -118.303109, 34.140738 ], [ -118.303135, 34.140695 ], [ -118.303131, 34.140643 ], [ -118.303058, 34.140464 ], [ -118.30307, 34.140404 ], [ -118.30313, 34.140353 ], [ -118.30324, 34.1403 ], [ -118.303428, 34.140244 ], [ -118.303611, 34.140177 ], [ -118.303775, 34.140101 ], [ -118.304075, 34.139977 ], [ -118.304201, 34.139935 ], [ -118.304331, 34.13992 ], [ -118.304442, 34.139937 ], [ -118.304577, 34.139983 ], [ -118.304727, 34.140057 ], [ -118.304935, 34.140159 ], [ -118.305035, 34.140248 ], [ -118.305069, 34.140319 ], [ -118.305064, 34.140387 ], [ -118.305032, 34.140435 ], [ -118.304981, 34.140466 ], [ -118.304911, 34.140473 ], [ -118.304847, 34.140455 ], [ -118.304787, 34.140413 ], [ -118.304487, 34.140176 ], [ -118.304415, 34.14015 ], [ -118.304352, 34.140156 ], [ -118.304279, 34.140193 ], [ -118.304124, 34.140286 ], [ -118.30404, 34.140343 ], [ -118.303963, 34.140377 ], [ -118.30378, 34.140445 ], [ -118.303733, 34.140491 ], [ -118.303712, 34.140555 ], [ -118.303718, 34.140647 ], [ -118.303741, 34.140749 ], [ -118.303839, 34.140984 ], [ -118.303962, 34.14121 ], [ -118.303983, 34.141279 ], [ -118.303977, 34.141332 ], [ -118.30395, 34.141378 ], [ -118.303893, 34.141417 ], [ -118.303814, 34.14144 ], [ -118.303518, 34.141491 ], [ -118.303431, 34.141515 ], [ -118.303374, 34.141558 ], [ -118.303354, 34.141616 ], [ -118.303366, 34.141676 ], [ -118.303404, 34.141719 ], [ -118.30351, 34.141773 ], [ -118.303825, 34.141856 ], [ -118.303987, 34.141892 ], [ -118.304123, 34.1419 ], [ -118.304278, 34.141894 ], [ -118.30442, 34.141879 ], [ -118.304569, 34.141872 ], [ -118.305076, 34.14193 ], [ -118.305324, 34.141948 ], [ -118.305445, 34.141971 ], [ -118.305521, 34.142014 ], [ -118.305579, 34.142085 ], [ -118.30559, 34.142172 ], [ -118.305561, 34.142267 ], [ -118.305499, 34.142435 ], [ -118.305463, 34.142539 ], [ -118.305447, 34.142656 ], [ -118.305448, 34.14278 ], [ -118.305472, 34.142975 ], [ -118.30547, 34.143131 ], [ -118.305422, 34.143367 ], [ -118.305309, 34.143803 ], [ -118.305272, 34.144097 ], [ -118.305236, 34.144387 ], [ -118.305247, 34.144459 ], [ -118.305299, 34.144516 ], [ -118.305373, 34.144546 ], [ -118.305443, 34.144556 ], [ -118.305524, 34.144533 ], [ -118.305574, 34.144512 ], [ -118.305618, 34.144476 ], [ -118.305676, 34.144393 ], [ -118.305765, 34.14423 ], [ -118.305868, 34.143993 ], [ -118.306077, 34.143534 ], [ -118.306151, 34.143425 ], [ -118.306225, 34.143356 ], [ -118.306305, 34.143324 ], [ -118.306376, 34.143312 ], [ -118.30646, 34.14332 ], [ -118.306506, 34.143347 ], [ -118.306544, 34.143398 ], [ -118.306586, 34.143477 ], [ -118.306644, 34.143717 ], [ -118.306733, 34.144082 ], [ -118.306829, 34.14433 ], [ -118.306927, 34.144556 ], [ -118.306999, 34.14471 ], [ -118.307081, 34.144835 ], [ -118.307145, 34.14488 ], [ -118.307208, 34.144905 ], [ -118.307281, 34.144917 ], [ -118.307354, 34.144904 ], [ -118.307409, 34.144872 ], [ -118.307441, 34.144821 ], [ -118.307463, 34.144732 ], [ -118.30747, 34.144613 ], [ -118.307469, 34.144427 ], [ -118.307447, 34.144176 ], [ -118.307467, 34.144113 ], [ -118.30751, 34.14405 ], [ -118.307568, 34.144021 ], [ -118.307649, 34.14402 ], [ -118.30771, 34.144048 ], [ -118.30778, 34.144117 ], [ -118.307877, 34.144243 ], [ -118.30793, 34.144276 ], [ -118.308009, 34.144285 ], [ -118.308076, 34.14427 ], [ -118.308136, 34.144233 ], [ -118.308178, 34.144172 ], [ -118.308241, 34.14401 ], [ -118.308289, 34.143904 ], [ -118.308329, 34.143836 ], [ -118.308393, 34.14379 ], [ -118.308476, 34.143771 ], [ -118.308562, 34.143781 ], [ -118.308659, 34.143825 ], [ -118.308729, 34.143892 ], [ -118.308827, 34.144008 ], [ -118.308891, 34.144125 ], [ -118.308935, 34.144245 ], [ -118.308947, 34.144336 ], [ -118.308933, 34.14441 ], [ -118.308869, 34.144463 ], [ -118.308788, 34.144512 ], [ -118.308696, 34.144555 ], [ -118.308559, 34.144624 ], [ -118.30846, 34.144699 ], [ -118.308416, 34.144739 ], [ -118.308343, 34.144804 ], [ -118.308184, 34.144961 ], [ -118.308055, 34.145075 ], [ -118.307881, 34.145207 ], [ -118.307765, 34.145278 ], [ -118.307585, 34.14538 ], [ -118.307478, 34.145466 ], [ -118.307207, 34.145717 ], [ -118.307154, 34.14579 ], [ -118.307133, 34.145854 ], [ -118.307141, 34.145925 ], [ -118.307182, 34.1461 ], [ -118.307177, 34.146177 ], [ -118.307148, 34.146235 ], [ -118.307089, 34.146274 ], [ -118.307012, 34.14629 ], [ -118.306903, 34.14628 ], [ -118.306646, 34.146245 ], [ -118.306543, 34.146264 ], [ -118.306444, 34.146325 ], [ -118.306379, 34.146381 ], [ -118.30633, 34.146455 ], [ -118.306299, 34.146557 ], [ -118.306237, 34.146999 ], [ -118.306214, 34.147062 ], [ -118.306164, 34.147102 ], [ -118.306112, 34.147117 ], [ -118.305801, 34.14713 ], [ -118.305708, 34.147119 ], [ -118.305603, 34.147075 ], [ -118.30552, 34.147055 ], [ -118.305406, 34.147059 ], [ -118.305324, 34.147086 ], [ -118.305262, 34.147133 ], [ -118.305199, 34.1472 ], [ -118.305149, 34.147274 ], [ -118.304942, 34.14755 ], [ -118.304782, 34.147773 ], [ -118.304547, 34.148118 ], [ -118.304478, 34.148183 ], [ -118.304406, 34.148244 ], [ -118.304123, 34.148413 ], [ -118.304055, 34.148441 ], [ -118.303981, 34.148468 ], [ -118.303881, 34.14848 ], [ -118.303552, 34.148486 ], [ -118.303428, 34.148481 ], [ -118.30331, 34.148451 ], [ -118.303219, 34.14839 ], [ -118.30314, 34.148309 ], [ -118.303091, 34.148224 ], [ -118.303055, 34.148116 ], [ -118.303015, 34.147925 ], [ -118.302978, 34.147796 ], [ -118.302932, 34.147744 ], [ -118.302851, 34.147717 ], [ -118.302773, 34.147724 ], [ -118.302714, 34.147765 ], [ -118.302675, 34.147822 ], [ -118.302646, 34.147894 ], [ -118.302634, 34.148042 ], [ -118.302621, 34.148164 ], [ -118.302613, 34.148305 ], [ -118.302607, 34.148414 ], [ -118.302575, 34.148473 ], [ -118.302526, 34.148517 ], [ -118.302461, 34.148564 ], [ -118.302399, 34.14862 ], [ -118.302331, 34.148664 ], [ -118.302287, 34.148706 ], [ -118.302265, 34.148765 ], [ -118.30229, 34.148825 ], [ -118.302356, 34.148871 ], [ -118.302469, 34.148919 ], [ -118.302562, 34.148965 ], [ -118.302645, 34.149 ], [ -118.302721, 34.149046 ], [ -118.302763, 34.149123 ], [ -118.302766, 34.149213 ], [ -118.302709, 34.149287 ], [ -118.302627, 34.149332 ], [ -118.302373, 34.149367 ], [ -118.302319, 34.149383 ], [ -118.302226, 34.149501 ] ] } },
{ "type": "Feature", "properties": { "cls": "painted", "highway": "tertiary", "name": "Forest Lawn Drive" }, "geometry": { "type": "LineString", "coordinates": [ [ -118.326262, 34.151982 ], [ -118.32611, 34.152106 ], [ -118.325968, 34.152189 ], [ -118.325851, 34.152241 ] ] } },
{ "type": "Feature", "properties": { "cls": "painted", "highway": "tertiary", "name": "Forest Lawn Drive" }, "geometry": { "type": "LineString", "coordinates": [ [ -118.313762, 34.152023 ], [ -118.313461, 34.152066 ], [ -118.313225, 34.15211 ], [ -118.313007, 34.152186 ], [ -118.312851, 34.152248 ] ] } },
{ "type": "Feature", "properties": { "cls": "painted", "highway": "tertiary", "name": "Forest Lawn Drive" }, "geometry": { "type": "LineString", "coordinates": [ [ -118.312851, 34.152248 ], [ -118.312663, 34.152339 ], [ -118.312503, 34.152439 ], [ -118.312344, 34.152567 ] ] } },
{ "type": "Feature", "properties": { "cls": "painted", "highway": "tertiary", "name": "Forest Lawn Drive" }, "geometry": { "type": "LineString", "coordinates": [ [ -118.312344, 34.152567 ], [ -118.312186, 34.152717 ], [ -118.312036, 34.152917 ], [ -118.311867, 34.153164 ] ] } },
{ "type": "Feature", "properties": { "cls": "painted", "highway": "tertiary", "name": "Zoo Drive" }, "geometry": { "type": "LineString", "coordinates": [ [ -118.311867, 34.153164 ], [ -118.311765, 34.153129 ], [ -118.311647, 34.153089 ], [ -118.311412, 34.153019 ], [ -118.311162, 34.152967 ], [ -118.310824, 34.15296 ], [ -118.310537, 34.152997 ], [ -118.310454, 34.153019 ], [ -118.310268, 34.153069 ], [ -118.310084, 34.15314 ], [ -118.309827, 34.153274 ], [ -118.309302, 34.153697 ], [ -118.309169, 34.153778 ] ] } },
{ "type": "Feature", "properties": { "cls": "painted", "highway": "service", "name": "Griffith Park Drive" }, "geometry": { "type": "LineString", "coordinates": [ [ -118.308845, 34.153135 ], [ -118.309095, 34.153617 ], [ -118.309121, 34.153666 ] ] } },
{ "type": "Feature", "properties": { "cls": "painted", "highway": "service", "name": "Griffith Park Drive" }, "geometry": { "type": "LineString", "coordinates": [ [ -118.309121, 34.153666 ], [ -118.309169, 34.153778 ] ] } },
{ "type": "Feature", "properties": { "cls": "painted", "highway": "tertiary", "name": "Zoo Drive" }, "geometry": { "type": "LineString", "coordinates": [ [ -118.294366, 34.154923 ], [ -118.294077, 34.154872 ], [ -118.293948, 34.154846 ] ] } },
{ "type": "Feature", "properties": { "cls": "painted", "highway": "tertiary", "name": "Zoo Drive" }, "geometry": { "type": "LineString", "coordinates": [ [ -118.309169, 34.153778 ], [ -118.309226, 34.153911 ], [ -118.309279, 34.154031 ], [ -118.309318, 34.154169 ], [ -118.309327, 34.154312 ], [ -118.309297, 34.154461 ], [ -118.30923, 34.154608 ], [ -118.309123, 34.154741 ], [ -118.308974, 34.154861 ], [ -118.308855, 34.154919 ], [ -118.308818, 34.154937 ], [ -118.308633, 34.154996 ], [ -118.306247, 34.15562 ], [ -118.305728, 34.155746 ], [ -118.305416, 34.155817 ], [ -118.305176, 34.155855 ], [ -118.304956, 34.155871 ], [ -118.304716, 34.155866 ], [ -118.304456, 34.155838 ], [ -118.304221, 34.155794 ], [ -118.304038, 34.155744 ], [ -118.303817, 34.155665 ], [ -118.303595, 34.155564 ], [ -118.303424, 34.155492 ], [ -118.303296, 34.155451 ], [ -118.303156, 34.155421 ], [ -118.30298, 34.1554 ], [ -118.302832, 34.155395 ], [ -118.302456, 34.155411 ], [ -118.302408, 34.155412 ], [ -118.301858, 34.155436 ], [ -118.301346, 34.155457 ], [ -118.300346, 34.155504 ], [ -118.300284, 34.155502 ], [ -118.300089, 34.155495 ], [ -118.299845, 34.155469 ], [ -118.299604, 34.155424 ], [ -118.299401, 34.15537 ], [ -118.298647, 34.155152 ], [ -118.298332, 34.155082 ], [ -118.297989, 34.155026 ], [ -118.297664, 34.15499 ], [ -118.29748, 34.154983 ], [ -118.297078, 34.154974 ], [ -118.295925, 34.155026 ], [ -118.295549, 34.15503 ], [ -118.295232, 34.155017 ], [ -118.294755, 34.154973 ], [ -118.294366, 34.154923 ] ] } },
{ "type": "Feature", "properties": { "cls": "shared", "highway": "cycleway", "name": "Los Angeles River Bike Path" }, "geometry": { "type": "LineString", "coordinates": [ [ -118.292869, 34.155619 ], [ -118.293228, 34.155622 ], [ -118.293575, 34.15568 ], [ -118.293644, 34.155678 ], [ -118.293727, 34.155673 ], [ -118.293753, 34.155675 ], [ -118.293831, 34.155686 ], [ -118.293851, 34.155687 ] ] } },
{ "type": "Feature", "properties": { "cls": "separated", "highway": "cycleway", "name": "Los Angele River Bike Path" }, "geometry": { "type": "LineString", "coordinates": [ [ -118.293935, 34.155687 ], [ -118.293851, 34.155687 ] ] } },
{ "type": "Feature", "properties": { "cls": "separated", "highway": "cycleway", "name": "Los Angeles River Bike Path" }, "geometry": { "type": "LineString", "coordinates": [ [ -118.293961, 34.155744 ], [ -118.294095, 34.155748 ] ] } },
{ "type": "Feature", "properties": { "cls": "shared", "highway": "cycleway", "name": "Los Angeles River Bike Path" }, "geometry": { "type": "LineString", "coordinates": [ [ -118.292869, 34.155619 ], [ -118.293108, 34.155653 ], [ -118.293225, 34.155674 ], [ -118.293577, 34.155762 ], [ -118.293806, 34.155799 ], [ -118.29417, 34.155845 ], [ -118.294761, 34.155914 ], [ -118.294822, 34.155919 ], [ -118.295581, 34.155933 ] ] } },
{ "type": "Feature", "properties": { "cls": "shared", "highway": "cycleway", "name": null }, "geometry": { "type": "LineString", "coordinates": [ [ -118.295581, 34.155933 ], [ -118.295426, 34.155904 ], [ -118.295206, 34.155875 ], [ -118.294095, 34.155748 ] ] } }
]
}
