{
"type": "FeatureCollection",
"name": "061-moscow-izmaylovsky-park",
"crs": { "type": "name", "properties": { "name": "urn:ogc:def:crs:OGC:1.3:CRS84" } },
"xy_coordinate_resolution": 1e-06,
"features": [
{ "type": "Feature", "properties": { "cls": "shared", "highway": "path", "name": null }, "geometry": { "type": "LineString", "coordinates": [ [ 37.771833, 55.764322 ], [ 37.77195, 55.76434 ], [ 37.77221, 55.76437 ], [ 37.772443, 55.764557 ], [ 37.77277, 55.76458 ], [ 37.772822, 55.764702 ], [ 37.77299, 55.76472 ], [ 37.7732, 55.76472 ], [ 37.773402, 55.764926 ], [ 37.77374, 55.76491 ], [ 37.774028, 55.765067 ], [ 37.77435, 55.76507 ], [ 37.774555, 55.765218 ], [ 37.77481, 55.76522 ], [ 37.774953, 55.765345 ], [ 37.77515, 55.76532 ], [ 37.775294, 55.765462 ], [ 37.77545, 55.76552 ], [ 37.77571, 55.7655 ], [ 37.77589, 55.76566 ], [ 37.77624, 55.76567 ], [ 37.776352, 55.765814 ], [ 37.7767, 55.76583 ], [ 37.77679, 55.765935 ], [ 37.776885, 55.76596 ], [ 37.777105, 55.765964 ], [ 37.777275, 55.766094 ] ] } },
{ "type": "Feature", "properties": { "cls": "shared", "highway": "pedestrian", "name": "аллея Пролетарского Входа" }, "geometry": { "type": "LineString", "coordinates": [ [ 37.753766, 55.7616 ], [ 37.753617, 55.761878 ], [ 37.75315, 55.76275 ], [ 37.75296, 55.763105 ], [ 37.752599, 55.76379 ], [ 37.752317, 55.764325 ], [ 37.752088, 55.76476 ], [ 37.751994, 55.76494 ], [ 37.751885, 55.765097 ], [ 37.751727, 55.765244 ], [ 37.751321, 55.765495 ], [ 37.750852, 55.765785 ], [ 37.750431, 55.766036 ], [ 37.749997, 55.766295 ], [ 37.749926, 55.766352 ], [ 37.749887, 55.766406 ], [ 37.749874, 55.766423 ], [ 37.749852, 55.76652 ], [ 37.749754, 55.767467 ], [ 37.749748, 55.767539 ], [ 37.74971, 55.767887 ], [ 37.749596, 55.768933 ], [ 37.749518, 55.769528 ] ] } },
{ "type": "Feature", "properties": { "cls": "separated", "highway": "cycleway", "name": null }, "geometry": { "type": "LineString", "coordinates": [ [ 37.753539, 55.770235 ], [ 37.753538, 55.770112 ], [ 37.75372, 55.770059 ], [ 37.75445, 55.769866 ], [ 37.755394, 55.769678 ], [ 37.755823, 55.769707 ], [ 37.756008, 55.769787 ], [ 37.756126, 55.769917 ], [ 37.756215, 55.770155 ], [ 37.756226, 55.770349 ], [ 37.756156, 55.77049 ], [ 37.755868, 55.770681 ], [ 37.7554, 55.770861 ], [ 37.754888, 55.771011 ], [ 37.754665, 55.77106 ] ] } },
{ "type": "Feature", "properties": { "cls": "separated", "highway": "cycleway", "name": null }, "geometry": { "type": "LineString", "coordinates": [ [ 37.75553, 55.771801 ], [ 37.756083, 55.771202 ], [ 37.756253, 55.770811 ], [ 37.756226, 55.770349 ] ] } },
{ "type": "Feature", "properties": { "cls": "separated", "highway": "path", "name": null }, "geometry": { "type": "Point", "coordinates": [ 37.801308, 55.768278 ] } },
{ "type": "Feature", "properties": { "cls": "separated", "highway": "path", "name": null }, "geometry": { "type": "LineString", "coordinates": [ [ 37.801308, 55.768278 ], [ 37.8013, 55.768482 ] ] } },
{ "type": "Feature", "properties": { "cls": "separated", "highway": "path", "name": null }, "geometry": { "type": "Point", "coordinates": [ 37.807296, 55.769447 ] } },
{ "type": "Feature", "properties": { "cls": "separated", "highway": "cycleway", "name": null }, "geometry": { "type": "LineString", "coordinates": [ [ 37.8013, 55.768482 ], [ 37.801263, 55.769154 ], [ 37.801242, 55.769585 ], [ 37.801193, 55.770997 ], [ 37.801172, 55.771614 ], [ 37.801108, 55.772338 ], [ 37.801049, 55.772997 ], [ 37.801047, 55.773037 ], [ 37.801046, 55.773054 ], [ 37.800953, 55.774044 ] ] } },
{ "type": "Feature", "properties": { "cls": "separated", "highway": "cycleway", "name": null }, "geometry": { "type": "LineString", "coordinates": [ [ 37.807296, 55.769447 ], [ 37.807276, 55.76951 ], [ 37.807135, 55.77026 ], [ 37.807131, 55.770668 ], [ 37.807131, 55.770801 ], [ 37.807131, 55.770871 ], [ 37.807131, 55.770958 ], [ 37.807105, 55.77158 ], [ 37.807073, 55.772038 ], [ 37.807061, 55.772139 ], [ 37.806957, 55.773995 ], [ 37.806921, 55.7743 ] ] } },
{ "type": "Feature", "properties": { "cls": "separated", "highway": "cycleway", "name": "Пасечная аллея" }, "geometry": { "type": "LineString", "coordinates": [ [ 37.786672, 55.773775 ], [ 37.788954, 55.773815 ], [ 37.789052, 55.77382 ] ] } },
{ "type": "Feature", "properties": { "cls": "separated", "highway": "cycleway", "name": "Пасечная аллея" }, "geometry": { "type": "LineString", "coordinates": [ [ 37.789052, 55.77382 ], [ 37.792904, 55.773893 ], [ 37.79329, 55.773903 ], [ 37.795045, 55.773928 ] ] } },
{ "type": "Feature", "properties": { "cls": "separated", "highway": "cycleway", "name": "Пасечная аллея" }, "geometry": { "type": "LineString", "coordinates": [ [ 37.795045, 55.773928 ], [ 37.798519, 55.77398 ], [ 37.800953, 55.774044 ] ] } },
{ "type": "Feature", "properties": { "cls": "separated", "highway": "cycleway", "name": "Пасечная аллея" }, "geometry": { "type": "LineString", "coordinates": [ [ 37.800953, 55.774044 ], [ 37.804252, 55.774103 ], [ 37.804854, 55.774126 ] ] } },
{ "type": "Feature", "properties": { "cls": "separated", "highway": "cycleway", "name": null }, "geometry": { "type": "LineString", "coordinates": [ [ 37.783569, 55.766213 ], [ 37.783538, 55.766479 ] ] } },
{ "type": "Feature", "properties": { "cls": "separated", "highway": "cycleway", "name": null }, "geometry": { "type": "LineString", "coordinates": [ [ 37.783538, 55.766479 ], [ 37.783477, 55.766898 ], [ 37.783443, 55.76756 ], [ 37.783187, 55.77261 ], [ 37.78318, 55.772728 ], [ 37.783141, 55.773359 ], [ 37.783122, 55.773662 ] ] } },
{ "type": "Feature", "properties": { "cls": "separated", "highway": "cycleway", "name": null }, "geometry": { "type": "LineString", "coordinates": [ [ 37.754975, 55.771778 ], [ 37.755326, 55.771758 ], [ 37.75553, 55.771801 ], [ 37.755992, 55.771898 ], [ 37.756171, 55.771904 ], [ 37.756313, 55.771928 ], [ 37.756697, 55.772048 ], [ 37.756846, 55.772126 ], [ 37.756911, 55.772197 ], [ 37.75701, 55.772592 ], [ 37.756997, 55.772727 ], [ 37.756723, 55.77324 ] ] } },
{ "type": "Feature", "properties": { "cls": "separated", "highway": "cycleway", "name": null }, "geometry": { "type": "LineString", "coordinates": [ [ 37.754517, 55.773189 ], [ 37.75525, 55.773206 ], [ 37.756294, 55.77323 ], [ 37.756723, 55.77324 ], [ 37.757197, 55.773251 ], [ 37.757894, 55.773266 ], [ 37.759246, 55.773298 ] ] } },
{ "type": "Feature", "properties": { "cls": "separated", "highway": "cycleway", "name": null }, "geometry": { "type": "LineString", "coordinates": [ [ 37.774681, 55.775588 ], [ 37.775053, 55.775488 ], [ 37.775666, 55.775276 ], [ 37.775883, 55.775198 ], [ 37.776112, 55.775125 ], [ 37.776393, 55.775036 ], [ 37.776485, 55.774999 ], [ 37.777095, 55.774755 ], [ 37.777633, 55.774554 ], [ 37.779958, 55.773987 ], [ 37.780461, 55.773849 ], [ 37.781089, 55.77367 ], [ 37.781426, 55.773584 ], [ 37.781538, 55.773572 ], [ 37.781728, 55.773577 ], [ 37.783122, 55.773662 ] ] } },
{ "type": "Feature", "properties": { "cls": "separated", "highway": "cycleway", "name": "Первомайская аллея" }, "geometry": { "type": "LineString", "coordinates": [ [ 37.759073, 55.775873 ], [ 37.759246, 55.773298 ] ] } },
{ "type": "Feature", "properties": { "cls": "separated", "highway": "cycleway", "name": null }, "geometry": { "type": "LineString", "coordinates": [ [ 37.754215, 55.773514 ], [ 37.754368, 55.773583 ], [ 37.75455, 55.773667 ], [ 37.755041, 55.77389 ], [ 37.755431, 55.77406 ], [ 37.7556, 55.774169 ], [ 37.756036, 55.774496 ], [ 37.756121, 55.774551 ], [ 37.756652, 55.774891 ], [ 37.757065, 55.77533 ], [ 37.757252, 55.775515 ], [ 37.757307, 55.775849 ], [ 37.757378, 55.776648 ], [ 37.757394, 55.77676 ] ] } },
{ "type": "Feature", "properties": { "cls": "separated", "highway": "cycleway", "name": null }, "geometry": { "type": "LineString", "coordinates": [ [ 37.774681, 55.775588 ], [ 37.774636, 55.775591 ], [ 37.774591, 55.775594 ], [ 37.773014, 55.775642 ], [ 37.770947, 55.775847 ] ] } },
{ "type": "Feature", "properties": { "cls": "separated", "highway": "cycleway", "name": null }, "geometry": { "type": "LineString", "coordinates": [ [ 37.759073, 55.775873 ], [ 37.759489, 55.775709 ], [ 37.759864, 55.775671 ], [ 37.760095, 55.775679 ], [ 37.7603, 55.775714 ] ] } },
{ "type": "Feature", "properties": { "cls": "separated", "highway": "cycleway", "name": null }, "geometry": { "type": "LineString", "coordinates": [ [ 37.783183, 55.772667 ], [ 37.78318, 55.772728 ], [ 37.783141, 55.773359 ], [ 37.783122, 55.773662 ] ] } },
{ "type": "Feature", "properties": { "cls": "separated", "highway": "cycleway", "name": "Пасечная аллея" }, "geometry": { "type": "LineString", "coordinates": [ [ 37.783122, 55.773662 ], [ 37.783642, 55.773702 ] ] } },
{ "type": "Feature", "properties": { "cls": "separated", "highway": "cycleway", "name": "Пасечная аллея" }, "geometry": { "type": "LineString", "coordinates": [ [ 37.783642, 55.773702 ], [ 37.784408, 55.77375 ], [ 37.785242, 55.773775 ], [ 37.786672, 55.773775 ] ] } },
{ "type": "Feature", "properties": { "cls": "separated", "highway": "cycleway", "name": null }, "geometry": { "type": "LineString", "coordinates": [ [ 37.783642, 55.773702 ], [ 37.783785, 55.77388 ], [ 37.783924, 55.774039 ], [ 37.783985, 55.77414 ], [ 37.783983, 55.7742 ], [ 37.783918, 55.774265 ], [ 37.783774, 55.774336 ], [ 37.78362, 55.774412 ], [ 37.783362, 55.774527 ], [ 37.783219, 55.774637 ], [ 37.783048, 55.774829 ] ] } },
{ "type": "Feature", "properties": { "cls": "separated", "highway": "cycleway", "name": null }, "geometry": { "type": "LineString", "coordinates": [ [ 37.783048, 55.774829 ], [ 37.782975, 55.77631 ], [ 37.782902, 55.777034 ], [ 37.782898, 55.777337 ], [ 37.782859, 55.777873 ], [ 37.782813, 55.778495 ] ] } },
{ "type": "Feature", "properties": { "cls": "separated", "highway": "cycleway", "name": null }, "geometry": { "type": "LineString", "coordinates": [ [ 37.782813, 55.778495 ], [ 37.782825, 55.77868 ], [ 37.782877, 55.778968 ], [ 37.782881, 55.779138 ], [ 37.782902, 55.779293 ], [ 37.782976, 55.779409 ], [ 37.783132, 55.779565 ], [ 37.783163, 55.779703 ], [ 37.783099, 55.779788 ], [ 37.782888, 55.779961 ], [ 37.782734, 55.780134 ], [ 37.782633, 55.780264 ], [ 37.782451, 55.780388 ], [ 37.781996, 55.780744 ], [ 37.781639, 55.781082 ], [ 37.781235, 55.781294 ], [ 37.781082, 55.781335 ], [ 37.780647, 55.781422 ], [ 37.780275, 55.781517 ], [ 37.780054, 55.781608 ], [ 37.779909, 55.781674 ], [ 37.77956, 55.781798 ], [ 37.779435, 55.781837 ], [ 37.779052, 55.781957 ] ] } },
{ "type": "Feature", "properties": { "cls": "separated", "highway": "cycleway", "name": null }, "geometry": { "type": "LineString", "coordinates": [ [ 37.77915, 55.782713 ], [ 37.779337, 55.782881 ], [ 37.779366, 55.782907 ] ] } },
{ "type": "Feature", "properties": { "cls": "separated", "highway": "cycleway", "name": null }, "geometry": { "type": "LineString", "coordinates": [ [ 37.77943, 55.782969 ], [ 37.779366, 55.782907 ] ] } },
{ "type": "Feature", "properties": { "cls": "separated", "highway": "cycleway", "name": null }, "geometry": { "type": "LineString", "coordinates": [ [ 37.77943, 55.782969 ], [ 37.779465, 55.783003 ], [ 37.779624, 55.783119 ], [ 37.779802, 55.783219 ] ] } },
{ "type": "Feature", "properties": { "cls": "separated", "highway": "cycleway", "name": null }, "geometry": { "type": "LineString", "coordinates": [ [ 37.779802, 55.783219 ], [ 37.780071, 55.783316 ], [ 37.780327, 55.783385 ], [ 37.780947, 55.783546 ], [ 37.782959, 55.784043 ] ] } },
{ "type": "Feature", "properties": { "cls": "separated", "highway": "cycleway", "name": null }, "geometry": { "type": "LineString", "coordinates": [ [ 37.753533, 55.775644 ], [ 37.75535, 55.775711 ], [ 37.755641, 55.775722 ], [ 37.757307, 55.775849 ] ] } },
{ "type": "Feature", "properties": { "cls": "separated", "highway": "cycleway", "name": null }, "geometry": { "type": "LineString", "coordinates": [ [ 37.757307, 55.775849 ], [ 37.759073, 55.775873 ] ] } },
{ "type": "Feature", "properties": { "cls": "separated", "highway": "cycleway", "name": null }, "geometry": { "type": "LineString", "coordinates": [ [ 37.770947, 55.775847 ], [ 37.769769, 55.775994 ], [ 37.768974, 55.776108 ], [ 37.768163, 55.776211 ], [ 37.767584, 55.776302 ], [ 37.767269, 55.776317 ], [ 37.766094, 55.776376 ], [ 37.765856, 55.776385 ], [ 37.765679, 55.776392 ], [ 37.765512, 55.776399 ] ] } },
{ "type": "Feature", "properties": { "cls": "separated", "highway": "cycleway", "name": null }, "geometry": { "type": "LineString", "coordinates": [ [ 37.761985, 55.776412 ], [ 37.761744, 55.776475 ], [ 37.761435, 55.776499 ], [ 37.761057, 55.776431 ], [ 37.760628, 55.776335 ], [ 37.760371, 55.776301 ], [ 37.760173, 55.776238 ], [ 37.759995, 55.776132 ], [ 37.759978, 55.77604 ], [ 37.760046, 55.775958 ], [ 37.7603, 55.775714 ], [ 37.760423, 55.775712 ], [ 37.760572, 55.775698 ], [ 37.7608, 55.775698 ], [ 37.761118, 55.775791 ], [ 37.761358, 55.775862 ], [ 37.761722, 55.775997 ], [ 37.761987, 55.77614 ], [ 37.762076, 55.776196 ], [ 37.762091, 55.776267 ], [ 37.762113, 55.776359 ], [ 37.761985, 55.776412 ] ] } },
{ "type": "Feature", "properties": { "cls": "separated", "highway": "cycleway", "name": "Первомайская аллея" }, "geometry": { "type": "LineString", "coordinates": [ [ 37.759025, 55.776799 ], [ 37.759034, 55.776705 ], [ 37.759073, 55.775873 ] ] } },
{ "type": "Feature", "properties": { "cls": "separated", "highway": "cycleway", "name": null }, "geometry": { "type": "LineString", "coordinates": [ [ 37.762113, 55.776359 ], [ 37.762172, 55.776404 ], [ 37.762457, 55.776534 ], [ 37.762653, 55.776636 ], [ 37.762915, 55.77673 ], [ 37.763141, 55.776803 ] ] } },
{ "type": "Feature", "properties": { "cls": "separated", "highway": "cycleway", "name": null }, "geometry": { "type": "LineString", "coordinates": [ [ 37.774681, 55.775588 ], [ 37.774543, 55.775749 ], [ 37.774477, 55.775874 ], [ 37.774417, 55.776031 ], [ 37.774419, 55.77618 ], [ 37.774502, 55.776402 ], [ 37.774628, 55.776614 ], [ 37.774859, 55.776862 ], [ 37.775119, 55.777371 ], [ 37.775405, 55.777988 ], [ 37.775679, 55.778477 ], [ 37.77576, 55.778737 ], [ 37.775868, 55.778839 ], [ 37.77599, 55.778891 ], [ 37.776137, 55.778956 ], [ 37.776235, 55.779065 ], [ 37.77628, 55.779152 ], [ 37.776366, 55.779531 ], [ 37.776418, 55.779827 ], [ 37.776438, 55.77994 ], [ 37.776469, 55.780025 ], [ 37.776524, 55.780173 ] ] } },
{ "type": "Feature", "properties": { "cls": "separated", "highway": "cycleway", "name": null }, "geometry": { "type": "LineString", "coordinates": [ [ 37.753154, 55.77682 ], [ 37.753073, 55.777994 ], [ 37.753033, 55.778576 ], [ 37.753008, 55.779032 ], [ 37.752946, 55.780037 ] ] } },
{ "type": "Feature", "properties": { "cls": "separated", "highway": "cycleway", "name": null }, "geometry": { "type": "LineString", "coordinates": [ [ 37.776524, 55.780173 ], [ 37.776856, 55.780583 ], [ 37.777024, 55.780845 ], [ 37.777324, 55.78139 ], [ 37.777419, 55.781547 ], [ 37.777644, 55.781852 ], [ 37.777805, 55.782006 ], [ 37.778016, 55.782147 ] ] } },
{ "type": "Feature", "properties": { "cls": "shared", "highway": "path", "name": null }, "geometry": { "type": "LineString", "coordinates": [ [ 37.805079, 55.774227 ], [ 37.805111, 55.774199 ], [ 37.805157, 55.774168 ], [ 37.805212, 55.774153 ] ] } },
{ "type": "Feature", "properties": { "cls": "separated", "highway": "cycleway", "name": null }, "geometry": { "type": "LineString", "coordinates": [ [ 37.804854, 55.774126 ], [ 37.805212, 55.774153 ], [ 37.806276, 55.774231 ], [ 37.806921, 55.7743 ] ] } },
{ "type": "Feature", "properties": { "cls": "separated", "highway": "cycleway", "name": null }, "geometry": { "type": "LineString", "coordinates": [ [ 37.804854, 55.774126 ], [ 37.804974, 55.774148 ], [ 37.805046, 55.774176 ], [ 37.805079, 55.774227 ], [ 37.805076, 55.774291 ], [ 37.805025, 55.774439 ], [ 37.804952, 55.77458 ], [ 37.804809, 55.774854 ], [ 37.804773, 55.774926 ], [ 37.80476, 55.775058 ], [ 37.804809, 55.7752 ], [ 37.804954, 55.775717 ], [ 37.805025, 55.775997 ], [ 37.805027, 55.776119 ], [ 37.804945, 55.776292 ], [ 37.804785, 55.776459 ], [ 37.804391, 55.776802 ], [ 37.804002, 55.777118 ], [ 37.803349, 55.77773 ], [ 37.80317, 55.777926 ], [ 37.803056, 55.778068 ] ] } },
{ "type": "Feature", "properties": { "cls": "separated", "highway": "cycleway", "name": null }, "geometry": { "type": "LineString", "coordinates": [ [ 37.812677, 55.779387 ], [ 37.812683, 55.779297 ], [ 37.812753, 55.778128 ], [ 37.812771, 55.777867 ], [ 37.812825, 55.776876 ] ] } },
{ "type": "Feature", "properties": { "cls": "separated", "highway": "cycleway", "name": null }, "geometry": { "type": "LineString", "coordinates": [ [ 37.812558, 55.781358 ], [ 37.812579, 55.781145 ], [ 37.812599, 55.780828 ], [ 37.812623, 55.780426 ], [ 37.812677, 55.779387 ] ] } },
{ "type": "Feature", "properties": { "cls": "separated", "highway": "cycleway", "name": null }, "geometry": { "type": "LineString", "coordinates": [ [ 37.803056, 55.778068 ], [ 37.80303, 55.778178 ], [ 37.803042, 55.778238 ], [ 37.8031, 55.77833 ], [ 37.803185, 55.778394 ], [ 37.803279, 55.778438 ], [ 37.803475, 55.778499 ], [ 37.803635, 55.778511 ], [ 37.803801, 55.778512 ], [ 37.803969, 55.778517 ], [ 37.804159, 55.778524 ], [ 37.804324, 55.778549 ], [ 37.804426, 55.778578 ], [ 37.804733, 55.778674 ], [ 37.805505, 55.778976 ], [ 37.805569, 55.779004 ], [ 37.806027, 55.779194 ], [ 37.806401, 55.779351 ], [ 37.806953, 55.779532 ], [ 37.807475, 55.779699 ], [ 37.807665, 55.779751 ], [ 37.807846, 55.779813 ], [ 37.808526, 55.78005 ], [ 37.809474, 55.780654 ], [ 37.810569, 55.781346 ], [ 37.811046, 55.781761 ], [ 37.81137, 55.782099 ], [ 37.811439, 55.782279 ], [ 37.811506, 55.782451 ], [ 37.811478, 55.78275 ], [ 37.811389, 55.782949 ], [ 37.811196, 55.783225 ], [ 37.811065, 55.783461 ], [ 37.810956, 55.783925 ], [ 37.810828, 55.784239 ], [ 37.810658, 55.784519 ], [ 37.810541, 55.784686 ], [ 37.810305, 55.784974 ], [ 37.810052, 55.785177 ] ] } },
{ "type": "Feature", "properties": { "cls": "separated", "highway": "cycleway", "name": null }, "geometry": { "type": "LineString", "coordinates": [ [ 37.794461, 55.784556 ], [ 37.794452, 55.784233 ] ] } },
{ "type": "Feature", "properties": { "cls": "separated", "highway": "cycleway", "name": null }, "geometry": { "type": "LineString", "coordinates": [ [ 37.794452, 55.784233 ], [ 37.794415, 55.784158 ], [ 37.794334, 55.784104 ], [ 37.794208, 55.784076 ], [ 37.793982, 55.784102 ], [ 37.793692, 55.784165 ], [ 37.793314, 55.784256 ], [ 37.792918, 55.784362 ], [ 37.792497, 55.784419 ], [ 37.791829, 55.78451 ], [ 37.791415, 55.784511 ], [ 37.790888, 55.784458 ], [ 37.790707, 55.78434 ], [ 37.790569, 55.784215 ], [ 37.790443, 55.784065 ], [ 37.790251, 55.783899 ], [ 37.79009, 55.783817 ], [ 37.789829, 55.783732 ], [ 37.789527, 55.783691 ], [ 37.789179, 55.783664 ], [ 37.788791, 55.783654 ], [ 37.788387, 55.783674 ], [ 37.788185, 55.783689 ], [ 37.788002, 55.783706 ], [ 37.787539, 55.783794 ], [ 37.787104, 55.783867 ], [ 37.785498, 55.784056 ], [ 37.784584, 55.784188 ], [ 37.784475, 55.784204 ], [ 37.784205, 55.784336 ], [ 37.783615, 55.784714 ], [ 37.783384, 55.784881 ], [ 37.783011, 55.785232 ], [ 37.782734, 55.785379 ], [ 37.782502, 55.78545 ], [ 37.782455, 55.785464 ] ] } },
{ "type": "Feature", "properties": { "cls": "separated", "highway": "cycleway", "name": null }, "geometry": { "type": "LineString", "coordinates": [ [ 37.798087, 55.785485 ], [ 37.797983, 55.785477 ], [ 37.797447, 55.785432 ], [ 37.7965, 55.785444 ], [ 37.796053, 55.785331 ], [ 37.795723, 55.78516 ], [ 37.795164, 55.784946 ], [ 37.794682, 55.784707 ], [ 37.794461, 55.784556 ] ] } },
{ "type": "Feature", "properties": { "cls": "separated", "highway": "cycleway", "name": null }, "geometry": { "type": "LineString", "coordinates": [ [ 37.810052, 55.785177 ], [ 37.809728, 55.785323 ], [ 37.809515, 55.785424 ] ] } },
{ "type": "Feature", "properties": { "cls": "separated", "highway": "path", "name": null }, "geometry": { "type": "LineString", "coordinates": [ [ 37.787104, 55.783867 ], [ 37.786957, 55.784218 ] ] } },
{ "type": "Feature", "properties": { "cls": "separated", "highway": "cycleway", "name": null }, "geometry": { "type": "LineString", "coordinates": [ [ 37.782959, 55.784043 ], [ 37.782411, 55.784832 ], [ 37.782472, 55.785032 ] ] } },
{ "type": "Feature", "properties": { "cls": "separated", "highway": "cycleway", "name": null }, "geometry": { "type": "LineString", "coordinates": [ [ 37.782472, 55.785032 ], [ 37.782456, 55.785168 ], [ 37.78247, 55.785278 ], [ 37.782455, 55.785464 ] ] } },
{ "type": "Feature", "properties": { "cls": "separated", "highway": "path", "name": null }, "geometry": { "type": "LineString", "coordinates": [ [ 37.786957, 55.784218 ], [ 37.786376, 55.784647 ], [ 37.785926, 55.784969 ], [ 37.785677, 55.785298 ], [ 37.785328, 55.785712 ], [ 37.784919, 55.786068 ], [ 37.784393, 55.786328 ], [ 37.784114, 55.786525 ], [ 37.783999, 55.786626 ], [ 37.783706, 55.787032 ], [ 37.783501, 55.787176 ], [ 37.783331, 55.787256 ], [ 37.783217, 55.787317 ], [ 37.782728, 55.787564 ], [ 37.782304, 55.787611 ] ] } },
{ "type": "Feature", "properties": { "cls": "separated", "highway": "cycleway", "name": null }, "geometry": { "type": "LineString", "coordinates": [ [ 37.782455, 55.785464 ], [ 37.78239, 55.786467 ], [ 37.782304, 55.787611 ] ] } },
{ "type": "Feature", "properties": { "cls": "separated", "highway": "cycleway", "name": null }, "geometry": { "type": "LineString", "coordinates": [ [ 37.779052, 55.781957 ], [ 37.778864, 55.782018 ], [ 37.778656, 55.782057 ], [ 37.7782, 55.782118 ], [ 37.778016, 55.782147 ] ] } },
{ "type": "Feature", "properties": { "cls": "separated", "highway": "cycleway", "name": null }, "geometry": { "type": "LineString", "coordinates": [ [ 37.778016, 55.782147 ], [ 37.777906, 55.782155 ], [ 37.777761, 55.7822 ] ] } },
{ "type": "Feature", "properties": { "cls": "separated", "highway": "cycleway", "name": null }, "geometry": { "type": "LineString", "coordinates": [ [ 37.778016, 55.782147 ], [ 37.778983, 55.782611 ], [ 37.77915, 55.782713 ] ] } },
{ "type": "Feature", "properties": { "cls": "separated", "highway": "cycleway", "name": null }, "geometry": { "type": "MultiLineString", "coordinates": [ [ [ 37.777761, 55.7822 ], [ 37.777547, 55.78238 ], [ 37.777321, 55.782623 ], [ 37.777047, 55.782823 ], [ 37.776444, 55.783199 ], [ 37.776148, 55.783479 ], [ 37.775715, 55.78398 ], [ 37.775571, 55.78426 ], [ 37.775434, 55.784535 ], [ 37.77524, 55.784862 ], [ 37.774941, 55.785174 ], [ 37.774639, 55.785441 ], [ 37.774199, 55.785766 ], [ 37.773715, 55.786048 ], [ 37.773085, 55.786361 ], [ 37.772546, 55.786696 ], [ 37.772225, 55.786923 ], [ 37.772088, 55.787 ], [ 37.771862, 55.787057 ], [ 37.7716, 55.787064 ], [ 37.770816, 55.787005 ], [ 37.770271, 55.786972 ], [ 37.769747, 55.786927 ], [ 37.767731, 55.786624 ], [ 37.76743, 55.786612 ] ], [ [ 37.767072, 55.786757 ], [ 37.766796, 55.786941 ], [ 37.766649, 55.787034 ], [ 37.766369, 55.787256 ], [ 37.766238, 55.787384 ] ] ] } },
{ "type": "Feature", "properties": { "cls": "separated", "highway": "cycleway", "name": null }, "geometry": { "type": "LineString", "coordinates": [ [ 37.819144, 55.774534 ], [ 37.818342, 55.774599 ], [ 37.817966, 55.774665 ], [ 37.817433, 55.774769 ], [ 37.817143, 55.774838 ], [ 37.816604, 55.774967 ], [ 37.816247, 55.775027 ] ] } },
{ "type": "Feature", "properties": { "cls": "separated", "highway": "cycleway", "name": null }, "geometry": { "type": "LineString", "coordinates": [ [ 37.816186, 55.775032 ], [ 37.81573, 55.775065 ], [ 37.815368, 55.775059 ], [ 37.814992, 55.775021 ], [ 37.814671, 55.775034 ], [ 37.814207, 55.775101 ], [ 37.813521, 55.775137 ], [ 37.812843, 55.775153 ] ] } },
{ "type": "Feature", "properties": { "cls": "separated", "highway": "cycleway", "name": null }, "geometry": { "type": "LineString", "coordinates": [ [ 37.812825, 55.776876 ], [ 37.812888, 55.77573 ], [ 37.812915, 55.775375 ], [ 37.812897, 55.775261 ], [ 37.812843, 55.775153 ] ] } },
{ "type": "Feature", "properties": { "cls": "separated", "highway": "cycleway", "name": null }, "geometry": { "type": "LineString", "coordinates": [ [ 37.819261, 55.774734 ], [ 37.8192, 55.775245 ], [ 37.819191, 55.77534 ], [ 37.81905, 55.776839 ], [ 37.819043, 55.776934 ], [ 37.818929, 55.777622 ], [ 37.818913, 55.777669 ], [ 37.818814, 55.777929 ], [ 37.818803, 55.778527 ], [ 37.818658, 55.779893 ], [ 37.818635, 55.780042 ], [ 37.818565, 55.780501 ], [ 37.818455, 55.781214 ], [ 37.818509, 55.781478 ] ] } },
{ "type": "Feature", "properties": { "cls": "shared", "highway": "cycleway", "name": null }, "geometry": { "type": "LineString", "coordinates": [ [ 37.818913, 55.777669 ], [ 37.817983, 55.777867 ], [ 37.81696, 55.777965 ], [ 37.816599, 55.778175 ], [ 37.816244, 55.778556 ], [ 37.816128, 55.778723 ], [ 37.815735, 55.778969 ], [ 37.815269, 55.779165 ], [ 37.814671, 55.779677 ], [ 37.813676, 55.780082 ], [ 37.813153, 55.780449 ], [ 37.812599, 55.780828 ] ] } },
{ "type": "Feature", "properties": { "cls": "separated", "highway": "cycleway", "name": null }, "geometry": { "type": "LineString", "coordinates": [ [ 37.810569, 55.781346 ], [ 37.812558, 55.781358 ], [ 37.812838, 55.781365 ], [ 37.814354, 55.781376 ], [ 37.816613, 55.781402 ], [ 37.818509, 55.781478 ], [ 37.818745, 55.781486 ] ] } },
{ "type": "Feature", "properties": { "cls": "separated", "highway": "cycleway", "name": null }, "geometry": { "type": "LineString", "coordinates": [ [ 37.819116, 55.780678 ], [ 37.818892, 55.781043 ], [ 37.818745, 55.781486 ], [ 37.818594, 55.783286 ] ] } },
{ "type": "Feature", "properties": { "cls": "separated", "highway": "cycleway", "name": null }, "geometry": { "type": "LineString", "coordinates": [ [ 37.818594, 55.783286 ], [ 37.818577, 55.783488 ], [ 37.818534, 55.783777 ], [ 37.818517, 55.783957 ], [ 37.818329, 55.786095 ], [ 37.818154, 55.787748 ] ] } },
{ "type": "Feature", "properties": { "cls": "separated", "highway": "cycleway", "name": null }, "geometry": { "type": "LineString", "coordinates": [ [ 37.818154, 55.787748 ], [ 37.817951, 55.787597 ], [ 37.817772, 55.787504 ], [ 37.817622, 55.787467 ], [ 37.817496, 55.787464 ], [ 37.817372, 55.787478 ], [ 37.816865, 55.787558 ], [ 37.816704, 55.787571 ], [ 37.816554, 55.787561 ], [ 37.816442, 55.787518 ], [ 37.816313, 55.787461 ], [ 37.816106, 55.78743 ], [ 37.815847, 55.787406 ], [ 37.81554, 55.787347 ], [ 37.81488, 55.787169 ], [ 37.81427, 55.786958 ], [ 37.813952, 55.786822 ], [ 37.813658, 55.786664 ], [ 37.813377, 55.786528 ], [ 37.813099, 55.786428 ], [ 37.812753, 55.786333 ], [ 37.812314, 55.786238 ] ] } },
{ "type": "Feature", "properties": { "cls": "separated", "highway": "cycleway", "name": null }, "geometry": { "type": "LineString", "coordinates": [ [ 37.818154, 55.787748 ], [ 37.818103, 55.788382 ], [ 37.818111, 55.788537 ] ] } },
{ "type": "Feature", "properties": { "cls": "separated", "highway": "cycleway", "name": null }, "geometry": { "type": "LineString", "coordinates": [ [ 37.794339, 55.786 ], [ 37.794381, 55.785458 ], [ 37.794461, 55.784556 ] ] } },
{ "type": "Feature", "properties": { "cls": "shared", "highway": "cycleway", "name": null }, "geometry": { "type": "LineString", "coordinates": [ [ 37.809205, 55.785572 ], [ 37.809282, 55.785537 ], [ 37.809373, 55.785491 ], [ 37.80944, 55.785459 ], [ 37.809515, 55.785424 ] ] } },
{ "type": "Feature", "properties": { "cls": "shared", "highway": "cycleway", "name": null }, "geometry": { "type": "LineString", "coordinates": [ [ 37.798087, 55.785485 ], [ 37.798173, 55.785499 ] ] } },
{ "type": "Feature", "properties": { "cls": "separated", "highway": "cycleway", "name": null }, "geometry": { "type": "LineString", "coordinates": [ [ 37.812314, 55.786238 ], [ 37.812139, 55.786202 ], [ 37.811951, 55.786158 ], [ 37.811745, 55.786093 ], [ 37.811593, 55.78601 ], [ 37.811485, 55.785927 ], [ 37.811316, 55.785814 ], [ 37.811184, 55.785716 ], [ 37.811029, 55.785614 ], [ 37.8108, 55.785462 ], [ 37.810451, 55.785326 ], [ 37.810279, 55.785263 ], [ 37.810052, 55.785177 ] ] } },
{ "type": "Feature", "properties": { "cls": "separated", "highway": "cycleway", "name": null }, "geometry": { "type": "LineString", "coordinates": [ [ 37.798173, 55.785499 ], [ 37.79834, 55.785524 ], [ 37.798753, 55.785557 ], [ 37.799547, 55.78557 ], [ 37.799947, 55.78557 ], [ 37.800237, 55.785567 ], [ 37.800612, 55.785558 ], [ 37.801299, 55.785543 ], [ 37.802336, 55.785499 ], [ 37.802986, 55.785496 ], [ 37.803599, 55.785515 ], [ 37.804898, 55.78556 ], [ 37.80517, 55.785569 ], [ 37.806092, 55.785597 ], [ 37.806261, 55.78561 ], [ 37.807034, 55.785702 ], [ 37.808067, 55.785904 ], [ 37.808185, 55.78592 ], [ 37.8083, 55.78593 ], [ 37.80836, 55.785926 ], [ 37.808423, 55.785916 ], [ 37.808556, 55.785855 ], [ 37.809205, 55.785572 ] ] } },
{ "type": "Feature", "properties": { "cls": "separated", "highway": "cycleway", "name": null }, "geometry": { "type": "LineString", "coordinates": [ [ 37.788387, 55.783674 ], [ 37.788399, 55.783719 ], [ 37.788433, 55.783835 ], [ 37.78845, 55.784024 ], [ 37.788367, 55.784814 ], [ 37.788297, 55.785481 ], [ 37.788269, 55.785765 ], [ 37.788216, 55.786723 ], [ 37.788175, 55.787222 ], [ 37.788166, 55.7875 ], [ 37.788151, 55.787674 ], [ 37.788146, 55.78774 ], [ 37.788141, 55.787818 ] ] } },
{ "type": "Feature", "properties": { "cls": "separated", "highway": "cycleway", "name": null }, "geometry": { "type": "LineString", "coordinates": [ [ 37.800237, 55.785567 ], [ 37.800174, 55.785772 ], [ 37.800068, 55.787111 ], [ 37.80001, 55.787653 ], [ 37.799995, 55.787798 ], [ 37.799983, 55.787913 ], [ 37.799949, 55.788129 ] ] } },
{ "type": "Feature", "properties": { "cls": "separated", "highway": "cycleway", "name": null }, "geometry": { "type": "LineString", "coordinates": [ [ 37.806065, 55.788206 ], [ 37.806575, 55.787678 ], [ 37.807307, 55.786896 ], [ 37.808044, 55.786249 ], [ 37.808423, 55.785916 ] ] } },
{ "type": "Feature", "properties": { "cls": "separated", "highway": "cycleway", "name": null }, "geometry": { "type": "LineString", "coordinates": [ [ 37.794213, 55.787928 ], [ 37.794215, 55.787818 ], [ 37.794339, 55.786 ] ] } },
{ "type": "Feature", "properties": { "cls": "separated", "highway": "path", "name": null }, "geometry": { "type": "LineString", "coordinates": [ [ 37.788896, 55.787389 ], [ 37.788877, 55.787387 ], [ 37.788558, 55.787337 ], [ 37.788175, 55.787222 ] ] } },
{ "type": "Feature", "properties": { "cls": "separated", "highway": "cycleway", "name": null }, "geometry": { "type": "LineString", "coordinates": [ [ 37.806572, 55.788825 ], [ 37.805951, 55.788811 ] ] } }
]
}
