{
"type": "FeatureCollection",
"name": "063-austin-walter-e-long-park",
"crs": { "type": "name", "properties": { "name": "urn:ogc:def:crs:OGC:1.3:CRS84" } },
"xy_coordinate_resolution": 1e-06,
"features": [
{ "type": "Feature", "properties": { "cls": "separated", "highway": "cycleway", "name": "Austin to Manor Trail" }, "geometry": { "type": "LineString", "coordinates": [ [ -97.614633, 30.31162 ], [ -97.614505, 30.31155 ], [ -97.614365, 30.311496 ], [ -97.614247, 30.311482 ], [ -97.61418, 30.311495 ], [ -97.613936, 30.311625 ], [ -97.613781, 30.311667 ], [ -97.613678, 30.311676 ], [ -97.613517, 30.311658 ], [ -97.613326, 30.3116 ], [ -97.613029, 30.311478 ], [ -97.61291, 30.311457 ], [ -97.612829, 30.31146 ], [ -97.612721, 30.311488 ], [ -97.612605, 30.311544 ], [ -97.612343, 30.311766 ], [ -97.612199, 30.311982 ], [ -97.612091, 30.312241 ], [ -97.611995, 30.31239 ], [ -97.61196, 30.312862 ], [ -97.611876, 30.313148 ], [ -97.611779, 30.313361 ], [ -97.611677, 30.313522 ], [ -97.61154, 30.313695 ], [ -97.611407, 30.31382 ], [ -97.609863, 30.315114 ], [ -97.609589, 30.31539 ], [ -97.609382, 30.315645 ], [ -97.609118, 30.316063 ], [ -97.609022, 30.31626 ], [ -97.608903, 30.316556 ], [ -97.608837, 30.316765 ], [ -97.608786, 30.317016 ], [ -97.608752, 30.317334 ], [ -97.608751, 30.318869 ], [ -97.608728, 30.319424 ], [ -97.608664, 30.31977 ], [ -97.608582, 30.320023 ], [ -97.608492, 30.320226 ], [ -97.608043, 30.320939 ], [ -97.606264, 30.323665 ], [ -97.606172, 30.323761 ], [ -97.60609, 30.323814 ], [ -97.605977, 30.323858 ], [ -97.605725, 30.323892 ], [ -97.6053, 30.323889 ], [ -97.60519, 30.323904 ], [ -97.605126, 30.323928 ], [ -97.605023, 30.324013 ], [ -97.604939, 30.324136 ], [ -97.604892, 30.324279 ], [ -97.604885, 30.324601 ], [ -97.604865, 30.324747 ], [ -97.604885, 30.324846 ], [ -97.604918, 30.324988 ], [ -97.604916, 30.325099 ], [ -97.604895, 30.325199 ], [ -97.604851, 30.325309 ], [ -97.604735, 30.325463 ], [ -97.604536, 30.325693 ], [ -97.604435, 30.325762 ], [ -97.604148, 30.325949 ], [ -97.603932, 30.326032 ], [ -97.603849, 30.326086 ], [ -97.603806, 30.326137 ], [ -97.603784, 30.326201 ], [ -97.603769, 30.326263 ] ] } },
{ "type": "Feature", "properties": { "cls": "shared", "highway": "cycleway", "name": "Austin to Manor Trail" }, "geometry": { "type": "LineString", "coordinates": [ [ -97.603633, 30.326197 ], [ -97.600499, 30.326124 ], [ -97.600321, 30.326118 ], [ -97.600089, 30.326094 ], [ -97.599941, 30.326069 ], [ -97.59988, 30.326098 ], [ -97.59987, 30.326126 ] ] } },
{ "type": "Feature", "properties": { "cls": "shared", "highway": "cycleway", "name": "Austin to Manor Trail" }, "geometry": { "type": "LineString", "coordinates": [ [ -97.603718, 30.326199 ], [ -97.603679, 30.326199 ], [ -97.603633, 30.326197 ] ] } },
{ "type": "Feature", "properties": { "cls": "shared", "highway": "cycleway", "name": "Austin to Manor Trail" }, "geometry": { "type": "LineString", "coordinates": [ [ -97.603784, 30.326201 ], [ -97.603718, 30.326199 ] ] } }
]
}
