{
"type": "FeatureCollection",
"name": "064-chico-bidwell-park",
"crs": { "type": "name", "properties": { "name": "urn:ogc:def:crs:OGC:1.3:CRS84" } },
"xy_coordinate_resolution": 1e-06,
"features": [
{ "type": "Feature", "properties": { "cls": "shared", "highway": "cycleway", "name": null }, "geometry": { "type": "LineString", "coordinates": [ [ -121.795894, 39.758391 ], [ -121.795975, 39.758473 ] ] } },
{ "type": "Feature", "properties": { "cls": "separated", "highway": "cycleway", "name": null }, "geometry": { "type": "LineString", "coordinates": [ [ -121.797284, 39.761681 ], [ -121.797205, 39.761405 ] ] } },
{ "type": "Feature", "properties": { "cls": "separated", "highway": "cycleway", "name": null }, "geometry": { "type": "LineString", "coordinates": [ [ -121.802487, 39.763556 ], [ -121.802407, 39.763419 ], [ -121.802332, 39.763323 ], [ -121.802297, 39.76326 ], [ -121.80216, 39.763131 ], [ -121.801947, 39.762932 ], [ -121.801825, 39.762848 ], [ -121.801776, 39.762816 ], [ -121.801707, 39.762772 ], [ -121.801511, 39.762631 ], [ -121.801223, 39.762492 ], [ -121.800952, 39.762353 ], [ -121.800793, 39.762296 ], [ -121.80061, 39.762247 ], [ -121.800024, 39.762112 ], [ -121.799966, 39.762111 ], [ -121.799692, 39.762106 ], [ -121.799283, 39.762065 ], [ -121.79889, 39.762056 ], [ -121.798156, 39.762069 ], [ -121.7977, 39.762025 ], [ -121.79761, 39.762009 ], [ -121.797452, 39.76194 ], [ -121.797348, 39.761835 ], [ -121.797284, 39.761681 ] ] } },
{ "type": "Feature", "properties": { "cls": "separated", "highway": "cycleway", "name": "South Park Drive" }, "geometry": { "type": "LineString", "coordinates": [ [ -121.791544, 39.762518 ], [ -121.791437, 39.762447 ], [ -121.791207, 39.762295 ], [ -121.79125, 39.762244 ], [ -121.791274, 39.762217 ], [ -121.791338, 39.762143 ], [ -121.791532, 39.762011 ], [ -121.791565, 39.761994 ], [ -121.791661, 39.761941 ], [ -121.791891, 39.761814 ], [ -121.792156, 39.761772 ], [ -121.792292, 39.761761 ], [ -121.792373, 39.761652 ], [ -121.7924, 39.761542 ], [ -121.792489, 39.761204 ], [ -121.792603, 39.76082 ], [ -121.792753, 39.760478 ], [ -121.792922, 39.760114 ], [ -121.79305, 39.759952 ], [ -121.793252, 39.759776 ], [ -121.793498, 39.759602 ], [ -121.793705, 39.759477 ], [ -121.793979, 39.759302 ], [ -121.794159, 39.759159 ], [ -121.794301, 39.759061 ], [ -121.79446, 39.758966 ], [ -121.794606, 39.758838 ], [ -121.794753, 39.75874 ], [ -121.794943, 39.758594 ], [ -121.795234, 39.758403 ], [ -121.795377, 39.758319 ], [ -121.795436, 39.75828 ] ] } },
{ "type": "Feature", "properties": { "cls": "separated", "highway": "cycleway", "name": null }, "geometry": { "type": "LineString", "coordinates": [ [ -121.792717, 39.761875 ], [ -121.792769, 39.761888 ], [ -121.79292, 39.761905 ], [ -121.793112, 39.76193 ], [ -121.7934, 39.761905 ], [ -121.794099, 39.761813 ], [ -121.795546, 39.761561 ], [ -121.795926, 39.761452 ], [ -121.796044, 39.761394 ], [ -121.796441, 39.761143 ], [ -121.796591, 39.761078 ], [ -121.796705, 39.761064 ], [ -121.796841, 39.761076 ], [ -121.796971, 39.761129 ], [ -121.797061, 39.761211 ], [ -121.797205, 39.761405 ] ] } },
{ "type": "Feature", "properties": { "cls": "separated", "highway": "cycleway", "name": null }, "geometry": { "type": "LineString", "coordinates": [ [ -121.79179, 39.761633 ], [ -121.79187, 39.761654 ], [ -121.792073, 39.761654 ], [ -121.792191, 39.761633 ], [ -121.792274, 39.761612 ], [ -121.7924, 39.761542 ] ] } },
{ "type": "Feature", "properties": { "cls": "separated", "highway": "cycleway", "name": null }, "geometry": { "type": "LineString", "coordinates": [ [ -121.792292, 39.761761 ], [ -121.792487, 39.761818 ] ] } },
{ "type": "Feature", "properties": { "cls": "separated", "highway": "cycleway", "name": null }, "geometry": { "type": "LineString", "coordinates": [ [ -121.792487, 39.761818 ], [ -121.792717, 39.761875 ] ] } },
{ "type": "Feature", "properties": { "cls": "separated", "highway": "cycleway", "name": null }, "geometry": { "type": "LineString", "coordinates": [ [ -121.789978, 39.763547 ], [ -121.790045, 39.763508 ], [ -121.790119, 39.76344 ], [ -121.790162, 39.763366 ], [ -121.790161, 39.763357 ], [ -121.790306, 39.763159 ], [ -121.790518, 39.762925 ], [ -121.790542, 39.762908 ], [ -121.790724, 39.762783 ], [ -121.790933, 39.762662 ], [ -121.791096, 39.762485 ], [ -121.791207, 39.762295 ] ] } },
{ "type": "Feature", "properties": { "cls": "separated", "highway": "cycleway", "name": null }, "geometry": { "type": "LineString", "coordinates": [ [ -121.779853, 39.77133 ], [ -121.780027, 39.771304 ], [ -121.780069, 39.771304 ], [ -121.780378, 39.771301 ], [ -121.781417, 39.771267 ], [ -121.781674, 39.771256 ], [ -121.781916, 39.771218 ], [ -121.782285, 39.771103 ], [ -121.782588, 39.770907 ], [ -121.782681, 39.770822 ], [ -121.7829, 39.770582 ], [ -121.78307, 39.770423 ], [ -121.783295, 39.770277 ], [ -121.783423, 39.770223 ], [ -121.783915, 39.770086 ], [ -121.784278, 39.770004 ], [ -121.784874, 39.769863 ], [ -121.786099, 39.769551 ], [ -121.787021, 39.769298 ], [ -121.787467, 39.76911 ], [ -121.787697, 39.768979 ], [ -121.787951, 39.768741 ], [ -121.788015, 39.768667 ], [ -121.788166, 39.768491 ], [ -121.7883, 39.768123 ], [ -121.788358, 39.767573 ], [ -121.788372, 39.767086 ], [ -121.788373, 39.767047 ], [ -121.788546, 39.766674 ], [ -121.788854, 39.766394 ] ] } }
]
}
