{
"type": "FeatureCollection",
"name": "067-paris-forest-of-armainvilliers",
"crs": { "type": "name", "properties": { "name": "urn:ogc:def:crs:OGC:1.3:CRS84" } },
"xy_coordinate_resolution": 1e-06,
"features": [
{ "type": "Feature", "properties": { "cls": "separated", "highway": "cycleway", "name": null }, "geometry": { "type": "LineString", "coordinates": [ [ 2.742174, 48.743643 ], [ 2.742799, 48.743661 ], [ 2.743148, 48.743665 ], [ 2.743377, 48.743662 ], [ 2.743561, 48.743659 ], [ 2.743714, 48.743655 ] ] } }
]
}
