{
"type": "FeatureCollection",
"name": "074-nashville-warner-parks",
"crs": { "type": "name", "properties": { "name": "urn:ogc:def:crs:OGC:1.3:CRS84" } },
"xy_coordinate_resolution": 1e-06,
"features": [
{ "type": "Feature", "properties": { "cls": "shared", "highway": "footway", "name": null }, "geometry": { "type": "LineString", "coordinates": [ [ -86.90008, 36.062096 ], [ -86.90027, 36.062053 ], [ -86.900464, 36.062042 ], [ -86.900675, 36.062014 ], [ -86.900808, 36.061989 ], [ -86.900937, 36.061935 ], [ -86.901009, 36.061893 ], [ -86.901081, 36.061808 ], [ -86.901117, 36.061748 ], [ -86.901149, 36.061683 ], [ -86.901161, 36.061614 ], [ -86.901179, 36.061306 ], [ -86.90114, 36.060801 ], [ -86.901097, 36.060673 ], [ -86.900888, 36.060396 ], [ -86.900708, 36.060255 ], [ -86.900458, 36.060139 ], [ -86.89993, 36.059992 ], [ -86.899544, 36.059858 ], [ -86.899354, 36.059688 ], [ -86.89926, 36.059582 ], [ -86.899205, 36.059477 ], [ -86.899173, 36.059336 ], [ -86.899234, 36.059229 ], [ -86.899314, 36.059206 ], [ -86.899633, 36.059277 ], [ -86.899916, 36.059347 ], [ -86.900244, 36.0594 ], [ -86.900657, 36.059388 ], [ -86.900969, 36.059398 ], [ -86.901229, 36.059476 ], [ -86.90147, 36.059531 ], [ -86.90167, 36.059515 ], [ -86.901738, 36.05949 ], [ -86.901787, 36.059453 ], [ -86.901832, 36.059412 ], [ -86.901854, 36.059362 ], [ -86.901899, 36.059207 ], [ -86.901949, 36.058971 ], [ -86.902073, 36.058687 ], [ -86.902075, 36.058585 ], [ -86.902073, 36.058521 ], [ -86.902057, 36.058471 ], [ -86.901933, 36.05822 ], [ -86.901827, 36.057998 ], [ -86.901704, 36.05779 ], [ -86.901581, 36.057618 ], [ -86.901525, 36.057513 ], [ -86.901549, 36.057358 ], [ -86.901573, 36.057278 ], [ -86.901594, 36.057231 ], [ -86.901609, 36.057227 ] ] } },
{ "type": "Feature", "properties": { "cls": "separated", "highway": "cycleway", "name": "Rocky Top" }, "geometry": { "type": "LineString", "coordinates": [ [ -86.885223, 36.07801 ], [ -86.884998, 36.078206 ], [ -86.88495, 36.078223 ], [ -86.884917, 36.07824 ], [ -86.884859, 36.078287 ], [ -86.884827, 36.078298 ], [ -86.884783, 36.078302 ], [ -86.884665, 36.078283 ], [ -86.884586, 36.078281 ], [ -86.884406, 36.078224 ], [ -86.884356, 36.078209 ], [ -86.884291, 36.078167 ], [ -86.884296, 36.078122 ], [ -86.884314, 36.078096 ], [ -86.88437, 36.077961 ], [ -86.884444, 36.077874 ], [ -86.884458, 36.077807 ], [ -86.884442, 36.077771 ], [ -86.884287, 36.077588 ], [ -86.884257, 36.077543 ], [ -86.884245, 36.077507 ], [ -86.884261, 36.07746 ], [ -86.884312, 36.077445 ], [ -86.884792, 36.077389 ], [ -86.884959, 36.077353 ], [ -86.885288, 36.077256 ], [ -86.885386, 36.077196 ], [ -86.885476, 36.077048 ], [ -86.885597, 36.076905 ], [ -86.88562, 36.076866 ], [ -86.885645, 36.076787 ], [ -86.88565, 36.076742 ], [ -86.885627, 36.076699 ], [ -86.885594, 36.076692 ], [ -86.885553, 36.076695 ], [ -86.885518, 36.076709 ], [ -86.885453, 36.076769 ], [ -86.885383, 36.07681 ], [ -86.885342, 36.076817 ], [ -86.885344, 36.076784 ], [ -86.88552, 36.076628 ], [ -86.885581, 36.076557 ], [ -86.885625, 36.076439 ], [ -86.885648, 36.076401 ], [ -86.885636, 36.076328 ], [ -86.885652, 36.076296 ], [ -86.885662, 36.076234 ], [ -86.885636, 36.076126 ], [ -86.885634, 36.076057 ], [ -86.885618, 36.075965 ], [ -86.885562, 36.075796 ], [ -86.885485, 36.075644 ], [ -86.885439, 36.075592 ], [ -86.885383, 36.075558 ], [ -86.885344, 36.075569 ], [ -86.88533, 36.075597 ], [ -86.885342, 36.075625 ], [ -86.885409, 36.075708 ], [ -86.885483, 36.075837 ], [ -86.885506, 36.07591 ], [ -86.88552, 36.076154 ], [ -86.885502, 36.07627 ], [ -86.885465, 36.076354 ], [ -86.885193, 36.076592 ], [ -86.885061, 36.076681 ], [ -86.884989, 36.076718 ], [ -86.884892, 36.076746 ], [ -86.884767, 36.07675 ], [ -86.88473, 36.07674 ], [ -86.884713, 36.076714 ], [ -86.884725, 36.076684 ], [ -86.884769, 36.076662 ], [ -86.885019, 36.07657 ], [ -86.8851, 36.076553 ], [ -86.885189, 36.076516 ], [ -86.885226, 36.076497 ], [ -86.885281, 36.076435 ], [ -86.885337, 36.076343 ], [ -86.88536, 36.076283 ], [ -86.885369, 36.076229 ], [ -86.885372, 36.076139 ], [ -86.885358, 36.076032 ], [ -86.885316, 36.075952 ], [ -86.885193, 36.075788 ], [ -86.885059, 36.075667 ], [ -86.8845, 36.07547 ], [ -86.884032, 36.075432 ], [ -86.883691, 36.07547 ], [ -86.883489, 36.075513 ], [ -86.883445, 36.07553 ], [ -86.883181, 36.075597 ], [ -86.883146, 36.075616 ], [ -86.883127, 36.07564 ], [ -86.883132, 36.07567 ], [ -86.883167, 36.075685 ], [ -86.883218, 36.075683 ], [ -86.883375, 36.075637 ], [ -86.883424, 36.075631 ], [ -86.883459, 36.075648 ], [ -86.883445, 36.075678 ], [ -86.883371, 36.075702 ], [ -86.883336, 36.075723 ], [ -86.883317, 36.075751 ], [ -86.883313, 36.075781 ], [ -86.883343, 36.075803 ], [ -86.883385, 36.075813 ], [ -86.883582, 36.075803 ], [ -86.883749, 36.07576 ], [ -86.883904, 36.075708 ], [ -86.884039, 36.075685 ], [ -86.884131, 36.075687 ], [ -86.884263, 36.075715 ], [ -86.884243, 36.075758 ], [ -86.884078, 36.075818 ], [ -86.884046, 36.075848 ], [ -86.884027, 36.07588 ], [ -86.884027, 36.075912 ], [ -86.884066, 36.075935 ], [ -86.884108, 36.075933 ], [ -86.884201, 36.07591 ], [ -86.884245, 36.07589 ], [ -86.884294, 36.075854 ], [ -86.884375, 36.075807 ], [ -86.884423, 36.07579 ], [ -86.884479, 36.075785 ], [ -86.884518, 36.075802 ], [ -86.884556, 36.075833 ], [ -86.884581, 36.075877 ], [ -86.884563, 36.076017 ], [ -86.88459, 36.076079 ], [ -86.884627, 36.076103 ], [ -86.884674, 36.076098 ], [ -86.884741, 36.076058 ], [ -86.884762, 36.076021 ], [ -86.88476, 36.075987 ], [ -86.884716, 36.075867 ], [ -86.884718, 36.075805 ], [ -86.884737, 36.075779 ], [ -86.884771, 36.075766 ], [ -86.884813, 36.075772 ], [ -86.88498, 36.075878 ] ] } },
{ "type": "Feature", "properties": { "cls": "separated", "highway": "cycleway", "name": null }, "geometry": { "type": "LineString", "coordinates": [ [ -86.886029, 36.077162 ], [ -86.885967, 36.077166 ], [ -86.885912, 36.077197 ], [ -86.88589, 36.077272 ], [ -86.885865, 36.077343 ], [ -86.885831, 36.077403 ], [ -86.885743, 36.077498 ], [ -86.885639, 36.077563 ], [ -86.885448, 36.077652 ], [ -86.885348, 36.07771 ], [ -86.885317, 36.07774 ], [ -86.885298, 36.077776 ], [ -86.88529, 36.077833 ], [ -86.885296, 36.077893 ], [ -86.88531, 36.077964 ], [ -86.88535, 36.078058 ], [ -86.885408, 36.078167 ], [ -86.885477, 36.078277 ], [ -86.88551, 36.078329 ], [ -86.885167, 36.078699 ], [ -86.885, 36.078889 ], [ -86.885056, 36.078924 ], [ -86.885122, 36.078965 ] ] } },
{ "type": "Feature", "properties": { "cls": "separated", "highway": "cycleway", "name": null }, "geometry": { "type": "LineString", "coordinates": [ [ -86.885167, 36.078699 ], [ -86.88522, 36.078729 ] ] } },
{ "type": "Feature", "properties": { "cls": "separated", "highway": "cycleway", "name": null }, "geometry": { "type": "LineString", "coordinates": [ [ -86.881399, 36.074847 ], [ -86.881309, 36.074828 ], [ -86.881186, 36.074803 ], [ -86.880982, 36.074731 ] ] } },
{ "type": "Feature", "properties": { "cls": "separated", "highway": "cycleway", "name": null }, "geometry": { "type": "LineString", "coordinates": [ [ -86.880982, 36.074731 ], [ -86.880682, 36.074738 ], [ -86.8804, 36.074788 ], [ -86.880184, 36.074795 ], [ -86.880029, 36.074802 ], [ -86.879928, 36.074884 ], [ -86.87984, 36.074988 ], [ -86.87972, 36.075059 ], [ -86.879526, 36.075095 ], [ -86.879324, 36.075152 ], [ -86.879046, 36.075252 ], [ -86.878792, 36.075391 ], [ -86.87859, 36.075512 ] ] } },
{ "type": "Feature", "properties": { "cls": "separated", "highway": "cycleway", "name": "Hop Project" }, "geometry": { "type": "LineString", "coordinates": [ [ -86.88498, 36.075878 ], [ -86.885098, 36.07598 ], [ -86.885124, 36.076011 ], [ -86.885149, 36.076077 ], [ -86.885133, 36.076143 ], [ -86.8851, 36.076214 ], [ -86.884987, 36.076371 ], [ -86.884964, 36.076396 ], [ -86.884929, 36.076416 ], [ -86.884808, 36.076472 ], [ -86.884767, 36.076486 ], [ -86.884595, 36.076519 ], [ -86.884428, 36.076532 ], [ -86.884296, 36.076523 ], [ -86.883992, 36.076473 ], [ -86.88361, 36.076429 ], [ -86.883487, 36.07642 ], [ -86.883197, 36.076427 ], [ -86.883169, 36.07645 ], [ -86.883188, 36.076487 ], [ -86.883222, 36.076521 ], [ -86.883401, 36.076656 ], [ -86.883424, 36.076697 ], [ -86.883426, 36.076731 ], [ -86.883412, 36.076761 ], [ -86.883375, 36.076774 ], [ -86.883329, 36.076769 ], [ -86.883176, 36.076724 ], [ -86.88299, 36.076697 ], [ -86.882919, 36.076699 ], [ -86.882881, 36.076714 ], [ -86.882851, 36.076744 ], [ -86.882849, 36.076772 ], [ -86.882888, 36.076829 ], [ -86.882946, 36.076889 ], [ -86.883016, 36.076947 ], [ -86.883113, 36.077061 ], [ -86.883232, 36.07716 ], [ -86.883327, 36.077256 ], [ -86.883617, 36.077458 ], [ -86.883702, 36.077539 ], [ -86.883725, 36.077573 ], [ -86.883746, 36.077689 ], [ -86.883749, 36.077794 ], [ -86.88373, 36.077818 ], [ -86.883642, 36.077893 ], [ -86.883498, 36.078047 ], [ -86.883491, 36.078111 ], [ -86.883494, 36.078142 ], [ -86.883515, 36.078169 ], [ -86.883593, 36.078188 ] ] } },
{ "type": "Feature", "properties": { "cls": "separated", "highway": "cycleway", "name": "Humdinger" }, "geometry": { "type": "LineString", "coordinates": [ [ -86.88498, 36.075878 ], [ -86.884983, 36.075976 ], [ -86.884921, 36.076121 ], [ -86.884902, 36.076149 ], [ -86.884828, 36.07621 ], [ -86.884798, 36.076229 ], [ -86.884738, 36.076255 ], [ -86.884692, 36.076264 ], [ -86.884666, 36.076267 ], [ -86.884587, 36.076252 ], [ -86.884483, 36.076223 ], [ -86.884174, 36.076074 ], [ -86.883994, 36.076004 ], [ -86.88385, 36.075967 ], [ -86.883704, 36.075959 ], [ -86.883539, 36.075967 ], [ -86.883363, 36.07597 ], [ -86.883201, 36.075993 ], [ -86.883138, 36.076009 ], [ -86.883069, 36.076017 ], [ -86.882899, 36.076006 ], [ -86.882702, 36.075983 ], [ -86.882644, 36.07598 ], [ -86.882617, 36.075983 ], [ -86.882593, 36.07599 ], [ -86.882571, 36.076003 ], [ -86.882565, 36.076026 ], [ -86.882571, 36.076049 ], [ -86.882607, 36.076088 ], [ -86.882696, 36.076157 ], [ -86.88271, 36.076176 ], [ -86.882717, 36.076199 ], [ -86.882712, 36.07622 ], [ -86.882686, 36.07623 ], [ -86.882658, 36.07623 ], [ -86.882492, 36.07621 ], [ -86.882382, 36.076218 ], [ -86.882301, 36.076236 ], [ -86.882273, 36.076247 ], [ -86.882248, 36.076263 ], [ -86.882211, 36.076301 ], [ -86.882215, 36.076345 ], [ -86.882236, 36.076461 ], [ -86.882327, 36.076637 ], [ -86.88239, 36.076725 ], [ -86.882434, 36.076765 ], [ -86.882563, 36.076861 ], [ -86.882688, 36.077005 ], [ -86.88277, 36.077069 ], [ -86.882895, 36.07715 ], [ -86.883126, 36.077329 ], [ -86.883192, 36.077383 ], [ -86.883256, 36.07746 ], [ -86.883279, 36.077572 ], [ -86.883287, 36.077639 ], [ -86.88331, 36.077743 ], [ -86.883292, 36.077778 ], [ -86.883231, 36.077848 ], [ -86.883139, 36.077912 ], [ -86.882983, 36.07799 ], [ -86.882913, 36.07804 ], [ -86.882874, 36.078074 ], [ -86.882862, 36.078092 ], [ -86.882849, 36.078136 ], [ -86.882844, 36.078179 ], [ -86.882888, 36.078276 ], [ -86.882927, 36.078314 ] ] } },
{ "type": "Feature", "properties": { "cls": "separated", "highway": "cycleway", "name": "Connector" }, "geometry": { "type": "LineString", "coordinates": [ [ -86.883593, 36.078188 ], [ -86.883655, 36.078144 ], [ -86.883656, 36.078144 ] ] } },
{ "type": "Feature", "properties": { "cls": "separated", "highway": "cycleway", "name": "Connector" }, "geometry": { "type": "LineString", "coordinates": [ [ -86.882927, 36.078314 ], [ -86.88295, 36.078328 ], [ -86.883034, 36.078313 ], [ -86.883245, 36.078298 ], [ -86.8833, 36.078293 ], [ -86.883354, 36.078279 ], [ -86.883479, 36.078219 ], [ -86.883593, 36.078188 ] ] } },
{ "type": "Feature", "properties": { "cls": "separated", "highway": "cycleway", "name": "Connector" }, "geometry": { "type": "LineString", "coordinates": [ [ -86.884672, 36.078867 ], [ -86.884616, 36.07874 ], [ -86.884507, 36.07859 ], [ -86.884447, 36.078506 ], [ -86.88434, 36.078326 ], [ -86.884166, 36.078212 ], [ -86.884085, 36.078178 ], [ -86.88389, 36.078116 ], [ -86.883742, 36.078103 ], [ -86.883656, 36.078144 ] ] } },
{ "type": "Feature", "properties": { "cls": "separated", "highway": "cycleway", "name": "Wabash Cannonball" }, "geometry": { "type": "LineString", "coordinates": [ [ -86.88295, 36.078328 ], [ -86.882793, 36.078355 ], [ -86.882779, 36.078375 ], [ -86.882805, 36.078416 ], [ -86.882865, 36.078442 ], [ -86.882988, 36.078467 ], [ -86.883143, 36.078483 ], [ -86.883168, 36.078494 ], [ -86.883148, 36.078514 ], [ -86.883115, 36.078526 ], [ -86.882943, 36.078551 ], [ -86.882848, 36.078577 ], [ -86.882767, 36.078612 ], [ -86.882724, 36.078642 ], [ -86.882716, 36.078664 ], [ -86.882742, 36.078708 ], [ -86.882888, 36.078777 ], [ -86.882929, 36.078811 ], [ -86.882932, 36.078833 ], [ -86.882856, 36.078863 ], [ -86.882679, 36.078887 ], [ -86.88254, 36.078939 ], [ -86.882521, 36.078961 ], [ -86.882494, 36.078992 ], [ -86.88251, 36.079033 ], [ -86.882554, 36.079063 ], [ -86.882707, 36.079079 ] ] } },
{ "type": "Feature", "properties": { "cls": "separated", "highway": "cycleway", "name": "Flume Zoom" }, "geometry": { "type": "LineString", "coordinates": [ [ -86.883656, 36.078144 ], [ -86.883637, 36.078206 ], [ -86.883816, 36.078348 ], [ -86.88382, 36.07838 ], [ -86.883783, 36.078435 ], [ -86.883651, 36.078482 ], [ -86.883619, 36.078508 ], [ -86.883617, 36.07854 ], [ -86.883647, 36.07859 ], [ -86.88376, 36.078639 ], [ -86.883786, 36.078699 ], [ -86.883753, 36.078716 ], [ -86.883561, 36.078693 ], [ -86.883519, 36.078703 ], [ -86.883491, 36.078734 ], [ -86.883535, 36.078832 ], [ -86.883579, 36.078885 ], [ -86.883686, 36.079014 ], [ -86.883728, 36.079111 ], [ -86.883749, 36.07922 ], [ -86.883698, 36.079366 ], [ -86.88363, 36.079404 ], [ -86.883584, 36.079383 ], [ -86.883438, 36.079235 ], [ -86.883287, 36.079122 ], [ -86.883127, 36.079057 ], [ -86.883034, 36.079038 ], [ -86.882995, 36.079053 ], [ -86.883137, 36.07933 ], [ -86.883118, 36.079355 ], [ -86.883037, 36.07936 ], [ -86.882942, 36.079284 ], [ -86.882837, 36.079246 ], [ -86.8828, 36.079188 ], [ -86.882782, 36.079087 ] ] } },
{ "type": "Feature", "properties": { "cls": "separated", "highway": "cycleway", "name": "Screamin Delta Demon" }, "geometry": { "type": "LineString", "coordinates": [ [ -86.882782, 36.079087 ], [ -86.882755, 36.079175 ], [ -86.882798, 36.079268 ], [ -86.882849, 36.079351 ], [ -86.882938, 36.079351 ], [ -86.88301, 36.079387 ], [ -86.883005, 36.079437 ], [ -86.882941, 36.07945 ], [ -86.882935, 36.079507 ], [ -86.883002, 36.079511 ], [ -86.883064, 36.079533 ], [ -86.883158, 36.079502 ], [ -86.883383, 36.079505 ], [ -86.883498, 36.079507 ], [ -86.883654, 36.07947 ], [ -86.88392, 36.079266 ], [ -86.88407, 36.079075 ], [ -86.884113, 36.079013 ], [ -86.883989, 36.078835 ], [ -86.884038, 36.078657 ], [ -86.884, 36.078549 ], [ -86.884107, 36.078445 ], [ -86.884507, 36.07859 ] ] } },
{ "type": "Feature", "properties": { "cls": "separated", "highway": "cycleway", "name": "Opryland Climb" }, "geometry": { "type": "LineString", "coordinates": [ [ -86.883694, 36.080076 ], [ -86.883511, 36.080166 ], [ -86.883386, 36.080203 ], [ -86.883288, 36.080214 ], [ -86.882993, 36.080192 ], [ -86.882698, 36.08006 ], [ -86.882665, 36.079981 ], [ -86.882995, 36.080035 ], [ -86.88316, 36.080007 ], [ -86.883389, 36.079863 ], [ -86.883419, 36.079812 ], [ -86.883417, 36.079782 ], [ -86.883338, 36.079756 ], [ -86.883301, 36.079763 ], [ -86.883174, 36.07985 ], [ -86.883046, 36.079855 ], [ -86.882921, 36.079823 ], [ -86.882863, 36.079776 ], [ -86.882861, 36.079748 ], [ -86.883009, 36.079696 ], [ -86.883032, 36.079666 ], [ -86.88287, 36.079606 ], [ -86.882791, 36.0796 ], [ -86.88265, 36.079559 ], [ -86.882501, 36.079492 ], [ -86.882492, 36.079432 ], [ -86.882506, 36.079404 ], [ -86.882703, 36.079346 ], [ -86.882721, 36.079278 ], [ -86.882707, 36.079079 ], [ -86.882745, 36.079064 ], [ -86.882782, 36.079087 ] ] } },
{ "type": "Feature", "properties": { "cls": "separated", "highway": "cycleway", "name": "Boulevard" }, "geometry": { "type": "LineString", "coordinates": [ [ -86.877602, 36.083186 ], [ -86.877673, 36.083092 ], [ -86.877731, 36.082938 ], [ -86.877851, 36.082753 ], [ -86.877884, 36.082646 ], [ -86.877955, 36.082559 ], [ -86.878154, 36.082421 ], [ -86.878271, 36.082374 ], [ -86.878387, 36.082344 ], [ -86.878516, 36.082341 ], [ -86.878707, 36.08232 ], [ -86.878832, 36.082324 ], [ -86.878964, 36.082341 ], [ -86.879023, 36.082317 ], [ -86.879039, 36.082267 ], [ -86.879031, 36.082216 ], [ -86.879015, 36.082181 ], [ -86.878985, 36.082116 ], [ -86.878902, 36.082028 ], [ -86.87879, 36.081961 ], [ -86.87867, 36.081908 ], [ -86.878632, 36.081861 ], [ -86.878678, 36.081824 ], [ -86.87874, 36.081814 ], [ -86.879043, 36.08183 ], [ -86.879288, 36.08179 ], [ -86.879405, 36.08175 ], [ -86.879463, 36.08172 ], [ -86.879592, 36.081602 ], [ -86.879712, 36.081545 ], [ -86.879836, 36.081555 ], [ -86.879891, 36.081585 ], [ -86.879932, 36.081636 ], [ -86.87999, 36.081666 ], [ -86.880107, 36.081706 ], [ -86.880173, 36.081713 ], [ -86.880223, 36.081683 ], [ -86.880223, 36.081629 ], [ -86.880173, 36.081592 ], [ -86.880057, 36.081535 ], [ -86.87999, 36.081438 ], [ -86.879986, 36.081384 ], [ -86.880007, 36.08133 ], [ -86.880102, 36.08125 ], [ -86.880414, 36.081189 ], [ -86.880721, 36.081092 ], [ -86.880833, 36.081045 ], [ -86.881024, 36.081011 ], [ -86.881211, 36.081001 ], [ -86.881402, 36.081005 ], [ -86.88146, 36.080995 ], [ -86.881581, 36.080954 ], [ -86.881639, 36.080924 ], [ -86.881672, 36.080877 ], [ -86.881743, 36.080729 ], [ -86.881847, 36.080599 ], [ -86.882067, 36.080488 ], [ -86.882241, 36.080427 ], [ -86.882366, 36.080424 ], [ -86.882424, 36.080447 ], [ -86.882515, 36.080531 ], [ -86.882569, 36.080552 ], [ -86.882694, 36.080572 ], [ -86.883146, 36.080582 ], [ -86.883213, 36.080575 ], [ -86.883333, 36.080545 ], [ -86.883441, 36.080488 ], [ -86.883591, 36.08038 ], [ -86.883657, 36.080286 ], [ -86.883674, 36.080236 ], [ -86.883694, 36.080076 ], [ -86.883766, 36.080002 ], [ -86.883865, 36.079859 ], [ -86.883878, 36.079769 ], [ -86.883976, 36.079599 ], [ -86.884016, 36.079556 ], [ -86.884173, 36.079382 ], [ -86.884493, 36.079157 ], [ -86.884659, 36.078931 ], [ -86.884672, 36.078867 ], [ -86.884741, 36.078761 ], [ -86.885131, 36.078284 ], [ -86.88521, 36.078164 ], [ -86.885223, 36.07801 ], [ -86.88531, 36.077964 ] ] } },
{ "type": "Feature", "properties": { "cls": "separated", "highway": "cycleway", "name": "Toybox Hill" }, "geometry": { "type": "LineString", "coordinates": [ [ -86.87558, 36.084237 ], [ -86.875472, 36.084267 ], [ -86.875218, 36.084291 ], [ -86.874886, 36.084237 ], [ -86.874209, 36.083938 ], [ -86.874149, 36.083891 ], [ -86.874055, 36.083817 ], [ -86.873972, 36.083673 ], [ -86.873943, 36.083549 ], [ -86.873918, 36.083173 ], [ -86.87386, 36.082921 ], [ -86.873852, 36.082767 ], [ -86.873877, 36.082663 ], [ -86.873935, 36.082633 ], [ -86.873981, 36.08267 ], [ -86.873972, 36.082874 ], [ -86.873997, 36.082921 ], [ -86.87406, 36.082915 ], [ -86.874122, 36.082767 ], [ -86.874084, 36.082505 ], [ -86.874118, 36.082401 ], [ -86.874155, 36.082357 ], [ -86.874213, 36.082341 ], [ -86.874271, 36.082364 ], [ -86.874305, 36.082404 ], [ -86.874342, 36.082858 ], [ -86.87445, 36.083341 ], [ -86.874491, 36.083441 ], [ -86.874707, 36.083633 ], [ -86.874807, 36.083697 ], [ -86.875027, 36.083814 ], [ -86.875085, 36.083831 ], [ -86.875143, 36.083817 ], [ -86.875152, 36.083764 ], [ -86.875114, 36.08372 ], [ -86.874886, 36.083606 ], [ -86.87484, 36.083566 ], [ -86.874778, 36.083472 ], [ -86.874658, 36.083348 ], [ -86.874579, 36.083203 ], [ -86.87457, 36.082938 ], [ -86.87472, 36.082471 ], [ -86.874828, 36.082277 ], [ -86.874882, 36.082243 ], [ -86.874944, 36.082243 ], [ -86.874948, 36.082344 ], [ -86.874886, 36.082649 ], [ -86.874894, 36.0827 ], [ -86.874844, 36.082904 ], [ -86.874832, 36.083056 ], [ -86.874849, 36.083153 ], [ -86.874903, 36.083243 ], [ -86.874998, 36.083311 ], [ -86.875052, 36.083337 ], [ -86.875177, 36.083337 ], [ -86.875231, 36.083314 ], [ -86.875384, 36.08321 ], [ -86.875413, 36.08316 ], [ -86.87543, 36.082951 ], [ -86.875418, 36.082844 ], [ -86.875393, 36.082794 ], [ -86.875326, 36.082777 ], [ -86.875272, 36.082807 ], [ -86.875206, 36.082955 ], [ -86.875276, 36.083092 ], [ -86.875226, 36.083126 ], [ -86.875164, 36.083123 ], [ -86.87511, 36.083086 ], [ -86.875085, 36.083035 ], [ -86.875065, 36.082727 ], [ -86.875135, 36.082529 ], [ -86.875173, 36.082485 ], [ -86.875226, 36.082458 ], [ -86.875413, 36.082465 ], [ -86.87553, 36.082485 ], [ -86.87558, 36.082455 ], [ -86.875538, 36.082411 ], [ -86.87521, 36.082341 ], [ -86.875189, 36.082287 ], [ -86.87531, 36.08225 ], [ -86.875488, 36.082223 ], [ -86.875663, 36.082267 ], [ -86.875766, 36.082327 ], [ -86.875858, 36.082411 ], [ -86.875874, 36.082508 ], [ -86.875874, 36.082653 ], [ -86.875783, 36.083096 ], [ -86.875783, 36.083146 ], [ -86.875808, 36.083193 ], [ -86.87587, 36.0832 ], [ -86.87592, 36.083173 ], [ -86.875953, 36.083129 ], [ -86.875991, 36.083032 ], [ -86.876024, 36.082827 ], [ -86.876045, 36.082723 ], [ -86.876074, 36.082673 ], [ -86.876095, 36.08231 ], [ -86.875999, 36.082169 ], [ -86.875808, 36.082106 ], [ -86.875413, 36.082052 ], [ -86.875409, 36.082002 ], [ -86.875455, 36.081961 ], [ -86.875513, 36.081944 ], [ -86.875638, 36.081924 ], [ -86.875957, 36.081908 ], [ -86.876078, 36.081924 ], [ -86.876178, 36.081981 ], [ -86.876211, 36.082022 ], [ -86.876311, 36.08221 ], [ -86.876369, 36.082512 ], [ -86.876364, 36.082663 ], [ -86.876431, 36.082951 ], [ -86.876531, 36.083193 ], [ -86.876539, 36.083445 ], [ -86.876522, 36.083542 ] ] } },
{ "type": "Feature", "properties": { "cls": "separated", "highway": "cycleway", "name": "Toybox Hill Connector" }, "geometry": { "type": "LineString", "coordinates": [ [ -86.875781, 36.084039 ], [ -86.875646, 36.084043 ], [ -86.875549, 36.084042 ], [ -86.875433, 36.084031 ], [ -86.875324, 36.084008 ], [ -86.875191, 36.083962 ], [ -86.875113, 36.083911 ], [ -86.875042, 36.083848 ], [ -86.875027, 36.083814 ] ] } },
{ "type": "Feature", "properties": { "cls": "separated", "highway": "cycleway", "name": "Hookman Hill" }, "geometry": { "type": "LineString", "coordinates": [ [ -86.877602, 36.083186 ], [ -86.877503, 36.083257 ], [ -86.877382, 36.083307 ], [ -86.877083, 36.083398 ], [ -86.8769, 36.083438 ], [ -86.876522, 36.083542 ], [ -86.876352, 36.083609 ], [ -86.876203, 36.083693 ], [ -86.876049, 36.083801 ], [ -86.875787, 36.084032 ], [ -86.875781, 36.084039 ], [ -86.87558, 36.084237 ], [ -86.875467, 36.084371 ], [ -86.87538, 36.084448 ], [ -86.87538, 36.084512 ], [ -86.875405, 36.084562 ], [ -86.875488, 36.084717 ], [ -86.875521, 36.084767 ], [ -86.875559, 36.084814 ], [ -86.875642, 36.084901 ], [ -86.875671, 36.084949 ], [ -86.8757, 36.084999 ], [ -86.875741, 36.08511 ], [ -86.875775, 36.085194 ], [ -86.875883, 36.085271 ], [ -86.876057, 36.085438 ], [ -86.876103, 36.085539 ], [ -86.876111, 36.085589 ], [ -86.876053, 36.085613 ], [ -86.875928, 36.085569 ], [ -86.875795, 36.085546 ], [ -86.875737, 36.085543 ], [ -86.875733, 36.085593 ], [ -86.875941, 36.085737 ], [ -86.876049, 36.085804 ], [ -86.876227, 36.085895 ], [ -86.876481, 36.086076 ], [ -86.876651, 36.086174 ], [ -86.876717, 36.08618 ], [ -86.876913, 36.086163 ], [ -86.877046, 36.086126 ], [ -86.8771, 36.086093 ], [ -86.877274, 36.085932 ], [ -86.877419, 36.085825 ], [ -86.877594, 36.085747 ], [ -86.877718, 36.085714 ], [ -86.877781, 36.08572 ], [ -86.877843, 36.085741 ], [ -86.877897, 36.085771 ], [ -86.877997, 36.085804 ], [ -86.878022, 36.085855 ], [ -86.878362, 36.086049 ], [ -86.878628, 36.086231 ], [ -86.878802, 36.086314 ], [ -86.878931, 36.086345 ], [ -86.87906, 36.086341 ], [ -86.879093, 36.086291 ], [ -86.879052, 36.086257 ], [ -86.878948, 36.086204 ], [ -86.878939, 36.086157 ], [ -86.87901, 36.086153 ], [ -86.879072, 36.086174 ], [ -86.879189, 36.086231 ], [ -86.879255, 36.086247 ], [ -86.879384, 36.086264 ], [ -86.879446, 36.086244 ], [ -86.879413, 36.086197 ], [ -86.879189, 36.086096 ], [ -86.878914, 36.085955 ], [ -86.878856, 36.085915 ], [ -86.878628, 36.085673 ], [ -86.878599, 36.08563 ], [ -86.878582, 36.085532 ], [ -86.878645, 36.085556 ], [ -86.878935, 36.085814 ], [ -86.879106, 36.085918 ], [ -86.879222, 36.085965 ], [ -86.879413, 36.086016 ], [ -86.87967, 36.0861 ], [ -86.879799, 36.086123 ], [ -86.880069, 36.086117 ], [ -86.880493, 36.086133 ], [ -86.880684, 36.086153 ], [ -86.880746, 36.086177 ], [ -86.880742, 36.086231 ], [ -86.880684, 36.086257 ], [ -86.880622, 36.086267 ], [ -86.880443, 36.086271 ], [ -86.880389, 36.086294 ], [ -86.88041, 36.086345 ], [ -86.880472, 36.086368 ], [ -86.880667, 36.086388 ], [ -86.8808, 36.086365 ], [ -86.880941, 36.086335 ], [ -86.881249, 36.086217 ], [ -86.881357, 36.086133 ], [ -86.881423, 36.086043 ], [ -86.88173, 36.085687 ], [ -86.881751, 36.08564 ], [ -86.881755, 36.085593 ], [ -86.881718, 36.085553 ], [ -86.881664, 36.085573 ], [ -86.881643, 36.085623 ], [ -86.881602, 36.085663 ], [ -86.881269, 36.085915 ], [ -86.881207, 36.085929 ], [ -86.881012, 36.085945 ], [ -86.880605, 36.085942 ], [ -86.880036, 36.085898 ], [ -86.880032, 36.085848 ], [ -86.880135, 36.085791 ], [ -86.880322, 36.08572 ], [ -86.880385, 36.085697 ], [ -86.880447, 36.085687 ], [ -86.880576, 36.08565 ], [ -86.880634, 36.08562 ], [ -86.880684, 36.085586 ], [ -86.880721, 36.085542 ], [ -86.880675, 36.085502 ], [ -86.880364, 36.085522 ], [ -86.87972, 36.085509 ], [ -86.8796, 36.085485 ], [ -86.879554, 36.085452 ], [ -86.879571, 36.085405 ], [ -86.879708, 36.085402 ], [ -86.879774, 36.085388 ], [ -86.879886, 36.085257 ], [ -86.879994, 36.085193 ], [ -86.880127, 36.085187 ], [ -86.880185, 36.085214 ], [ -86.880256, 36.085304 ], [ -86.880318, 36.085318 ], [ -86.880389, 36.085321 ], [ -86.880451, 36.085294 ], [ -86.880484, 36.085251 ], [ -86.880489, 36.0852 ], [ -86.880468, 36.085153 ], [ -86.880368, 36.085083 ], [ -86.880244, 36.085059 ], [ -86.880181, 36.085052 ], [ -86.87994, 36.085103 ], [ -86.879816, 36.085146 ], [ -86.879654, 36.085234 ], [ -86.879592, 36.08525 ], [ -86.879533, 36.08524 ], [ -86.879554, 36.08519 ], [ -86.879596, 36.085153 ], [ -86.879741, 36.085046 ], [ -86.879978, 36.084922 ], [ -86.880098, 36.084871 ], [ -86.880297, 36.084824 ], [ -86.880551, 36.084801 ], [ -86.880696, 36.084801 ], [ -86.880829, 36.084828 ], [ -86.880883, 36.084865 ], [ -86.880966, 36.084948 ], [ -86.881057, 36.085096 ], [ -86.88112, 36.085247 ], [ -86.881112, 36.085345 ], [ -86.881062, 36.085442 ], [ -86.881053, 36.085492 ], [ -86.881116, 36.085492 ], [ -86.881174, 36.085462 ], [ -86.881253, 36.085375 ], [ -86.881373, 36.085193 ], [ -86.881485, 36.084955 ], [ -86.881506, 36.084858 ], [ -86.881473, 36.08471 ], [ -86.881431, 36.084613 ], [ -86.881278, 36.084458 ], [ -86.88119, 36.084388 ], [ -86.881157, 36.084344 ], [ -86.881149, 36.084294 ], [ -86.881215, 36.084297 ], [ -86.881278, 36.084321 ], [ -86.881485, 36.084462 ], [ -86.881556, 36.084479 ], [ -86.881597, 36.084438 ], [ -86.881573, 36.084388 ], [ -86.881527, 36.084351 ], [ -86.881394, 36.08418 ], [ -86.881344, 36.084146 ], [ -86.881228, 36.084109 ], [ -86.881107, 36.084089 ], [ -86.880979, 36.084056 ], [ -86.880921, 36.084052 ], [ -86.880622, 36.084106 ], [ -86.880123, 36.084227 ], [ -86.880061, 36.084247 ], [ -86.879891, 36.084327 ], [ -86.879799, 36.084401 ], [ -86.879683, 36.084432 ], [ -86.879654, 36.084385 ], [ -86.879662, 36.084334 ], [ -86.879704, 36.084234 ], [ -86.879733, 36.084187 ], [ -86.87982, 36.084109 ], [ -86.879944, 36.084062 ], [ -86.880161, 36.084009 ], [ -86.880297, 36.084015 ], [ -86.88036, 36.084009 ], [ -86.880418, 36.083989 ], [ -86.880464, 36.083952 ], [ -86.88046, 36.083898 ], [ -86.880322, 36.08379 ], [ -86.880206, 36.08375 ], [ -86.880015, 36.08372 ], [ -86.879778, 36.0837 ], [ -86.879728, 36.083673 ], [ -86.879791, 36.083586 ], [ -86.87982, 36.083489 ], [ -86.879824, 36.083384 ], [ -86.879795, 36.083337 ], [ -86.879749, 36.083304 ], [ -86.879629, 36.083294 ], [ -86.879567, 36.083311 ], [ -86.879467, 36.083384 ], [ -86.879409, 36.083391 ], [ -86.879346, 36.083388 ], [ -86.879346, 36.083337 ], [ -86.8794, 36.083304 ], [ -86.879415, 36.083277 ], [ -86.879454, 36.083207 ], [ -86.879604, 36.082874 ], [ -86.879621, 36.082773 ], [ -86.879608, 36.082723 ], [ -86.879558, 36.082629 ], [ -86.879484, 36.082545 ], [ -86.87943, 36.082522 ], [ -86.879371, 36.082529 ], [ -86.8794, 36.082743 ], [ -86.879375, 36.082898 ], [ -86.879193, 36.083049 ], [ -86.879155, 36.083092 ], [ -86.879072, 36.083166 ], [ -86.87891, 36.083257 ], [ -86.878753, 36.083364 ], [ -86.878454, 36.083488 ], [ -86.878329, 36.083522 ], [ -86.878026, 36.083556 ], [ -86.877905, 36.083593 ], [ -86.877793, 36.08365 ], [ -86.877689, 36.083723 ], [ -86.87761, 36.083807 ], [ -86.87754, 36.083841 ], [ -86.877448, 36.083858 ], [ -86.877046, 36.083864 ], [ -86.876946, 36.083884 ], [ -86.876688, 36.083952 ], [ -86.87656, 36.083972 ], [ -86.876493, 36.083972 ], [ -86.876439, 36.083945 ], [ -86.876443, 36.083891 ], [ -86.876555, 36.083844 ], [ -86.876809, 36.083824 ], [ -86.877016, 36.08379 ], [ -86.877083, 36.083774 ], [ -86.877145, 36.083747 ], [ -86.877311, 36.083639 ], [ -86.877723, 36.083455 ], [ -86.877785, 36.083452 ], [ -86.877922, 36.083472 ], [ -86.878121, 36.083448 ], [ -86.878142, 36.083405 ], [ -86.878429, 36.083243 ], [ -86.878553, 36.08321 ], [ -86.878728, 36.083133 ], [ -86.878794, 36.083045 ], [ -86.878802, 36.082998 ], [ -86.878773, 36.082901 ], [ -86.878715, 36.082811 ], [ -86.878661, 36.08279 ], [ -86.878541, 36.082777 ], [ -86.878358, 36.08279 ], [ -86.878242, 36.082834 ], [ -86.877918, 36.083106 ], [ -86.87776, 36.083196 ], [ -86.877698, 36.08321 ], [ -86.877635, 36.083207 ], [ -86.877602, 36.083186 ] ] } }
]
}
