{
"type": "FeatureCollection",
"name": "076-brecksville-brecksville-reservation",
"crs": { "type": "name", "properties": { "name": "urn:ogc:def:crs:OGC:1.3:CRS84" } },
"xy_coordinate_resolution": 1e-06,
"features": [
{ "type": "Feature", "properties": { "cls": "shared", "highway": "cycleway", "name": "South Brecksville Reservation All Purpose Trail" }, "geometry": { "type": "LineString", "coordinates": [ [ -81.609818, 41.304241 ], [ -81.609782, 41.304265 ], [ -81.609746, 41.304289 ] ] } },
{ "type": "Feature", "properties": { "cls": "shared", "highway": "cycleway", "name": "South Brecksville Reservation All Purpose Trail" }, "geometry": { "type": "LineString", "coordinates": [ [ -81.609746, 41.304289 ], [ -81.609683, 41.304345 ], [ -81.609622, 41.304401 ], [ -81.609531, 41.304472 ], [ -81.609416, 41.304562 ], [ -81.609249, 41.3047 ], [ -81.60916, 41.304769 ], [ -81.609062, 41.304845 ], [ -81.608975, 41.304916 ], [ -81.608937, 41.304955 ], [ -81.608894, 41.30501 ], [ -81.608855, 41.305051 ], [ -81.60882, 41.305079 ], [ -81.608717, 41.30515 ], [ -81.608668, 41.305184 ], [ -81.608633, 41.305221 ], [ -81.608589, 41.305277 ], [ -81.608532, 41.305341 ], [ -81.608487, 41.305397 ], [ -81.608445, 41.305443 ], [ -81.608376, 41.305521 ], [ -81.6083, 41.305606 ], [ -81.608191, 41.30574 ], [ -81.608149, 41.305792 ], [ -81.608115, 41.305826 ], [ -81.60806, 41.305873 ], [ -81.607995, 41.30592 ], [ -81.60792, 41.305966 ], [ -81.607843, 41.306006 ], [ -81.607791, 41.306036 ], [ -81.607757, 41.306067 ], [ -81.607729, 41.306103 ], [ -81.607702, 41.306134 ], [ -81.60767, 41.306159 ], [ -81.607628, 41.306178 ], [ -81.60758, 41.306205 ], [ -81.607536, 41.306235 ], [ -81.607501, 41.306264 ], [ -81.607468, 41.306302 ], [ -81.60744, 41.30635 ], [ -81.607424, 41.306385 ], [ -81.607397, 41.306427 ], [ -81.607369, 41.306454 ], [ -81.60733, 41.306478 ], [ -81.607265, 41.306514 ], [ -81.60721, 41.306544 ], [ -81.607163, 41.306576 ], [ -81.607115, 41.306615 ], [ -81.607073, 41.306651 ], [ -81.607027, 41.306693 ], [ -81.606987, 41.306723 ], [ -81.606934, 41.306757 ], [ -81.606887, 41.30679 ], [ -81.606808, 41.306836 ], [ -81.606696, 41.306901 ], [ -81.606594, 41.306967 ], [ -81.606496, 41.307027 ], [ -81.606448, 41.307059 ], [ -81.606357, 41.307108 ], [ -81.606318, 41.307137 ], [ -81.606294, 41.307159 ], [ -81.606269, 41.307199 ], [ -81.606248, 41.30724 ], [ -81.606231, 41.30727 ], [ -81.606214, 41.307289 ], [ -81.606189, 41.307307 ], [ -81.60616, 41.307325 ], [ -81.606121, 41.307361 ], [ -81.606047, 41.307425 ], [ -81.606002, 41.307461 ], [ -81.605967, 41.307495 ], [ -81.605931, 41.307536 ], [ -81.605897, 41.307581 ], [ -81.605869, 41.307631 ], [ -81.605843, 41.307669 ], [ -81.605807, 41.307711 ], [ -81.605779, 41.307738 ], [ -81.605748, 41.307763 ], [ -81.605689, 41.307793 ], [ -81.605653, 41.307815 ], [ -81.605617, 41.307848 ], [ -81.605587, 41.307881 ], [ -81.605568, 41.307896 ], [ -81.605541, 41.307916 ], [ -81.605493, 41.307942 ], [ -81.605453, 41.30797 ], [ -81.605422, 41.307999 ], [ -81.605404, 41.308024 ], [ -81.605394, 41.308049 ], [ -81.605387, 41.308079 ], [ -81.605384, 41.30812 ], [ -81.605378, 41.308165 ], [ -81.605368, 41.308192 ], [ -81.60535, 41.308217 ], [ -81.605321, 41.308251 ], [ -81.60529, 41.308271 ], [ -81.605259, 41.308283 ], [ -81.605222, 41.308304 ], [ -81.605194, 41.308326 ], [ -81.605174, 41.308355 ], [ -81.605162, 41.308377 ], [ -81.605151, 41.308403 ], [ -81.605133, 41.308431 ], [ -81.605094, 41.308481 ], [ -81.605036, 41.308548 ], [ -81.604979, 41.308616 ], [ -81.604861, 41.308764 ], [ -81.604767, 41.30888 ], [ -81.604737, 41.308922 ], [ -81.604719, 41.308942 ], [ -81.604699, 41.308956 ] ] } },
{ "type": "Feature", "properties": { "cls": "shared", "highway": "cycleway", "name": "Oak Grove All Purpose Trail Loop" }, "geometry": { "type": "LineString", "coordinates": [ [ -81.604008, 41.309765 ], [ -81.603957, 41.309756 ], [ -81.603898, 41.309742 ], [ -81.603851, 41.309725 ], [ -81.603811, 41.309702 ], [ -81.603779, 41.309677 ], [ -81.603752, 41.309637 ], [ -81.603703, 41.309555 ], [ -81.603669, 41.309494 ], [ -81.603639, 41.309454 ], [ -81.603598, 41.309413 ], [ -81.603527, 41.309357 ], [ -81.603449, 41.309304 ], [ -81.603397, 41.309267 ], [ -81.603359, 41.309235 ], [ -81.603341, 41.309208 ], [ -81.603319, 41.309157 ], [ -81.60328, 41.309078 ], [ -81.603238, 41.309012 ], [ -81.603173, 41.308942 ], [ -81.603072, 41.308844 ], [ -81.602975, 41.308754 ], [ -81.602943, 41.308725 ], [ -81.602897, 41.308696 ], [ -81.602838, 41.308666 ], [ -81.602751, 41.308629 ], [ -81.602683, 41.308596 ], [ -81.602614, 41.308552 ], [ -81.602519, 41.30848 ], [ -81.602437, 41.30841 ], [ -81.602393, 41.308366 ], [ -81.602361, 41.308328 ], [ -81.602318, 41.308257 ], [ -81.602284, 41.308181 ], [ -81.60227, 41.308112 ], [ -81.602271, 41.308068 ], [ -81.602284, 41.308018 ], [ -81.60231, 41.307963 ], [ -81.602343, 41.307907 ], [ -81.602394, 41.307831 ], [ -81.602447, 41.307769 ], [ -81.602504, 41.307719 ], [ -81.602576, 41.307676 ], [ -81.602652, 41.30765 ], [ -81.602722, 41.307634 ], [ -81.602792, 41.307624 ], [ -81.602927, 41.307615 ], [ -81.603101, 41.307613 ], [ -81.603277, 41.307614 ], [ -81.603426, 41.307611 ], [ -81.603632, 41.307602 ], [ -81.6038, 41.307599 ], [ -81.603889, 41.307602 ], [ -81.603979, 41.307611 ], [ -81.604062, 41.30763 ], [ -81.604163, 41.307659 ], [ -81.604261, 41.307698 ], [ -81.604368, 41.307748 ], [ -81.604497, 41.307814 ], [ -81.604623, 41.307881 ], [ -81.604726, 41.307951 ], [ -81.604823, 41.308023 ], [ -81.604975, 41.308148 ], [ -81.605161, 41.308304 ], [ -81.605194, 41.308326 ] ] } },
{ "type": "Feature", "properties": { "cls": "shared", "highway": "cycleway", "name": "South Brecksville Reservation All Purpose Trail" }, "geometry": { "type": "LineString", "coordinates": [ [ -81.604699, 41.308956 ], [ -81.604678, 41.308962 ], [ -81.604645, 41.308974 ], [ -81.604611, 41.308989 ], [ -81.604558, 41.309019 ], [ -81.604509, 41.309064 ], [ -81.604474, 41.309111 ], [ -81.604431, 41.30916 ], [ -81.604367, 41.30922 ], [ -81.604297, 41.30929 ], [ -81.604241, 41.309365 ], [ -81.604157, 41.309512 ], [ -81.604082, 41.309625 ], [ -81.604044, 41.30968 ], [ -81.60402, 41.309723 ], [ -81.604008, 41.309765 ], [ -81.604002, 41.309787 ], [ -81.603996, 41.309822 ], [ -81.603986, 41.309872 ] ] } },
{ "type": "Feature", "properties": { "cls": "shared", "highway": "cycleway", "name": "South Brecksville Reservation All Purpose Trail" }, "geometry": { "type": "LineString", "coordinates": [ [ -81.603986, 41.309872 ], [ -81.603972, 41.309909 ], [ -81.603958, 41.309947 ] ] } },
{ "type": "Feature", "properties": { "cls": "shared", "highway": "cycleway", "name": "South Brecksville Reservation All Purpose Trail" }, "geometry": { "type": "LineString", "coordinates": [ [ -81.603958, 41.309947 ], [ -81.603936, 41.30999 ], [ -81.603901, 41.310041 ], [ -81.603868, 41.310075 ], [ -81.603764, 41.310169 ], [ -81.603639, 41.310311 ] ] } },
{ "type": "Feature", "properties": { "cls": "shared", "highway": "cycleway", "name": "South Brecksville Reservation All Purpose Trail" }, "geometry": { "type": "LineString", "coordinates": [ [ -81.603639, 41.310311 ], [ -81.603579, 41.310371 ], [ -81.603466, 41.310452 ], [ -81.603362, 41.310537 ], [ -81.603263, 41.310631 ] ] } },
{ "type": "Feature", "properties": { "cls": "shared", "highway": "cycleway", "name": "Ohio & Erie Canal Towpath Trail" }, "geometry": { "type": "LineString", "coordinates": [ [ -81.586041, 41.319947 ], [ -81.586039, 41.319924 ] ] } },
{ "type": "Feature", "properties": { "cls": "shared", "highway": "cycleway", "name": "South Brecksville Reservation All Purpose Trail" }, "geometry": { "type": "LineString", "coordinates": [ [ -81.603263, 41.310631 ], [ -81.603209, 41.310715 ], [ -81.603115, 41.310794 ], [ -81.602961, 41.310926 ], [ -81.602846, 41.311025 ], [ -81.60276, 41.311082 ], [ -81.602684, 41.31113 ], [ -81.60249, 41.311237 ], [ -81.602349, 41.311345 ], [ -81.602205, 41.311463 ], [ -81.602094, 41.311582 ], [ -81.601957, 41.311754 ], [ -81.601839, 41.311932 ], [ -81.601528, 41.312395 ], [ -81.601458, 41.312521 ], [ -81.601432, 41.312596 ], [ -81.60142, 41.312672 ], [ -81.60142, 41.312746 ], [ -81.601426, 41.312857 ], [ -81.601423, 41.312958 ], [ -81.601398, 41.313045 ], [ -81.601354, 41.313136 ], [ -81.601298, 41.313217 ], [ -81.601235, 41.313284 ], [ -81.601155, 41.313352 ], [ -81.601078, 41.313408 ], [ -81.601, 41.313474 ], [ -81.600941, 41.313524 ], [ -81.600893, 41.313578 ], [ -81.600855, 41.313633 ], [ -81.600825, 41.313686 ], [ -81.600791, 41.313759 ], [ -81.600766, 41.313822 ], [ -81.600703, 41.313972 ], [ -81.600672, 41.314053 ], [ -81.600642, 41.314122 ], [ -81.600591, 41.314225 ], [ -81.600542, 41.314306 ], [ -81.600534, 41.314323 ], [ -81.600481, 41.314404 ], [ -81.60041, 41.314509 ], [ -81.600309, 41.314655 ], [ -81.600245, 41.31477 ], [ -81.600213, 41.314892 ], [ -81.600202, 41.315025 ], [ -81.600199, 41.315119 ], [ -81.600195, 41.31524 ], [ -81.600183, 41.315338 ], [ -81.600151, 41.315458 ], [ -81.600123, 41.315561 ], [ -81.6001, 41.315644 ], [ -81.600085, 41.315724 ], [ -81.600074, 41.315762 ], [ -81.600058, 41.3158 ], [ -81.60005, 41.31582 ], [ -81.600038, 41.315844 ] ] } },
{ "type": "Feature", "properties": { "cls": "separated", "highway": "cycleway", "name": "South Brecksville Reservation All Purpose Trail" }, "geometry": { "type": "LineString", "coordinates": [ [ -81.600038, 41.315844 ], [ -81.600004, 41.315923 ], [ -81.599976, 41.315991 ] ] } },
{ "type": "Feature", "properties": { "cls": "shared", "highway": "cycleway", "name": "North Brecksville Reservation All Purpose Trail" }, "geometry": { "type": "LineString", "coordinates": [ [ -81.599976, 41.315991 ], [ -81.600056, 41.315991 ], [ -81.600146, 41.315993 ], [ -81.600288, 41.315998 ], [ -81.600383, 41.316003 ], [ -81.600439, 41.316006 ], [ -81.600484, 41.316012 ], [ -81.600521, 41.31602 ], [ -81.600555, 41.316022 ], [ -81.600788, 41.316032 ], [ -81.600871, 41.316047 ], [ -81.600942, 41.316082 ] ] } },
{ "type": "Feature", "properties": { "cls": "shared", "highway": "cycleway", "name": "North Brecksville Reservation All Purpose Trail" }, "geometry": { "type": "LineString", "coordinates": [ [ -81.598228, 41.316537 ], [ -81.598228, 41.316502 ], [ -81.59823, 41.316475 ], [ -81.598238, 41.316441 ], [ -81.598263, 41.316391 ], [ -81.59828, 41.316356 ], [ -81.598354, 41.316215 ], [ -81.598376, 41.316184 ], [ -81.598401, 41.316157 ], [ -81.598438, 41.316125 ], [ -81.598482, 41.316098 ], [ -81.598605, 41.316035 ], [ -81.598692, 41.315992 ], [ -81.598732, 41.315973 ], [ -81.59877, 41.315959 ], [ -81.598819, 41.315951 ], [ -81.598879, 41.315949 ], [ -81.59898, 41.315951 ], [ -81.59912, 41.315958 ], [ -81.599268, 41.315969 ], [ -81.599412, 41.315981 ], [ -81.59951, 41.315987 ], [ -81.599581, 41.31599 ], [ -81.599678, 41.315993 ], [ -81.599784, 41.315992 ], [ -81.599927, 41.31599 ], [ -81.599976, 41.315991 ] ] } },
{ "type": "Feature", "properties": { "cls": "shared", "highway": "cycleway", "name": "North Brecksville Reservation All Purpose Trail" }, "geometry": { "type": "LineString", "coordinates": [ [ -81.598298, 41.316795 ], [ -81.598228, 41.316537 ] ] } },
{ "type": "Feature", "properties": { "cls": "shared", "highway": "cycleway", "name": "North Brecksville Reservation All Purpose Trail" }, "geometry": { "type": "LineString", "coordinates": [ [ -81.591906, 41.31887 ], [ -81.591935, 41.318872 ], [ -81.59197, 41.318876 ], [ -81.592021, 41.318885 ], [ -81.592087, 41.318896 ], [ -81.592167, 41.318909 ], [ -81.592257, 41.318922 ], [ -81.592308, 41.31893 ], [ -81.592346, 41.318934 ], [ -81.592393, 41.318939 ], [ -81.592444, 41.31894 ], [ -81.592483, 41.31894 ], [ -81.592519, 41.318935 ], [ -81.592558, 41.318928 ], [ -81.592594, 41.318919 ], [ -81.592657, 41.318899 ], [ -81.592713, 41.318877 ], [ -81.592765, 41.318857 ], [ -81.592804, 41.318844 ], [ -81.592843, 41.318834 ], [ -81.592896, 41.318824 ], [ -81.592979, 41.318812 ], [ -81.593073, 41.318799 ], [ -81.593151, 41.31879 ], [ -81.593204, 41.318783 ], [ -81.593264, 41.318773 ], [ -81.593321, 41.318762 ], [ -81.593368, 41.31875 ], [ -81.593408, 41.318737 ], [ -81.593456, 41.318718 ], [ -81.593491, 41.318699 ], [ -81.593531, 41.318675 ], [ -81.593583, 41.318639 ], [ -81.59363, 41.318609 ], [ -81.593669, 41.318587 ], [ -81.59371, 41.318565 ], [ -81.593759, 41.318544 ], [ -81.593827, 41.318516 ], [ -81.593909, 41.318486 ], [ -81.594005, 41.318453 ], [ -81.594098, 41.31842 ], [ -81.594193, 41.318388 ], [ -81.594266, 41.318366 ], [ -81.594324, 41.318346 ], [ -81.594379, 41.318325 ], [ -81.594447, 41.318298 ], [ -81.594534, 41.318262 ], [ -81.594618, 41.318225 ], [ -81.594671, 41.318205 ], [ -81.59472, 41.31819 ], [ -81.594774, 41.31818 ], [ -81.594857, 41.318166 ], [ -81.594931, 41.318151 ], [ -81.594993, 41.318137 ], [ -81.595033, 41.318125 ], [ -81.59508, 41.318108 ], [ -81.595125, 41.318088 ], [ -81.595178, 41.318065 ], [ -81.595245, 41.318035 ], [ -81.5953, 41.318012 ], [ -81.595353, 41.317992 ], [ -81.595408, 41.317975 ], [ -81.595477, 41.317957 ], [ -81.595556, 41.317938 ], [ -81.595691, 41.317908 ], [ -81.595787, 41.317887 ], [ -81.595891, 41.317863 ], [ -81.595951, 41.317852 ], [ -81.596027, 41.317841 ], [ -81.596102, 41.317834 ], [ -81.596193, 41.317828 ], [ -81.596254, 41.317824 ], [ -81.59631, 41.317816 ], [ -81.596364, 41.317808 ], [ -81.596426, 41.317794 ], [ -81.596502, 41.317774 ], [ -81.59666, 41.31773 ], [ -81.596756, 41.317705 ], [ -81.596857, 41.317681 ], [ -81.596983, 41.317653 ], [ -81.597135, 41.317618 ], [ -81.597208, 41.317599 ], [ -81.597306, 41.31757 ], [ -81.597435, 41.317527 ], [ -81.597579, 41.317479 ], [ -81.597694, 41.317438 ], [ -81.597749, 41.317415 ], [ -81.59782, 41.317381 ], [ -81.597878, 41.317349 ], [ -81.597921, 41.317321 ], [ -81.597965, 41.317288 ], [ -81.59801, 41.317249 ], [ -81.598046, 41.317211 ], [ -81.598127, 41.317126 ], [ -81.598166, 41.317082 ], [ -81.598214, 41.317027 ], [ -81.598244, 41.316987 ], [ -81.598275, 41.316934 ], [ -81.598293, 41.316895 ], [ -81.5983, 41.316865 ], [ -81.598304, 41.316833 ], [ -81.598298, 41.316795 ] ] } },
{ "type": "Feature", "properties": { "cls": "shared", "highway": "cycleway", "name": "North Brecksville Reservation All Purpose Trail" }, "geometry": { "type": "LineString", "coordinates": [ [ -81.588744, 41.31866 ], [ -81.588833, 41.318636 ], [ -81.588931, 41.318615 ], [ -81.589035, 41.318597 ], [ -81.589129, 41.318582 ], [ -81.589236, 41.318568 ], [ -81.589379, 41.318554 ], [ -81.589545, 41.31854 ], [ -81.589655, 41.318532 ], [ -81.589729, 41.31853 ], [ -81.589809, 41.318532 ], [ -81.589886, 41.318539 ], [ -81.590008, 41.318553 ], [ -81.590143, 41.31857 ], [ -81.590258, 41.318587 ], [ -81.590362, 41.318606 ], [ -81.590477, 41.318629 ], [ -81.590547, 41.318648 ], [ -81.59064, 41.318676 ], [ -81.590737, 41.318706 ], [ -81.590829, 41.318737 ], [ -81.590871, 41.318751 ], [ -81.590894, 41.318756 ], [ -81.590919, 41.318759 ], [ -81.590947, 41.318759 ], [ -81.591009, 41.31876 ], [ -81.591061, 41.318763 ], [ -81.591113, 41.318768 ], [ -81.591155, 41.318775 ], [ -81.59121, 41.318791 ] ] } },
{ "type": "Feature", "properties": { "cls": "shared", "highway": "cycleway", "name": "North Brecksville Reservation All Purpose Trail" }, "geometry": { "type": "LineString", "coordinates": [ [ -81.59121, 41.318791 ], [ -81.591272, 41.31881 ], [ -81.591315, 41.318822 ], [ -81.591354, 41.318829 ], [ -81.591415, 41.318838 ], [ -81.591515, 41.318851 ], [ -81.591584, 41.318858 ], [ -81.591632, 41.318861 ], [ -81.591699, 41.318863 ], [ -81.591772, 41.318864 ], [ -81.591816, 41.318865 ] ] } },
{ "type": "Feature", "properties": { "cls": "shared", "highway": "cycleway", "name": "North Brecksville Reservation All Purpose Trail" }, "geometry": { "type": "LineString", "coordinates": [ [ -81.591816, 41.318865 ], [ -81.591863, 41.318867 ], [ -81.591906, 41.31887 ] ] } },
{ "type": "Feature", "properties": { "cls": "shared", "highway": "cycleway", "name": "Station Road Connector" }, "geometry": { "type": "LineString", "coordinates": [ [ -81.586041, 41.319947 ], [ -81.586102, 41.319931 ], [ -81.586146, 41.319914 ], [ -81.586297, 41.319858 ], [ -81.586442, 41.319794 ], [ -81.586524, 41.319756 ], [ -81.586708, 41.319667 ], [ -81.586943, 41.319549 ], [ -81.587204, 41.319417 ], [ -81.587263, 41.319388 ], [ -81.587264, 41.319388 ] ] } },
{ "type": "Feature", "properties": { "cls": "shared", "highway": "cycleway", "name": "North Brecksville Reservation All Purpose Trail" }, "geometry": { "type": "LineString", "coordinates": [ [ -81.600942, 41.316082 ], [ -81.600965, 41.316093 ], [ -81.601017, 41.316115 ], [ -81.601065, 41.316135 ], [ -81.601105, 41.316148 ], [ -81.60116, 41.316162 ], [ -81.601241, 41.316178 ], [ -81.601312, 41.316194 ], [ -81.601383, 41.316215 ], [ -81.601461, 41.316242 ], [ -81.601603, 41.316295 ], [ -81.601679, 41.316321 ], [ -81.601763, 41.316349 ], [ -81.601853, 41.316378 ], [ -81.601928, 41.316405 ], [ -81.601979, 41.316426 ], [ -81.602021, 41.316445 ], [ -81.602056, 41.316464 ], [ -81.602105, 41.316495 ], [ -81.602165, 41.316538 ], [ -81.602214, 41.31657 ], [ -81.602272, 41.316602 ], [ -81.602348, 41.316637 ], [ -81.602452, 41.316687 ], [ -81.602534, 41.316735 ], [ -81.602595, 41.316766 ], [ -81.602642, 41.316788 ], [ -81.602698, 41.316809 ], [ -81.602746, 41.316827 ], [ -81.602788, 41.316845 ], [ -81.602825, 41.316867 ], [ -81.602869, 41.316894 ], [ -81.602936, 41.316945 ], [ -81.602989, 41.316986 ], [ -81.603008, 41.317008 ], [ -81.603033, 41.317042 ], [ -81.603057, 41.317075 ], [ -81.603087, 41.317109 ], [ -81.603119, 41.317143 ], [ -81.603156, 41.317173 ], [ -81.603191, 41.317196 ], [ -81.603237, 41.317221 ], [ -81.60328, 41.317239 ], [ -81.603334, 41.317258 ], [ -81.603387, 41.317279 ], [ -81.60343, 41.317297 ], [ -81.603479, 41.317321 ], [ -81.603506, 41.31734 ], [ -81.603527, 41.317363 ], [ -81.603547, 41.317391 ], [ -81.603578, 41.317435 ], [ -81.60361, 41.317475 ], [ -81.603647, 41.317514 ], [ -81.603686, 41.317552 ], [ -81.603734, 41.317594 ], [ -81.603792, 41.31764 ], [ -81.603845, 41.317679 ], [ -81.603883, 41.317703 ], [ -81.603925, 41.317724 ], [ -81.603968, 41.31774 ], [ -81.604032, 41.317764 ], [ -81.604099, 41.317789 ], [ -81.604141, 41.317807 ], [ -81.604187, 41.317831 ], [ -81.604236, 41.317861 ], [ -81.604307, 41.317905 ], [ -81.60436, 41.31794 ], [ -81.604395, 41.317963 ], [ -81.604438, 41.317987 ], [ -81.604483, 41.318011 ], [ -81.604547, 41.318042 ], [ -81.604727, 41.318132 ], [ -81.604838, 41.318193 ], [ -81.604934, 41.318249 ], [ -81.604995, 41.318283 ], [ -81.605056, 41.318317 ], [ -81.605098, 41.318343 ], [ -81.605133, 41.318367 ], [ -81.605166, 41.318396 ], [ -81.605206, 41.318436 ], [ -81.605238, 41.318468 ], [ -81.605269, 41.318489 ], [ -81.605302, 41.318504 ], [ -81.605347, 41.318517 ], [ -81.605399, 41.318527 ], [ -81.605461, 41.318534 ], [ -81.605537, 41.318544 ], [ -81.6056, 41.318552 ], [ -81.605652, 41.318562 ], [ -81.605695, 41.318573 ], [ -81.605748, 41.318593 ], [ -81.60579, 41.318612 ], [ -81.605839, 41.318637 ], [ -81.605892, 41.318668 ], [ -81.605942, 41.318694 ], [ -81.605993, 41.318717 ], [ -81.606038, 41.318733 ], [ -81.606072, 41.318742 ], [ -81.606112, 41.318749 ], [ -81.606164, 41.318757 ], [ -81.606199, 41.318765 ], [ -81.606238, 41.318776 ], [ -81.606303, 41.318801 ], [ -81.606366, 41.31883 ], [ -81.606399, 41.31885 ], [ -81.606455, 41.318885 ], [ -81.606491, 41.318907 ], [ -81.606533, 41.318926 ], [ -81.606571, 41.318939 ], [ -81.606611, 41.318951 ], [ -81.606662, 41.318963 ], [ -81.606756, 41.318982 ], [ -81.606811, 41.318991 ], [ -81.606876, 41.319002 ], [ -81.606927, 41.319013 ], [ -81.606976, 41.319027 ], [ -81.607058, 41.319054 ], [ -81.60716, 41.319087 ], [ -81.607272, 41.319124 ], [ -81.607341, 41.319148 ], [ -81.607414, 41.31917 ], [ -81.607532, 41.319206 ], [ -81.607651, 41.319242 ], [ -81.607771, 41.319276 ], [ -81.607886, 41.319308 ], [ -81.608012, 41.319345 ], [ -81.608135, 41.319377 ], [ -81.608303, 41.319422 ], [ -81.608413, 41.319446 ], [ -81.608512, 41.319466 ], [ -81.608606, 41.319485 ], [ -81.608708, 41.319504 ], [ -81.608851, 41.319527 ], [ -81.608905, 41.319539 ], [ -81.608961, 41.319556 ], [ -81.609, 41.319571 ], [ -81.609042, 41.319583 ], [ -81.609091, 41.319599 ], [ -81.609205, 41.31963 ], [ -81.609267, 41.319646 ], [ -81.609316, 41.319656 ], [ -81.609368, 41.319664 ], [ -81.609433, 41.319672 ], [ -81.609501, 41.319678 ], [ -81.609557, 41.31968 ], [ -81.609602, 41.319677 ], [ -81.609646, 41.319672 ], [ -81.609693, 41.319661 ], [ -81.609753, 41.31964 ], [ -81.609801, 41.319621 ], [ -81.60985, 41.319601 ], [ -81.60988, 41.319594 ], [ -81.609905, 41.319591 ], [ -81.609951, 41.31959 ], [ -81.610017, 41.319587 ], [ -81.610062, 41.319583 ], [ -81.61011, 41.319583 ], [ -81.610145, 41.319586 ], [ -81.610186, 41.319595 ], [ -81.610233, 41.319607 ], [ -81.610283, 41.319619 ], [ -81.610338, 41.31963 ], [ -81.610416, 41.319643 ], [ -81.610482, 41.319653 ], [ -81.610533, 41.319656 ], [ -81.610567, 41.319654 ], [ -81.610612, 41.319646 ], [ -81.610654, 41.319639 ], [ -81.610747, 41.31963 ], [ -81.610834, 41.319622 ], [ -81.610934, 41.319615 ], [ -81.610996, 41.319613 ], [ -81.611039, 41.319613 ], [ -81.611083, 41.319617 ], [ -81.611135, 41.319624 ], [ -81.611255, 41.319647 ], [ -81.611353, 41.319667 ], [ -81.611458, 41.319688 ], [ -81.611618, 41.319718 ], [ -81.61178, 41.319751 ], [ -81.611889, 41.31977 ], [ -81.611963, 41.319783 ], [ -81.612059, 41.319795 ], [ -81.612149, 41.319806 ], [ -81.612268, 41.319818 ], [ -81.612408, 41.319833 ], [ -81.612565, 41.31985 ], [ -81.612685, 41.319863 ], [ -81.612729, 41.319869 ], [ -81.612771, 41.319873 ], [ -81.612819, 41.319876 ], [ -81.61287, 41.319878 ], [ -81.613113, 41.31989 ], [ -81.613196, 41.319893 ], [ -81.613259, 41.319893 ], [ -81.613327, 41.319892 ], [ -81.613413, 41.31989 ], [ -81.613485, 41.319885 ], [ -81.613556, 41.319883 ], [ -81.613628, 41.31988 ], [ -81.613705, 41.319876 ], [ -81.613749, 41.319872 ], [ -81.613793, 41.31987 ], [ -81.613826, 41.319872 ], [ -81.61387, 41.319881 ], [ -81.61393, 41.319892 ], [ -81.613993, 41.3199 ], [ -81.614048, 41.319902 ], [ -81.614104, 41.319899 ], [ -81.614162, 41.319892 ], [ -81.614255, 41.319877 ], [ -81.61435, 41.319857 ], [ -81.614431, 41.319843 ], [ -81.614564, 41.319819 ], [ -81.614671, 41.319799 ], [ -81.614735, 41.319784 ], [ -81.614787, 41.319768 ], [ -81.614867, 41.319741 ], [ -81.614919, 41.319724 ], [ -81.614978, 41.319704 ], [ -81.615015, 41.319688 ], [ -81.615066, 41.319665 ], [ -81.615126, 41.319641 ], [ -81.61519, 41.319614 ], [ -81.615218, 41.319604 ], [ -81.615243, 41.319599 ], [ -81.615276, 41.319595 ], [ -81.615325, 41.319596 ], [ -81.615393, 41.319597 ], [ -81.615437, 41.319595 ], [ -81.615482, 41.319589 ], [ -81.615542, 41.319578 ], [ -81.615625, 41.319562 ], [ -81.615724, 41.319542 ], [ -81.615825, 41.319523 ], [ -81.615924, 41.319503 ], [ -81.61598, 41.319491 ], [ -81.616037, 41.319476 ], [ -81.616082, 41.319463 ], [ -81.616128, 41.319447 ], [ -81.616172, 41.319435 ], [ -81.616229, 41.319424 ], [ -81.616286, 41.319416 ], [ -81.616344, 41.31941 ], [ -81.616406, 41.319405 ], [ -81.616462, 41.3194 ], [ -81.61655, 41.31939 ], [ -81.616628, 41.319378 ], [ -81.616714, 41.319363 ], [ -81.616789, 41.319347 ], [ -81.616893, 41.319325 ], [ -81.616989, 41.319302 ], [ -81.617044, 41.319287 ], [ -81.617097, 41.319271 ], [ -81.617153, 41.319249 ], [ -81.617199, 41.319229 ], [ -81.617238, 41.31921 ], [ -81.617297, 41.319185 ], [ -81.617339, 41.319167 ], [ -81.617387, 41.319149 ], [ -81.617433, 41.319135 ], [ -81.617486, 41.31912 ], [ -81.617554, 41.3191 ], [ -81.617603, 41.319088 ], [ -81.617687, 41.319066 ], [ -81.617755, 41.319044 ], [ -81.61783, 41.319019 ], [ -81.617934, 41.318986 ], [ -81.618009, 41.318962 ], [ -81.618054, 41.318945 ], [ -81.618098, 41.318929 ], [ -81.618136, 41.318909 ], [ -81.618167, 41.31889 ], [ -81.618171, 41.318888 ], [ -81.618203, 41.318864 ], [ -81.618232, 41.318839 ], [ -81.618264, 41.318818 ], [ -81.618287, 41.318806 ], [ -81.618314, 41.318796 ], [ -81.618364, 41.318784 ], [ -81.618443, 41.318765 ], [ -81.618508, 41.318748 ], [ -81.618593, 41.318727 ], [ -81.618702, 41.318698 ], [ -81.618841, 41.318659 ], [ -81.618913, 41.318638 ], [ -81.618956, 41.318623 ], [ -81.618997, 41.318609 ], [ -81.619048, 41.318589 ], [ -81.619097, 41.318569 ], [ -81.619143, 41.318547 ], [ -81.619185, 41.318525 ], [ -81.619214, 41.31851 ], [ -81.619243, 41.318499 ], [ -81.619306, 41.318471 ], [ -81.61936, 41.318452 ], [ -81.619408, 41.318437 ], [ -81.619465, 41.318424 ], [ -81.619515, 41.318415 ], [ -81.619615, 41.3184 ], [ -81.619693, 41.318393 ], [ -81.619767, 41.318388 ], [ -81.619843, 41.318385 ], [ -81.619948, 41.318385 ], [ -81.620092, 41.318384 ], [ -81.620182, 41.318384 ], [ -81.620242, 41.318387 ], [ -81.620339, 41.318395 ], [ -81.620433, 41.318406 ], [ -81.62051, 41.318416 ], [ -81.620584, 41.318426 ], [ -81.620676, 41.318441 ], [ -81.62076, 41.318458 ], [ -81.620842, 41.318478 ], [ -81.620913, 41.3185 ], [ -81.620987, 41.318524 ], [ -81.621038, 41.318541 ], [ -81.621102, 41.318567 ], [ -81.621172, 41.318598 ], [ -81.621249, 41.318635 ], [ -81.621333, 41.318678 ], [ -81.621432, 41.318729 ], [ -81.621526, 41.318778 ], [ -81.621604, 41.31882 ], [ -81.621676, 41.318862 ], [ -81.621731, 41.318899 ], [ -81.621773, 41.318932 ], [ -81.621804, 41.318962 ], [ -81.621833, 41.318996 ], [ -81.62185, 41.319023 ], [ -81.62186, 41.319043 ], [ -81.621872, 41.31908 ], [ -81.621881, 41.31912 ], [ -81.621898, 41.319185 ], [ -81.62192, 41.319255 ], [ -81.621948, 41.319324 ], [ -81.621974, 41.319371 ], [ -81.622008, 41.319429 ], [ -81.622043, 41.319493 ], [ -81.622073, 41.319554 ], [ -81.622115, 41.31964 ], [ -81.622155, 41.319726 ], [ -81.62218, 41.319775 ], [ -81.622224, 41.319852 ], [ -81.622244, 41.319892 ], [ -81.622262, 41.31993 ], [ -81.622274, 41.319958 ] ] } },
{ "type": "Feature", "properties": { "cls": "separated", "highway": "cycleway", "name": "Ohio & Erie Canal Towpath Trail" }, "geometry": { "type": "MultiLineString", "coordinates": [ [ [ -81.586293, 41.320631 ], [ -81.586253, 41.320622 ], [ -81.586193, 41.320598 ], [ -81.586142, 41.32056 ], [ -81.586091, 41.32051 ], [ -81.58606, 41.320466 ], [ -81.586058, 41.32046 ] ], [ [ -81.586034, 41.320099 ], [ -81.586034, 41.320096 ], [ -81.586041, 41.319947 ] ] ] } },
{ "type": "Feature", "properties": { "cls": "shared", "highway": "cycleway", "name": "Ohio & Erie Canal Towpath Trail" }, "geometry": { "type": "LineString", "coordinates": [ [ -81.586215, 41.322113 ], [ -81.586224, 41.321984 ], [ -81.58624, 41.321858 ], [ -81.586276, 41.321662 ], [ -81.586304, 41.321482 ], [ -81.586315, 41.321397 ], [ -81.586326, 41.321307 ], [ -81.586343, 41.3211 ], [ -81.586358, 41.320939 ], [ -81.586364, 41.320861 ], [ -81.586366, 41.320808 ], [ -81.586357, 41.320798 ], [ -81.586343, 41.320736 ], [ -81.586323, 41.320685 ], [ -81.586293, 41.320631 ] ] } },
{ "type": "Feature", "properties": { "cls": "shared", "highway": "cycleway", "name": "Ohio & Erie Canal Towpath Trail" }, "geometry": { "type": "LineString", "coordinates": [ [ -81.593595, 41.347184 ], [ -81.593585, 41.347194 ], [ -81.593466, 41.347314 ], [ -81.593307, 41.347474 ], [ -81.593176, 41.347612 ], [ -81.593065, 41.347722 ], [ -81.592956, 41.347825 ], [ -81.59284, 41.34793 ], [ -81.592655, 41.348093 ], [ -81.592537, 41.348202 ], [ -81.592458, 41.348279 ], [ -81.592373, 41.348367 ], [ -81.592261, 41.348492 ], [ -81.592128, 41.348646 ], [ -81.591938, 41.348874 ], [ -81.591907, 41.348921 ], [ -81.591877, 41.348983 ], [ -81.591854, 41.349048 ], [ -81.591836, 41.349118 ], [ -81.591823, 41.349189 ], [ -81.591814, 41.34927 ], [ -81.591813, 41.349356 ], [ -81.591819, 41.349425 ], [ -81.59183, 41.349504 ], [ -81.591848, 41.349585 ], [ -81.591872, 41.349658 ], [ -81.591909, 41.349753 ], [ -81.591954, 41.349855 ], [ -81.59204, 41.350037 ], [ -81.59213, 41.350222 ], [ -81.592158, 41.350288 ], [ -81.592184, 41.350354 ], [ -81.592217, 41.350441 ], [ -81.592236, 41.350493 ] ] } },
{ "type": "Feature", "properties": { "cls": "shared", "highway": "cycleway", "name": "Ohio & Erie Canal Towpath Trail" }, "geometry": { "type": "LineString", "coordinates": [ [ -81.592236, 41.350493 ], [ -81.592284, 41.35059 ] ] } },
{ "type": "Feature", "properties": { "cls": "shared", "highway": "cycleway", "name": "Ohio & Erie Canal Towpath Trail" }, "geometry": { "type": "LineString", "coordinates": [ [ -81.592284, 41.35059 ], [ -81.592396, 41.350814 ], [ -81.592493, 41.351026 ], [ -81.592533, 41.351109 ], [ -81.592606, 41.351248 ], [ -81.592817, 41.35165 ], [ -81.592917, 41.351827 ], [ -81.592978, 41.351929 ], [ -81.593054, 41.352037 ], [ -81.593071, 41.352058 ] ] } },
{ "type": "Feature", "properties": { "cls": "shared", "highway": "cycleway", "name": null }, "geometry": { "type": "LineString", "coordinates": [ [ -81.72466, 41.301036 ], [ -81.724658, 41.301044 ], [ -81.724644, 41.301081 ], [ -81.724652, 41.301143 ] ] } },
{ "type": "Feature", "properties": { "cls": "shared", "highway": "cycleway", "name": "Valley Parkway Connector" }, "geometry": { "type": "MultiLineString", "coordinates": [ [ [ -81.684791, 41.300656 ], [ -81.684803, 41.300658 ], [ -81.685027, 41.300685 ], [ -81.685233, 41.30071 ], [ -81.685346, 41.300722 ], [ -81.685664, 41.300745 ], [ -81.686238, 41.300782 ], [ -81.686324, 41.300787 ], [ -81.686423, 41.300797 ], [ -81.686539, 41.300818 ], [ -81.686696, 41.300849 ], [ -81.686784, 41.300861 ], [ -81.686843, 41.300864 ], [ -81.687119, 41.300872 ], [ -81.687321, 41.300876 ], [ -81.68748, 41.30088 ], [ -81.687905, 41.300881 ], [ -81.688084, 41.300883 ], [ -81.688245, 41.300888 ], [ -81.688395, 41.30089 ], [ -81.688574, 41.300905 ], [ -81.68877, 41.300927 ], [ -81.688939, 41.300944 ], [ -81.689049, 41.300956 ], [ -81.68914, 41.30096 ], [ -81.689226, 41.300954 ], [ -81.68936, 41.300934 ], [ -81.689493, 41.300918 ], [ -81.689621, 41.300905 ], [ -81.689777, 41.300897 ], [ -81.689926, 41.300888 ], [ -81.690013, 41.300882 ], [ -81.690082, 41.30088 ], [ -81.690134, 41.300887 ], [ -81.690189, 41.300902 ], [ -81.690259, 41.300934 ], [ -81.690354, 41.300979 ], [ -81.690433, 41.301007 ], [ -81.69048, 41.301021 ], [ -81.690533, 41.301027 ], [ -81.690585, 41.301023 ], [ -81.690673, 41.301003 ], [ -81.690805, 41.300967 ], [ -81.690914, 41.300947 ], [ -81.691008, 41.300938 ], [ -81.691105, 41.300938 ], [ -81.69121, 41.300943 ], [ -81.691312, 41.300953 ], [ -81.691404, 41.300966 ], [ -81.691489, 41.300972 ], [ -81.691545, 41.300972 ], [ -81.691619, 41.300967 ], [ -81.691683, 41.300958 ], [ -81.691786, 41.30094 ], [ -81.691882, 41.300934 ], [ -81.692001, 41.300935 ], [ -81.692077, 41.300933 ], [ -81.692173, 41.300924 ], [ -81.69233, 41.300902 ], [ -81.692458, 41.300892 ], [ -81.69258, 41.300891 ], [ -81.692717, 41.300898 ], [ -81.692852, 41.300914 ], [ -81.692962, 41.300925 ], [ -81.693057, 41.300929 ], [ -81.693224, 41.300931 ], [ -81.693384, 41.300935 ], [ -81.693482, 41.300938 ], [ -81.693547, 41.300934 ], [ -81.693623, 41.300923 ], [ -81.693702, 41.300918 ], [ -81.693791, 41.300923 ], [ -81.693926, 41.300941 ], [ -81.694037, 41.300954 ], [ -81.694121, 41.300959 ], [ -81.694213, 41.300959 ], [ -81.694299, 41.30095 ], [ -81.694419, 41.300934 ], [ -81.694508, 41.300927 ], [ -81.694621, 41.300928 ], [ -81.694707, 41.300941 ], [ -81.69478, 41.300958 ], [ -81.694879, 41.300985 ], [ -81.69498, 41.301016 ], [ -81.695055, 41.30103 ], [ -81.69513, 41.301033 ], [ -81.695248, 41.301026 ], [ -81.695465, 41.301015 ], [ -81.69584, 41.300997 ], [ -81.696114, 41.300978 ], [ -81.696398, 41.300959 ], [ -81.696642, 41.30094 ], [ -81.696767, 41.300935 ], [ -81.696918, 41.30093 ], [ -81.697066, 41.300929 ], [ -81.697215, 41.300933 ], [ -81.697327, 41.30094 ], [ -81.697395, 41.300945 ], [ -81.697444, 41.300947 ], [ -81.697492, 41.300939 ], [ -81.697582, 41.300924 ], [ -81.69766, 41.300919 ], [ -81.697732, 41.30092 ], [ -81.697835, 41.300932 ], [ -81.697958, 41.300955 ], [ -81.698029, 41.300969 ], [ -81.698078, 41.300977 ], [ -81.698125, 41.300975 ], [ -81.698167, 41.300965 ], [ -81.698242, 41.300943 ], [ -81.698351, 41.300918 ], [ -81.698442, 41.300904 ], [ -81.698517, 41.300901 ], [ -81.698576, 41.300908 ], [ -81.698643, 41.300922 ], [ -81.698726, 41.30094 ], [ -81.698801, 41.300948 ], [ -81.698971, 41.300953 ], [ -81.699238, 41.300961 ], [ -81.699556, 41.300973 ] ], [ [ -81.702223, 41.30099 ], [ -81.702398, 41.300996 ], [ -81.702639, 41.301006 ], [ -81.702924, 41.301017 ], [ -81.703172, 41.301028 ], [ -81.703334, 41.301031 ], [ -81.70347, 41.30103 ], [ -81.703625, 41.301025 ], [ -81.703804, 41.30102 ], [ -81.703952, 41.301018 ], [ -81.704095, 41.301022 ], [ -81.70424, 41.301031 ], [ -81.704361, 41.301036 ], [ -81.704445, 41.301037 ], [ -81.704511, 41.30103 ], [ -81.704618, 41.301011 ], [ -81.704756, 41.300984 ], [ -81.704882, 41.300963 ], [ -81.70496, 41.300957 ], [ -81.70502, 41.300958 ], [ -81.705096, 41.300968 ], [ -81.70519, 41.300988 ], [ -81.705301, 41.301017 ], [ -81.705388, 41.301036 ], [ -81.705467, 41.301045 ], [ -81.705556, 41.301049 ], [ -81.705653, 41.301046 ], [ -81.705767, 41.301035 ], [ -81.705874, 41.301017 ], [ -81.706073, 41.300979 ], [ -81.706167, 41.300962 ], [ -81.70625, 41.300952 ], [ -81.706325, 41.30095 ], [ -81.706418, 41.300956 ], [ -81.70659, 41.300979 ], [ -81.706726, 41.301005 ], [ -81.70682, 41.301022 ], [ -81.706925, 41.301031 ], [ -81.707065, 41.301034 ], [ -81.707186, 41.301032 ], [ -81.707266, 41.301026 ], [ -81.707353, 41.301011 ], [ -81.707422, 41.300998 ], [ -81.707491, 41.300989 ], [ -81.707607, 41.30099 ], [ -81.707719, 41.300997 ], [ -81.707876, 41.301 ], [ -81.707971, 41.301005 ], [ -81.708076, 41.301018 ], [ -81.708175, 41.301036 ], [ -81.708287, 41.30105 ], [ -81.708424, 41.301056 ], [ -81.708548, 41.301061 ], [ -81.708664, 41.301061 ], [ -81.708791, 41.301051 ], [ -81.708929, 41.301029 ], [ -81.709055, 41.301017 ], [ -81.70913, 41.301015 ], [ -81.709285, 41.30102 ], [ -81.709444, 41.301033 ], [ -81.709629, 41.301049 ], [ -81.709715, 41.301053 ], [ -81.70991, 41.301052 ], [ -81.709983, 41.301048 ], [ -81.71015, 41.301049 ], [ -81.71031, 41.301054 ], [ -81.710429, 41.301053 ], [ -81.710549, 41.301049 ], [ -81.710636, 41.301052 ], [ -81.710714, 41.301064 ], [ -81.710827, 41.30109 ], [ -81.710943, 41.301127 ], [ -81.711088, 41.301176 ], [ -81.711257, 41.30122 ], [ -81.711341, 41.30124 ], [ -81.711409, 41.30125 ], [ -81.711493, 41.301254 ], [ -81.711573, 41.301249 ], [ -81.71165, 41.301236 ], [ -81.711809, 41.301204 ], [ -81.712025, 41.301169 ], [ -81.712147, 41.301149 ], [ -81.712273, 41.301136 ], [ -81.712366, 41.301133 ], [ -81.712472, 41.301141 ], [ -81.712561, 41.301152 ], [ -81.712716, 41.30118 ], [ -81.712826, 41.30119 ], [ -81.712916, 41.301195 ], [ -81.713027, 41.301196 ], [ -81.713305, 41.301193 ], [ -81.713762, 41.301182 ], [ -81.714043, 41.301178 ], [ -81.714465, 41.301168 ], [ -81.714766, 41.301162 ], [ -81.715057, 41.301156 ], [ -81.715388, 41.301146 ], [ -81.715617, 41.301146 ], [ -81.71588, 41.301152 ], [ -81.716038, 41.301155 ], [ -81.716297, 41.301159 ], [ -81.716506, 41.30116 ], [ -81.716726, 41.301154 ], [ -81.716934, 41.301144 ], [ -81.717145, 41.301136 ], [ -81.717388, 41.301123 ], [ -81.717577, 41.30111 ], [ -81.717764, 41.301094 ], [ -81.717852, 41.30109 ], [ -81.717946, 41.301093 ], [ -81.718064, 41.301102 ], [ -81.718179, 41.301116 ], [ -81.718305, 41.301145 ], [ -81.718393, 41.30116 ], [ -81.718464, 41.301162 ], [ -81.718556, 41.301155 ], [ -81.718648, 41.30115 ], [ -81.718729, 41.301155 ], [ -81.718851, 41.301163 ], [ -81.718936, 41.301161 ], [ -81.719038, 41.301151 ], [ -81.71912, 41.301147 ], [ -81.719224, 41.301149 ], [ -81.719376, 41.30116 ], [ -81.719538, 41.301176 ], [ -81.719719, 41.301186 ], [ -81.71988, 41.301192 ], [ -81.720045, 41.301192 ], [ -81.72016, 41.301188 ], [ -81.72031, 41.301174 ], [ -81.720485, 41.301157 ], [ -81.720602, 41.301154 ], [ -81.720663, 41.301156 ], [ -81.720739, 41.301167 ], [ -81.720833, 41.30119 ], [ -81.720902, 41.301203 ], [ -81.720972, 41.301208 ], [ -81.721059, 41.30121 ], [ -81.721235, 41.301206 ], [ -81.721382, 41.301198 ], [ -81.721481, 41.30119 ], [ -81.721568, 41.301177 ], [ -81.721681, 41.301157 ], [ -81.721772, 41.30115 ], [ -81.721939, 41.301144 ], [ -81.722322, 41.301141 ], [ -81.722554, 41.301141 ], [ -81.72277, 41.301136 ], [ -81.722887, 41.301136 ], [ -81.722991, 41.301143 ], [ -81.723147, 41.301161 ], [ -81.723433, 41.301196 ], [ -81.723577, 41.301214 ], [ -81.72367, 41.301217 ], [ -81.723735, 41.30121 ], [ -81.72382, 41.301188 ], [ -81.723924, 41.301163 ], [ -81.724033, 41.301148 ], [ -81.724151, 41.301135 ], [ -81.724214, 41.301134 ], [ -81.724262, 41.30114 ], [ -81.724282, 41.301152 ], [ -81.724303, 41.301173 ], [ -81.72432, 41.30119 ], [ -81.72434, 41.301198 ], [ -81.724378, 41.301201 ] ] ] } },
{ "type": "Feature", "properties": { "cls": "shared", "highway": "cycleway", "name": "Valley Parkway Connector" }, "geometry": { "type": "LineString", "coordinates": [ [ -81.724378, 41.301201 ], [ -81.724457, 41.301202 ], [ -81.724536, 41.301203 ] ] } },
{ "type": "Feature", "properties": { "cls": "shared", "highway": "cycleway", "name": "Valley Parkway Connector" }, "geometry": { "type": "LineString", "coordinates": [ [ -81.676669, 41.300837 ], [ -81.676711, 41.300822 ], [ -81.676757, 41.300794 ], [ -81.676817, 41.30075 ], [ -81.676896, 41.300693 ], [ -81.676946, 41.300664 ], [ -81.677019, 41.300639 ], [ -81.677127, 41.300621 ], [ -81.677252, 41.30061 ], [ -81.677412, 41.300605 ], [ -81.677536, 41.300608 ], [ -81.677675, 41.300623 ], [ -81.677931, 41.300653 ], [ -81.678027, 41.300657 ], [ -81.678122, 41.300655 ], [ -81.678307, 41.300639 ], [ -81.678374, 41.300632 ], [ -81.67866, 41.300598 ], [ -81.678878, 41.300572 ], [ -81.679128, 41.30054 ], [ -81.679455, 41.300501 ], [ -81.679688, 41.300477 ], [ -81.67983, 41.300462 ], [ -81.679963, 41.300457 ], [ -81.680121, 41.300462 ], [ -81.68038, 41.300472 ], [ -81.680684, 41.300482 ], [ -81.680905, 41.300486 ], [ -81.681052, 41.300485 ], [ -81.681305, 41.300473 ], [ -81.681573, 41.30046 ], [ -81.681749, 41.30045 ], [ -81.681944, 41.300437 ], [ -81.682046, 41.300423 ], [ -81.682135, 41.30041 ], [ -81.682259, 41.300385 ], [ -81.682349, 41.300368 ], [ -81.682418, 41.300362 ], [ -81.682471, 41.300361 ], [ -81.682558, 41.300368 ], [ -81.682723, 41.30039 ], [ -81.682982, 41.300426 ], [ -81.683263, 41.300462 ], [ -81.683449, 41.300485 ], [ -81.683546, 41.300492 ], [ -81.683608, 41.30049 ], [ -81.683715, 41.300482 ], [ -81.683854, 41.300466 ], [ -81.683938, 41.300455 ], [ -81.684001, 41.300454 ], [ -81.68407, 41.300459 ], [ -81.684138, 41.30047 ], [ -81.684207, 41.300493 ], [ -81.684366, 41.300562 ], [ -81.684437, 41.30059 ], [ -81.684503, 41.30061 ], [ -81.684571, 41.300627 ], [ -81.684621, 41.300636 ], [ -81.684665, 41.300642 ] ] } },
{ "type": "Feature", "properties": { "cls": "shared", "highway": "cycleway", "name": "Valley Parkway Connector" }, "geometry": { "type": "LineString", "coordinates": [ [ -81.684665, 41.300642 ], [ -81.684727, 41.300649 ], [ -81.684791, 41.300656 ] ] } },
{ "type": "Feature", "properties": { "cls": "shared", "highway": "cycleway", "name": null }, "geometry": { "type": "LineString", "coordinates": [ [ -81.684621, 41.300636 ], [ -81.684624, 41.300664 ] ] } },
{ "type": "Feature", "properties": { "cls": "shared", "highway": "cycleway", "name": null }, "geometry": { "type": "LineString", "coordinates": [ [ -81.684624, 41.300664 ], [ -81.684629, 41.300719 ], [ -81.684635, 41.300776 ] ] } },
{ "type": "Feature", "properties": { "cls": "shared", "highway": "cycleway", "name": "Valley Parkway Connector" }, "geometry": { "type": "LineString", "coordinates": [ [ -81.676507, 41.30086 ], [ -81.676569, 41.300851 ], [ -81.676669, 41.300837 ] ] } },
{ "type": "Feature", "properties": { "cls": "shared", "highway": "cycleway", "name": "Valley Parkway Connector" }, "geometry": { "type": "LineString", "coordinates": [ [ -81.626864, 41.300957 ], [ -81.626892, 41.300958 ] ] } },
{ "type": "Feature", "properties": { "cls": "shared", "highway": "cycleway", "name": "Valley Parkway Connector" }, "geometry": { "type": "LineString", "coordinates": [ [ -81.627132, 41.301254 ], [ -81.627131, 41.301351 ], [ -81.627131, 41.301366 ], [ -81.627133, 41.301391 ], [ -81.627141, 41.301414 ], [ -81.627149, 41.301423 ], [ -81.627157, 41.301433 ], [ -81.627183, 41.301448 ], [ -81.627203, 41.301457 ], [ -81.627233, 41.301461 ], [ -81.627691, 41.301462 ], [ -81.627899, 41.301462 ], [ -81.627991, 41.301458 ], [ -81.628061, 41.301449 ], [ -81.628244, 41.301404 ] ] } },
{ "type": "Feature", "properties": { "cls": "shared", "highway": "cycleway", "name": "South Brecksville Reservation All Purpose Trail" }, "geometry": { "type": "LineString", "coordinates": [ [ -81.624347, 41.301601 ], [ -81.624397, 41.301597 ], [ -81.624484, 41.301586 ], [ -81.624568, 41.301581 ], [ -81.624639, 41.301581 ], [ -81.624714, 41.301585 ], [ -81.624786, 41.301585 ], [ -81.624869, 41.301583 ], [ -81.624951, 41.301574 ], [ -81.625039, 41.30156 ], [ -81.625131, 41.30154 ], [ -81.625205, 41.301516 ], [ -81.625289, 41.301485 ], [ -81.62538, 41.301458 ], [ -81.625468, 41.301439 ], [ -81.625543, 41.301434 ], [ -81.625728, 41.301421 ], [ -81.626091, 41.301392 ], [ -81.626127, 41.301389 ], [ -81.626203, 41.301386 ], [ -81.626315, 41.301391 ], [ -81.626423, 41.301398 ], [ -81.626503, 41.301405 ], [ -81.626582, 41.301403 ], [ -81.626622, 41.301396 ], [ -81.626674, 41.301381 ], [ -81.626712, 41.301359 ], [ -81.626742, 41.301325 ], [ -81.626761, 41.301287 ], [ -81.626774, 41.301247 ], [ -81.626791, 41.301174 ], [ -81.626807, 41.301093 ], [ -81.626815, 41.301057 ], [ -81.626821, 41.301013 ], [ -81.626825, 41.300958 ], [ -81.626864, 41.300957 ] ] } },
{ "type": "Feature", "properties": { "cls": "shared", "highway": "cycleway", "name": "Valley Parkway Connector" }, "geometry": { "type": "LineString", "coordinates": [ [ -81.645328, 41.301509 ], [ -81.645426, 41.3015 ], [ -81.645542, 41.301481 ], [ -81.645631, 41.301458 ], [ -81.645751, 41.301426 ], [ -81.645848, 41.30141 ], [ -81.645961, 41.301395 ], [ -81.64605, 41.301393 ], [ -81.646198, 41.301395 ], [ -81.646345, 41.301404 ], [ -81.646512, 41.301411 ], [ -81.646681, 41.301414 ], [ -81.64692, 41.301423 ], [ -81.6471, 41.301431 ], [ -81.647199, 41.301435 ], [ -81.647293, 41.301433 ], [ -81.647418, 41.301429 ], [ -81.647623, 41.301427 ], [ -81.64795, 41.301441 ], [ -81.648169, 41.301447 ], [ -81.648358, 41.301453 ], [ -81.64872, 41.301459 ], [ -81.648849, 41.30146 ], [ -81.648944, 41.301456 ], [ -81.649021, 41.301446 ], [ -81.649153, 41.301418 ], [ -81.649327, 41.301373 ], [ -81.649404, 41.301359 ], [ -81.64948, 41.301355 ], [ -81.649564, 41.30136 ], [ -81.649679, 41.301377 ], [ -81.64977, 41.301389 ], [ -81.649826, 41.301392 ], [ -81.649925, 41.301389 ], [ -81.65012, 41.301388 ], [ -81.650304, 41.301383 ], [ -81.650459, 41.301385 ], [ -81.650574, 41.301392 ], [ -81.650691, 41.301409 ], [ -81.650794, 41.301436 ], [ -81.6509, 41.301468 ], [ -81.650975, 41.301492 ], [ -81.651046, 41.301509 ], [ -81.65113, 41.301518 ], [ -81.651235, 41.301522 ], [ -81.651372, 41.30152 ], [ -81.651688, 41.301516 ], [ -81.652157, 41.301508 ], [ -81.652487, 41.301498 ], [ -81.652662, 41.301491 ], [ -81.652872, 41.301477 ], [ -81.653045, 41.301467 ], [ -81.653195, 41.301459 ], [ -81.653314, 41.301456 ], [ -81.653529, 41.301451 ], [ -81.65368, 41.30145 ], [ -81.653789, 41.301443 ], [ -81.653871, 41.301431 ], [ -81.653955, 41.30141 ], [ -81.654038, 41.301375 ], [ -81.654098, 41.301344 ], [ -81.654171, 41.301301 ], [ -81.654219, 41.301256 ], [ -81.654264, 41.301201 ], [ -81.654298, 41.301145 ], [ -81.654333, 41.301064 ], [ -81.654373, 41.300977 ], [ -81.654407, 41.30093 ], [ -81.654451, 41.300879 ], [ -81.654506, 41.300846 ], [ -81.654576, 41.300819 ], [ -81.654655, 41.300801 ], [ -81.654741, 41.300798 ], [ -81.654822, 41.30081 ], [ -81.654899, 41.300834 ], [ -81.65496, 41.30087 ], [ -81.655018, 41.300917 ], [ -81.655115, 41.301012 ], [ -81.655195, 41.301097 ], [ -81.65526, 41.301167 ], [ -81.655312, 41.301207 ], [ -81.655382, 41.301238 ], [ -81.655449, 41.301257 ], [ -81.655517, 41.301266 ], [ -81.655573, 41.301265 ] ] } },
{ "type": "Feature", "properties": { "cls": "shared", "highway": "cycleway", "name": "Valley Parkway Connector" }, "geometry": { "type": "LineString", "coordinates": [ [ -81.655667, 41.301249 ], [ -81.655695, 41.301242 ], [ -81.65577, 41.301211 ], [ -81.655885, 41.301166 ], [ -81.655971, 41.301136 ], [ -81.656076, 41.301113 ], [ -81.65622, 41.301083 ], [ -81.656363, 41.30106 ], [ -81.6565, 41.301047 ], [ -81.656634, 41.301039 ], [ -81.656744, 41.30104 ], [ -81.656849, 41.301046 ], [ -81.656941, 41.301046 ], [ -81.657018, 41.301038 ], [ -81.657136, 41.301018 ], [ -81.657279, 41.300999 ], [ -81.657423, 41.300983 ], [ -81.657549, 41.300979 ], [ -81.657731, 41.300975 ], [ -81.657807, 41.300966 ], [ -81.657869, 41.300952 ], [ -81.657933, 41.300926 ], [ -81.657981, 41.300892 ], [ -81.658026, 41.300846 ], [ -81.658066, 41.300789 ], [ -81.658112, 41.300734 ], [ -81.658157, 41.300692 ], [ -81.658225, 41.300657 ], [ -81.658288, 41.300637 ], [ -81.658366, 41.300627 ], [ -81.65844, 41.300626 ], [ -81.658527, 41.300638 ], [ -81.658637, 41.300666 ], [ -81.658742, 41.300699 ], [ -81.658834, 41.300714 ], [ -81.658929, 41.300725 ], [ -81.659022, 41.300728 ], [ -81.659121, 41.300724 ], [ -81.659205, 41.300717 ], [ -81.659314, 41.300702 ], [ -81.659487, 41.300673 ], [ -81.659593, 41.300658 ], [ -81.659709, 41.300649 ], [ -81.6598, 41.300647 ], [ -81.659888, 41.300655 ], [ -81.659983, 41.300673 ], [ -81.660084, 41.300708 ], [ -81.66021, 41.300766 ], [ -81.660297, 41.300805 ], [ -81.660368, 41.300833 ], [ -81.660477, 41.300869 ], [ -81.660567, 41.300895 ], [ -81.660879, 41.300993 ], [ -81.66103, 41.301039 ], [ -81.661189, 41.301078 ], [ -81.661343, 41.301113 ], [ -81.661513, 41.301147 ], [ -81.661643, 41.30117 ], [ -81.661789, 41.301195 ], [ -81.661969, 41.301223 ], [ -81.662311, 41.301274 ], [ -81.662676, 41.301324 ], [ -81.662882, 41.301348 ], [ -81.663143, 41.30137 ], [ -81.663457, 41.301394 ], [ -81.663812, 41.301416 ], [ -81.663997, 41.301426 ], [ -81.664155, 41.301438 ], [ -81.664291, 41.301453 ], [ -81.664491, 41.301479 ], [ -81.664689, 41.301507 ], [ -81.66504, 41.301564 ], [ -81.665189, 41.301588 ], [ -81.665341, 41.301608 ], [ -81.665516, 41.301627 ], [ -81.665772, 41.301645 ], [ -81.665951, 41.301651 ], [ -81.666225, 41.301643 ], [ -81.666376, 41.301635 ], [ -81.666493, 41.301632 ], [ -81.66661, 41.301638 ], [ -81.666759, 41.301653 ], [ -81.666942, 41.301675 ], [ -81.667071, 41.301689 ], [ -81.667169, 41.301696 ], [ -81.667262, 41.301695 ], [ -81.667385, 41.301687 ], [ -81.667606, 41.301669 ], [ -81.667914, 41.30165 ], [ -81.66827, 41.301623 ], [ -81.66855, 41.301602 ], [ -81.668758, 41.301588 ], [ -81.668897, 41.301583 ], [ -81.669086, 41.301583 ], [ -81.669328, 41.301584 ], [ -81.669476, 41.301579 ], [ -81.669595, 41.301573 ], [ -81.669708, 41.301578 ], [ -81.669827, 41.301591 ], [ -81.669936, 41.301602 ], [ -81.670076, 41.301609 ], [ -81.670188, 41.301607 ], [ -81.670334, 41.301602 ], [ -81.67046, 41.301594 ], [ -81.670595, 41.301578 ], [ -81.670762, 41.301555 ], [ -81.670901, 41.30153 ], [ -81.671014, 41.301519 ], [ -81.671154, 41.30151 ], [ -81.67131, 41.301502 ], [ -81.671464, 41.301492 ], [ -81.671575, 41.301478 ], [ -81.671727, 41.301451 ], [ -81.671893, 41.301418 ], [ -81.671994, 41.301393 ], [ -81.67208, 41.301364 ], [ -81.672159, 41.301326 ], [ -81.672259, 41.30128 ], [ -81.67232, 41.301258 ], [ -81.672395, 41.30124 ], [ -81.67248, 41.301229 ], [ -81.672591, 41.301226 ], [ -81.672707, 41.301232 ], [ -81.67287, 41.30125 ], [ -81.672978, 41.301259 ], [ -81.673068, 41.301261 ], [ -81.673204, 41.301254 ], [ -81.673377, 41.301243 ], [ -81.673596, 41.301222 ], [ -81.673725, 41.301208 ], [ -81.673861, 41.301183 ], [ -81.674019, 41.30115 ], [ -81.674137, 41.301124 ], [ -81.674318, 41.301093 ], [ -81.67464, 41.301036 ], [ -81.674884, 41.300995 ], [ -81.675064, 41.300966 ], [ -81.675184, 41.300953 ], [ -81.675302, 41.300949 ], [ -81.675414, 41.300954 ], [ -81.675554, 41.300959 ], [ -81.675664, 41.300956 ], [ -81.675788, 41.300946 ], [ -81.67603, 41.300918 ], [ -81.676358, 41.300882 ], [ -81.676507, 41.30086 ] ] } },
{ "type": "Feature", "properties": { "cls": "shared", "highway": "cycleway", "name": "Oakes Road Connector" }, "geometry": { "type": "LineString", "coordinates": [ [ -81.661636, 41.301243 ], [ -81.661639, 41.30121 ], [ -81.661643, 41.30117 ] ] } },
{ "type": "Feature", "properties": { "cls": "shared", "highway": "cycleway", "name": "Valley Parkway Connector" }, "geometry": { "type": "LineString", "coordinates": [ [ -81.655619, 41.301257 ], [ -81.655667, 41.301249 ] ] } },
{ "type": "Feature", "properties": { "cls": "shared", "highway": "cycleway", "name": "Valley Parkway Connector" }, "geometry": { "type": "LineString", "coordinates": [ [ -81.655573, 41.301265 ], [ -81.655602, 41.30126 ], [ -81.655619, 41.301257 ] ] } },
{ "type": "Feature", "properties": { "cls": "shared", "highway": "cycleway", "name": "Valley Parkway Connector" }, "geometry": { "type": "LineString", "coordinates": [ [ -81.724536, 41.301203 ], [ -81.724567, 41.301201 ], [ -81.724597, 41.301184 ], [ -81.724623, 41.301163 ], [ -81.724652, 41.301143 ], [ -81.724688, 41.301136 ], [ -81.724751, 41.301138 ], [ -81.724971, 41.30114 ], [ -81.725344, 41.301145 ], [ -81.725821, 41.30115 ], [ -81.726042, 41.301153 ], [ -81.72624, 41.301169 ], [ -81.726448, 41.301183 ], [ -81.726616, 41.301196 ], [ -81.726703, 41.301198 ], [ -81.726806, 41.301195 ], [ -81.727058, 41.301178 ], [ -81.727258, 41.301162 ], [ -81.727339, 41.301152 ], [ -81.727409, 41.301135 ], [ -81.727453, 41.301121 ], [ -81.7275, 41.301111 ], [ -81.727548, 41.30111 ], [ -81.727593, 41.301117 ], [ -81.727673, 41.301132 ], [ -81.727776, 41.301143 ], [ -81.727897, 41.301146 ], [ -81.728043, 41.301147 ], [ -81.728225, 41.301135 ], [ -81.728319, 41.301137 ], [ -81.728406, 41.301147 ], [ -81.728539, 41.301173 ], [ -81.728613, 41.301186 ], [ -81.728711, 41.301197 ], [ -81.728835, 41.301212 ], [ -81.728987, 41.301232 ], [ -81.729158, 41.301264 ], [ -81.729321, 41.301294 ], [ -81.729412, 41.301307 ], [ -81.729496, 41.30131 ], [ -81.729637, 41.30131 ], [ -81.729705, 41.301316 ], [ -81.729753, 41.301327 ], [ -81.729811, 41.301356 ], [ -81.729933, 41.301423 ], [ -81.730031, 41.301474 ], [ -81.730084, 41.301495 ], [ -81.730188, 41.301526 ], [ -81.730333, 41.301556 ], [ -81.730498, 41.301594 ], [ -81.730595, 41.301622 ], [ -81.730697, 41.301661 ], [ -81.730789, 41.301711 ], [ -81.730953, 41.301809 ], [ -81.73109, 41.301879 ], [ -81.73122, 41.301932 ], [ -81.731353, 41.301976 ], [ -81.731576, 41.302039 ], [ -81.731804, 41.302106 ], [ -81.731959, 41.302137 ], [ -81.732092, 41.30216 ], [ -81.732242, 41.30218 ], [ -81.73237, 41.302191 ], [ -81.732496, 41.302198 ], [ -81.732722, 41.3022 ], [ -81.732893, 41.302204 ], [ -81.733037, 41.3022 ], [ -81.733172, 41.302191 ], [ -81.733309, 41.302177 ], [ -81.733571, 41.302149 ], [ -81.733723, 41.302131 ], [ -81.733915, 41.302122 ], [ -81.734155, 41.30212 ], [ -81.734352, 41.302125 ], [ -81.734541, 41.302135 ], [ -81.734861, 41.302168 ], [ -81.73507, 41.302199 ], [ -81.735275, 41.302234 ], [ -81.735343, 41.302248 ], [ -81.735374, 41.302268 ], [ -81.735389, 41.302292 ], [ -81.735388, 41.302322 ], [ -81.735372, 41.30238 ] ] } },
{ "type": "Feature", "properties": { "cls": "shared", "highway": "cycleway", "name": "Valley Parkway Connector" }, "geometry": { "type": "LineString", "coordinates": [ [ -81.735372, 41.30238 ], [ -81.735362, 41.302411 ], [ -81.735351, 41.302446 ] ] } },
{ "type": "Feature", "properties": { "cls": "shared", "highway": "cycleway", "name": "Valley Parkway Connector" }, "geometry": { "type": "LineString", "coordinates": [ [ -81.735351, 41.302446 ], [ -81.735331, 41.302517 ], [ -81.735332, 41.30253 ], [ -81.735343, 41.302541 ], [ -81.735374, 41.30255 ], [ -81.735411, 41.302559 ] ] } },
{ "type": "Feature", "properties": { "cls": "shared", "highway": "cycleway", "name": "All Purpose Trail" }, "geometry": { "type": "LineString", "coordinates": [ [ -81.737829, 41.302783 ], [ -81.737828, 41.302757 ], [ -81.737827, 41.302667 ], [ -81.737829, 41.302628 ], [ -81.737834, 41.302565 ], [ -81.737839, 41.302513 ], [ -81.737835, 41.302471 ], [ -81.73782, 41.302438 ], [ -81.737796, 41.302394 ], [ -81.737769, 41.302349 ], [ -81.737748, 41.302328 ], [ -81.737675, 41.302348 ] ] } },
{ "type": "Feature", "properties": { "cls": "shared", "highway": "cycleway", "name": "Valley Parkway Connector" }, "geometry": { "type": "LineString", "coordinates": [ [ -81.735411, 41.302559 ], [ -81.735453, 41.302571 ], [ -81.735495, 41.302583 ] ] } },
{ "type": "Feature", "properties": { "cls": "shared", "highway": "cycleway", "name": "Valley Parkway Connector" }, "geometry": { "type": "LineString", "coordinates": [ [ -81.769612, 41.302425 ], [ -81.769607, 41.302427 ], [ -81.769566, 41.302445 ] ] } },
{ "type": "Feature", "properties": { "cls": "shared", "highway": "cycleway", "name": "Valley Parkway Connector" }, "geometry": { "type": "LineString", "coordinates": [ [ -81.735495, 41.302583 ], [ -81.735602, 41.302612 ], [ -81.735683, 41.30263 ], [ -81.735775, 41.302645 ], [ -81.735971, 41.302667 ], [ -81.736248, 41.302693 ], [ -81.736346, 41.302698 ], [ -81.736525, 41.302699 ], [ -81.736596, 41.302703 ], [ -81.736672, 41.302714 ], [ -81.736734, 41.302737 ], [ -81.736868, 41.302793 ], [ -81.736926, 41.30281 ], [ -81.736993, 41.302816 ], [ -81.737066, 41.302812 ], [ -81.737183, 41.30281 ], [ -81.737269, 41.302815 ], [ -81.737393, 41.302833 ], [ -81.737517, 41.302849 ], [ -81.737661, 41.302864 ], [ -81.737849, 41.302877 ] ] } },
{ "type": "Feature", "properties": { "cls": "shared", "highway": "cycleway", "name": "Valley Parkway Connector" }, "geometry": { "type": "LineString", "coordinates": [ [ -81.769566, 41.302445 ], [ -81.769515, 41.302464 ], [ -81.769364, 41.30251 ], [ -81.769245, 41.302539 ], [ -81.769139, 41.302563 ], [ -81.769065, 41.302571 ], [ -81.768956, 41.302573 ], [ -81.768811, 41.302566 ], [ -81.768692, 41.302566 ], [ -81.768572, 41.30257 ], [ -81.768428, 41.30258 ], [ -81.768259, 41.302587 ], [ -81.768134, 41.302586 ], [ -81.767995, 41.302585 ], [ -81.767867, 41.302587 ], [ -81.767738, 41.302597 ], [ -81.767632, 41.302607 ], [ -81.767489, 41.302615 ], [ -81.767293, 41.302625 ], [ -81.767229, 41.302626 ] ] } },
{ "type": "Feature", "properties": { "cls": "shared", "highway": "cycleway", "name": "All Purpose Trail" }, "geometry": { "type": "LineString", "coordinates": [ [ -81.737848, 41.302853 ], [ -81.737839, 41.302821 ], [ -81.737829, 41.302783 ] ] } },
{ "type": "Feature", "properties": { "cls": "shared", "highway": "cycleway", "name": "Valley Parkway Connector" }, "geometry": { "type": "LineString", "coordinates": [ [ -81.767229, 41.302626 ], [ -81.767156, 41.302636 ], [ -81.7671, 41.302644 ] ] } },
{ "type": "Feature", "properties": { "cls": "shared", "highway": "cycleway", "name": "Valley Parkway Connector" }, "geometry": { "type": "LineString", "coordinates": [ [ -81.628244, 41.301404 ], [ -81.628338, 41.301383 ], [ -81.628444, 41.301367 ], [ -81.628523, 41.30136 ], [ -81.628652, 41.301355 ], [ -81.628834, 41.301354 ], [ -81.629119, 41.30135 ], [ -81.62934, 41.301354 ], [ -81.629604, 41.301359 ], [ -81.629849, 41.301361 ], [ -81.630131, 41.301356 ], [ -81.630556, 41.301348 ], [ -81.630863, 41.301343 ], [ -81.63103, 41.301344 ], [ -81.631199, 41.301351 ], [ -81.631421, 41.301365 ], [ -81.631562, 41.301374 ], [ -81.631686, 41.301378 ], [ -81.6318, 41.301372 ], [ -81.631924, 41.30136 ], [ -81.63208, 41.301342 ], [ -81.632134, 41.301336 ], [ -81.632311, 41.301319 ], [ -81.632427, 41.301314 ], [ -81.632586, 41.301317 ], [ -81.632728, 41.301321 ], [ -81.633105, 41.301341 ], [ -81.633348, 41.301351 ], [ -81.633577, 41.30136 ], [ -81.633672, 41.301369 ], [ -81.633741, 41.301381 ], [ -81.63382, 41.301403 ], [ -81.633931, 41.30144 ], [ -81.634009, 41.301458 ], [ -81.634069, 41.301463 ], [ -81.634142, 41.301457 ], [ -81.634385, 41.301415 ], [ -81.634516, 41.301396 ], [ -81.634633, 41.301386 ], [ -81.634827, 41.301375 ], [ -81.634975, 41.30137 ], [ -81.635099, 41.301369 ], [ -81.635193, 41.301374 ], [ -81.635412, 41.301395 ], [ -81.635764, 41.301427 ], [ -81.635994, 41.30145 ], [ -81.636119, 41.301456 ], [ -81.636312, 41.301454 ], [ -81.63655, 41.301451 ], [ -81.636723, 41.301445 ], [ -81.636929, 41.301437 ], [ -81.637182, 41.30142 ], [ -81.637443, 41.301404 ], [ -81.637548, 41.301396 ], [ -81.637698, 41.301377 ], [ -81.637854, 41.301361 ], [ -81.637958, 41.301357 ], [ -81.638065, 41.301359 ], [ -81.638191, 41.301371 ], [ -81.638329, 41.30139 ], [ -81.638482, 41.301404 ], [ -81.638626, 41.301417 ], [ -81.638732, 41.301421 ], [ -81.63882, 41.301418 ], [ -81.638954, 41.301406 ], [ -81.639069, 41.301398 ], [ -81.639186, 41.301395 ], [ -81.639343, 41.301401 ], [ -81.639549, 41.301411 ], [ -81.639906, 41.301433 ], [ -81.640011, 41.301437 ], [ -81.640125, 41.301437 ], [ -81.64027, 41.301432 ], [ -81.640457, 41.301423 ], [ -81.64062, 41.301415 ], [ -81.640782, 41.301411 ], [ -81.640954, 41.301406 ], [ -81.641061, 41.301407 ], [ -81.641149, 41.301409 ], [ -81.641216, 41.301416 ], [ -81.64128, 41.301434 ], [ -81.641351, 41.301465 ] ] } },
{ "type": "Feature", "properties": { "cls": "shared", "highway": "cycleway", "name": "Oakes Road Connector" }, "geometry": { "type": "LineString", "coordinates": [ [ -81.66163, 41.301332 ], [ -81.661632, 41.301282 ], [ -81.661636, 41.301243 ] ] } },
{ "type": "Feature", "properties": { "cls": "shared", "highway": "cycleway", "name": "Valley Parkway Connector" }, "geometry": { "type": "LineString", "coordinates": [ [ -81.641351, 41.301465 ], [ -81.641393, 41.301486 ], [ -81.64143, 41.301504 ] ] } },
{ "type": "Feature", "properties": { "cls": "shared", "highway": "cycleway", "name": "Valley Parkway Connector" }, "geometry": { "type": "LineString", "coordinates": [ [ -81.64143, 41.301504 ], [ -81.641473, 41.301524 ], [ -81.641519, 41.301541 ], [ -81.64157, 41.301552 ], [ -81.641611, 41.301559 ], [ -81.641688, 41.301564 ], [ -81.641833, 41.301569 ], [ -81.641935, 41.301573 ], [ -81.642049, 41.301577 ], [ -81.642295, 41.301581 ], [ -81.642457, 41.301578 ], [ -81.642673, 41.30157 ], [ -81.642985, 41.301555 ], [ -81.643259, 41.301543 ], [ -81.643483, 41.301533 ], [ -81.643642, 41.301534 ], [ -81.643745, 41.301536 ], [ -81.643891, 41.301541 ], [ -81.644039, 41.30155 ] ] } },
{ "type": "Feature", "properties": { "cls": "shared", "highway": "cycleway", "name": "Valley Parkway Connector" }, "geometry": { "type": "MultiLineString", "coordinates": [ [ [ -81.645328, 41.301509 ], [ -81.645293, 41.30151 ] ], [ [ -81.644084, 41.301549 ], [ -81.644039, 41.30155 ] ] ] } },
{ "type": "Feature", "properties": { "cls": "shared", "highway": "cycleway", "name": "South Brecksville Reservation All Purpose Trail" }, "geometry": { "type": "LineString", "coordinates": [ [ -81.624347, 41.301601 ], [ -81.624305, 41.301605 ], [ -81.624223, 41.301607 ], [ -81.624102, 41.301599 ], [ -81.623956, 41.301594 ], [ -81.6238, 41.301594 ], [ -81.623712, 41.301594 ], [ -81.623646, 41.301589 ], [ -81.623599, 41.301577 ], [ -81.623548, 41.301555 ], [ -81.623502, 41.301528 ], [ -81.623436, 41.301481 ], [ -81.623363, 41.301437 ], [ -81.62329, 41.301408 ], [ -81.623204, 41.301388 ], [ -81.623117, 41.301375 ], [ -81.62303, 41.301368 ], [ -81.622958, 41.30137 ], [ -81.622854, 41.30137 ], [ -81.622761, 41.301375 ], [ -81.622679, 41.301392 ], [ -81.622583, 41.301416 ], [ -81.622523, 41.301428 ], [ -81.622449, 41.301431 ], [ -81.62239, 41.301427 ], [ -81.622313, 41.301411 ], [ -81.62225, 41.301396 ], [ -81.622194, 41.301396 ], [ -81.622139, 41.301407 ], [ -81.622079, 41.301428 ], [ -81.622013, 41.301444 ], [ -81.621953, 41.301454 ], [ -81.62189, 41.30145 ], [ -81.621809, 41.301436 ], [ -81.621692, 41.301411 ], [ -81.62161, 41.3014 ], [ -81.62153, 41.301403 ], [ -81.621461, 41.301419 ], [ -81.621357, 41.301452 ], [ -81.621268, 41.301479 ], [ -81.621198, 41.301491 ], [ -81.621119, 41.30149 ], [ -81.621006, 41.301484 ], [ -81.620909, 41.301486 ], [ -81.620813, 41.301502 ], [ -81.620727, 41.301529 ], [ -81.620641, 41.301552 ], [ -81.620575, 41.301566 ], [ -81.620488, 41.301574 ], [ -81.620409, 41.301576 ], [ -81.620289, 41.301575 ], [ -81.620074, 41.301564 ], [ -81.619826, 41.301545 ], [ -81.619604, 41.301528 ], [ -81.619483, 41.30152 ], [ -81.619394, 41.301521 ], [ -81.619221, 41.301536 ], [ -81.61907, 41.301553 ], [ -81.618884, 41.301568 ], [ -81.618769, 41.301575 ], [ -81.618673, 41.301592 ], [ -81.618563, 41.301616 ], [ -81.618448, 41.301637 ], [ -81.618364, 41.301641 ], [ -81.618295, 41.301655 ], [ -81.61824, 41.301679 ], [ -81.618181, 41.301708 ], [ -81.61811, 41.30173 ], [ -81.617999, 41.301745 ], [ -81.617821, 41.301772 ], [ -81.617582, 41.301814 ], [ -81.617426, 41.301845 ], [ -81.617321, 41.301856 ], [ -81.617256, 41.301867 ], [ -81.617158, 41.301895 ], [ -81.617044, 41.301938 ], [ -81.616966, 41.30198 ], [ -81.61689, 41.302024 ], [ -81.616826, 41.302068 ], [ -81.616766, 41.302097 ], [ -81.616678, 41.302133 ], [ -81.616564, 41.302172 ], [ -81.616402, 41.302224 ], [ -81.616208, 41.30229 ], [ -81.616036, 41.302351 ], [ -81.615843, 41.302419 ], [ -81.615676, 41.302488 ], [ -81.615572, 41.30253 ], [ -81.615468, 41.302562 ], [ -81.615391, 41.302582 ], [ -81.615162, 41.302631 ], [ -81.614941, 41.302678 ], [ -81.614743, 41.30272 ], [ -81.614539, 41.302759 ], [ -81.614384, 41.302786 ], [ -81.614229, 41.3028 ], [ -81.614096, 41.302818 ], [ -81.613936, 41.302844 ], [ -81.613763, 41.302881 ], [ -81.613587, 41.30292 ], [ -81.613485, 41.302935 ], [ -81.613418, 41.302939 ], [ -81.613319, 41.302945 ], [ -81.613235, 41.302961 ], [ -81.613109, 41.30299 ], [ -81.612925, 41.30304 ], [ -81.612747, 41.303085 ], [ -81.612639, 41.30311 ], [ -81.612516, 41.303127 ], [ -81.612406, 41.303134 ], [ -81.612319, 41.30315 ], [ -81.612258, 41.303173 ], [ -81.612204, 41.303204 ], [ -81.612147, 41.303241 ], [ -81.612095, 41.303267 ], [ -81.612013, 41.303289 ], [ -81.611918, 41.303305 ], [ -81.611812, 41.303313 ], [ -81.611671, 41.303312 ], [ -81.611557, 41.303312 ], [ -81.611482, 41.303323 ], [ -81.611417, 41.303351 ], [ -81.611358, 41.303386 ], [ -81.611316, 41.303408 ], [ -81.611249, 41.303431 ], [ -81.61117, 41.303448 ], [ -81.611101, 41.303462 ], [ -81.611059, 41.303487 ], [ -81.61098, 41.303544 ], [ -81.610923, 41.303584 ], [ -81.610865, 41.303615 ], [ -81.610784, 41.303645 ], [ -81.610637, 41.303702 ], [ -81.610491, 41.303767 ], [ -81.61039, 41.303812 ], [ -81.610329, 41.303838 ], [ -81.610284, 41.303861 ], [ -81.610226, 41.303895 ], [ -81.610188, 41.303931 ], [ -81.610135, 41.304004 ], [ -81.610086, 41.304055 ], [ -81.610026, 41.304107 ], [ -81.609956, 41.30416 ], [ -81.609883, 41.304207 ], [ -81.609818, 41.304241 ] ] } },
{ "type": "Feature", "properties": { "cls": "shared", "highway": "cycleway", "name": "Oakes Road Connector" }, "geometry": { "type": "LineString", "coordinates": [ [ -81.661618, 41.301573 ], [ -81.66163, 41.301332 ] ] } },
{ "type": "Feature", "properties": { "cls": "shared", "highway": "cycleway", "name": "Valley Parkway Connector" }, "geometry": { "type": "LineString", "coordinates": [ [ -81.737849, 41.302877 ], [ -81.737848, 41.302853 ] ] } },
{ "type": "Feature", "properties": { "cls": "shared", "highway": "cycleway", "name": "Valley Parkway Connector" }, "geometry": { "type": "LineString", "coordinates": [ [ -81.747621, 41.302882 ], [ -81.747432, 41.302861 ], [ -81.747143, 41.302823 ], [ -81.746854, 41.302787 ], [ -81.746545, 41.302753 ], [ -81.746268, 41.302726 ], [ -81.746119, 41.302717 ], [ -81.745929, 41.302709 ], [ -81.745732, 41.302699 ], [ -81.745568, 41.302694 ], [ -81.74538, 41.30269 ], [ -81.745189, 41.302695 ], [ -81.744911, 41.302704 ], [ -81.744821, 41.302706 ], [ -81.744753, 41.3027 ], [ -81.74468, 41.302687 ], [ -81.74461, 41.302671 ], [ -81.744556, 41.302666 ], [ -81.744471, 41.302668 ], [ -81.744308, 41.302671 ], [ -81.744197, 41.302679 ], [ -81.744113, 41.302689 ], [ -81.744027, 41.302707 ], [ -81.74395, 41.302722 ], [ -81.743763, 41.302752 ], [ -81.743548, 41.302787 ], [ -81.743262, 41.302842 ], [ -81.742717, 41.302956 ], [ -81.742282, 41.303043 ], [ -81.742212, 41.303056 ], [ -81.742142, 41.303064 ], [ -81.742045, 41.303065 ], [ -81.741905, 41.303065 ], [ -81.741814, 41.303067 ], [ -81.741731, 41.303073 ], [ -81.741538, 41.303091 ], [ -81.741357, 41.303108 ], [ -81.741135, 41.303122 ], [ -81.740942, 41.30313 ], [ -81.740687, 41.303132 ], [ -81.740504, 41.303128 ], [ -81.740263, 41.303118 ], [ -81.74, 41.303102 ], [ -81.739667, 41.303079 ], [ -81.739261, 41.303044 ], [ -81.738953, 41.303013 ], [ -81.738696, 41.302984 ], [ -81.738346, 41.30294 ], [ -81.737969, 41.30289 ], [ -81.737849, 41.302877 ] ] } },
{ "type": "Feature", "properties": { "cls": "shared", "highway": "cycleway", "name": "Valley Parkway Connector" }, "geometry": { "type": "LineString", "coordinates": [ [ -81.747832, 41.302892 ], [ -81.747739, 41.302888 ], [ -81.747621, 41.302882 ] ] } },
{ "type": "Feature", "properties": { "cls": "shared", "highway": "cycleway", "name": "Valley Parkway Connector" }, "geometry": { "type": "LineString", "coordinates": [ [ -81.7671, 41.302644 ], [ -81.767083, 41.302646 ], [ -81.767056, 41.302647 ], [ -81.767027, 41.302644 ], [ -81.766983, 41.302637 ], [ -81.766908, 41.302626 ], [ -81.766819, 41.302612 ], [ -81.766734, 41.302605 ], [ -81.766656, 41.302606 ], [ -81.766589, 41.302604 ], [ -81.766488, 41.302597 ], [ -81.766345, 41.302584 ], [ -81.766178, 41.302572 ], [ -81.765871, 41.302552 ], [ -81.765674, 41.302539 ], [ -81.765563, 41.302533 ], [ -81.765468, 41.302535 ], [ -81.765339, 41.30254 ], [ -81.765209, 41.302551 ], [ -81.765123, 41.302557 ], [ -81.76506, 41.302557 ], [ -81.764993, 41.30255 ], [ -81.764861, 41.302531 ], [ -81.764687, 41.302501 ], [ -81.764431, 41.30245 ], [ -81.764295, 41.302425 ], [ -81.764163, 41.302413 ], [ -81.764034, 41.302406 ], [ -81.763891, 41.302409 ], [ -81.763755, 41.302423 ], [ -81.763561, 41.302449 ], [ -81.76341, 41.302479 ], [ -81.763311, 41.302506 ], [ -81.763224, 41.302543 ], [ -81.763143, 41.302576 ], [ -81.763056, 41.302604 ], [ -81.762906, 41.302651 ], [ -81.762777, 41.302697 ], [ -81.762678, 41.302739 ], [ -81.762588, 41.302787 ], [ -81.762518, 41.30283 ], [ -81.762447, 41.302875 ], [ -81.762372, 41.302926 ], [ -81.7623, 41.30297 ], [ -81.762176, 41.303043 ], [ -81.762111, 41.303091 ], [ -81.76199, 41.303189 ], [ -81.761947, 41.303216 ], [ -81.761898, 41.303235 ], [ -81.761858, 41.303244 ], [ -81.761793, 41.303247 ], [ -81.761699, 41.303247 ], [ -81.761563, 41.303239 ], [ -81.761435, 41.303234 ], [ -81.76132, 41.303236 ], [ -81.76117, 41.303244 ], [ -81.76097, 41.303257 ], [ -81.76079, 41.303266 ] ] } },
{ "type": "Feature", "properties": { "cls": "shared", "highway": "cycleway", "name": "Valley Parkway Connector" }, "geometry": { "type": "LineString", "coordinates": [ [ -81.754081, 41.303259 ], [ -81.753971, 41.30326 ], [ -81.753751, 41.303262 ], [ -81.75353, 41.30326 ], [ -81.753299, 41.303247 ], [ -81.753133, 41.303235 ], [ -81.753014, 41.303225 ], [ -81.752843, 41.303221 ], [ -81.752518, 41.303212 ], [ -81.752184, 41.303204 ], [ -81.75199, 41.303196 ], [ -81.751891, 41.30319 ], [ -81.751782, 41.303179 ], [ -81.751645, 41.303174 ], [ -81.751452, 41.303167 ], [ -81.751196, 41.303154 ], [ -81.750964, 41.303137 ], [ -81.750776, 41.303122 ], [ -81.750637, 41.303113 ], [ -81.750455, 41.303106 ], [ -81.74997, 41.303085 ], [ -81.749747, 41.303079 ], [ -81.749594, 41.303071 ], [ -81.749483, 41.303061 ], [ -81.749386, 41.30305 ], [ -81.749272, 41.303043 ], [ -81.749023, 41.30303 ], [ -81.74864, 41.303005 ], [ -81.748529, 41.302996 ], [ -81.748371, 41.302981 ], [ -81.748224, 41.302956 ], [ -81.747936, 41.302905 ], [ -81.747832, 41.302892 ] ] } },
{ "type": "Feature", "properties": { "cls": "shared", "highway": "cycleway", "name": "Valley Parkway Connector" }, "geometry": { "type": "LineString", "coordinates": [ [ -81.760639, 41.303276 ], [ -81.760576, 41.303276 ], [ -81.760385, 41.303273 ], [ -81.760244, 41.303269 ], [ -81.760078, 41.303256 ], [ -81.759836, 41.303234 ], [ -81.759707, 41.303228 ], [ -81.759548, 41.303221 ], [ -81.759411, 41.303223 ], [ -81.759233, 41.303224 ], [ -81.759014, 41.303217 ], [ -81.758778, 41.303207 ], [ -81.758591, 41.303199 ], [ -81.758416, 41.30319 ], [ -81.758244, 41.303189 ], [ -81.758032, 41.30319 ], [ -81.757841, 41.30319 ], [ -81.757667, 41.303189 ], [ -81.757556, 41.303192 ], [ -81.757401, 41.3032 ], [ -81.757265, 41.303209 ], [ -81.756985, 41.303235 ], [ -81.756779, 41.303251 ], [ -81.756685, 41.303257 ], [ -81.756587, 41.303256 ], [ -81.756478, 41.303256 ], [ -81.756352, 41.30326 ], [ -81.75616, 41.303272 ], [ -81.755992, 41.303281 ], [ -81.755866, 41.303287 ], [ -81.755746, 41.303288 ], [ -81.75554, 41.303282 ], [ -81.755376, 41.303276 ], [ -81.75518, 41.303273 ], [ -81.755055, 41.303271 ], [ -81.754941, 41.303276 ], [ -81.754856, 41.303284 ], [ -81.754759, 41.303291 ], [ -81.754678, 41.303291 ], [ -81.754593, 41.303287 ], [ -81.754435, 41.303275 ], [ -81.754318, 41.303272 ], [ -81.754184, 41.303273 ] ] } },
{ "type": "Feature", "properties": { "cls": "shared", "highway": "cycleway", "name": "Valley Parkway Connector" }, "geometry": { "type": "LineString", "coordinates": [ [ -81.754184, 41.303273 ], [ -81.754131, 41.303266 ], [ -81.754081, 41.303259 ] ] } },
{ "type": "Feature", "properties": { "cls": "shared", "highway": "cycleway", "name": "Valley Parkway Connector" }, "geometry": { "type": "LineString", "coordinates": [ [ -81.76079, 41.303266 ], [ -81.760706, 41.303271 ], [ -81.760639, 41.303276 ] ] } },
{ "type": "Feature", "properties": { "cls": "separated", "highway": "cycleway", "name": null }, "geometry": { "type": "LineString", "coordinates": [ [ -81.753971, 41.30326 ], [ -81.753964, 41.303376 ], [ -81.753938, 41.303481 ], [ -81.753882, 41.303564 ], [ -81.753804, 41.303613 ], [ -81.753678, 41.303657 ], [ -81.75359, 41.303708 ], [ -81.75351, 41.303778 ], [ -81.753428, 41.303831 ], [ -81.753405, 41.303866 ], [ -81.75341, 41.303908 ], [ -81.753443, 41.303936 ], [ -81.75349, 41.303951 ], [ -81.753572, 41.303942 ], [ -81.753696, 41.30393 ] ] } },
{ "type": "Feature", "properties": { "cls": "shared", "highway": "cycleway", "name": null }, "geometry": { "type": "LineString", "coordinates": [ [ -81.684635, 41.300776 ], [ -81.684636, 41.300804 ], [ -81.684637, 41.30083 ], [ -81.684632, 41.301346 ], [ -81.684631, 41.301621 ] ] } }
]
}
