{
"type": "FeatureCollection",
"name": "077-odz-las-agiewnicki",
"crs": { "type": "name", "properties": { "name": "urn:ogc:def:crs:OGC:1.3:CRS84" } },
"xy_coordinate_resolution": 1e-06,
"features": [
{ "type": "Feature", "properties": { "cls": "separated", "highway": "path", "name": null }, "geometry": { "type": "LineString", "coordinates": [ [ 19.471629, 51.82244 ], [ 19.472183, 51.822368 ], [ 19.47412, 51.822263 ], [ 19.474148, 51.822262 ] ] } },
{ "type": "Feature", "properties": { "cls": "shared", "highway": "path", "name": null }, "geometry": { "type": "LineString", "coordinates": [ [ 19.468765, 51.822493 ], [ 19.468818, 51.822481 ], [ 19.468961, 51.822459 ], [ 19.469131, 51.822441 ], [ 19.46931, 51.822404 ], [ 19.469587, 51.822365 ], [ 19.46988, 51.822338 ], [ 19.469936, 51.822335 ], [ 19.470015, 51.822335 ], [ 19.470081, 51.822347 ], [ 19.470496, 51.822374 ], [ 19.471183, 51.822422 ], [ 19.471629, 51.82244 ] ] } },
{ "type": "Feature", "properties": { "cls": "separated", "highway": "cycleway", "name": null }, "geometry": { "type": "LineString", "coordinates": [ [ 19.470081, 51.822347 ], [ 19.470089, 51.822367 ], [ 19.470327, 51.82247 ], [ 19.470515, 51.822552 ], [ 19.470544, 51.822561 ], [ 19.470573, 51.822563 ], [ 19.4706, 51.822562 ], [ 19.471451, 51.822469 ], [ 19.471629, 51.82244 ] ] } },
{ "type": "Feature", "properties": { "cls": "separated", "highway": "cycleway", "name": null }, "geometry": { "type": "LineString", "coordinates": [ [ 19.467385, 51.823046 ], [ 19.467898, 51.822887 ], [ 19.467955, 51.822871 ], [ 19.468008, 51.822854 ], [ 19.468058, 51.822831 ], [ 19.468704, 51.822504 ], [ 19.468765, 51.822493 ] ] } },
{ "type": "Feature", "properties": { "cls": "separated", "highway": "cycleway", "name": null }, "geometry": { "type": "LineString", "coordinates": [ [ 19.46764, 51.823784 ], [ 19.468204, 51.823791 ], [ 19.468752, 51.823787 ], [ 19.46886, 51.823782 ], [ 19.468971, 51.823773 ], [ 19.470055, 51.823655 ], [ 19.470129, 51.823643 ], [ 19.470575, 51.823538 ], [ 19.470655, 51.823515 ], [ 19.470772, 51.823467 ], [ 19.470828, 51.82345 ], [ 19.471221, 51.823374 ], [ 19.471284, 51.823359 ], [ 19.471589, 51.823269 ], [ 19.471652, 51.823253 ], [ 19.471712, 51.82324 ], [ 19.472226, 51.823154 ], [ 19.472281, 51.823148 ], [ 19.473105, 51.82311 ], [ 19.473168, 51.823109 ], [ 19.473235, 51.823114 ], [ 19.473697, 51.823171 ], [ 19.473834, 51.823188 ] ] } },
{ "type": "Feature", "properties": { "cls": "separated", "highway": "cycleway", "name": null }, "geometry": { "type": "LineString", "coordinates": [ [ 19.473168, 51.823109 ], [ 19.473218, 51.823082 ], [ 19.47328, 51.823066 ], [ 19.473341, 51.823054 ], [ 19.473426, 51.823051 ], [ 19.473566, 51.823067 ], [ 19.473642, 51.823064 ], [ 19.473884, 51.823028 ], [ 19.473958, 51.823017 ] ] } },
{ "type": "Feature", "properties": { "cls": "shared", "highway": "path", "name": null }, "geometry": { "type": "LineString", "coordinates": [ [ 19.500901, 51.853381 ], [ 19.501004, 51.853133 ], [ 19.50121, 51.853 ], [ 19.501528, 51.852933 ], [ 19.501675, 51.852842 ], [ 19.502088, 51.85257 ] ] } },
{ "type": "Feature", "properties": { "cls": "shared", "highway": "path", "name": null }, "geometry": { "type": "LineString", "coordinates": [ [ 19.503957, 51.85484 ], [ 19.503461, 51.854437 ], [ 19.503143, 51.854311 ], [ 19.502915, 51.854094 ], [ 19.502924, 51.8538 ], [ 19.50301, 51.853656 ], [ 19.503052, 51.853565 ], [ 19.502938, 51.85346 ], [ 19.502677, 51.853257 ], [ 19.502653, 51.853018 ], [ 19.502567, 51.8527 ], [ 19.502477, 51.85262 ], [ 19.502088, 51.85257 ] ] } },
{ "type": "Feature", "properties": { "cls": "shared", "highway": "path", "name": null }, "geometry": { "type": "LineString", "coordinates": [ [ 19.500519, 51.854589 ], [ 19.500614, 51.854493 ], [ 19.50067, 51.854374 ], [ 19.500733, 51.854232 ], [ 19.500836, 51.854054 ], [ 19.500852, 51.853928 ], [ 19.500849, 51.853796 ], [ 19.50083, 51.853648 ], [ 19.500866, 51.853467 ], [ 19.500901, 51.853381 ] ] } },
{ "type": "Feature", "properties": { "cls": "shared", "highway": "path", "name": null }, "geometry": { "type": "LineString", "coordinates": [ [ 19.50423, 51.856513 ], [ 19.504174, 51.855847 ], [ 19.504079, 51.855688 ], [ 19.504046, 51.855618 ], [ 19.504122, 51.855421 ], [ 19.504132, 51.85521 ], [ 19.504136, 51.855113 ], [ 19.504051, 51.854916 ], [ 19.503957, 51.85484 ] ] } }
]
}
