{
"type": "FeatureCollection",
"name": "078-paris-forest-of-meudon",
"crs": { "type": "name", "properties": { "name": "urn:ogc:def:crs:OGC:1.3:CRS84" } },
"xy_coordinate_resolution": 1e-06,
"features": [
{ "type": "Feature", "properties": { "cls": "shared", "highway": "path", "name": "Avenue de Villacoublay" }, "geometry": { "type": "LineString", "coordinates": [ [ 2.228548, 48.782582 ], [ 2.228116, 48.782329 ], [ 2.227736, 48.78218 ], [ 2.227521, 48.782095 ], [ 2.227388, 48.782051 ], [ 2.227312, 48.782031 ], [ 2.227233, 48.782014 ], [ 2.227158, 48.782006 ], [ 2.227081, 48.782002 ], [ 2.227046, 48.782003 ], [ 2.226912, 48.782008 ], [ 2.226808, 48.782022 ], [ 2.226691, 48.782049 ], [ 2.22658, 48.782085 ], [ 2.22655, 48.782099 ] ] } },
{ "type": "Feature", "properties": { "cls": "shared", "highway": "path", "name": "Rue du Petit Clamart" }, "geometry": { "type": "LineString", "coordinates": [ [ 2.22655, 48.782099 ], [ 2.226472, 48.782137 ], [ 2.226442, 48.782157 ], [ 2.226412, 48.782178 ], [ 2.226391, 48.782192 ], [ 2.226373, 48.782204 ], [ 2.226292, 48.782257 ], [ 2.226167, 48.782401 ], [ 2.22575, 48.782968 ], [ 2.225635, 48.783139 ], [ 2.225534, 48.783291 ], [ 2.225522, 48.783312 ] ] } },
{ "type": "Feature", "properties": { "cls": "shared", "highway": "path", "name": "Parvis des Lumières" }, "geometry": { "type": "LineString", "coordinates": [ [ 2.225522, 48.783312 ], [ 2.225484, 48.783372 ], [ 2.225309, 48.783647 ], [ 2.225183, 48.783845 ], [ 2.225167, 48.783871 ], [ 2.225096, 48.783982 ], [ 2.225044, 48.783968 ] ] } },
{ "type": "Feature", "properties": { "cls": "sharrow", "highway": "residential", "name": "Rue Paul Demange" }, "geometry": { "type": "LineString", "coordinates": [ [ 2.227894, 48.783541 ], [ 2.227922, 48.783574 ], [ 2.227965, 48.7836 ], [ 2.228055, 48.783625 ], [ 2.229011, 48.783898 ], [ 2.229103, 48.783925 ] ] } },
{ "type": "Feature", "properties": { "cls": "separated", "highway": "cycleway", "name": "Mail Fernand Pouillon" }, "geometry": { "type": "LineString", "coordinates": [ [ 2.227171, 48.784871 ], [ 2.227239, 48.784819 ], [ 2.227328, 48.784753 ], [ 2.22739, 48.784656 ], [ 2.22745, 48.784563 ], [ 2.227526, 48.784445 ], [ 2.227573, 48.784372 ], [ 2.227614, 48.784308 ], [ 2.22766, 48.784236 ], [ 2.227705, 48.784167 ], [ 2.227795, 48.784027 ], [ 2.227997, 48.783715 ], [ 2.228055, 48.783625 ], [ 2.228078, 48.783587 ], [ 2.228064, 48.783566 ], [ 2.228007, 48.78348 ], [ 2.228399, 48.782885 ], [ 2.228446, 48.782814 ], [ 2.228448, 48.7828 ], [ 2.228432, 48.782786 ], [ 2.228363, 48.782765 ] ] } },
{ "type": "Feature", "properties": { "cls": "shared", "highway": "path", "name": null }, "geometry": { "type": "LineString", "coordinates": [ [ 2.225044, 48.783968 ], [ 2.225023, 48.783961 ], [ 2.224991, 48.783952 ], [ 2.224955, 48.783942 ], [ 2.224911, 48.783929 ], [ 2.224864, 48.783916 ] ] } },
{ "type": "Feature", "properties": { "cls": "separated", "highway": "footway", "name": "Rue Paul Demange" }, "geometry": { "type": "LineString", "coordinates": [ [ 2.228064, 48.783566 ], [ 2.228136, 48.783546 ], [ 2.229019, 48.783796 ], [ 2.229126, 48.783825 ], [ 2.229436, 48.783916 ], [ 2.229511, 48.783937 ], [ 2.229595, 48.783961 ], [ 2.229902, 48.784048 ], [ 2.2302, 48.784132 ], [ 2.230236, 48.784143 ], [ 2.230808, 48.784305 ], [ 2.230963, 48.784366 ], [ 2.23126, 48.784451 ], [ 2.231227, 48.784502 ] ] } },
{ "type": "Feature", "properties": { "cls": "sharrow", "highway": "residential", "name": "Rue de la Pépinière" }, "geometry": { "type": "LineString", "coordinates": [ [ 2.226977, 48.784817 ], [ 2.226905, 48.78492 ], [ 2.226846, 48.785008 ], [ 2.226822, 48.78505 ], [ 2.226821, 48.785089 ], [ 2.226748, 48.785203 ], [ 2.226679, 48.785309 ], [ 2.226653, 48.78535 ], [ 2.226591, 48.785445 ], [ 2.226565, 48.785464 ], [ 2.226503, 48.785497 ], [ 2.226444, 48.785512 ], [ 2.226398, 48.785516 ], [ 2.226347, 48.78551 ], [ 2.225872, 48.785376 ], [ 2.225489, 48.785269 ], [ 2.225028, 48.785139 ], [ 2.224991, 48.785134 ], [ 2.224942, 48.785136 ], [ 2.224886, 48.785129 ], [ 2.224825, 48.785116 ], [ 2.224767, 48.785099 ], [ 2.224729, 48.785085 ], [ 2.224672, 48.785056 ] ] } },
{ "type": "Feature", "properties": { "cls": "separated", "highway": "cycleway", "name": null }, "geometry": { "type": "LineString", "coordinates": [ [ 2.224091, 48.786569 ], [ 2.223987, 48.786694 ], [ 2.223938, 48.786743 ], [ 2.223891, 48.786756 ], [ 2.223827, 48.786752 ], [ 2.223787, 48.786741 ], [ 2.223649, 48.786695 ], [ 2.223531, 48.786648 ], [ 2.223381, 48.786563 ], [ 2.223364, 48.786535 ], [ 2.223363, 48.786495 ], [ 2.223364, 48.786458 ], [ 2.223402, 48.786418 ], [ 2.223443, 48.786394 ], [ 2.223742, 48.786334 ], [ 2.22382, 48.786335 ], [ 2.223881, 48.786344 ], [ 2.223933, 48.786365 ], [ 2.223993, 48.786398 ], [ 2.224037, 48.786432 ], [ 2.224071, 48.786479 ], [ 2.224106, 48.786507 ], [ 2.224119, 48.786532 ], [ 2.224091, 48.786569 ] ] } },
{ "type": "Feature", "properties": { "cls": "painted", "highway": "residential", "name": "Avenue du Général de Gaulle" }, "geometry": { "type": "LineString", "coordinates": [ [ 2.224091, 48.786569 ], [ 2.224187, 48.786622 ], [ 2.224351, 48.786724 ] ] } },
{ "type": "Feature", "properties": { "cls": "separated", "highway": "cycleway", "name": null }, "geometry": { "type": "LineString", "coordinates": [ [ 2.223279, 48.786607 ], [ 2.223325, 48.786615 ], [ 2.223359, 48.786668 ], [ 2.223391, 48.786772 ], [ 2.223396, 48.786857 ], [ 2.223393, 48.786881 ], [ 2.223381, 48.786934 ] ] } },
{ "type": "Feature", "properties": { "cls": "painted", "highway": "tertiary", "name": "Route du Colonel Marcel Moraine" }, "geometry": { "type": "LineString", "coordinates": [ [ 2.223787, 48.786741 ], [ 2.223763, 48.786752 ], [ 2.223657, 48.786789 ], [ 2.223553, 48.786835 ], [ 2.223457, 48.786883 ], [ 2.223381, 48.786934 ], [ 2.223297, 48.786988 ] ] } },
{ "type": "Feature", "properties": { "cls": "painted", "highway": "tertiary", "name": "Route du Colonel Marcel Moraine" }, "geometry": { "type": "LineString", "coordinates": [ [ 2.223098, 48.787164 ], [ 2.223201, 48.786942 ], [ 2.223243, 48.786811 ], [ 2.223273, 48.786695 ], [ 2.223297, 48.786644 ] ] } },
{ "type": "Feature", "properties": { "cls": "painted", "highway": "tertiary", "name": "Route du Colonel Marcel Moraine" }, "geometry": { "type": "LineString", "coordinates": [ [ 2.223297, 48.786988 ], [ 2.223098, 48.787164 ] ] } },
{ "type": "Feature", "properties": { "cls": "sharrow", "highway": "residential", "name": "Rue de la Poste" }, "geometry": { "type": "LineString", "coordinates": [ [ 2.229619, 48.786971 ], [ 2.229703, 48.786995 ], [ 2.229994, 48.787077 ], [ 2.230414, 48.787195 ], [ 2.230665, 48.787266 ], [ 2.230762, 48.787293 ] ] } },
{ "type": "Feature", "properties": { "cls": "painted", "highway": "residential", "name": "Avenue du Général de Gaulle" }, "geometry": { "type": "LineString", "coordinates": [ [ 2.224351, 48.786724 ], [ 2.224783, 48.786846 ], [ 2.22518, 48.786959 ], [ 2.225333, 48.787002 ], [ 2.225444, 48.787033 ], [ 2.225556, 48.787065 ], [ 2.225663, 48.787096 ], [ 2.225811, 48.787138 ], [ 2.226098, 48.787218 ], [ 2.226215, 48.787251 ], [ 2.226731, 48.787397 ], [ 2.226749, 48.787402 ], [ 2.227376, 48.787582 ], [ 2.227382, 48.787584 ], [ 2.227462, 48.787606 ], [ 2.227592, 48.787643 ], [ 2.227717, 48.787678 ] ] } },
{ "type": "Feature", "properties": { "cls": "separated", "highway": "secondary_link", "name": null }, "geometry": { "type": "LineString", "coordinates": [ [ 2.221575, 48.786299 ], [ 2.221532, 48.786259 ], [ 2.221494, 48.786247 ], [ 2.221448, 48.786245 ], [ 2.22137, 48.786257 ], [ 2.22095, 48.786386 ] ] } },
{ "type": "Feature", "properties": { "cls": "separated", "highway": "footway", "name": null }, "geometry": { "type": "LineString", "coordinates": [ [ 2.22059, 48.786599 ], [ 2.220516, 48.786626 ], [ 2.220425, 48.786659 ], [ 2.22002, 48.786805 ], [ 2.219556, 48.786971 ], [ 2.219248, 48.787082 ], [ 2.218929, 48.787199 ], [ 2.218697, 48.787276 ], [ 2.218544, 48.787335 ], [ 2.218436, 48.787356 ], [ 2.218267, 48.787347 ] ] } },
{ "type": "Feature", "properties": { "cls": "separated", "highway": "footway", "name": null }, "geometry": { "type": "LineString", "coordinates": [ [ 2.218267, 48.787347 ], [ 2.218198, 48.787423 ], [ 2.218171, 48.787438 ], [ 2.217981, 48.787513 ], [ 2.217846, 48.787572 ], [ 2.217395, 48.787737 ], [ 2.217164, 48.787814 ], [ 2.217044, 48.787807 ] ] } },
{ "type": "Feature", "properties": { "cls": "painted", "highway": "tertiary", "name": "Route du Colonel Marcel Moraine" }, "geometry": { "type": "LineString", "coordinates": [ [ 2.222175, 48.78845 ], [ 2.222327, 48.788187 ], [ 2.222363, 48.788131 ], [ 2.222667, 48.787696 ] ] } },
{ "type": "Feature", "properties": { "cls": "painted", "highway": "tertiary", "name": "Route du Colonel Marcel Moraine" }, "geometry": { "type": "LineString", "coordinates": [ [ 2.221899, 48.788746 ], [ 2.22192, 48.788683 ], [ 2.221946, 48.788652 ], [ 2.222175, 48.78845 ] ] } },
{ "type": "Feature", "properties": { "cls": "painted", "highway": "tertiary", "name": "Route du Colonel Marcel Moraine" }, "geometry": { "type": "LineString", "coordinates": [ [ 2.223032, 48.787246 ], [ 2.223098, 48.787164 ] ] } },
{ "type": "Feature", "properties": { "cls": "painted", "highway": "tertiary", "name": "Route du Colonel Marcel Moraine" }, "geometry": { "type": "LineString", "coordinates": [ [ 2.222849, 48.787472 ], [ 2.223032, 48.787246 ] ] } },
{ "type": "Feature", "properties": { "cls": "sharrow", "highway": "residential", "name": "Rue de la Roseraie" }, "geometry": { "type": "LineString", "coordinates": [ [ 2.225093, 48.787754 ], [ 2.225459, 48.787188 ] ] } },
{ "type": "Feature", "properties": { "cls": "painted", "highway": "tertiary", "name": "Route du Colonel Marcel Moraine" }, "geometry": { "type": "LineString", "coordinates": [ [ 2.222667, 48.787696 ], [ 2.222781, 48.787557 ], [ 2.222849, 48.787472 ] ] } },
{ "type": "Feature", "properties": { "cls": "sharrow", "highway": "residential", "name": "Rue de la Roseraie" }, "geometry": { "type": "LineString", "coordinates": [ [ 2.223698, 48.789954 ], [ 2.223792, 48.789808 ], [ 2.223969, 48.78954 ], [ 2.223985, 48.789515 ], [ 2.224002, 48.789497 ], [ 2.224032, 48.789463 ], [ 2.224066, 48.789426 ], [ 2.224159, 48.789278 ], [ 2.224405, 48.7889 ], [ 2.224423, 48.788829 ], [ 2.224418, 48.788795 ], [ 2.224479, 48.788703 ], [ 2.224521, 48.788672 ], [ 2.224602, 48.788547 ], [ 2.224608, 48.788524 ], [ 2.224631, 48.78846 ], [ 2.224711, 48.788345 ], [ 2.224765, 48.788295 ], [ 2.224844, 48.788165 ], [ 2.224874, 48.788113 ], [ 2.225079, 48.787776 ], [ 2.225093, 48.787754 ] ] } },
{ "type": "Feature", "properties": { "cls": "separated", "highway": "cycleway", "name": null }, "geometry": { "type": "LineString", "coordinates": [ [ 2.223146, 48.790989 ], [ 2.223234, 48.790966 ], [ 2.22327, 48.790985 ] ] } },
{ "type": "Feature", "properties": { "cls": "separated", "highway": "cycleway", "name": null }, "geometry": { "type": "LineString", "coordinates": [ [ 2.22327, 48.790985 ], [ 2.22326, 48.79099 ], [ 2.223225, 48.791 ], [ 2.22317, 48.791011 ] ] } },
{ "type": "Feature", "properties": { "cls": "separated", "highway": "cycleway", "name": null }, "geometry": { "type": "LineString", "coordinates": [ [ 2.22317, 48.791011 ], [ 2.223146, 48.790989 ] ] } },
{ "type": "Feature", "properties": { "cls": "separated", "highway": "cycleway", "name": null }, "geometry": { "type": "LineString", "coordinates": [ [ 2.223002, 48.791055 ], [ 2.223016, 48.79102 ], [ 2.223032, 48.791008 ], [ 2.223054, 48.790998 ], [ 2.223136, 48.790989 ], [ 2.223146, 48.790989 ] ] } },
{ "type": "Feature", "properties": { "cls": "separated", "highway": "cycleway", "name": null }, "geometry": { "type": "LineString", "coordinates": [ [ 2.223441, 48.791087 ], [ 2.223414, 48.791068 ], [ 2.223382, 48.791046 ], [ 2.223373, 48.791032 ], [ 2.223357, 48.791017 ], [ 2.223333, 48.791005 ], [ 2.223287, 48.79099 ], [ 2.22327, 48.790985 ] ] } },
{ "type": "Feature", "properties": { "cls": "painted", "highway": "tertiary", "name": "Rond-Point Jean-Luc Lagardère" }, "geometry": { "type": "LineString", "coordinates": [ [ 2.208327, 48.786919 ], [ 2.208233, 48.786879 ], [ 2.208181, 48.786825 ], [ 2.208163, 48.78678 ], [ 2.208163, 48.786737 ] ] } },
{ "type": "Feature", "properties": { "cls": "sharrow", "highway": "unclassified", "name": "Carrefour de la Mare Adam" }, "geometry": { "type": "LineString", "coordinates": [ [ 2.208372, 48.800676 ], [ 2.208452, 48.800604 ], [ 2.208568, 48.800551 ], [ 2.20869, 48.800528 ], [ 2.208801, 48.800528 ], [ 2.208904, 48.800547 ] ] } },
{ "type": "Feature", "properties": { "cls": "painted", "highway": "tertiary", "name": "Route du Colonel Marcel Moraine" }, "geometry": { "type": "LineString", "coordinates": [ [ 2.222175, 48.78845 ], [ 2.222139, 48.788674 ], [ 2.222138, 48.788699 ], [ 2.222147, 48.788752 ] ] } },
{ "type": "Feature", "properties": { "cls": "separated", "highway": "cycleway", "name": "Giratoire de Verrières" }, "geometry": { "type": "LineString", "coordinates": [ [ 2.221833, 48.789059 ], [ 2.221795, 48.789032 ], [ 2.221761, 48.788996 ], [ 2.221726, 48.788918 ], [ 2.221712, 48.788861 ], [ 2.221736, 48.788813 ], [ 2.221777, 48.788771 ], [ 2.221833, 48.788736 ], [ 2.22192, 48.788683 ], [ 2.221993, 48.788679 ], [ 2.222057, 48.78868 ], [ 2.222108, 48.788689 ], [ 2.222138, 48.788699 ], [ 2.222194, 48.788722 ], [ 2.222236, 48.788758 ], [ 2.222268, 48.788796 ], [ 2.222278, 48.788825 ], [ 2.222286, 48.788858 ], [ 2.222285, 48.788905 ], [ 2.222266, 48.788972 ], [ 2.222241, 48.789013 ], [ 2.222207, 48.789047 ], [ 2.222162, 48.789071 ], [ 2.22211, 48.789084 ], [ 2.222072, 48.789091 ], [ 2.222034, 48.789095 ], [ 2.221968, 48.789094 ], [ 2.22188, 48.789077 ], [ 2.221833, 48.789059 ] ] } },
{ "type": "Feature", "properties": { "cls": "sharrow", "highway": "service", "name": "Allée de la Forêt" }, "geometry": { "type": "LineString", "coordinates": [ [ 2.221062, 48.790698 ], [ 2.221043, 48.790668 ], [ 2.22098, 48.790628 ], [ 2.220965, 48.790606 ], [ 2.220961, 48.790581 ], [ 2.220974, 48.790559 ], [ 2.221775, 48.789286 ], [ 2.221803, 48.789254 ], [ 2.221839, 48.789231 ], [ 2.221879, 48.789212 ], [ 2.221908, 48.789202 ], [ 2.221919, 48.789194 ], [ 2.221938, 48.789171 ], [ 2.221958, 48.789133 ], [ 2.221967, 48.789106 ], [ 2.221968, 48.789094 ], [ 2.221972, 48.78906 ] ] } },
{ "type": "Feature", "properties": { "cls": "sharrow", "highway": "service", "name": "Allée de la Forêt" }, "geometry": { "type": "LineString", "coordinates": [ [ 2.222043, 48.789061 ], [ 2.222034, 48.789095 ], [ 2.222019, 48.789162 ], [ 2.222001, 48.789188 ], [ 2.221992, 48.789201 ], [ 2.221991, 48.789225 ], [ 2.221996, 48.789246 ], [ 2.221992, 48.789266 ], [ 2.221755, 48.789631 ], [ 2.221511, 48.790008 ], [ 2.221265, 48.790386 ], [ 2.221062, 48.790698 ] ] } },
{ "type": "Feature", "properties": { "cls": "sharrow", "highway": "service", "name": "Allée de la Forêt" }, "geometry": { "type": "LineString", "coordinates": [ [ 2.221062, 48.790698 ], [ 2.221022, 48.790762 ], [ 2.220896, 48.790966 ], [ 2.220693, 48.791295 ], [ 2.220646, 48.791372 ], [ 2.220564, 48.791504 ], [ 2.220477, 48.791645 ], [ 2.220388, 48.791788 ], [ 2.220333, 48.791878 ], [ 2.220314, 48.791909 ], [ 2.220299, 48.791933 ] ] } },
{ "type": "Feature", "properties": { "cls": "shared", "highway": "cycleway", "name": null }, "geometry": { "type": "LineString", "coordinates": [ [ 2.219808, 48.792556 ], [ 2.219894, 48.792383 ], [ 2.220176, 48.79186 ], [ 2.220217, 48.791805 ], [ 2.220274, 48.791787 ], [ 2.220388, 48.791788 ] ] } },
{ "type": "Feature", "properties": { "cls": "separated", "highway": "cycleway", "name": null }, "geometry": { "type": "LineString", "coordinates": [ [ 2.219086, 48.793779 ], [ 2.219164, 48.793799 ], [ 2.219176, 48.793778 ], [ 2.219198, 48.793749 ], [ 2.219221, 48.793717 ], [ 2.219243, 48.793654 ], [ 2.219368, 48.793421 ], [ 2.219627, 48.792921 ], [ 2.219808, 48.792556 ] ] } },
{ "type": "Feature", "properties": { "cls": "separated", "highway": "cycleway", "name": null }, "geometry": { "type": "LineString", "coordinates": [ [ 2.217823, 48.796002 ], [ 2.217888, 48.795748 ], [ 2.217893, 48.795731 ], [ 2.217902, 48.795713 ], [ 2.218029, 48.79548 ], [ 2.218174, 48.79523 ], [ 2.218565, 48.794539 ], [ 2.218594, 48.794486 ], [ 2.218619, 48.794444 ], [ 2.21876, 48.794274 ], [ 2.218785, 48.794244 ], [ 2.218803, 48.794216 ], [ 2.218975, 48.79389 ], [ 2.218989, 48.793852 ], [ 2.218996, 48.79383 ], [ 2.218998, 48.793808 ], [ 2.218999, 48.793791 ], [ 2.219086, 48.793779 ] ] } },
{ "type": "Feature", "properties": { "cls": "separated", "highway": "cycleway", "name": null }, "geometry": { "type": "LineString", "coordinates": [ [ 2.217823, 48.796002 ], [ 2.217861, 48.796024 ], [ 2.217905, 48.796041 ], [ 2.217933, 48.796055 ] ] } },
{ "type": "Feature", "properties": { "cls": "sharrow", "highway": "tertiary", "name": "Route du Colonel Marcel Moraine" }, "geometry": { "type": "LineString", "coordinates": [ [ 2.217973, 48.795937 ], [ 2.217977, 48.795982 ], [ 2.21795, 48.79603 ], [ 2.217933, 48.796055 ], [ 2.217855, 48.796174 ] ] } },
{ "type": "Feature", "properties": { "cls": "separated", "highway": "cycleway", "name": null }, "geometry": { "type": "LineString", "coordinates": [ [ 2.22317, 48.791011 ], [ 2.223118, 48.791067 ], [ 2.22309, 48.791095 ], [ 2.223071, 48.791114 ] ] } },
{ "type": "Feature", "properties": { "cls": "separated", "highway": "cycleway", "name": null }, "geometry": { "type": "LineString", "coordinates": [ [ 2.223071, 48.791114 ], [ 2.223093, 48.791114 ], [ 2.22315, 48.791112 ], [ 2.223263, 48.79108 ], [ 2.223382, 48.791046 ] ] } },
{ "type": "Feature", "properties": { "cls": "separated", "highway": "cycleway", "name": null }, "geometry": { "type": "LineString", "coordinates": [ [ 2.223002, 48.791055 ], [ 2.22305, 48.791079 ], [ 2.22306, 48.791095 ], [ 2.223071, 48.791114 ] ] } },
{ "type": "Feature", "properties": { "cls": "separated", "highway": "cycleway", "name": null }, "geometry": { "type": "LineString", "coordinates": [ [ 2.223071, 48.791114 ], [ 2.223065, 48.791131 ], [ 2.223063, 48.791135 ], [ 2.223027, 48.791207 ], [ 2.223031, 48.791218 ], [ 2.223043, 48.79123 ] ] } },
{ "type": "Feature", "properties": { "cls": "advisory", "highway": "unclassified", "name": "Route Forestière des Étangs" }, "geometry": { "type": "LineString", "coordinates": [ [ 2.226211, 48.796514 ], [ 2.226471, 48.796485 ], [ 2.226642, 48.796468 ], [ 2.226805, 48.796471 ], [ 2.226913, 48.796479 ], [ 2.227029, 48.796498 ], [ 2.227265, 48.796551 ], [ 2.227504, 48.796639 ] ] } },
{ "type": "Feature", "properties": { "cls": "advisory", "highway": "unclassified", "name": "Cavalière de la Tour" }, "geometry": { "type": "LineString", "coordinates": [ [ 2.227504, 48.796639 ], [ 2.228798, 48.796892 ], [ 2.229213, 48.797 ], [ 2.229427, 48.797034 ], [ 2.229869, 48.797054 ], [ 2.231835, 48.797372 ], [ 2.231963, 48.797391 ] ] } },
{ "type": "Feature", "properties": { "cls": "sharrow", "highway": "secondary", "name": "Carrefour des Trois Bornes" }, "geometry": { "type": "LineString", "coordinates": [ [ 2.232152, 48.797319 ], [ 2.232193, 48.797304 ], [ 2.232238, 48.797298 ], [ 2.232284, 48.797301 ] ] } },
{ "type": "Feature", "properties": { "cls": "sharrow", "highway": "secondary", "name": "Carrefour des Trois Bornes" }, "geometry": { "type": "LineString", "coordinates": [ [ 2.232284, 48.797301 ], [ 2.232323, 48.797312 ], [ 2.232355, 48.797328 ] ] } },
{ "type": "Feature", "properties": { "cls": "sharrow", "highway": "secondary", "name": "Carrefour des Trois Bornes" }, "geometry": { "type": "LineString", "coordinates": [ [ 2.2321, 48.797367 ], [ 2.23212, 48.797341 ], [ 2.232152, 48.797319 ] ] } },
{ "type": "Feature", "properties": { "cls": "sharrow", "highway": "secondary", "name": "Carrefour des Trois Bornes" }, "geometry": { "type": "LineString", "coordinates": [ [ 2.232355, 48.797328 ], [ 2.232382, 48.797353 ], [ 2.232397, 48.797381 ] ] } },
{ "type": "Feature", "properties": { "cls": "separated", "highway": "cycleway", "name": null }, "geometry": { "type": "LineString", "coordinates": [ [ 2.217654, 48.79648 ], [ 2.217616, 48.796462 ], [ 2.217601, 48.796378 ], [ 2.217602, 48.796347 ], [ 2.217603, 48.796322 ], [ 2.217613, 48.796292 ], [ 2.217634, 48.796251 ], [ 2.217697, 48.796171 ], [ 2.217763, 48.796098 ], [ 2.217802, 48.796048 ], [ 2.217819, 48.79602 ], [ 2.217823, 48.796002 ] ] } },
{ "type": "Feature", "properties": { "cls": "sharrow", "highway": "unclassified", "name": "Route des Six Frères" }, "geometry": { "type": "LineString", "coordinates": [ [ 2.217855, 48.796174 ], [ 2.21782, 48.796353 ], [ 2.21781, 48.796502 ], [ 2.217833, 48.796641 ], [ 2.217899, 48.796844 ] ] } },
{ "type": "Feature", "properties": { "cls": "sharrow", "highway": "unclassified", "name": "Route des Six Frères" }, "geometry": { "type": "LineString", "coordinates": [ [ 2.217899, 48.796844 ], [ 2.21776, 48.796663 ], [ 2.217676, 48.796519 ], [ 2.217654, 48.79648 ] ] } },
{ "type": "Feature", "properties": { "cls": "advisory", "highway": "unclassified", "name": "Route des Six Frères" }, "geometry": { "type": "LineString", "coordinates": [ [ 2.217899, 48.796844 ], [ 2.21855, 48.797868 ] ] } },
{ "type": "Feature", "properties": { "cls": "advisory", "highway": "unclassified", "name": "Route Royale" }, "geometry": { "type": "LineString", "coordinates": [ [ 2.216794, 48.798188 ], [ 2.218434, 48.798046 ], [ 2.218565, 48.798037 ] ] } },
{ "type": "Feature", "properties": { "cls": "advisory", "highway": "unclassified", "name": null }, "geometry": { "type": "LineString", "coordinates": [ [ 2.216379, 48.798214 ], [ 2.216794, 48.798188 ] ] } },
{ "type": "Feature", "properties": { "cls": "shared", "highway": "path", "name": null }, "geometry": { "type": "LineString", "coordinates": [ [ 2.222293, 48.798358 ], [ 2.222316, 48.798449 ], [ 2.22235, 48.798584 ] ] } },
{ "type": "Feature", "properties": { "cls": "advisory", "highway": "unclassified", "name": "Route Royale" }, "geometry": { "type": "LineString", "coordinates": [ [ 2.214682, 48.798787 ], [ 2.215743, 48.798328 ], [ 2.215884, 48.798279 ], [ 2.216011, 48.798253 ], [ 2.216379, 48.798214 ] ] } },
{ "type": "Feature", "properties": { "cls": "advisory", "highway": "unclassified", "name": "Route de la Patte d'Oie" }, "geometry": { "type": "LineString", "coordinates": [ [ 2.218565, 48.798037 ], [ 2.218345, 48.798232 ], [ 2.218148, 48.798373 ], [ 2.216745, 48.799378 ], [ 2.216363, 48.79967 ], [ 2.216197, 48.799927 ], [ 2.21616, 48.800079 ] ] } },
{ "type": "Feature", "properties": { "cls": "painted", "highway": "unclassified", "name": "Route Royale" }, "geometry": { "type": "LineString", "coordinates": [ [ 2.215587, 48.799757 ], [ 2.214682, 48.798787 ] ] } },
{ "type": "Feature", "properties": { "cls": "sharrow", "highway": "residential", "name": "Route du Tronchet" }, "geometry": { "type": "LineString", "coordinates": [ [ 2.236349, 48.788773 ], [ 2.236375, 48.788776 ] ] } },
{ "type": "Feature", "properties": { "cls": "sharrow", "highway": "residential", "name": "Route du Tronchet" }, "geometry": { "type": "LineString", "coordinates": [ [ 2.234469, 48.788808 ], [ 2.234553, 48.788903 ], [ 2.234571, 48.788922 ], [ 2.234607, 48.788952 ], [ 2.234637, 48.788971 ], [ 2.234674, 48.788983 ], [ 2.234716, 48.788993 ], [ 2.234817, 48.789005 ] ] } },
{ "type": "Feature", "properties": { "cls": "sharrow", "highway": "residential", "name": "Route du Tronchet" }, "geometry": { "type": "LineString", "coordinates": [ [ 2.234817, 48.789005 ], [ 2.234726, 48.789018 ], [ 2.234656, 48.789018 ], [ 2.234578, 48.789017 ], [ 2.23451, 48.788995 ], [ 2.23448, 48.788981 ], [ 2.23446, 48.788972 ], [ 2.234329, 48.7889 ] ] } },
{ "type": "Feature", "properties": { "cls": "sharrow", "highway": "residential", "name": null }, "geometry": { "type": "LineString", "coordinates": [ [ 2.236125, 48.789183 ], [ 2.236348, 48.788967 ], [ 2.236412, 48.788906 ], [ 2.236401, 48.788839 ], [ 2.236349, 48.788773 ] ] } },
{ "type": "Feature", "properties": { "cls": "separated", "highway": "cycleway", "name": null }, "geometry": { "type": "LineString", "coordinates": [ [ 2.234436, 48.789032 ], [ 2.234466, 48.788997 ], [ 2.23448, 48.788981 ], [ 2.234521, 48.788947 ], [ 2.234571, 48.788922 ] ] } },
{ "type": "Feature", "properties": { "cls": "sharrow", "highway": "secondary", "name": "Avenue de Trivaux" }, "geometry": { "type": "LineString", "coordinates": [ [ 2.236125, 48.789183 ], [ 2.236205, 48.789148 ], [ 2.23628, 48.789111 ], [ 2.236348, 48.789074 ] ] } },
{ "type": "Feature", "properties": { "cls": "sharrow", "highway": "residential", "name": "Rue de Rushmoor" }, "geometry": { "type": "LineString", "coordinates": [ [ 2.242345, 48.803443 ], [ 2.241736, 48.803037 ] ] } },
{ "type": "Feature", "properties": { "cls": "sharrow", "highway": "residential", "name": "Place Henri Brousse" }, "geometry": { "type": "LineString", "coordinates": [ [ 2.24173, 48.807784 ], [ 2.241567, 48.807496 ] ] } },
{ "type": "Feature", "properties": { "cls": "sharrow", "highway": "residential", "name": "Rue Banès" }, "geometry": { "type": "LineString", "coordinates": [ [ 2.242279, 48.807591 ], [ 2.242218, 48.807623 ], [ 2.241894, 48.807793 ] ] } },
{ "type": "Feature", "properties": { "cls": "sharrow", "highway": "residential", "name": "Rue Georges Langrognet" }, "geometry": { "type": "LineString", "coordinates": [ [ 2.239982, 48.802067 ], [ 2.239046, 48.802247 ] ] } },
{ "type": "Feature", "properties": { "cls": "sharrow", "highway": "residential", "name": "Rue des Vertugadins" }, "geometry": { "type": "LineString", "coordinates": [ [ 2.238583, 48.80227 ], [ 2.238467, 48.802277 ], [ 2.23839, 48.802293 ] ] } },
{ "type": "Feature", "properties": { "cls": "sharrow", "highway": "residential", "name": "Rue des Vertugadins" }, "geometry": { "type": "LineString", "coordinates": [ [ 2.23839, 48.802293 ], [ 2.237952, 48.802387 ] ] } },
{ "type": "Feature", "properties": { "cls": "sharrow", "highway": "residential", "name": "Rue des Vertugadins" }, "geometry": { "type": "LineString", "coordinates": [ [ 2.237952, 48.802387 ], [ 2.23743, 48.802498 ], [ 2.237326, 48.80252 ] ] } },
{ "type": "Feature", "properties": { "cls": "sharrow", "highway": "residential", "name": "Rue d'Arthelon" }, "geometry": { "type": "LineString", "coordinates": [ [ 2.239516, 48.803744 ], [ 2.239497, 48.803715 ], [ 2.239095, 48.803088 ], [ 2.238836, 48.802663 ], [ 2.23863, 48.802323 ], [ 2.238583, 48.80227 ] ] } },
{ "type": "Feature", "properties": { "cls": "sharrow", "highway": "secondary", "name": "Avenue de Trivaux" }, "geometry": { "type": "LineString", "coordinates": [ [ 2.232412, 48.797724 ], [ 2.232706, 48.798221 ], [ 2.233095, 48.798868 ], [ 2.233118, 48.798905 ], [ 2.233164, 48.798988 ], [ 2.233468, 48.799531 ], [ 2.233519, 48.799621 ], [ 2.233546, 48.799671 ], [ 2.233593, 48.799745 ] ] } },
{ "type": "Feature", "properties": { "cls": "separated", "highway": "cycleway", "name": null }, "geometry": { "type": "LineString", "coordinates": [ [ 2.233593, 48.799745 ], [ 2.233562, 48.799824 ], [ 2.233709, 48.800066 ], [ 2.233815, 48.800239 ], [ 2.23391, 48.800409 ], [ 2.234084, 48.800704 ], [ 2.234252, 48.800979 ] ] } },
{ "type": "Feature", "properties": { "cls": "separated", "highway": "cycleway", "name": null }, "geometry": { "type": "LineString", "coordinates": [ [ 2.234252, 48.800979 ], [ 2.234263, 48.801028 ], [ 2.234266, 48.801072 ], [ 2.234257, 48.801104 ] ] } },
{ "type": "Feature", "properties": { "cls": "separated", "highway": "cycleway", "name": "Avenue de Trivaux" }, "geometry": { "type": "LineString", "coordinates": [ [ 2.234257, 48.801104 ], [ 2.2342, 48.801337 ], [ 2.233954, 48.802318 ], [ 2.233887, 48.802533 ], [ 2.233878, 48.802627 ], [ 2.23396, 48.803248 ], [ 2.234059, 48.803266 ] ] } },
{ "type": "Feature", "properties": { "cls": "sharrow", "highway": "residential", "name": "Rue des Vertugadins" }, "geometry": { "type": "LineString", "coordinates": [ [ 2.234059, 48.803266 ], [ 2.234278, 48.803259 ], [ 2.23432, 48.803258 ], [ 2.234428, 48.803253 ], [ 2.235066, 48.803227 ], [ 2.235266, 48.803218 ], [ 2.235603, 48.80313 ], [ 2.236021, 48.802954 ], [ 2.236087, 48.802924 ], [ 2.236378, 48.802799 ], [ 2.236694, 48.802661 ], [ 2.236874, 48.802613 ], [ 2.237217, 48.802542 ], [ 2.237326, 48.80252 ] ] } },
{ "type": "Feature", "properties": { "cls": "sharrow", "highway": "residential", "name": "Avenue Victor Hugo" }, "geometry": { "type": "LineString", "coordinates": [ [ 2.236819, 48.806355 ], [ 2.236906, 48.806298 ] ] } },
{ "type": "Feature", "properties": { "cls": "sharrow", "highway": "secondary", "name": "Rue de la République" }, "geometry": { "type": "LineString", "coordinates": [ [ 2.236062, 48.807808 ], [ 2.236051, 48.807708 ] ] } },
{ "type": "Feature", "properties": { "cls": "sharrow", "highway": "residential", "name": "Rue du Général Gouraud" }, "geometry": { "type": "LineString", "coordinates": [ [ 2.235154, 48.809732 ], [ 2.235172, 48.809765 ], [ 2.235221, 48.809815 ], [ 2.235593, 48.810569 ], [ 2.235978, 48.811337 ], [ 2.236002, 48.811398 ] ] } },
{ "type": "Feature", "properties": { "cls": "sharrow", "highway": "secondary", "name": "Boulevard des Nations Unies" }, "geometry": { "type": "LineString", "coordinates": [ [ 2.236558, 48.812397 ], [ 2.236953, 48.81195 ], [ 2.236972, 48.811928 ], [ 2.237004, 48.811893 ], [ 2.237075, 48.81181 ] ] } },
{ "type": "Feature", "properties": { "cls": "sharrow", "highway": "residential", "name": "Rue de la Bourgogne" }, "geometry": { "type": "LineString", "coordinates": [ [ 2.237505, 48.811968 ], [ 2.237446, 48.812012 ], [ 2.237, 48.812347 ] ] } },
{ "type": "Feature", "properties": { "cls": "advisory", "highway": "unclassified", "name": "Cavalière de la Tour" }, "geometry": { "type": "LineString", "coordinates": [ [ 2.231963, 48.797391 ], [ 2.232051, 48.797378 ], [ 2.2321, 48.797367 ] ] } },
{ "type": "Feature", "properties": { "cls": "sharrow", "highway": "secondary", "name": "Carrefour des Trois Bornes" }, "geometry": { "type": "LineString", "coordinates": [ [ 2.232113, 48.797451 ], [ 2.232097, 48.797424 ], [ 2.232092, 48.797396 ], [ 2.2321, 48.797367 ] ] } },
{ "type": "Feature", "properties": { "cls": "advisory", "highway": "unclassified", "name": "Cavalière de la Tour" }, "geometry": { "type": "LineString", "coordinates": [ [ 2.232113, 48.797451 ], [ 2.231963, 48.797391 ] ] } },
{ "type": "Feature", "properties": { "cls": "sharrow", "highway": "secondary", "name": "Carrefour des Trois Bornes" }, "geometry": { "type": "LineString", "coordinates": [ [ 2.232397, 48.797381 ], [ 2.232399, 48.797408 ], [ 2.23239, 48.797434 ], [ 2.232373, 48.797457 ], [ 2.232347, 48.797476 ] ] } },
{ "type": "Feature", "properties": { "cls": "sharrow", "highway": "secondary", "name": "Carrefour des Trois Bornes" }, "geometry": { "type": "LineString", "coordinates": [ [ 2.232201, 48.797496 ], [ 2.232166, 48.797486 ], [ 2.232137, 48.797471 ], [ 2.232113, 48.797451 ] ] } },
{ "type": "Feature", "properties": { "cls": "sharrow", "highway": "secondary", "name": "Carrefour des Trois Bornes" }, "geometry": { "type": "LineString", "coordinates": [ [ 2.232347, 48.797476 ], [ 2.232303, 48.797494 ], [ 2.232252, 48.797501 ], [ 2.232201, 48.797496 ] ] } },
{ "type": "Feature", "properties": { "cls": "advisory", "highway": "unclassified", "name": "Grand Chemin de Meudon à Versailles" }, "geometry": { "type": "LineString", "coordinates": [ [ 2.225414, 48.809813 ], [ 2.225497, 48.80984 ], [ 2.225594, 48.809852 ], [ 2.2258, 48.809875 ], [ 2.226155, 48.809909 ], [ 2.227148, 48.810006 ], [ 2.227658, 48.810058 ] ] } },
{ "type": "Feature", "properties": { "cls": "sharrow", "highway": "unclassified", "name": "Avenue Marcellin Berthelot" }, "geometry": { "type": "LineString", "coordinates": [ [ 2.227879, 48.81008 ], [ 2.228066, 48.810096 ], [ 2.228589, 48.810152 ], [ 2.229188, 48.810215 ], [ 2.229543, 48.810251 ], [ 2.230068, 48.810304 ], [ 2.23016, 48.810319 ], [ 2.230233, 48.810348 ], [ 2.23026, 48.810381 ], [ 2.230265, 48.810459 ], [ 2.230222, 48.810804 ], [ 2.230145, 48.811428 ], [ 2.230101, 48.81179 ], [ 2.230096, 48.81185 ], [ 2.230143, 48.811902 ], [ 2.230189, 48.811923 ] ] } },
{ "type": "Feature", "properties": { "cls": "sharrow", "highway": "residential", "name": "Rue des Capucins" }, "geometry": { "type": "LineString", "coordinates": [ [ 2.230012, 48.812432 ], [ 2.230027, 48.812372 ], [ 2.23008, 48.812218 ], [ 2.230112, 48.812117 ], [ 2.230189, 48.811923 ] ] } },
{ "type": "Feature", "properties": { "cls": "sharrow", "highway": "residential", "name": "Rue des Capucins" }, "geometry": { "type": "LineString", "coordinates": [ [ 2.229881, 48.812872 ], [ 2.229937, 48.812743 ], [ 2.230003, 48.812463 ], [ 2.230012, 48.812432 ] ] } },
{ "type": "Feature", "properties": { "cls": "sharrow", "highway": "residential", "name": "Rue d'Arthelon" }, "geometry": { "type": "LineString", "coordinates": [ [ 2.240318, 48.805101 ], [ 2.24027, 48.805038 ], [ 2.239688, 48.804038 ], [ 2.23964, 48.803957 ], [ 2.239625, 48.803933 ], [ 2.239605, 48.803898 ] ] } },
{ "type": "Feature", "properties": { "cls": "sharrow", "highway": "residential", "name": "Rue d'Arthelon" }, "geometry": { "type": "LineString", "coordinates": [ [ 2.240623, 48.80564 ], [ 2.240596, 48.805585 ], [ 2.240388, 48.805185 ], [ 2.240318, 48.805101 ] ] } },
{ "type": "Feature", "properties": { "cls": "sharrow", "highway": "residential", "name": "Rue d'Arthelon" }, "geometry": { "type": "LineString", "coordinates": [ [ 2.240913, 48.806262 ], [ 2.240634, 48.805709 ], [ 2.240623, 48.80564 ] ] } },
{ "type": "Feature", "properties": { "cls": "sharrow", "highway": "residential", "name": "Avenue Victor Hugo" }, "geometry": { "type": "LineString", "coordinates": [ [ 2.23826, 48.806229 ], [ 2.23835, 48.806253 ] ] } },
{ "type": "Feature", "properties": { "cls": "sharrow", "highway": "residential", "name": "Avenue Victor Hugo" }, "geometry": { "type": "LineString", "coordinates": [ [ 2.236906, 48.806298 ], [ 2.23826, 48.806229 ] ] } },
{ "type": "Feature", "properties": { "cls": "sharrow", "highway": "residential", "name": "Avenue Louvois" }, "geometry": { "type": "LineString", "coordinates": [ [ 2.23835, 48.806253 ], [ 2.238401, 48.806283 ], [ 2.238557, 48.806399 ], [ 2.238666, 48.806479 ] ] } },
{ "type": "Feature", "properties": { "cls": "sharrow", "highway": "residential", "name": "Rue Henri Barbusse" }, "geometry": { "type": "LineString", "coordinates": [ [ 2.241098, 48.806604 ], [ 2.241041, 48.806514 ], [ 2.240913, 48.806262 ] ] } },
{ "type": "Feature", "properties": { "cls": "sharrow", "highway": "residential", "name": "Avenue Louvois" }, "geometry": { "type": "LineString", "coordinates": [ [ 2.238666, 48.806479 ], [ 2.238713, 48.806517 ] ] } },
{ "type": "Feature", "properties": { "cls": "sharrow", "highway": "residential", "name": "Rue Henri Barbusse" }, "geometry": { "type": "LineString", "coordinates": [ [ 2.241183, 48.806736 ], [ 2.241168, 48.806706 ], [ 2.241124, 48.806644 ], [ 2.241098, 48.806604 ] ] } },
{ "type": "Feature", "properties": { "cls": "sharrow", "highway": "residential", "name": "Avenue Louvois" }, "geometry": { "type": "LineString", "coordinates": [ [ 2.238713, 48.806517 ], [ 2.238923, 48.806677 ], [ 2.239436, 48.807071 ] ] } },
{ "type": "Feature", "properties": { "cls": "sharrow", "highway": "residential", "name": "Rue Henri Barbusse" }, "geometry": { "type": "LineString", "coordinates": [ [ 2.241483, 48.807322 ], [ 2.24145, 48.807262 ], [ 2.241438, 48.807237 ], [ 2.241384, 48.807124 ], [ 2.241183, 48.806736 ] ] } },
{ "type": "Feature", "properties": { "cls": "sharrow", "highway": "residential", "name": "Avenue Louvois" }, "geometry": { "type": "LineString", "coordinates": [ [ 2.239436, 48.807071 ], [ 2.239525, 48.807136 ], [ 2.239668, 48.807247 ], [ 2.239701, 48.807273 ], [ 2.239709, 48.807279 ] ] } },
{ "type": "Feature", "properties": { "cls": "sharrow", "highway": "residential", "name": "Place Henri Brousse" }, "geometry": { "type": "LineString", "coordinates": [ [ 2.241567, 48.807496 ], [ 2.241483, 48.807322 ] ] } },
{ "type": "Feature", "properties": { "cls": "sharrow", "highway": "residential", "name": "Avenue Louvois" }, "geometry": { "type": "LineString", "coordinates": [ [ 2.239709, 48.807279 ], [ 2.239728, 48.807294 ], [ 2.240105, 48.807583 ] ] } },
{ "type": "Feature", "properties": { "cls": "sharrow", "highway": "residential", "name": "Avenue Louvois" }, "geometry": { "type": "LineString", "coordinates": [ [ 2.240105, 48.807583 ], [ 2.240568, 48.807934 ] ] } },
{ "type": "Feature", "properties": { "cls": "sharrow", "highway": "residential", "name": "Rue Banès" }, "geometry": { "type": "LineString", "coordinates": [ [ 2.241054, 48.808126 ], [ 2.241085, 48.808107 ], [ 2.24118, 48.808074 ] ] } },
{ "type": "Feature", "properties": { "cls": "sharrow", "highway": "residential", "name": "Rue Banès" }, "geometry": { "type": "LineString", "coordinates": [ [ 2.240343, 48.808184 ], [ 2.240483, 48.80816 ], [ 2.240555, 48.808153 ], [ 2.240601, 48.808146 ], [ 2.240628, 48.808137 ], [ 2.24066, 48.808119 ] ] } },
{ "type": "Feature", "properties": { "cls": "sharrow", "highway": "residential", "name": "Rue Banès" }, "geometry": { "type": "LineString", "coordinates": [ [ 2.240114, 48.808208 ], [ 2.240343, 48.808184 ] ] } },
{ "type": "Feature", "properties": { "cls": "sharrow", "highway": "residential", "name": "Rue Banès" }, "geometry": { "type": "LineString", "coordinates": [ [ 2.239632, 48.808259 ], [ 2.239696, 48.808252 ], [ 2.239905, 48.80823 ], [ 2.240114, 48.808208 ] ] } },
{ "type": "Feature", "properties": { "cls": "sharrow", "highway": "residential", "name": "Avenue Jean Jaurès" }, "geometry": { "type": "LineString", "coordinates": [ [ 2.241102, 48.808169 ], [ 2.241245, 48.808339 ], [ 2.241491, 48.808613 ] ] } },
{ "type": "Feature", "properties": { "cls": "sharrow", "highway": "residential", "name": "Rue Banès" }, "geometry": { "type": "LineString", "coordinates": [ [ 2.241894, 48.807793 ], [ 2.241857, 48.80781 ], [ 2.2418, 48.807842 ] ] } },
{ "type": "Feature", "properties": { "cls": "sharrow", "highway": "residential", "name": "Rue Banès" }, "geometry": { "type": "LineString", "coordinates": [ [ 2.241462, 48.80798 ], [ 2.24152, 48.807961 ], [ 2.241576, 48.807943 ], [ 2.241658, 48.807913 ], [ 2.2418, 48.807842 ] ] } },
{ "type": "Feature", "properties": { "cls": "sharrow", "highway": "living_street", "name": "Sentier des Grimettes" }, "geometry": { "type": "LineString", "coordinates": [ [ 2.242958, 48.80943 ], [ 2.242922, 48.809407 ], [ 2.242373, 48.809043 ], [ 2.242004, 48.808674 ], [ 2.241986, 48.808642 ] ] } },
{ "type": "Feature", "properties": { "cls": "sharrow", "highway": "residential", "name": "Avenue Jean Jaurès" }, "geometry": { "type": "LineString", "coordinates": [ [ 2.241491, 48.808613 ], [ 2.241618, 48.808754 ], [ 2.241865, 48.80903 ], [ 2.242032, 48.80921 ], [ 2.242107, 48.809281 ], [ 2.242256, 48.809406 ], [ 2.242435, 48.809546 ] ] } },
{ "type": "Feature", "properties": { "cls": "sharrow", "highway": "residential", "name": "Avenue Jean Jaurès" }, "geometry": { "type": "LineString", "coordinates": [ [ 2.242435, 48.809546 ], [ 2.242479, 48.809596 ], [ 2.242528, 48.809645 ], [ 2.24259, 48.809698 ], [ 2.242708, 48.809787 ], [ 2.242794, 48.80983 ], [ 2.242857, 48.809868 ] ] } },
{ "type": "Feature", "properties": { "cls": "sharrow", "highway": "residential", "name": "Avenue Jean Jaurès" }, "geometry": { "type": "LineString", "coordinates": [ [ 2.242857, 48.809868 ], [ 2.242906, 48.809897 ], [ 2.243897, 48.810648 ], [ 2.244237, 48.810908 ], [ 2.244558, 48.811167 ], [ 2.2449, 48.811487 ] ] } },
{ "type": "Feature", "properties": { "cls": "sharrow", "highway": "residential", "name": "Avenue Jean Jaurès" }, "geometry": { "type": "LineString", "coordinates": [ [ 2.2449, 48.811487 ], [ 2.245203, 48.811769 ], [ 2.24531, 48.811874 ] ] } },
{ "type": "Feature", "properties": { "cls": "sharrow", "highway": "residential", "name": "Rue de Paris" }, "geometry": { "type": "LineString", "coordinates": [ [ 2.246042, 48.813172 ], [ 2.245488, 48.81313 ], [ 2.245278, 48.813081 ], [ 2.245221, 48.813058 ], [ 2.245196, 48.813036 ], [ 2.244952, 48.812821 ], [ 2.244777, 48.81267 ], [ 2.244557, 48.812479 ], [ 2.244313, 48.812286 ], [ 2.244037, 48.812137 ], [ 2.244001, 48.81212 ], [ 2.243162, 48.811703 ], [ 2.243008, 48.811623 ], [ 2.242915, 48.811574 ], [ 2.24149, 48.811167 ], [ 2.241176, 48.811057 ], [ 2.24111, 48.811023 ], [ 2.240992, 48.810959 ], [ 2.240371, 48.810626 ], [ 2.239764, 48.810309 ], [ 2.2397, 48.810283 ], [ 2.23967, 48.810271 ] ] } },
{ "type": "Feature", "properties": { "cls": "sharrow", "highway": "residential", "name": "Avenue Jean Jaurès" }, "geometry": { "type": "LineString", "coordinates": [ [ 2.24531, 48.811874 ], [ 2.24545, 48.812035 ] ] } },
{ "type": "Feature", "properties": { "cls": "sharrow", "highway": "residential", "name": "Avenue Jean Jaurès" }, "geometry": { "type": "LineString", "coordinates": [ [ 2.24545, 48.812035 ], [ 2.245809, 48.81244 ], [ 2.245848, 48.812486 ], [ 2.245868, 48.812511 ], [ 2.245894, 48.812542 ], [ 2.245994, 48.812658 ], [ 2.246065, 48.812751 ] ] } },
{ "type": "Feature", "properties": { "cls": "painted", "highway": "residential", "name": "Rue du Bois de Fleury" }, "geometry": { "type": "MultiLineString", "coordinates": [ [ [ 2.250436, 48.807932 ], [ 2.25081, 48.808163 ] ], [ [ 2.25081, 48.808163 ], [ 2.251609, 48.808658 ] ], [ [ 2.251609, 48.808658 ], [ 2.251684, 48.808705 ] ], [ [ 2.251684, 48.808705 ], [ 2.252254, 48.809232 ], [ 2.252624, 48.809574 ], [ 2.252661, 48.809597 ] ] ] } },
{ "type": "Feature", "properties": { "cls": "sharrow", "highway": "residential", "name": "Avenue de Rivoli" }, "geometry": { "type": "LineString", "coordinates": [ [ 2.249885, 48.810736 ], [ 2.249954, 48.810708 ], [ 2.250024, 48.81068 ], [ 2.250072, 48.810662 ], [ 2.250924, 48.810338 ], [ 2.251018, 48.810302 ] ] } },
{ "type": "Feature", "properties": { "cls": "sharrow", "highway": "residential", "name": "Rue de la Petite Fontaine" }, "geometry": { "type": "LineString", "coordinates": [ [ 2.251018, 48.810302 ], [ 2.251068, 48.810336 ], [ 2.251118, 48.810371 ], [ 2.251259, 48.810449 ], [ 2.252093, 48.810602 ], [ 2.252208, 48.810916 ], [ 2.252284, 48.811523 ], [ 2.252331, 48.811617 ], [ 2.252667, 48.811878 ], [ 2.253031, 48.812406 ] ] } },
{ "type": "Feature", "properties": { "cls": "sharrow", "highway": "residential", "name": "Rue de la Belgique" }, "geometry": { "type": "LineString", "coordinates": [ [ 2.248845, 48.812934 ], [ 2.248886, 48.81289 ], [ 2.248917, 48.812806 ], [ 2.249042, 48.812274 ], [ 2.249052, 48.812101 ], [ 2.249009, 48.811984 ], [ 2.248946, 48.811887 ], [ 2.248861, 48.811798 ], [ 2.248713, 48.811727 ], [ 2.247988, 48.811525 ], [ 2.24779, 48.81141 ], [ 2.247733, 48.811363 ], [ 2.247503, 48.811131 ], [ 2.247474, 48.811091 ], [ 2.247444, 48.81105 ] ] } },
{ "type": "Feature", "properties": { "cls": "sharrow", "highway": "residential", "name": "Rue de Paris" }, "geometry": { "type": "LineString", "coordinates": [ [ 2.247013, 48.815587 ], [ 2.246781, 48.814766 ] ] } },
{ "type": "Feature", "properties": { "cls": "sharrow", "highway": "residential", "name": "Rue du Docteur Arnaudet" }, "geometry": { "type": "LineString", "coordinates": [ [ 2.247193, 48.815938 ], [ 2.247243, 48.815915 ], [ 2.2473, 48.815865 ], [ 2.247495, 48.815519 ], [ 2.247771, 48.815025 ], [ 2.247782, 48.815005 ], [ 2.247839, 48.814902 ] ] } },
{ "type": "Feature", "properties": { "cls": "sharrow", "highway": "residential", "name": "Rue de Paris" }, "geometry": { "type": "LineString", "coordinates": [ [ 2.247079, 48.815821 ], [ 2.247013, 48.815587 ] ] } },
{ "type": "Feature", "properties": { "cls": "sharrow", "highway": "residential", "name": "Rue de Paris" }, "geometry": { "type": "LineString", "coordinates": [ [ 2.247159, 48.816266 ], [ 2.24708, 48.816185 ], [ 2.247055, 48.816091 ], [ 2.247059, 48.816054 ], [ 2.24705, 48.816022 ] ] } },
{ "type": "Feature", "properties": { "cls": "sharrow", "highway": "residential", "name": "Rue de Paris" }, "geometry": { "type": "LineString", "coordinates": [ [ 2.247172, 48.816024 ], [ 2.247147, 48.816091 ], [ 2.247159, 48.816266 ] ] } },
{ "type": "Feature", "properties": { "cls": "painted", "highway": "residential", "name": "Rue du Bois de Fleury" }, "geometry": { "type": "MultiLineString", "coordinates": [ [ [ 2.252952, 48.809708 ], [ 2.253155, 48.809771 ] ], [ [ 2.253155, 48.809771 ], [ 2.253879, 48.809905 ] ] ] } },
{ "type": "Feature", "properties": { "cls": "painted", "highway": "residential", "name": "Rue du Bois de Fleury" }, "geometry": { "type": "Point", "coordinates": [ 2.255009, 48.810142 ] } },
{ "type": "Feature", "properties": { "cls": "sharrow", "highway": "residential", "name": "Rue de Paris" }, "geometry": { "type": "LineString", "coordinates": [ [ 2.247711, 48.816705 ], [ 2.247608, 48.81664 ], [ 2.247563, 48.816611 ], [ 2.247531, 48.816591 ], [ 2.247397, 48.816509 ], [ 2.247277, 48.816399 ], [ 2.247159, 48.816266 ] ] } },
{ "type": "Feature", "properties": { "cls": "sharrow", "highway": "residential", "name": "Rue de Paris" }, "geometry": { "type": "LineString", "coordinates": [ [ 2.248744, 48.817494 ], [ 2.248628, 48.817364 ], [ 2.248573, 48.817318 ], [ 2.248499, 48.81723 ], [ 2.248401, 48.817145 ], [ 2.248091, 48.816941 ], [ 2.247825, 48.816776 ], [ 2.247793, 48.816756 ], [ 2.247711, 48.816705 ] ] } },
{ "type": "Feature", "properties": { "cls": "sharrow", "highway": "residential", "name": "Rue de Paris" }, "geometry": { "type": "LineString", "coordinates": [ [ 2.248744, 48.817494 ], [ 2.248892, 48.817629 ], [ 2.248917, 48.817659 ], [ 2.248925, 48.81767 ], [ 2.248956, 48.817715 ] ] } },
{ "type": "Feature", "properties": { "cls": "sharrow", "highway": "residential", "name": "Rue de Paris" }, "geometry": { "type": "LineString", "coordinates": [ [ 2.248807, 48.817728 ], [ 2.248797, 48.817675 ], [ 2.248792, 48.817648 ], [ 2.248744, 48.817494 ] ] } },
{ "type": "Feature", "properties": { "cls": "separated", "highway": "cycleway", "name": null }, "geometry": { "type": "LineString", "coordinates": [ [ 2.24878, 48.817966 ], [ 2.248737, 48.817937 ], [ 2.248678, 48.817879 ], [ 2.248649, 48.817817 ] ] } },
{ "type": "Feature", "properties": { "cls": "separated", "highway": "cycleway", "name": "Avenue de Verdun" }, "geometry": { "type": "LineString", "coordinates": [ [ 2.245057, 48.818674 ], [ 2.24492, 48.818695 ], [ 2.244868, 48.818707 ] ] } },
{ "type": "Feature", "properties": { "cls": "sharrow", "highway": "residential", "name": "Boulevard Anatole France" }, "geometry": { "type": "LineString", "coordinates": [ [ 2.242584, 48.816978 ], [ 2.242531, 48.817014 ] ] } },
{ "type": "Feature", "properties": { "cls": "sharrow", "highway": "residential", "name": "Rue des Montalets" }, "geometry": { "type": "LineString", "coordinates": [ [ 2.245798, 48.816845 ], [ 2.244713, 48.817205 ], [ 2.244401, 48.817311 ], [ 2.244325, 48.817345 ], [ 2.244277, 48.81741 ], [ 2.244268, 48.817489 ], [ 2.244334, 48.817588 ] ] } },
{ "type": "Feature", "properties": { "cls": "sharrow", "highway": "residential", "name": "Boulevard Anatole France" }, "geometry": { "type": "LineString", "coordinates": [ [ 2.242531, 48.817014 ], [ 2.241778, 48.817469 ], [ 2.241713, 48.817508 ] ] } },
{ "type": "Feature", "properties": { "cls": "separated", "highway": "cycleway", "name": "Avenue de Verdun" }, "geometry": { "type": "LineString", "coordinates": [ [ 2.242524, 48.819002 ], [ 2.242551, 48.818991 ], [ 2.242623, 48.818948 ], [ 2.242734, 48.818957 ], [ 2.242798, 48.818945 ], [ 2.24368, 48.818787 ], [ 2.243826, 48.818762 ], [ 2.245102, 48.818528 ], [ 2.245109, 48.818527 ], [ 2.245738, 48.818414 ], [ 2.245849, 48.818394 ], [ 2.246129, 48.818334 ], [ 2.246225, 48.818317 ], [ 2.24732, 48.818098 ], [ 2.248212, 48.817928 ], [ 2.248609, 48.817827 ], [ 2.248649, 48.817817 ], [ 2.248654, 48.817789 ], [ 2.248728, 48.817695 ], [ 2.248753, 48.817684 ], [ 2.248797, 48.817675 ], [ 2.248917, 48.817659 ], [ 2.249012, 48.817646 ], [ 2.249101, 48.817684 ], [ 2.249189, 48.817739 ], [ 2.249214, 48.817756 ], [ 2.249238, 48.817765 ], [ 2.24928, 48.817787 ] ] } },
{ "type": "Feature", "properties": { "cls": "painted", "highway": "secondary", "name": "Route des Gardes" }, "geometry": { "type": "LineString", "coordinates": [ [ 2.241114, 48.818798 ], [ 2.241696, 48.81888 ], [ 2.242309, 48.818966 ], [ 2.242349, 48.818972 ], [ 2.242429, 48.818983 ], [ 2.242489, 48.818994 ], [ 2.242524, 48.819002 ], [ 2.242566, 48.819019 ] ] } },
{ "type": "Feature", "properties": { "cls": "sharrow", "highway": "unclassified", "name": "Carrefour de la Mare Adam" }, "geometry": { "type": "LineString", "coordinates": [ [ 2.208904, 48.800547 ], [ 2.208954, 48.800564 ], [ 2.209053, 48.800621 ], [ 2.209071, 48.800631 ], [ 2.209142, 48.800725 ], [ 2.209157, 48.800814 ], [ 2.209112, 48.800923 ], [ 2.208979, 48.801023 ], [ 2.208852, 48.801064 ], [ 2.208651, 48.801065 ], [ 2.208513, 48.801026 ], [ 2.208409, 48.80096 ], [ 2.208347, 48.80088 ], [ 2.208329, 48.800811 ], [ 2.20834, 48.800744 ], [ 2.208372, 48.800676 ] ] } },
{ "type": "Feature", "properties": { "cls": "advisory", "highway": "unclassified", "name": "Route de la Mare Adam" }, "geometry": { "type": "LineString", "coordinates": [ [ 2.204955, 48.802202 ], [ 2.205028, 48.802176 ], [ 2.208409, 48.80096 ] ] } },
{ "type": "Feature", "properties": { "cls": "painted", "highway": "unclassified", "name": "Carrefour de l'Étoile du Pavé de Meudon" }, "geometry": { "type": "LineString", "coordinates": [ [ 2.204705, 48.802036 ], [ 2.204868, 48.802117 ], [ 2.204955, 48.802202 ], [ 2.204982, 48.802244 ], [ 2.205019, 48.802381 ], [ 2.205017, 48.802436 ], [ 2.204996, 48.802508 ], [ 2.204953, 48.802578 ], [ 2.204907, 48.802623 ], [ 2.204794, 48.802693 ] ] } },
{ "type": "Feature", "properties": { "cls": "painted", "highway": "unclassified", "name": "Carrefour de l'Étoile du Pavé de Meudon" }, "geometry": { "type": "LineString", "coordinates": [ [ 2.204794, 48.802693 ], [ 2.204713, 48.80273 ], [ 2.204582, 48.802766 ], [ 2.204466, 48.802777 ] ] } },
{ "type": "Feature", "properties": { "cls": "advisory", "highway": "unclassified", "name": "Route des Bois Blancs" }, "geometry": { "type": "LineString", "coordinates": [ [ 2.205875, 48.808526 ], [ 2.205729, 48.807899 ], [ 2.20538, 48.806307 ], [ 2.205336, 48.80613 ], [ 2.204996, 48.80464 ], [ 2.204658, 48.803111 ], [ 2.204614, 48.802909 ], [ 2.204582, 48.802766 ] ] } },
{ "type": "Feature", "properties": { "cls": "painted", "highway": "unclassified", "name": "Route des Bois Blancs" }, "geometry": { "type": "LineString", "coordinates": [ [ 2.205928, 48.808889 ], [ 2.205886, 48.808575 ], [ 2.205875, 48.808526 ] ] } },
{ "type": "Feature", "properties": { "cls": "painted", "highway": "unclassified", "name": "Route des Bois Blancs" }, "geometry": { "type": "LineString", "coordinates": [ [ 2.205759, 48.809129 ], [ 2.205772, 48.809103 ], [ 2.205777, 48.809095 ], [ 2.205824, 48.809039 ], [ 2.205844, 48.809004 ], [ 2.205928, 48.808889 ] ] } },
{ "type": "Feature", "properties": { "cls": "painted", "highway": "secondary", "name": "Route du Pavé des Gardes" }, "geometry": { "type": "LineString", "coordinates": [ [ 2.205618, 48.809164 ], [ 2.205651, 48.809143 ], [ 2.205684, 48.809131 ], [ 2.205759, 48.809129 ] ] } },
{ "type": "Feature", "properties": { "cls": "painted", "highway": "secondary", "name": "Route du Pavé des Gardes" }, "geometry": { "type": "LineString", "coordinates": [ [ 2.205759, 48.809129 ], [ 2.205794, 48.809136 ], [ 2.205844, 48.809166 ], [ 2.205864, 48.809195 ], [ 2.205867, 48.809224 ] ] } },
{ "type": "Feature", "properties": { "cls": "painted", "highway": "secondary", "name": "Route du Pavé des Gardes" }, "geometry": { "type": "LineString", "coordinates": [ [ 2.205606, 48.809177 ], [ 2.205618, 48.809164 ] ] } },
{ "type": "Feature", "properties": { "cls": "separated", "highway": "cycleway", "name": null }, "geometry": { "type": "LineString", "coordinates": [ [ 2.205867, 48.809224 ], [ 2.206055, 48.809279 ] ] } },
{ "type": "Feature", "properties": { "cls": "advisory", "highway": "unclassified", "name": "Route de la Mare Adam" }, "geometry": { "type": "LineString", "coordinates": [ [ 2.209142, 48.800725 ], [ 2.212325, 48.800393 ], [ 2.213276, 48.80028 ], [ 2.213947, 48.80021 ], [ 2.214775, 48.800121 ], [ 2.215471, 48.800046 ], [ 2.215522, 48.799999 ], [ 2.215569, 48.799884 ], [ 2.215587, 48.799757 ] ] } },
{ "type": "Feature", "properties": { "cls": "advisory", "highway": "unclassified", "name": "Route Royale" }, "geometry": { "type": "LineString", "coordinates": [ [ 2.21616, 48.800079 ], [ 2.216184, 48.800208 ], [ 2.216342, 48.800412 ], [ 2.217853, 48.802008 ], [ 2.219473, 48.803692 ], [ 2.220246, 48.804478 ], [ 2.222353, 48.806643 ], [ 2.222651, 48.806974 ], [ 2.223867, 48.808227 ], [ 2.22494, 48.809369 ], [ 2.225309, 48.809733 ], [ 2.225337, 48.809766 ], [ 2.225414, 48.809813 ] ] } },
{ "type": "Feature", "properties": { "cls": "separated", "highway": "cycleway", "name": null }, "geometry": { "type": "LineString", "coordinates": [ [ 2.215471, 48.800046 ], [ 2.215541, 48.800123 ], [ 2.215165, 48.801044 ], [ 2.214603, 48.802198 ], [ 2.213692, 48.803967 ], [ 2.213389, 48.804571 ], [ 2.212235, 48.806853 ], [ 2.212026, 48.80742 ], [ 2.211828, 48.808339 ], [ 2.211792, 48.808791 ], [ 2.211826, 48.809346 ], [ 2.211901, 48.809849 ], [ 2.21203, 48.810132 ], [ 2.212072, 48.810282 ], [ 2.212062, 48.810435 ], [ 2.21195, 48.810644 ], [ 2.211515, 48.811183 ], [ 2.211498, 48.811206 ], [ 2.211385, 48.811302 ], [ 2.2113, 48.811369 ], [ 2.211215, 48.811399 ] ] } },
{ "type": "Feature", "properties": { "cls": "separated", "highway": "footway", "name": null }, "geometry": { "type": "LineString", "coordinates": [ [ 2.211515, 48.811183 ], [ 2.211595, 48.811203 ], [ 2.211658, 48.811219 ], [ 2.211764, 48.811242 ] ] } },
{ "type": "Feature", "properties": { "cls": "separated", "highway": "footway", "name": null }, "geometry": { "type": "LineString", "coordinates": [ [ 2.21126, 48.811537 ], [ 2.211256, 48.81148 ], [ 2.211233, 48.811429 ], [ 2.211215, 48.811399 ] ] } },
{ "type": "Feature", "properties": { "cls": "painted", "highway": "secondary", "name": "Route du Pavé des Gardes" }, "geometry": { "type": "LineString", "coordinates": [ [ 2.21141, 48.811582 ], [ 2.211391, 48.81158 ] ] } },
{ "type": "Feature", "properties": { "cls": "sharrow", "highway": "tertiary", "name": "Rue des Bruyères" }, "geometry": { "type": "LineString", "coordinates": [ [ 2.214618, 48.812421 ], [ 2.214627, 48.81238 ], [ 2.214633, 48.812352 ], [ 2.214635, 48.812331 ], [ 2.214638, 48.812292 ], [ 2.214624, 48.812189 ] ] } },
{ "type": "Feature", "properties": { "cls": "sharrow", "highway": "tertiary", "name": "Rue des Bruyères" }, "geometry": { "type": "LineString", "coordinates": [ [ 2.214648, 48.812429 ], [ 2.214698, 48.812379 ], [ 2.214716, 48.81236 ], [ 2.214794, 48.812278 ] ] } },
{ "type": "Feature", "properties": { "cls": "sharrow", "highway": "tertiary", "name": "Rue des Bruyères" }, "geometry": { "type": "LineString", "coordinates": [ [ 2.214905, 48.812341 ], [ 2.214833, 48.812405 ], [ 2.214763, 48.812461 ] ] } },
{ "type": "Feature", "properties": { "cls": "painted", "highway": "secondary", "name": "Route du Pavé des Gardes" }, "geometry": { "type": "LineString", "coordinates": [ [ 2.205867, 48.809224 ], [ 2.205855, 48.809255 ], [ 2.205836, 48.809273 ] ] } },
{ "type": "Feature", "properties": { "cls": "separated", "highway": "cycleway", "name": null }, "geometry": { "type": "LineString", "coordinates": [ [ 2.206055, 48.809279 ], [ 2.206463, 48.809472 ], [ 2.207379, 48.809899 ], [ 2.207565, 48.81001 ], [ 2.207773, 48.810137 ], [ 2.20807, 48.810274 ], [ 2.208617, 48.810525 ], [ 2.208791, 48.810605 ], [ 2.208893, 48.810648 ], [ 2.209061, 48.810721 ] ] } },
{ "type": "Feature", "properties": { "cls": "separated", "highway": "cycleway", "name": null }, "geometry": { "type": "LineString", "coordinates": [ [ 2.209197, 48.810775 ], [ 2.209519, 48.810892 ] ] } },
{ "type": "Feature", "properties": { "cls": "separated", "highway": "cycleway", "name": null }, "geometry": { "type": "LineString", "coordinates": [ [ 2.209519, 48.810892 ], [ 2.210102, 48.811105 ], [ 2.210208, 48.811142 ], [ 2.210429, 48.811227 ], [ 2.210631, 48.811306 ], [ 2.21083, 48.811374 ], [ 2.210945, 48.811399 ], [ 2.211115, 48.811405 ], [ 2.211215, 48.811399 ] ] } },
{ "type": "Feature", "properties": { "cls": "sharrow", "highway": "residential", "name": "Rue des Coutures" }, "geometry": { "type": "Point", "coordinates": [ 2.219498, 48.816599 ] } },
{ "type": "Feature", "properties": { "cls": "shared", "highway": "path", "name": "Sentier Louis Blanc" }, "geometry": { "type": "LineString", "coordinates": [ [ 2.229801, 48.819082 ], [ 2.22969, 48.819097 ] ] } },
{ "type": "Feature", "properties": { "cls": "sharrow", "highway": "secondary", "name": "Avenue du Général Gallieni" }, "geometry": { "type": "LineString", "coordinates": [ [ 2.229382, 48.819186 ], [ 2.229353, 48.819305 ], [ 2.229333, 48.81939 ], [ 2.229202, 48.819942 ], [ 2.229167, 48.820042 ], [ 2.229139, 48.820102 ], [ 2.229085, 48.820166 ], [ 2.228986, 48.820239 ], [ 2.228942, 48.820268 ] ] } },
{ "type": "Feature", "properties": { "cls": "shared", "highway": "path", "name": "Sentier Crèvecœur" }, "geometry": { "type": "LineString", "coordinates": [ [ 2.223919, 48.820612 ], [ 2.225039, 48.820363 ], [ 2.225212, 48.820304 ] ] } },
{ "type": "Feature", "properties": { "cls": "sharrow", "highway": "secondary", "name": "Rue Marcel Allégot" }, "geometry": { "type": "LineString", "coordinates": [ [ 2.227175, 48.821476 ], [ 2.22724, 48.821436 ], [ 2.227307, 48.82139 ], [ 2.227413, 48.821317 ], [ 2.227649, 48.821155 ], [ 2.227698, 48.82112 ], [ 2.22804, 48.820882 ], [ 2.228108, 48.820836 ], [ 2.228895, 48.820298 ], [ 2.228942, 48.820268 ] ] } },
{ "type": "Feature", "properties": { "cls": "sharrow", "highway": "secondary", "name": "Rue Marcel Allégot" }, "geometry": { "type": "LineString", "coordinates": [ [ 2.225651, 48.822524 ], [ 2.226264, 48.822104 ], [ 2.22712, 48.821512 ], [ 2.227175, 48.821476 ] ] } },
{ "type": "Feature", "properties": { "cls": "shared", "highway": "path", "name": null }, "geometry": { "type": "LineString", "coordinates": [ [ 2.231998, 48.822243 ], [ 2.232026, 48.822269 ], [ 2.232043, 48.822286 ] ] } },
{ "type": "Feature", "properties": { "cls": "sharrow", "highway": "secondary", "name": "Rue Marcel Allégot" }, "geometry": { "type": "LineString", "coordinates": [ [ 2.225415, 48.822702 ], [ 2.225651, 48.822524 ] ] } },
{ "type": "Feature", "properties": { "cls": "sharrow", "highway": "secondary", "name": "Avenue de la Division Leclerc" }, "geometry": { "type": "LineString", "coordinates": [ [ 2.22512, 48.822888 ], [ 2.22515, 48.822867 ], [ 2.22524, 48.822811 ], [ 2.225315, 48.822766 ], [ 2.225415, 48.822702 ] ] } },
{ "type": "Feature", "properties": { "cls": "sharrow", "highway": "residential", "name": "Rue Banès" }, "geometry": { "type": "LineString", "coordinates": [ [ 2.238527, 48.808549 ], [ 2.238587, 48.808528 ], [ 2.238988, 48.808404 ], [ 2.239416, 48.808286 ], [ 2.239632, 48.808259 ] ] } },
{ "type": "Feature", "properties": { "cls": "sharrow", "highway": "residential", "name": "Rue de Paris" }, "geometry": { "type": "LineString", "coordinates": [ [ 2.238989, 48.809085 ], [ 2.238981, 48.809041 ], [ 2.238964, 48.809018 ] ] } },
{ "type": "Feature", "properties": { "cls": "sharrow", "highway": "residential", "name": "Rue de Paris" }, "geometry": { "type": "LineString", "coordinates": [ [ 2.239059, 48.809491 ], [ 2.239048, 48.809426 ], [ 2.238989, 48.809085 ] ] } },
{ "type": "Feature", "properties": { "cls": "sharrow", "highway": "residential", "name": "Rue de Paris" }, "geometry": { "type": "LineString", "coordinates": [ [ 2.23967, 48.810271 ], [ 2.239526, 48.810178 ] ] } },
{ "type": "Feature", "properties": { "cls": "sharrow", "highway": "residential", "name": "Rue des Châtelaines" }, "geometry": { "type": "LineString", "coordinates": [ [ 2.238144, 48.812128 ], [ 2.238311, 48.812157 ], [ 2.238924, 48.81226 ], [ 2.239588, 48.812269 ], [ 2.239696, 48.812268 ] ] } },
{ "type": "Feature", "properties": { "cls": "sharrow", "highway": "living_street", "name": "Rue du Ponceau" }, "geometry": { "type": "LineString", "coordinates": [ [ 2.237266, 48.812684 ], [ 2.237488, 48.81264 ], [ 2.237649, 48.812573 ], [ 2.237886, 48.812465 ] ] } },
{ "type": "Feature", "properties": { "cls": "sharrow", "highway": "residential", "name": "Avenue de la Paix" }, "geometry": { "type": "LineString", "coordinates": [ [ 2.237266, 48.812684 ], [ 2.237914, 48.813419 ], [ 2.238214, 48.813759 ] ] } },
{ "type": "Feature", "properties": { "cls": "sharrow", "highway": "residential", "name": "Rue Claude Dalsème" }, "geometry": { "type": "LineString", "coordinates": [ [ 2.24031, 48.813076 ], [ 2.240328, 48.813129 ], [ 2.240334, 48.813191 ], [ 2.240555, 48.813585 ], [ 2.241118, 48.814502 ], [ 2.241129, 48.814551 ], [ 2.241125, 48.814568 ], [ 2.241124, 48.81461 ] ] } },
{ "type": "Feature", "properties": { "cls": "sharrow", "highway": "living_street", "name": "Rue des Bigots" }, "geometry": { "type": "LineString", "coordinates": [ [ 2.238214, 48.813759 ], [ 2.238113, 48.81385 ], [ 2.237828, 48.814072 ], [ 2.237563, 48.81415 ], [ 2.237482, 48.814174 ] ] } },
{ "type": "Feature", "properties": { "cls": "sharrow", "highway": "residential", "name": "Rue des Galons" }, "geometry": { "type": "LineString", "coordinates": [ [ 2.240016, 48.814951 ], [ 2.24094, 48.814665 ], [ 2.241124, 48.81461 ], [ 2.241203, 48.814586 ], [ 2.241751, 48.814465 ], [ 2.241873, 48.814451 ], [ 2.242303, 48.814373 ], [ 2.242373, 48.814344 ], [ 2.242409, 48.814318 ] ] } },
{ "type": "Feature", "properties": { "cls": "sharrow", "highway": "residential", "name": "Avenue de la Paix" }, "geometry": { "type": "LineString", "coordinates": [ [ 2.237, 48.812347 ], [ 2.237266, 48.812684 ] ] } },
{ "type": "Feature", "properties": { "cls": "sharrow", "highway": "residential", "name": "Rue des Mouchettes" }, "geometry": { "type": "LineString", "coordinates": [ [ 2.236032, 48.813 ], [ 2.23617, 48.81296 ], [ 2.236685, 48.812819 ], [ 2.236736, 48.812804 ], [ 2.23678, 48.812794 ], [ 2.237266, 48.812684 ] ] } },
{ "type": "Feature", "properties": { "cls": "sharrow", "highway": "residential", "name": "Rue Valentine" }, "geometry": { "type": "LineString", "coordinates": [ [ 2.235717, 48.813117 ], [ 2.235875, 48.81306 ], [ 2.236032, 48.813 ] ] } },
{ "type": "Feature", "properties": { "cls": "sharrow", "highway": "residential", "name": "Rue Valentine" }, "geometry": { "type": "LineString", "coordinates": [ [ 2.234932, 48.813413 ], [ 2.235272, 48.813285 ], [ 2.235717, 48.813117 ] ] } },
{ "type": "Feature", "properties": { "cls": "sharrow", "highway": "secondary", "name": "Boulevard des Nations Unies" }, "geometry": { "type": "LineString", "coordinates": [ [ 2.234705, 48.814497 ], [ 2.235157, 48.813993 ], [ 2.23518, 48.813967 ], [ 2.23522, 48.813916 ], [ 2.235417, 48.813682 ], [ 2.235446, 48.813649 ], [ 2.235482, 48.813609 ], [ 2.235808, 48.813241 ], [ 2.236032, 48.813 ], [ 2.236558, 48.812397 ] ] } },
{ "type": "Feature", "properties": { "cls": "sharrow", "highway": "residential", "name": "Rue des Longs Réages" }, "geometry": { "type": "LineString", "coordinates": [ [ 2.237482, 48.814174 ], [ 2.236939, 48.813263 ], [ 2.236723, 48.812872 ], [ 2.236685, 48.812819 ] ] } },
{ "type": "Feature", "properties": { "cls": "sharrow", "highway": "residential", "name": "Rue Valentine" }, "geometry": { "type": "LineString", "coordinates": [ [ 2.233572, 48.813432 ], [ 2.233641, 48.813447 ], [ 2.233944, 48.813538 ], [ 2.234091, 48.813548 ], [ 2.234932, 48.813413 ] ] } },
{ "type": "Feature", "properties": { "cls": "sharrow", "highway": "residential", "name": "Rue Lucien Feuchot" }, "geometry": { "type": "LineString", "coordinates": [ [ 2.233612, 48.813591 ], [ 2.233569, 48.813602 ], [ 2.233507, 48.813641 ], [ 2.233479, 48.813768 ], [ 2.233493, 48.813971 ], [ 2.233518, 48.814334 ], [ 2.23344, 48.814682 ], [ 2.233411, 48.814837 ] ] } },
{ "type": "Feature", "properties": { "cls": "sharrow", "highway": "secondary", "name": "Boulevard des Nations Unies" }, "geometry": { "type": "LineString", "coordinates": [ [ 2.234581, 48.814578 ], [ 2.234705, 48.814497 ] ] } },
{ "type": "Feature", "properties": { "cls": "sharrow", "highway": "secondary", "name": "Boulevard Verd de Saint-Julien" }, "geometry": { "type": "LineString", "coordinates": [ [ 2.234705, 48.814497 ], [ 2.234651, 48.814607 ] ] } },
{ "type": "Feature", "properties": { "cls": "sharrow", "highway": "residential", "name": "Avenue Jean Jaurès" }, "geometry": { "type": "LineString", "coordinates": [ [ 2.246065, 48.812751 ], [ 2.246161, 48.812874 ] ] } },
{ "type": "Feature", "properties": { "cls": "sharrow", "highway": "residential", "name": "Avenue Jean Jaurès" }, "geometry": { "type": "LineString", "coordinates": [ [ 2.246161, 48.812874 ], [ 2.246311, 48.813068 ], [ 2.24631, 48.813098 ], [ 2.246309, 48.813128 ] ] } },
{ "type": "Feature", "properties": { "cls": "sharrow", "highway": "residential", "name": "Rue de Paris" }, "geometry": { "type": "LineString", "coordinates": [ [ 2.246206, 48.813192 ], [ 2.246125, 48.813178 ], [ 2.246042, 48.813172 ] ] } },
{ "type": "Feature", "properties": { "cls": "sharrow", "highway": "residential", "name": "Rue des Galons" }, "geometry": { "type": "LineString", "coordinates": [ [ 2.246042, 48.813172 ], [ 2.246011, 48.813227 ], [ 2.245983, 48.813245 ], [ 2.245455, 48.813415 ], [ 2.244872, 48.813599 ] ] } },
{ "type": "Feature", "properties": { "cls": "sharrow", "highway": "residential", "name": "Rue des Galons" }, "geometry": { "type": "LineString", "coordinates": [ [ 2.244872, 48.813599 ], [ 2.244729, 48.813644 ] ] } },
{ "type": "Feature", "properties": { "cls": "sharrow", "highway": "residential", "name": "Rue des Galons" }, "geometry": { "type": "LineString", "coordinates": [ [ 2.244729, 48.813644 ], [ 2.244163, 48.813823 ], [ 2.243509, 48.814025 ] ] } },
{ "type": "Feature", "properties": { "cls": "sharrow", "highway": "residential", "name": "Rue de l'Arrivée" }, "geometry": { "type": "LineString", "coordinates": [ [ 2.242409, 48.814318 ], [ 2.242413, 48.814303 ], [ 2.242418, 48.814282 ], [ 2.241971, 48.813685 ], [ 2.241963, 48.813657 ], [ 2.241965, 48.813626 ] ] } },
{ "type": "Feature", "properties": { "cls": "sharrow", "highway": "residential", "name": "Rue de Paris" }, "geometry": { "type": "LineString", "coordinates": [ [ 2.246783, 48.814583 ], [ 2.246762, 48.814357 ], [ 2.246685, 48.814104 ] ] } },
{ "type": "Feature", "properties": { "cls": "sharrow", "highway": "residential", "name": "Rue de l'Amiral Martin" }, "geometry": { "type": "LineString", "coordinates": [ [ 2.243679, 48.814367 ], [ 2.243566, 48.814395 ], [ 2.243179, 48.814485 ], [ 2.242765, 48.814588 ], [ 2.242567, 48.814638 ], [ 2.242545, 48.814658 ], [ 2.242522, 48.81467 ] ] } },
{ "type": "Feature", "properties": { "cls": "sharrow", "highway": "residential", "name": "Rue de Paris" }, "geometry": { "type": "LineString", "coordinates": [ [ 2.246781, 48.814766 ], [ 2.246783, 48.814583 ] ] } },
{ "type": "Feature", "properties": { "cls": "painted", "highway": "residential", "name": "Rue Alexandre Guilmant" }, "geometry": { "type": "LineString", "coordinates": [ [ 2.241286, 48.814987 ], [ 2.241334, 48.814975 ], [ 2.24137, 48.814968 ], [ 2.241423, 48.814968 ], [ 2.241477, 48.814956 ], [ 2.242522, 48.81467 ] ] } },
{ "type": "Feature", "properties": { "cls": "sharrow", "highway": "residential", "name": "Rue des Sorrières" }, "geometry": { "type": "LineString", "coordinates": [ [ 2.243793, 48.814407 ], [ 2.243757, 48.814465 ], [ 2.243763, 48.8145 ], [ 2.243798, 48.814556 ], [ 2.244254, 48.815035 ], [ 2.244469, 48.815373 ], [ 2.244554, 48.815542 ] ] } },
{ "type": "Feature", "properties": { "cls": "sharrow", "highway": "residential", "name": "Rue des Lampes" }, "geometry": { "type": "LineString", "coordinates": [ [ 2.245722, 48.815282 ], [ 2.245613, 48.815084 ], [ 2.245596, 48.815028 ], [ 2.245605, 48.81501 ], [ 2.245623, 48.814983 ] ] } },
{ "type": "Feature", "properties": { "cls": "painted", "highway": "residential", "name": "Boulevard Anatole France" }, "geometry": { "type": "LineString", "coordinates": [ [ 2.242522, 48.81467 ], [ 2.242558, 48.814724 ], [ 2.242736, 48.815024 ], [ 2.242782, 48.81512 ], [ 2.243237, 48.815981 ], [ 2.243413, 48.816328 ], [ 2.243435, 48.816416 ] ] } },
{ "type": "Feature", "properties": { "cls": "sharrow", "highway": "residential", "name": "Rue Hédouin" }, "geometry": { "type": "LineString", "coordinates": [ [ 2.243435, 48.816416 ], [ 2.243323, 48.816365 ], [ 2.24305, 48.81626 ], [ 2.242992, 48.816245 ], [ 2.242948, 48.816237 ], [ 2.24289, 48.816234 ], [ 2.242849, 48.816234 ], [ 2.24275, 48.816246 ], [ 2.242645, 48.816266 ], [ 2.242478, 48.816306 ], [ 2.242402, 48.81631 ], [ 2.242321, 48.816304 ], [ 2.242254, 48.816292 ], [ 2.24214, 48.816237 ], [ 2.242055, 48.816183 ], [ 2.24202, 48.816157 ], [ 2.241523, 48.815434 ], [ 2.241348, 48.815135 ] ] } },
{ "type": "Feature", "properties": { "cls": "sharrow", "highway": "residential", "name": "Rue des Sorrières" }, "geometry": { "type": "LineString", "coordinates": [ [ 2.244554, 48.815542 ], [ 2.244653, 48.815715 ], [ 2.244728, 48.815908 ], [ 2.244757, 48.816071 ], [ 2.244757, 48.816155 ], [ 2.244712, 48.816241 ], [ 2.244528, 48.816386 ], [ 2.244496, 48.81641 ] ] } },
{ "type": "Feature", "properties": { "cls": "sharrow", "highway": "residential", "name": "Rue des Lampes" }, "geometry": { "type": "LineString", "coordinates": [ [ 2.245861, 48.816699 ], [ 2.245863, 48.81664 ], [ 2.245882, 48.815982 ], [ 2.245784, 48.81542 ], [ 2.245722, 48.815282 ] ] } },
{ "type": "Feature", "properties": { "cls": "sharrow", "highway": "residential", "name": "Rue des Montalets" }, "geometry": { "type": "LineString", "coordinates": [ [ 2.244496, 48.81641 ], [ 2.244557, 48.816459 ], [ 2.244673, 48.816552 ], [ 2.244813, 48.816617 ], [ 2.244963, 48.816645 ], [ 2.245643, 48.816688 ], [ 2.245861, 48.816699 ] ] } },
{ "type": "Feature", "properties": { "cls": "sharrow", "highway": "residential", "name": "Boulevard Anatole France" }, "geometry": { "type": "LineString", "coordinates": [ [ 2.243435, 48.816416 ], [ 2.243374, 48.816463 ], [ 2.242584, 48.816978 ] ] } },
{ "type": "Feature", "properties": { "cls": "sharrow", "highway": "residential", "name": "Rue des Lampes" }, "geometry": { "type": "LineString", "coordinates": [ [ 2.245861, 48.816699 ], [ 2.245846, 48.816779 ], [ 2.245798, 48.816845 ] ] } },
{ "type": "Feature", "properties": { "cls": "sharrow", "highway": "living_street", "name": "Rue des Bigots" }, "geometry": { "type": "LineString", "coordinates": [ [ 2.237482, 48.814174 ], [ 2.23744, 48.814184 ], [ 2.236875, 48.814318 ], [ 2.236667, 48.814424 ], [ 2.236426, 48.814547 ], [ 2.236147, 48.814653 ], [ 2.23585, 48.814743 ], [ 2.235424, 48.81488 ], [ 2.235228, 48.814944 ], [ 2.234751, 48.815065 ], [ 2.2347, 48.815078 ] ] } },
{ "type": "Feature", "properties": { "cls": "sharrow", "highway": "secondary", "name": "Boulevard des Nations Unies" }, "geometry": { "type": "LineString", "coordinates": [ [ 2.234288, 48.814842 ], [ 2.234429, 48.814724 ], [ 2.234532, 48.814627 ], [ 2.234581, 48.814578 ] ] } },
{ "type": "Feature", "properties": { "cls": "sharrow", "highway": "secondary", "name": "Boulevard Verd de Saint-Julien" }, "geometry": { "type": "LineString", "coordinates": [ [ 2.234651, 48.814607 ], [ 2.234591, 48.814681 ], [ 2.234519, 48.814753 ], [ 2.234347, 48.814879 ] ] } },
{ "type": "Feature", "properties": { "cls": "sharrow", "highway": "secondary", "name": "Boulevard des Nations Unies" }, "geometry": { "type": "LineString", "coordinates": [ [ 2.234241, 48.814921 ], [ 2.234288, 48.814842 ] ] } },
{ "type": "Feature", "properties": { "cls": "sharrow", "highway": "secondary", "name": "Boulevard Verd de Saint-Julien" }, "geometry": { "type": "LineString", "coordinates": [ [ 2.234347, 48.814879 ], [ 2.234241, 48.814921 ] ] } },
{ "type": "Feature", "properties": { "cls": "sharrow", "highway": "residential", "name": "Rue Lucien Feuchot" }, "geometry": { "type": "LineString", "coordinates": [ [ 2.233411, 48.814837 ], [ 2.23335, 48.815122 ], [ 2.233412, 48.815358 ], [ 2.23345, 48.815407 ], [ 2.233509, 48.815444 ] ] } },
{ "type": "Feature", "properties": { "cls": "sharrow", "highway": "living_street", "name": "Sentier des Buats" }, "geometry": { "type": "LineString", "coordinates": [ [ 2.238168, 48.815332 ], [ 2.237998, 48.81537 ], [ 2.237536, 48.815435 ], [ 2.237202, 48.815502 ], [ 2.236963, 48.815587 ], [ 2.236612, 48.815711 ], [ 2.235235, 48.815934 ], [ 2.235214, 48.815937 ], [ 2.235184, 48.815945 ] ] } },
{ "type": "Feature", "properties": { "cls": "sharrow", "highway": "residential", "name": "Rue des Galons" }, "geometry": { "type": "LineString", "coordinates": [ [ 2.235402, 48.816601 ], [ 2.235463, 48.81658 ], [ 2.235835, 48.816449 ], [ 2.238216, 48.815605 ], [ 2.238237, 48.815598 ], [ 2.238316, 48.815569 ], [ 2.238398, 48.81554 ], [ 2.238425, 48.815529 ] ] } },
{ "type": "Feature", "properties": { "cls": "sharrow", "highway": "residential", "name": "Rue Alexandre Guilmant" }, "geometry": { "type": "LineString", "coordinates": [ [ 2.238108, 48.816058 ], [ 2.23802, 48.816086 ], [ 2.237172, 48.816399 ], [ 2.23661, 48.816599 ], [ 2.236565, 48.816614 ], [ 2.236156, 48.816751 ], [ 2.235718, 48.816899 ], [ 2.235497, 48.81697 ] ] } },
{ "type": "Feature", "properties": { "cls": "sharrow", "highway": "residential", "name": "Rue Charles Desvergnes" }, "geometry": { "type": "LineString", "coordinates": [ [ 2.230442, 48.817688 ], [ 2.230512, 48.817713 ], [ 2.231942, 48.817997 ], [ 2.233553, 48.817393 ], [ 2.233733, 48.817326 ], [ 2.23378, 48.817291 ], [ 2.233847, 48.81724 ], [ 2.233927, 48.817104 ], [ 2.233943, 48.816986 ], [ 2.233997, 48.816907 ], [ 2.234091, 48.816863 ], [ 2.234174, 48.816832 ], [ 2.234415, 48.816792 ], [ 2.235228, 48.81666 ], [ 2.235345, 48.816618 ], [ 2.235402, 48.816601 ] ] } },
{ "type": "Feature", "properties": { "cls": "sharrow", "highway": "unclassified", "name": "Place du 8 Mai 1945" }, "geometry": { "type": "LineString", "coordinates": [ [ 2.241124, 48.81461 ], [ 2.241112, 48.814662 ], [ 2.241117, 48.814671 ] ] } },
{ "type": "Feature", "properties": { "cls": "sharrow", "highway": "unclassified", "name": "Place du 8 Mai 1945" }, "geometry": { "type": "LineString", "coordinates": [ [ 2.241281, 48.814925 ], [ 2.241293, 48.814941 ], [ 2.241286, 48.814987 ] ] } },
{ "type": "Feature", "properties": { "cls": "sharrow", "highway": "residential", "name": "Rue Hédouin" }, "geometry": { "type": "LineString", "coordinates": [ [ 2.241348, 48.815135 ], [ 2.241295, 48.815044 ], [ 2.241286, 48.814987 ] ] } },
{ "type": "Feature", "properties": { "cls": "sharrow", "highway": "residential", "name": "Rue des Galons" }, "geometry": { "type": "LineString", "coordinates": [ [ 2.238425, 48.815529 ], [ 2.23996, 48.814971 ], [ 2.240016, 48.814951 ] ] } },
{ "type": "Feature", "properties": { "cls": "sharrow", "highway": "residential", "name": "Boulevard Anatole France" }, "geometry": { "type": "LineString", "coordinates": [ [ 2.241713, 48.817508 ], [ 2.241433, 48.81763 ], [ 2.23977, 48.818419 ], [ 2.239424, 48.818514 ], [ 2.239376, 48.818527 ], [ 2.239354, 48.818568 ] ] } },
{ "type": "Feature", "properties": { "cls": "sharrow", "highway": "residential", "name": "Boulevard Anatole France" }, "geometry": { "type": "LineString", "coordinates": [ [ 2.239369, 48.818679 ], [ 2.239369, 48.818685 ], [ 2.23937, 48.818699 ], [ 2.239371, 48.818729 ], [ 2.239374, 48.81879 ] ] } },
{ "type": "Feature", "properties": { "cls": "painted", "highway": "secondary", "name": "Route des Gardes" }, "geometry": { "type": "LineString", "coordinates": [ [ 2.239517, 48.818785 ], [ 2.239569, 48.818783 ], [ 2.239733, 48.818777 ], [ 2.239805, 48.818774 ], [ 2.240627, 48.818751 ], [ 2.24086, 48.818769 ], [ 2.241114, 48.818798 ] ] } },
{ "type": "Feature", "properties": { "cls": "separated", "highway": "secondary", "name": "Route des Gardes" }, "geometry": { "type": "LineString", "coordinates": [ [ 2.239212, 48.818795 ], [ 2.239239, 48.818794 ], [ 2.239374, 48.81879 ], [ 2.239487, 48.818786 ], [ 2.239517, 48.818785 ] ] } },
{ "type": "Feature", "properties": { "cls": "separated", "highway": "path", "name": null }, "geometry": { "type": "LineString", "coordinates": [ [ 2.239248, 48.818858 ], [ 2.239239, 48.818794 ], [ 2.239235, 48.818733 ], [ 2.239371, 48.818729 ] ] } },
{ "type": "Feature", "properties": { "cls": "sharrow", "highway": "residential", "name": "Rue Hélène Loiret" }, "geometry": { "type": "LineString", "coordinates": [ [ 2.238655, 48.819303 ], [ 2.238647, 48.819329 ], [ 2.238579, 48.819356 ], [ 2.238536, 48.81938 ], [ 2.238513, 48.819389 ], [ 2.2384, 48.819434 ], [ 2.238196, 48.819463 ], [ 2.237954, 48.819496 ], [ 2.237824, 48.819554 ], [ 2.237774, 48.819584 ] ] } },
{ "type": "Feature", "properties": { "cls": "sharrow", "highway": "secondary", "name": "Boulevard Verd de Saint-Julien" }, "geometry": { "type": "LineString", "coordinates": [ [ 2.230442, 48.817688 ], [ 2.230612, 48.817556 ], [ 2.230636, 48.817539 ], [ 2.230657, 48.817524 ], [ 2.230684, 48.817505 ], [ 2.230709, 48.817487 ], [ 2.230965, 48.817305 ], [ 2.231633, 48.816811 ], [ 2.231892, 48.816627 ], [ 2.232052, 48.816513 ], [ 2.232249, 48.816369 ], [ 2.232559, 48.816144 ], [ 2.232736, 48.816012 ], [ 2.232768, 48.815988 ], [ 2.232794, 48.815968 ], [ 2.232874, 48.81591 ], [ 2.23342, 48.815509 ], [ 2.233444, 48.815491 ], [ 2.233509, 48.815444 ], [ 2.234084, 48.815033 ], [ 2.234241, 48.814921 ] ] } },
{ "type": "Feature", "properties": { "cls": "advisory", "highway": "secondary", "name": "Place du Maréchal Leclerc" }, "geometry": { "type": "LineString", "coordinates": [ [ 2.2301, 48.817755 ], [ 2.230136, 48.817777 ], [ 2.23016, 48.817806 ], [ 2.230169, 48.817838 ], [ 2.230163, 48.81787 ], [ 2.230131, 48.817908 ], [ 2.230107, 48.817923 ], [ 2.230078, 48.817935 ], [ 2.230047, 48.817942 ], [ 2.229999, 48.817944 ], [ 2.229952, 48.817936 ], [ 2.229911, 48.81792 ], [ 2.22988, 48.817896 ], [ 2.229862, 48.81787 ], [ 2.229855, 48.817841 ], [ 2.229863, 48.81781 ], [ 2.22989, 48.817776 ], [ 2.229934, 48.817751 ], [ 2.229988, 48.817739 ], [ 2.230046, 48.81774 ], [ 2.2301, 48.817755 ] ] } },
{ "type": "Feature", "properties": { "cls": "sharrow", "highway": "residential", "name": "Rue Ernest Renan" }, "geometry": { "type": "LineString", "coordinates": [ [ 2.223325, 48.816857 ], [ 2.223382, 48.816892 ], [ 2.223718, 48.817102 ], [ 2.224114, 48.817338 ], [ 2.224444, 48.817542 ], [ 2.224918, 48.817904 ], [ 2.225103, 48.818046 ], [ 2.225316, 48.818168 ], [ 2.225434, 48.818235 ], [ 2.225552, 48.818303 ], [ 2.226041, 48.818533 ], [ 2.226325, 48.818664 ], [ 2.226397, 48.818698 ], [ 2.22647, 48.818732 ], [ 2.226705, 48.818841 ], [ 2.227613, 48.819415 ], [ 2.227638, 48.819432 ], [ 2.227657, 48.819445 ], [ 2.22776, 48.819515 ] ] } },
{ "type": "Feature", "properties": { "cls": "sharrow", "highway": "living_street", "name": "Allée des Tilleuls" }, "geometry": { "type": "LineString", "coordinates": [ [ 2.227107, 48.818137 ], [ 2.226445, 48.818569 ], [ 2.226348, 48.818646 ], [ 2.226336, 48.818655 ], [ 2.226325, 48.818664 ] ] } },
{ "type": "Feature", "properties": { "cls": "sharrow", "highway": "living_street", "name": "Rue Paul Houette" }, "geometry": { "type": "LineString", "coordinates": [ [ 2.229516, 48.818614 ], [ 2.228966, 48.818505 ], [ 2.228214, 48.818391 ] ] } },
{ "type": "Feature", "properties": { "cls": "sharrow", "highway": "secondary", "name": "Avenue du Général Gallieni" }, "geometry": { "type": "LineString", "coordinates": [ [ 2.229516, 48.818614 ], [ 2.229459, 48.818855 ] ] } },
{ "type": "Feature", "properties": { "cls": "separated", "highway": "path", "name": "Sentier Louis Blanc" }, "geometry": { "type": "LineString", "coordinates": [ [ 2.231229, 48.818533 ], [ 2.231188, 48.818551 ], [ 2.231127, 48.818574 ], [ 2.23005, 48.818988 ] ] } },
{ "type": "Feature", "properties": { "cls": "sharrow", "highway": "secondary", "name": "Avenue du Général Gallieni" }, "geometry": { "type": "LineString", "coordinates": [ [ 2.229459, 48.818855 ], [ 2.229442, 48.818941 ] ] } },
{ "type": "Feature", "properties": { "cls": "separated", "highway": "path", "name": "Sentier Louis Blanc" }, "geometry": { "type": "LineString", "coordinates": [ [ 2.23005, 48.818988 ], [ 2.229801, 48.819082 ] ] } },
{ "type": "Feature", "properties": { "cls": "sharrow", "highway": "secondary", "name": "Avenue du Général Gallieni" }, "geometry": { "type": "LineString", "coordinates": [ [ 2.229442, 48.818941 ], [ 2.229382, 48.819186 ] ] } },
{ "type": "Feature", "properties": { "cls": "separated", "highway": "living_street", "name": "Rue Henri Savignac" }, "geometry": { "type": "LineString", "coordinates": [ [ 2.233297, 48.818275 ], [ 2.233273, 48.818269 ], [ 2.233233, 48.818259 ], [ 2.233181, 48.818245 ] ] } },
{ "type": "Feature", "properties": { "cls": "separated", "highway": "residential", "name": "Rue Henri Savignac" }, "geometry": { "type": "LineString", "coordinates": [ [ 2.234491, 48.818719 ], [ 2.233622, 48.818368 ], [ 2.233363, 48.818294 ], [ 2.233297, 48.818275 ] ] } },
{ "type": "Feature", "properties": { "cls": "sharrow", "highway": "residential", "name": "Rue Henri Savignac" }, "geometry": { "type": "LineString", "coordinates": [ [ 2.234641, 48.81875 ], [ 2.234536, 48.818716 ], [ 2.234491, 48.818719 ] ] } },
{ "type": "Feature", "properties": { "cls": "separated", "highway": "residential", "name": "Rue Henri Savignac" }, "geometry": { "type": "LineString", "coordinates": [ [ 2.234463, 48.818849 ], [ 2.234436, 48.818803 ], [ 2.234452, 48.818749 ], [ 2.234491, 48.818719 ] ] } },
{ "type": "Feature", "properties": { "cls": "sharrow", "highway": "residential", "name": "Rue Henri Savignac" }, "geometry": { "type": "LineString", "coordinates": [ [ 2.234683, 48.818825 ], [ 2.234636, 48.818886 ], [ 2.234053, 48.819559 ] ] } },
{ "type": "Feature", "properties": { "cls": "sharrow", "highway": "residential", "name": "Rue Henri Savignac" }, "geometry": { "type": "LineString", "coordinates": [ [ 2.234053, 48.819559 ], [ 2.233912, 48.819728 ] ] } },
{ "type": "Feature", "properties": { "cls": "separated", "highway": "residential", "name": "Rue Henri Savignac" }, "geometry": { "type": "LineString", "coordinates": [ [ 2.233912, 48.819728 ], [ 2.23357, 48.820122 ], [ 2.233452, 48.820214 ], [ 2.233138, 48.820445 ], [ 2.233049, 48.820538 ], [ 2.233001, 48.82067 ] ] } },
{ "type": "Feature", "properties": { "cls": "painted", "highway": "residential", "name": "Rue de la Verrerie" }, "geometry": { "type": "LineString", "coordinates": [ [ 2.234746, 48.820356 ], [ 2.235022, 48.820293 ], [ 2.235341, 48.820176 ], [ 2.235363, 48.820168 ], [ 2.235497, 48.820132 ], [ 2.235543, 48.820131 ] ] } },
{ "type": "Feature", "properties": { "cls": "painted", "highway": "unclassified", "name": null }, "geometry": { "type": "LineString", "coordinates": [ [ 2.235698, 48.820154 ], [ 2.235737, 48.820176 ], [ 2.235816, 48.82022 ], [ 2.236087, 48.820321 ], [ 2.236195, 48.820361 ], [ 2.236579, 48.820499 ] ] } },
{ "type": "Feature", "properties": { "cls": "shared", "highway": "path", "name": null }, "geometry": { "type": "LineString", "coordinates": [ [ 2.236938, 48.820569 ], [ 2.236929, 48.820543 ] ] } },
{ "type": "Feature", "properties": { "cls": "sharrow", "highway": "residential", "name": "Rue Hélène Loiret" }, "geometry": { "type": "LineString", "coordinates": [ [ 2.237774, 48.819584 ], [ 2.237398, 48.819635 ], [ 2.237246, 48.819688 ] ] } },
{ "type": "Feature", "properties": { "cls": "sharrow", "highway": "residential", "name": "Rue Hélène Loiret" }, "geometry": { "type": "LineString", "coordinates": [ [ 2.237246, 48.819688 ], [ 2.237203, 48.819702 ], [ 2.237138, 48.819727 ] ] } },
{ "type": "Feature", "properties": { "cls": "shared", "highway": "path", "name": null }, "geometry": { "type": "LineString", "coordinates": [ [ 2.240332, 48.820094 ], [ 2.240328, 48.820062 ], [ 2.240326, 48.820044 ] ] } },
{ "type": "Feature", "properties": { "cls": "shared", "highway": "path", "name": null }, "geometry": { "type": "LineString", "coordinates": [ [ 2.240333, 48.820104 ], [ 2.240332, 48.820094 ] ] } },
{ "type": "Feature", "properties": { "cls": "shared", "highway": "path", "name": null }, "geometry": { "type": "LineString", "coordinates": [ [ 2.239933, 48.82012 ], [ 2.239929, 48.820096 ], [ 2.239924, 48.820074 ] ] } },
{ "type": "Feature", "properties": { "cls": "shared", "highway": "path", "name": null }, "geometry": { "type": "LineString", "coordinates": [ [ 2.239937, 48.82014 ], [ 2.239933, 48.82012 ] ] } },
{ "type": "Feature", "properties": { "cls": "shared", "highway": "path", "name": null }, "geometry": { "type": "LineString", "coordinates": [ [ 2.240339, 48.820163 ], [ 2.240336, 48.82013 ], [ 2.240333, 48.820104 ] ] } },
{ "type": "Feature", "properties": { "cls": "shared", "highway": "path", "name": null }, "geometry": { "type": "LineString", "coordinates": [ [ 2.239947, 48.820193 ], [ 2.239941, 48.82016 ], [ 2.239937, 48.82014 ] ] } },
{ "type": "Feature", "properties": { "cls": "shared", "highway": "path", "name": null }, "geometry": { "type": "LineString", "coordinates": [ [ 2.240342, 48.820196 ], [ 2.240339, 48.820163 ] ] } },
{ "type": "Feature", "properties": { "cls": "shared", "highway": "path", "name": null }, "geometry": { "type": "LineString", "coordinates": [ [ 2.239954, 48.820227 ], [ 2.239947, 48.820193 ] ] } },
{ "type": "Feature", "properties": { "cls": "shared", "highway": "path", "name": null }, "geometry": { "type": "LineString", "coordinates": [ [ 2.236944, 48.820593 ], [ 2.236938, 48.820569 ] ] } },
{ "type": "Feature", "properties": { "cls": "shared", "highway": "path", "name": null }, "geometry": { "type": "LineString", "coordinates": [ [ 2.236952, 48.820619 ], [ 2.236944, 48.820593 ] ] } },
{ "type": "Feature", "properties": { "cls": "shared", "highway": "path", "name": null }, "geometry": { "type": "LineString", "coordinates": [ [ 2.236965, 48.820666 ], [ 2.236961, 48.820654 ], [ 2.236952, 48.820619 ] ] } },
{ "type": "Feature", "properties": { "cls": "shared", "highway": "path", "name": null }, "geometry": { "type": "LineString", "coordinates": [ [ 2.236451, 48.820691 ], [ 2.23644, 48.820664 ], [ 2.236426, 48.820635 ] ] } },
{ "type": "Feature", "properties": { "cls": "shared", "highway": "path", "name": null }, "geometry": { "type": "LineString", "coordinates": [ [ 2.236983, 48.820711 ], [ 2.236965, 48.820666 ] ] } },
{ "type": "Feature", "properties": { "cls": "shared", "highway": "path", "name": null }, "geometry": { "type": "LineString", "coordinates": [ [ 2.236461, 48.820713 ], [ 2.236455, 48.820701 ], [ 2.236451, 48.820691 ] ] } },
{ "type": "Feature", "properties": { "cls": "shared", "highway": "path", "name": null }, "geometry": { "type": "LineString", "coordinates": [ [ 2.236483, 48.820766 ], [ 2.23647, 48.820739 ], [ 2.236461, 48.820713 ] ] } },
{ "type": "Feature", "properties": { "cls": "shared", "highway": "path", "name": null }, "geometry": { "type": "LineString", "coordinates": [ [ 2.236502, 48.820802 ], [ 2.236483, 48.820766 ] ] } },
{ "type": "Feature", "properties": { "cls": "separated", "highway": "residential", "name": "Rue Henri Savignac" }, "geometry": { "type": "LineString", "coordinates": [ [ 2.233001, 48.82067 ], [ 2.232939, 48.820935 ] ] } },
{ "type": "Feature", "properties": { "cls": "shared", "highway": "path", "name": null }, "geometry": { "type": "LineString", "coordinates": [ [ 2.235, 48.821087 ], [ 2.234978, 48.821062 ], [ 2.23496, 48.821039 ] ] } },
{ "type": "Feature", "properties": { "cls": "shared", "highway": "path", "name": null }, "geometry": { "type": "LineString", "coordinates": [ [ 2.242451, 48.820065 ], [ 2.242471, 48.820101 ], [ 2.242486, 48.82014 ] ] } },
{ "type": "Feature", "properties": { "cls": "shared", "highway": "path", "name": null }, "geometry": { "type": "LineString", "coordinates": [ [ 2.242486, 48.82014 ], [ 2.242495, 48.820161 ] ] } },
{ "type": "Feature", "properties": { "cls": "shared", "highway": "path", "name": null }, "geometry": { "type": "LineString", "coordinates": [ [ 2.242495, 48.820161 ], [ 2.242509, 48.820196 ], [ 2.242516, 48.82023 ] ] } },
{ "type": "Feature", "properties": { "cls": "shared", "highway": "footway", "name": null }, "geometry": { "type": "LineString", "coordinates": [ [ 2.242524, 48.820263 ], [ 2.242647, 48.820264 ], [ 2.242757, 48.820254 ] ] } },
{ "type": "Feature", "properties": { "cls": "shared", "highway": "path", "name": null }, "geometry": { "type": "LineString", "coordinates": [ [ 2.242516, 48.82023 ], [ 2.242524, 48.820263 ] ] } },
{ "type": "Feature", "properties": { "cls": "shared", "highway": "footway", "name": null }, "geometry": { "type": "LineString", "coordinates": [ [ 2.242524, 48.820263 ], [ 2.241977, 48.820239 ] ] } },
{ "type": "Feature", "properties": { "cls": "shared", "highway": "footway", "name": null }, "geometry": { "type": "LineString", "coordinates": [ [ 2.242524, 48.820263 ], [ 2.24252, 48.820317 ] ] } },
{ "type": "Feature", "properties": { "cls": "shared", "highway": "path", "name": null }, "geometry": { "type": "LineString", "coordinates": [ [ 2.238732, 48.820379 ], [ 2.238705, 48.820315 ], [ 2.238681, 48.820259 ] ] } },
{ "type": "Feature", "properties": { "cls": "separated", "highway": "path", "name": null }, "geometry": { "type": "LineString", "coordinates": [ [ 2.238743, 48.820407 ], [ 2.238732, 48.820379 ] ] } },
{ "type": "Feature", "properties": { "cls": "shared", "highway": "path", "name": null }, "geometry": { "type": "LineString", "coordinates": [ [ 2.235017, 48.821106 ], [ 2.235, 48.821087 ] ] } },
{ "type": "Feature", "properties": { "cls": "shared", "highway": "path", "name": null }, "geometry": { "type": "LineString", "coordinates": [ [ 2.235058, 48.821151 ], [ 2.235033, 48.821124 ], [ 2.235017, 48.821106 ] ] } },
{ "type": "Feature", "properties": { "cls": "separated", "highway": "residential", "name": "Rue Henri Savignac" }, "geometry": { "type": "LineString", "coordinates": [ [ 2.232939, 48.820935 ], [ 2.232674, 48.821303 ], [ 2.232616, 48.821383 ] ] } },
{ "type": "Feature", "properties": { "cls": "separated", "highway": "cycleway", "name": null }, "geometry": { "type": "LineString", "coordinates": [ [ 2.232167, 48.822375 ], [ 2.232567, 48.822192 ], [ 2.232598, 48.822178 ], [ 2.233524, 48.821777 ], [ 2.234225, 48.821506 ], [ 2.234699, 48.821333 ], [ 2.234756, 48.821293 ], [ 2.234807, 48.821276 ], [ 2.234933, 48.821235 ], [ 2.235037, 48.8212 ], [ 2.235072, 48.821196 ], [ 2.235093, 48.821189 ], [ 2.235678, 48.820988 ], [ 2.236289, 48.820856 ], [ 2.236502, 48.820802 ], [ 2.236831, 48.820743 ], [ 2.236983, 48.820711 ], [ 2.237881, 48.820551 ], [ 2.238577, 48.820434 ], [ 2.238743, 48.820407 ], [ 2.239121, 48.820345 ], [ 2.239588, 48.820284 ], [ 2.239954, 48.820227 ], [ 2.240342, 48.820196 ], [ 2.240475, 48.820194 ], [ 2.240841, 48.820188 ], [ 2.241301, 48.820191 ], [ 2.241623, 48.82021 ], [ 2.241977, 48.820239 ] ] } },
{ "type": "Feature", "properties": { "cls": "shared", "highway": "path", "name": null }, "geometry": { "type": "LineString", "coordinates": [ [ 2.232507, 48.822089 ], [ 2.232484, 48.822065 ], [ 2.232463, 48.822042 ] ] } },
{ "type": "Feature", "properties": { "cls": "shared", "highway": "path", "name": null }, "geometry": { "type": "LineString", "coordinates": [ [ 2.232525, 48.822108 ], [ 2.232507, 48.822089 ] ] } },
{ "type": "Feature", "properties": { "cls": "shared", "highway": "path", "name": null }, "geometry": { "type": "LineString", "coordinates": [ [ 2.232571, 48.822152 ], [ 2.232544, 48.822127 ], [ 2.232525, 48.822108 ] ] } },
{ "type": "Feature", "properties": { "cls": "shared", "highway": "path", "name": null }, "geometry": { "type": "LineString", "coordinates": [ [ 2.232598, 48.822178 ], [ 2.232571, 48.822152 ] ] } }
]
}
