{
"type": "FeatureCollection",
"name": "081-fortaleza-coco-park",
"crs": { "type": "name", "properties": { "name": "urn:ogc:def:crs:OGC:1.3:CRS84" } },
"xy_coordinate_resolution": 1e-06,
"features": [
{ "type": "Feature", "properties": { "cls": "separated", "highway": "residential", "name": "Rua Rosa Mística" }, "geometry": { "type": "LineString", "coordinates": [ [ -38.51431, -3.811508 ], [ -38.514306, -3.811517 ] ] } },
{ "type": "Feature", "properties": { "cls": "separated", "highway": "cycleway", "name": "Avenida Pompílio Gomes" }, "geometry": { "type": "LineString", "coordinates": [ [ -38.521266, -3.824753 ], [ -38.521267, -3.824722 ] ] } },
{ "type": "Feature", "properties": { "cls": "separated", "highway": "cycleway", "name": "Avenida Pompílio Gomes" }, "geometry": { "type": "LineString", "coordinates": [ [ -38.521267, -3.824722 ], [ -38.521276, -3.824518 ], [ -38.521298, -3.824174 ] ] } },
{ "type": "Feature", "properties": { "cls": "separated", "highway": "cycleway", "name": "Avenida Pompílio Gomes" }, "geometry": { "type": "LineString", "coordinates": [ [ -38.521298, -3.824174 ], [ -38.521295, -3.823907 ], [ -38.521279, -3.82362 ], [ -38.521269, -3.823526 ] ] } },
{ "type": "Feature", "properties": { "cls": "separated", "highway": "residential", "name": "Rua 12" }, "geometry": { "type": "LineString", "coordinates": [ [ -38.518675, -3.820143 ], [ -38.518688, -3.820101 ], [ -38.518788, -3.81975 ] ] } },
{ "type": "Feature", "properties": { "cls": "separated", "highway": "residential", "name": null }, "geometry": { "type": "LineString", "coordinates": [ [ -38.518788, -3.81975 ], [ -38.518889, -3.819194 ], [ -38.518934, -3.818664 ], [ -38.518957, -3.818505 ], [ -38.519011, -3.818256 ], [ -38.519084, -3.818028 ], [ -38.519092, -3.817777 ] ] } },
{ "type": "Feature", "properties": { "cls": "separated", "highway": "residential", "name": null }, "geometry": { "type": "LineString", "coordinates": [ [ -38.519092, -3.817777 ], [ -38.519087, -3.817645 ], [ -38.519066, -3.817499 ], [ -38.519058, -3.817377 ], [ -38.519031, -3.817265 ], [ -38.518965, -3.817081 ], [ -38.518957, -3.817059 ] ] } },
{ "type": "Feature", "properties": { "cls": "separated", "highway": "cycleway", "name": "Avenida Presidente Costa e Silva" }, "geometry": { "type": "LineString", "coordinates": [ [ -38.527531, -3.829443 ], [ -38.527839, -3.829386 ], [ -38.52807, -3.829375 ], [ -38.528175, -3.829349 ] ] } },
{ "type": "Feature", "properties": { "cls": "painted", "highway": "primary", "name": "Avenida Deputado Paulino Rocha" }, "geometry": { "type": "LineString", "coordinates": [ [ -38.515709, -3.811124 ], [ -38.515696, -3.811128 ], [ -38.515384, -3.811196 ] ] } },
{ "type": "Feature", "properties": { "cls": "painted", "highway": "primary", "name": "Avenida Deputado Paulino Rocha" }, "geometry": { "type": "LineString", "coordinates": [ [ -38.514894, -3.81132 ], [ -38.514558, -3.811401 ] ] } },
{ "type": "Feature", "properties": { "cls": "painted", "highway": "primary", "name": "Avenida Deputado Paulino Rocha" }, "geometry": { "type": "LineString", "coordinates": [ [ -38.514523, -3.811287 ], [ -38.514874, -3.811203 ] ] } },
{ "type": "Feature", "properties": { "cls": "painted", "highway": "primary", "name": "Avenida Deputado Paulino Rocha" }, "geometry": { "type": "LineString", "coordinates": [ [ -38.515384, -3.811196 ], [ -38.514894, -3.81132 ] ] } },
{ "type": "Feature", "properties": { "cls": "painted", "highway": "primary", "name": "Avenida Deputado Paulino Rocha" }, "geometry": { "type": "LineString", "coordinates": [ [ -38.514874, -3.811203 ], [ -38.515168, -3.811133 ] ] } },
{ "type": "Feature", "properties": { "cls": "separated", "highway": "cycleway", "name": null }, "geometry": { "type": "LineString", "coordinates": [ [ -38.537358, -3.86062 ], [ -38.537114, -3.860706 ], [ -38.536893, -3.860779 ], [ -38.536647, -3.860849 ] ] } },
{ "type": "Feature", "properties": { "cls": "separated", "highway": "trunk", "name": "Rodovia Quarto Anel Viário" }, "geometry": { "type": "LineString", "coordinates": [ [ -38.539099, -3.859989 ], [ -38.538003, -3.860261 ] ] } },
{ "type": "Feature", "properties": { "cls": "separated", "highway": "cycleway", "name": null }, "geometry": { "type": "LineString", "coordinates": [ [ -38.538132, -3.859966 ], [ -38.538297, -3.859918 ], [ -38.538663, -3.859825 ], [ -38.53903, -3.859742 ] ] } },
{ "type": "Feature", "properties": { "cls": "separated", "highway": "cycleway", "name": null }, "geometry": { "type": "LineString", "coordinates": [ [ -38.53903, -3.859742 ], [ -38.539462, -3.859646 ] ] } },
{ "type": "Feature", "properties": { "cls": "separated", "highway": "cycleway", "name": "Avenida Valparaíso" }, "geometry": { "type": "LineString", "coordinates": [ [ -38.532535, -3.838618 ], [ -38.532981, -3.838252 ] ] } },
{ "type": "Feature", "properties": { "cls": "separated", "highway": "cycleway", "name": "Avenida Valparaíso" }, "geometry": { "type": "LineString", "coordinates": [ [ -38.532981, -3.838252 ], [ -38.533276, -3.838031 ] ] } },
{ "type": "Feature", "properties": { "cls": "separated", "highway": "cycleway", "name": null }, "geometry": { "type": "LineString", "coordinates": [ [ -38.528187, -3.829417 ], [ -38.528175, -3.829349 ], [ -38.528125, -3.829153 ] ] } },
{ "type": "Feature", "properties": { "cls": "separated", "highway": "cycleway", "name": null }, "geometry": { "type": "LineString", "coordinates": [ [ -38.539462, -3.859646 ], [ -38.539953, -3.859529 ], [ -38.541142, -3.859255 ], [ -38.54206, -3.859044 ], [ -38.543196, -3.858782 ], [ -38.544852, -3.858401 ], [ -38.546098, -3.858116 ], [ -38.546828, -3.857947 ] ] } },
{ "type": "Feature", "properties": { "cls": "separated", "highway": "cycleway", "name": null }, "geometry": { "type": "LineString", "coordinates": [ [ -38.546489, -3.85835 ], [ -38.547129, -3.858302 ] ] } },
{ "type": "Feature", "properties": { "cls": "separated", "highway": "cycleway", "name": "Rua José Matias dos Santos" }, "geometry": { "type": "LineString", "coordinates": [ [ -38.533276, -3.838031 ], [ -38.533687, -3.837687 ] ] } },
{ "type": "Feature", "properties": { "cls": "separated", "highway": "secondary", "name": "Avenida General Murilo Borges" }, "geometry": { "type": "LineString", "coordinates": [ [ -38.507657, -3.763949 ], [ -38.50676, -3.764102 ] ] } },
{ "type": "Feature", "properties": { "cls": "separated", "highway": "secondary", "name": "Avenida General Murilo Borges" }, "geometry": { "type": "LineString", "coordinates": [ [ -38.50676, -3.764102 ], [ -38.505556, -3.764308 ], [ -38.505031, -3.764407 ], [ -38.504489, -3.764541 ], [ -38.503852, -3.764755 ], [ -38.502885, -3.765164 ], [ -38.499175, -3.766806 ] ] } },
{ "type": "Feature", "properties": { "cls": "separated", "highway": "secondary", "name": "Avenida General Murilo Borges" }, "geometry": { "type": "LineString", "coordinates": [ [ -38.498641, -3.767068 ], [ -38.498618, -3.767077 ] ] } },
{ "type": "Feature", "properties": { "cls": "separated", "highway": "secondary", "name": "Avenida General Murilo Borges" }, "geometry": { "type": "LineString", "coordinates": [ [ -38.498717, -3.767006 ], [ -38.498641, -3.767068 ] ] } },
{ "type": "Feature", "properties": { "cls": "separated", "highway": "secondary", "name": "Avenida General Murilo Borges" }, "geometry": { "type": "LineString", "coordinates": [ [ -38.499175, -3.766806 ], [ -38.498717, -3.767006 ] ] } },
{ "type": "Feature", "properties": { "cls": "painted", "highway": "tertiary", "name": "Rua Israel Bezerra" }, "geometry": { "type": "LineString", "coordinates": [ [ -38.490729, -3.751471 ], [ -38.490714, -3.751489 ], [ -38.490688, -3.751527 ], [ -38.490669, -3.751565 ], [ -38.490635, -3.751625 ] ] } }
]
}
