{
"type": "FeatureCollection",
"name": "082-calgary-nose-hill-park",
"crs": { "type": "name", "properties": { "name": "urn:ogc:def:crs:OGC:1.3:CRS84" } },
"xy_coordinate_resolution": 1e-06,
"features": [
{ "type": "Feature", "properties": { "cls": "separated", "highway": "cycleway", "name": "Whispering Grasses Walkway" }, "geometry": { "type": "LineString", "coordinates": [ [ -114.124651, 51.10215 ], [ -114.124691, 51.102008 ], [ -114.124703, 51.101911 ] ] } },
{ "type": "Feature", "properties": { "cls": "separated", "highway": "cycleway", "name": null }, "geometry": { "type": "LineString", "coordinates": [ [ -114.123447, 51.103379 ], [ -114.123625, 51.103189 ], [ -114.123682, 51.102924 ], [ -114.123717, 51.102899 ], [ -114.123861, 51.102798 ], [ -114.12415, 51.1026 ], [ -114.124266, 51.10252 ], [ -114.124526, 51.102357 ], [ -114.124569, 51.102307 ], [ -114.124599, 51.102243 ], [ -114.124605, 51.102229 ], [ -114.124622, 51.102199 ], [ -114.124651, 51.10215 ] ] } },
{ "type": "Feature", "properties": { "cls": "shared", "highway": "cycleway", "name": null }, "geometry": { "type": "LineString", "coordinates": [ [ -114.126439, 51.103779 ], [ -114.126308, 51.103827 ], [ -114.126278, 51.103831 ], [ -114.126158, 51.103814 ], [ -114.1259, 51.10378 ], [ -114.125416, 51.103696 ], [ -114.124748, 51.10358 ], [ -114.12402, 51.103504 ], [ -114.12378, 51.10339 ], [ -114.123447, 51.103379 ], [ -114.12289, 51.10338 ], [ -114.12223, 51.10336 ], [ -114.12072, 51.10337 ], [ -114.12026, 51.10338 ], [ -114.11914, 51.10337 ], [ -114.11857, 51.10337 ], [ -114.11811, 51.10338 ], [ -114.11798, 51.10339 ], [ -114.11774, 51.10345 ], [ -114.11734, 51.10361 ], [ -114.11696, 51.1038 ] ] } },
{ "type": "Feature", "properties": { "cls": "shared", "highway": "cycleway", "name": null }, "geometry": { "type": "LineString", "coordinates": [ [ -114.125778, 51.111854 ], [ -114.12587, 51.11194 ], [ -114.125956, 51.112008 ], [ -114.126078, 51.11213 ], [ -114.12606, 51.1122 ], [ -114.12609, 51.11236 ], [ -114.12602, 51.11321 ], [ -114.125951, 51.113999 ], [ -114.125953, 51.114027 ], [ -114.125957, 51.114141 ], [ -114.125959, 51.114172 ], [ -114.125969, 51.114262 ], [ -114.12598, 51.11455 ], [ -114.12607, 51.11476 ], [ -114.126183, 51.114896 ], [ -114.12624, 51.114974 ], [ -114.126285, 51.115062 ], [ -114.126318, 51.115149 ], [ -114.126343, 51.115273 ], [ -114.126347, 51.115393 ], [ -114.126341, 51.115649 ], [ -114.126334, 51.115793 ], [ -114.126333, 51.115939 ], [ -114.12635, 51.116227 ], [ -114.12641, 51.11644 ], [ -114.12645, 51.11677 ], [ -114.12645, 51.11724 ], [ -114.12667, 51.1178 ], [ -114.12675, 51.11818 ], [ -114.126868, 51.118577 ], [ -114.126907, 51.118666 ], [ -114.126952, 51.118745 ] ] } },
{ "type": "Feature", "properties": { "cls": "separated", "highway": "cycleway", "name": null }, "geometry": { "type": "LineString", "coordinates": [ [ -114.11696, 51.1038 ], [ -114.1167, 51.10398 ], [ -114.116695, 51.103985 ], [ -114.11642, 51.10425 ], [ -114.11625, 51.10452 ], [ -114.116187, 51.104664 ], [ -114.116184, 51.104828 ], [ -114.116176, 51.104902 ], [ -114.116134, 51.104979 ], [ -114.11605, 51.105023 ], [ -114.116024, 51.10503 ], [ -114.115921, 51.105055 ], [ -114.115785, 51.105051 ], [ -114.115648, 51.105007 ], [ -114.115574, 51.104954 ], [ -114.115377, 51.104813 ], [ -114.114949, 51.104498 ], [ -114.114861, 51.104406 ], [ -114.114686, 51.104152 ], [ -114.114559, 51.104016 ], [ -114.114401, 51.103908 ], [ -114.113837, 51.10369 ], [ -114.1137, 51.10362 ], [ -114.113385, 51.103504 ], [ -114.113261, 51.103486 ], [ -114.113102, 51.103485 ], [ -114.112996, 51.103495 ], [ -114.112931, 51.103505 ], [ -114.112856, 51.103534 ], [ -114.112782, 51.103594 ], [ -114.112738, 51.103668 ] ] } },
{ "type": "Feature", "properties": { "cls": "separated", "highway": "cycleway", "name": null }, "geometry": { "type": "LineString", "coordinates": [ [ -114.117968, 51.110589 ], [ -114.117837, 51.110432 ], [ -114.117309, 51.109843 ], [ -114.11702, 51.109475 ], [ -114.116891, 51.109217 ], [ -114.116733, 51.108977 ], [ -114.116545, 51.108777 ], [ -114.11622, 51.10854 ], [ -114.11607, 51.108441 ], [ -114.115988, 51.108371 ], [ -114.11554, 51.10797 ], [ -114.11513, 51.107597 ], [ -114.114987, 51.107476 ], [ -114.114602, 51.107211 ], [ -114.114323, 51.107019 ], [ -114.114297, 51.106993 ], [ -114.114211, 51.106909 ], [ -114.114123, 51.106788 ], [ -114.11406, 51.106677 ], [ -114.114007, 51.106553 ], [ -114.113965, 51.106411 ], [ -114.113933, 51.106183 ], [ -114.113919, 51.106095 ], [ -114.113818, 51.105595 ], [ -114.11371, 51.105265 ], [ -114.113466, 51.104914 ], [ -114.113359, 51.104763 ], [ -114.113182, 51.104477 ], [ -114.113095, 51.104377 ], [ -114.113012, 51.104201 ], [ -114.11286, 51.103963 ], [ -114.112773, 51.103834 ], [ -114.112738, 51.103668 ] ] } },
{ "type": "Feature", "properties": { "cls": "shared", "highway": "cycleway", "name": null }, "geometry": { "type": "LineString", "coordinates": [ [ -114.117968, 51.110589 ], [ -114.118049, 51.110605 ], [ -114.11843, 51.11059 ], [ -114.119942, 51.110587 ], [ -114.120575, 51.110583 ], [ -114.121147, 51.110593 ], [ -114.121384, 51.110604 ], [ -114.121531, 51.110617 ], [ -114.121831, 51.110657 ], [ -114.121852, 51.11066 ], [ -114.122208, 51.110715 ], [ -114.122413, 51.110759 ], [ -114.12256, 51.11079 ], [ -114.122839, 51.11085 ], [ -114.12327, 51.110949 ], [ -114.12368, 51.11106 ], [ -114.12432, 51.11124 ], [ -114.12487, 51.11145 ], [ -114.125219, 51.11159 ], [ -114.125559, 51.111733 ], [ -114.125778, 51.111854 ] ] } },
{ "type": "Feature", "properties": { "cls": "separated", "highway": "cycleway", "name": null }, "geometry": { "type": "LineString", "coordinates": [ [ -114.11795, 51.12076 ], [ -114.117762, 51.120669 ], [ -114.117669, 51.12061 ], [ -114.11754, 51.12056 ], [ -114.117332, 51.120538 ], [ -114.117059, 51.120548 ], [ -114.11685, 51.12057 ], [ -114.116335, 51.120694 ], [ -114.116079, 51.120714 ], [ -114.115903, 51.120734 ], [ -114.115544, 51.120815 ], [ -114.115391, 51.120826 ], [ -114.115093, 51.120833 ], [ -114.11499, 51.120849 ] ] } },
{ "type": "Feature", "properties": { "cls": "separated", "highway": "cycleway", "name": null }, "geometry": { "type": "LineString", "coordinates": [ [ -114.11499, 51.120849 ], [ -114.114891, 51.120865 ], [ -114.114727, 51.120868 ], [ -114.114568, 51.120855 ], [ -114.114128, 51.120851 ], [ -114.113582, 51.120849 ], [ -114.113267, 51.120835 ], [ -114.11294, 51.12081 ], [ -114.112739, 51.120806 ], [ -114.112121, 51.120844 ], [ -114.111633, 51.120828 ], [ -114.111053, 51.120828 ], [ -114.110855, 51.120824 ], [ -114.110727, 51.120813 ], [ -114.110595, 51.120783 ], [ -114.11006, 51.12068 ], [ -114.10987, 51.120657 ], [ -114.10968, 51.12066 ], [ -114.109513, 51.120672 ], [ -114.10935, 51.120694 ], [ -114.10916, 51.120725 ], [ -114.108868, 51.120779 ], [ -114.108779, 51.12078 ], [ -114.108706, 51.120774 ], [ -114.108615, 51.120749 ], [ -114.108296, 51.120579 ], [ -114.108095, 51.120522 ], [ -114.107897, 51.120488 ], [ -114.107657, 51.120462 ], [ -114.10748, 51.120439 ], [ -114.10718, 51.120418 ], [ -114.107, 51.12042 ], [ -114.106755, 51.120456 ], [ -114.106564, 51.120496 ], [ -114.106309, 51.120571 ] ] } },
{ "type": "Feature", "properties": { "cls": "separated", "highway": "cycleway", "name": null }, "geometry": { "type": "LineString", "coordinates": [ [ -114.125491, 51.1228 ], [ -114.1249, 51.12246 ], [ -114.12475, 51.122384 ], [ -114.124545, 51.122303 ], [ -114.124269, 51.122232 ], [ -114.123972, 51.122165 ], [ -114.123166, 51.121969 ], [ -114.122605, 51.121826 ], [ -114.1222, 51.121732 ], [ -114.12192, 51.12168 ], [ -114.121631, 51.121597 ], [ -114.121297, 51.121478 ], [ -114.12115, 51.12145 ], [ -114.120519, 51.121239 ], [ -114.120124, 51.121107 ], [ -114.119783, 51.121007 ], [ -114.119519, 51.120961 ], [ -114.119316, 51.120963 ], [ -114.119082, 51.120965 ], [ -114.118942, 51.120948 ], [ -114.118587, 51.120873 ], [ -114.118325, 51.120838 ], [ -114.118048, 51.120797 ], [ -114.11795, 51.12076 ] ] } },
{ "type": "Feature", "properties": { "cls": "separated", "highway": "cycleway", "name": null }, "geometry": { "type": "LineString", "coordinates": [ [ -114.130952, 51.123628 ], [ -114.130954, 51.123592 ], [ -114.130884, 51.123348 ], [ -114.130771, 51.123028 ], [ -114.130714, 51.122925 ], [ -114.130652, 51.12284 ], [ -114.130582, 51.122766 ], [ -114.130507, 51.122693 ], [ -114.130356, 51.122518 ], [ -114.130315, 51.122461 ], [ -114.13023, 51.12232 ], [ -114.130159, 51.122176 ], [ -114.130042, 51.121927 ], [ -114.129913, 51.121676 ], [ -114.129859, 51.121556 ], [ -114.129842, 51.121491 ], [ -114.129807, 51.12136 ], [ -114.129784, 51.121231 ], [ -114.129744, 51.121039 ], [ -114.129714, 51.120953 ], [ -114.129674, 51.120869 ], [ -114.129609, 51.120773 ], [ -114.129515, 51.120684 ], [ -114.129422, 51.120608 ], [ -114.129308, 51.120519 ], [ -114.129092, 51.120359 ], [ -114.128886, 51.12017 ], [ -114.128781, 51.12008 ], [ -114.128676, 51.119997 ], [ -114.128513, 51.119879 ], [ -114.128352, 51.119743 ], [ -114.128001, 51.119463 ], [ -114.127826, 51.119323 ], [ -114.127649, 51.119187 ], [ -114.12747, 51.11906 ], [ -114.127317, 51.118962 ], [ -114.126952, 51.118745 ] ] } },
{ "type": "Feature", "properties": { "cls": "separated", "highway": "cycleway", "name": null }, "geometry": { "type": "LineString", "coordinates": [ [ -114.126764, 51.123773 ], [ -114.126636, 51.123677 ], [ -114.126549, 51.12361 ], [ -114.126452, 51.123536 ], [ -114.126375, 51.123488 ], [ -114.126275, 51.123434 ], [ -114.12618, 51.123374 ], [ -114.12612, 51.123334 ], [ -114.126065, 51.123288 ], [ -114.125885, 51.123113 ], [ -114.125631, 51.122893 ], [ -114.125491, 51.1228 ] ] } },
{ "type": "Feature", "properties": { "cls": "separated", "highway": "cycleway", "name": null }, "geometry": { "type": "LineString", "coordinates": [ [ -114.130952, 51.123628 ], [ -114.130854, 51.123623 ], [ -114.130723, 51.123616 ], [ -114.130626, 51.123621 ], [ -114.130537, 51.123629 ], [ -114.13014, 51.123678 ], [ -114.129831, 51.123708 ], [ -114.129704, 51.123717 ], [ -114.129655, 51.12372 ], [ -114.129458, 51.123722 ], [ -114.129238, 51.123712 ], [ -114.12907, 51.123698 ], [ -114.12883, 51.123676 ], [ -114.128647, 51.123653 ], [ -114.128214, 51.123578 ], [ -114.128078, 51.123566 ], [ -114.127921, 51.123566 ], [ -114.127725, 51.123583 ], [ -114.127444, 51.123631 ], [ -114.127438, 51.123632 ], [ -114.12718, 51.12369 ], [ -114.127013, 51.123744 ], [ -114.12688, 51.123773 ], [ -114.126764, 51.123773 ] ] } },
{ "type": "Feature", "properties": { "cls": "separated", "highway": "cycleway", "name": null }, "geometry": { "type": "LineString", "coordinates": [ [ -114.130952, 51.123628 ], [ -114.131805, 51.123729 ], [ -114.133217, 51.124333 ], [ -114.133251, 51.124347 ], [ -114.133674, 51.12452 ], [ -114.133708, 51.124572 ], [ -114.133717, 51.124634 ], [ -114.133691, 51.124715 ], [ -114.133173, 51.12585 ], [ -114.133161, 51.125913 ], [ -114.133149, 51.125975 ], [ -114.133151, 51.126034 ] ] } },
{ "type": "Feature", "properties": { "cls": "separated", "highway": "cycleway", "name": null }, "geometry": { "type": "LineString", "coordinates": [ [ -114.125478, 51.125082 ], [ -114.125664, 51.125083 ], [ -114.12629, 51.12506 ] ] } },
{ "type": "Feature", "properties": { "cls": "separated", "highway": "cycleway", "name": null }, "geometry": { "type": "LineString", "coordinates": [ [ -114.095031, 51.090406 ], [ -114.095085, 51.090217 ], [ -114.095105, 51.090108 ], [ -114.095105, 51.090051 ], [ -114.095077, 51.090028 ] ] } },
{ "type": "Feature", "properties": { "cls": "separated", "highway": "cycleway", "name": null }, "geometry": { "type": "LineString", "coordinates": [ [ -114.106309, 51.120571 ], [ -114.105854, 51.120655 ], [ -114.105744, 51.120674 ], [ -114.105659, 51.120691 ], [ -114.105619, 51.1207 ], [ -114.105469, 51.120733 ], [ -114.10504, 51.12085 ], [ -114.10441, 51.12102 ], [ -114.10366, 51.12121 ], [ -114.10315, 51.121256 ], [ -114.103059, 51.121274 ], [ -114.102988, 51.121294 ], [ -114.102915, 51.121321 ], [ -114.102865, 51.121344 ], [ -114.102787, 51.12139 ], [ -114.102704, 51.121446 ], [ -114.102529, 51.121568 ], [ -114.102405, 51.121648 ], [ -114.102297, 51.121713 ], [ -114.102125, 51.121799 ], [ -114.101986, 51.12186 ], [ -114.101919, 51.121886 ], [ -114.101843, 51.121911 ], [ -114.10173, 51.121943 ], [ -114.101617, 51.121961 ], [ -114.101457, 51.12198 ], [ -114.101212, 51.122002 ], [ -114.101092, 51.122018 ], [ -114.100947, 51.122047 ], [ -114.100785, 51.12209 ], [ -114.100722, 51.122113 ], [ -114.100667, 51.122136 ] ] } },
{ "type": "Feature", "properties": { "cls": "separated", "highway": "cycleway", "name": null }, "geometry": { "type": "LineString", "coordinates": [ [ -114.094818, 51.123522 ], [ -114.094871, 51.123502 ], [ -114.094942, 51.123479 ], [ -114.095066, 51.123482 ], [ -114.095418, 51.123515 ], [ -114.095566, 51.123537 ], [ -114.095882, 51.123614 ], [ -114.095971, 51.123634 ], [ -114.096022, 51.123644 ], [ -114.096088, 51.123654 ], [ -114.096163, 51.123658 ], [ -114.096271, 51.123652 ], [ -114.096498, 51.123622 ], [ -114.096797, 51.123572 ], [ -114.096884, 51.123555 ], [ -114.097002, 51.123545 ], [ -114.09707, 51.123544 ], [ -114.097196, 51.123553 ], [ -114.097424, 51.123582 ], [ -114.097502, 51.123588 ], [ -114.097557, 51.123587 ], [ -114.097593, 51.123584 ], [ -114.09763, 51.123578 ], [ -114.097671, 51.123566 ], [ -114.097713, 51.123548 ], [ -114.098018, 51.123369 ], [ -114.098158, 51.123302 ], [ -114.098286, 51.123252 ], [ -114.098437, 51.123217 ], [ -114.09859, 51.123189 ], [ -114.098786, 51.123153 ], [ -114.098808, 51.123149 ], [ -114.098897, 51.123133 ], [ -114.098995, 51.123118 ], [ -114.09909, 51.123106 ], [ -114.099425, 51.123095 ], [ -114.099495, 51.123086 ], [ -114.099556, 51.12307 ], [ -114.099613, 51.123048 ], [ -114.099711, 51.122992 ], [ -114.099768, 51.122954 ], [ -114.099877, 51.122892 ], [ -114.10033, 51.12269 ], [ -114.100433, 51.122621 ], [ -114.1005, 51.122539 ], [ -114.100551, 51.122408 ], [ -114.100583, 51.122235 ], [ -114.100593, 51.122211 ], [ -114.100608, 51.122186 ], [ -114.100631, 51.122164 ], [ -114.100667, 51.122136 ] ] } },
{ "type": "Feature", "properties": { "cls": "separated", "highway": "cycleway", "name": null }, "geometry": { "type": "LineString", "coordinates": [ [ -114.094818, 51.123522 ], [ -114.094642, 51.123603 ] ] } },
{ "type": "Feature", "properties": { "cls": "separated", "highway": "cycleway", "name": null }, "geometry": { "type": "LineString", "coordinates": [ [ -114.098508, 51.124973 ], [ -114.09848, 51.124827 ], [ -114.098467, 51.124708 ], [ -114.098449, 51.124636 ], [ -114.098458, 51.124574 ], [ -114.098481, 51.124522 ], [ -114.09867, 51.124226 ], [ -114.098728, 51.124063 ], [ -114.098745, 51.123896 ], [ -114.098729, 51.123637 ], [ -114.098739, 51.123546 ], [ -114.098826, 51.123332 ], [ -114.098831, 51.123319 ], [ -114.098897, 51.123133 ] ] } },
{ "type": "Feature", "properties": { "cls": "shared", "highway": "cycleway", "name": null }, "geometry": { "type": "LineString", "coordinates": [ [ -114.084676, 51.107523 ], [ -114.084627, 51.107509 ] ] } }
]
}
