{
"type": "FeatureCollection",
"name": "083-new-york-city-pelham-bay-park",
"crs": { "type": "name", "properties": { "name": "urn:ogc:def:crs:OGC:1.3:CRS84" } },
"xy_coordinate_resolution": 1e-06,
"features": [
{ "type": "Feature", "properties": { "cls": "shared", "highway": "cycleway", "name": null }, "geometry": { "type": "LineString", "coordinates": [ [ -73.82061, 40.848568 ], [ -73.820666, 40.848646 ], [ -73.820798, 40.84886 ], [ -73.820865, 40.848969 ], [ -73.821024, 40.849204 ], [ -73.821391, 40.849759 ], [ -73.821696, 40.850213 ] ] } },
{ "type": "Feature", "properties": { "cls": "shared", "highway": "cycleway", "name": null }, "geometry": { "type": "LineString", "coordinates": [ [ -73.821696, 40.850213 ], [ -73.821727, 40.850311 ], [ -73.821722, 40.850367 ], [ -73.821689, 40.850428 ], [ -73.821574, 40.850498 ], [ -73.821479, 40.850545 ], [ -73.821388, 40.850579 ], [ -73.821153, 40.850648 ], [ -73.820893, 40.850733 ], [ -73.820462, 40.850893 ], [ -73.819521, 40.851235 ], [ -73.819216, 40.851347 ], [ -73.819029, 40.851408 ], [ -73.818705, 40.851509 ], [ -73.81863, 40.851536 ], [ -73.818563, 40.851567 ], [ -73.818464, 40.851625 ], [ -73.818395, 40.851669 ], [ -73.818356, 40.851719 ], [ -73.818282, 40.851814 ], [ -73.818104, 40.852116 ], [ -73.818008, 40.852292 ], [ -73.817999, 40.852308 ], [ -73.817844, 40.852563 ], [ -73.817761, 40.8527 ], [ -73.81773, 40.852847 ], [ -73.817723, 40.852883 ], [ -73.817698, 40.853092 ], [ -73.817666, 40.853217 ], [ -73.817613, 40.853286 ], [ -73.817617, 40.853339 ], [ -73.817661, 40.853405 ], [ -73.817761, 40.853579 ] ] } },
{ "type": "Feature", "properties": { "cls": "shared", "highway": "cycleway", "name": null }, "geometry": { "type": "LineString", "coordinates": [ [ -73.817761, 40.853579 ], [ -73.817847, 40.853733 ] ] } },
{ "type": "Feature", "properties": { "cls": "shared", "highway": "cycleway", "name": null }, "geometry": { "type": "LineString", "coordinates": [ [ -73.817847, 40.853733 ], [ -73.818029, 40.853871 ], [ -73.81818, 40.853998 ], [ -73.818438, 40.854315 ], [ -73.818749, 40.854724 ], [ -73.818917, 40.85494 ] ] } },
{ "type": "Feature", "properties": { "cls": "shared", "highway": "cycleway", "name": "Mosholu-Pelham Greenway" }, "geometry": { "type": "LineString", "coordinates": [ [ -73.816392, 40.861075 ], [ -73.817205, 40.859941 ], [ -73.817223, 40.859916 ], [ -73.817485, 40.859689 ], [ -73.818414, 40.858805 ], [ -73.818764, 40.858505 ], [ -73.819029, 40.858315 ], [ -73.819846, 40.85759 ], [ -73.820419, 40.857059 ], [ -73.820799, 40.856749 ], [ -73.82131, 40.856299 ], [ -73.821342, 40.856263 ], [ -73.821485, 40.8561 ], [ -73.8217, 40.855957 ] ] } },
{ "type": "Feature", "properties": { "cls": "shared", "highway": "cycleway", "name": "Mosholu-Pelham Greenway" }, "geometry": { "type": "LineString", "coordinates": [ [ -73.816309, 40.861195 ], [ -73.816392, 40.861075 ] ] } },
{ "type": "Feature", "properties": { "cls": "painted", "highway": "secondary", "name": "City Island Bridge" }, "geometry": { "type": "LineString", "coordinates": [ [ -73.794439, 40.856627 ], [ -73.794334, 40.85659 ] ] } },
{ "type": "Feature", "properties": { "cls": "painted", "highway": "secondary", "name": "City Island Bridge" }, "geometry": { "type": "LineString", "coordinates": [ [ -73.794605, 40.856685 ], [ -73.794439, 40.856627 ] ] } },
{ "type": "Feature", "properties": { "cls": "shared", "highway": "cycleway", "name": "City Island Greenway" }, "geometry": { "type": "LineString", "coordinates": [ [ -73.795022, 40.856752 ], [ -73.794818, 40.856693 ], [ -73.794605, 40.856685 ] ] } },
{ "type": "Feature", "properties": { "cls": "shared", "highway": "cycleway", "name": "City Island Greenway" }, "geometry": { "type": "LineString", "coordinates": [ [ -73.794605, 40.856685 ], [ -73.794736, 40.856791 ], [ -73.79492, 40.856866 ] ] } },
{ "type": "Feature", "properties": { "cls": "shared", "highway": "cycleway", "name": "City Island Greenway" }, "geometry": { "type": "LineString", "coordinates": [ [ -73.796004, 40.857101 ], [ -73.795022, 40.856752 ] ] } },
{ "type": "Feature", "properties": { "cls": "shared", "highway": "cycleway", "name": "City Island Greenway" }, "geometry": { "type": "LineString", "coordinates": [ [ -73.79492, 40.856866 ], [ -73.795935, 40.857212 ] ] } },
{ "type": "Feature", "properties": { "cls": "shared", "highway": "cycleway", "name": "City Island Greenway" }, "geometry": { "type": "LineString", "coordinates": [ [ -73.795935, 40.857212 ], [ -73.795971, 40.857157 ], [ -73.796004, 40.857101 ] ] } },
{ "type": "Feature", "properties": { "cls": "separated", "highway": "cycleway", "name": "City Island Greenway" }, "geometry": { "type": "LineString", "coordinates": [ [ -73.802568, 40.859657 ], [ -73.802523, 40.859643 ], [ -73.802369, 40.859612 ], [ -73.802043, 40.859574 ], [ -73.801752, 40.859532 ], [ -73.801558, 40.859481 ], [ -73.801427, 40.859439 ], [ -73.801371, 40.859421 ], [ -73.800968, 40.859233 ], [ -73.800787, 40.85914 ], [ -73.799677, 40.858601 ], [ -73.799606, 40.858567 ], [ -73.798899, 40.85825 ], [ -73.797814, 40.85778 ], [ -73.79669, 40.857336 ], [ -73.796513, 40.857274 ], [ -73.796403, 40.857245 ], [ -73.796004, 40.857101 ] ] } },
{ "type": "Feature", "properties": { "cls": "shared", "highway": "cycleway", "name": null }, "geometry": { "type": "LineString", "coordinates": [ [ -73.823706, 40.85434 ], [ -73.823549, 40.854415 ] ] } },
{ "type": "Feature", "properties": { "cls": "shared", "highway": "cycleway", "name": null }, "geometry": { "type": "LineString", "coordinates": [ [ -73.823706, 40.85434 ], [ -73.823995, 40.854696 ] ] } },
{ "type": "Feature", "properties": { "cls": "shared", "highway": "cycleway", "name": null }, "geometry": { "type": "LineString", "coordinates": [ [ -73.823549, 40.854415 ], [ -73.823267, 40.854549 ], [ -73.822986, 40.854684 ] ] } },
{ "type": "Feature", "properties": { "cls": "shared", "highway": "cycleway", "name": null }, "geometry": { "type": "LineString", "coordinates": [ [ -73.822986, 40.854684 ], [ -73.822829, 40.854759 ] ] } },
{ "type": "Feature", "properties": { "cls": "shared", "highway": "cycleway", "name": null }, "geometry": { "type": "LineString", "coordinates": [ [ -73.822829, 40.854759 ], [ -73.823122, 40.855112 ] ] } },
{ "type": "Feature", "properties": { "cls": "separated", "highway": "cycleway", "name": null }, "geometry": { "type": "LineString", "coordinates": [ [ -73.824253, 40.854577 ], [ -73.823995, 40.854696 ], [ -73.823122, 40.855112 ], [ -73.822862, 40.855253 ], [ -73.8217, 40.855957 ] ] } },
{ "type": "Feature", "properties": { "cls": "shared", "highway": "cycleway", "name": "Mosholu-Pelham Greenway" }, "geometry": { "type": "LineString", "coordinates": [ [ -73.825217, 40.8564 ], [ -73.82513, 40.856535 ], [ -73.825109, 40.856556 ], [ -73.825059, 40.856579 ], [ -73.825025, 40.856589 ], [ -73.824905, 40.856603 ], [ -73.824833, 40.856611 ], [ -73.824818, 40.856612 ], [ -73.824764, 40.856603 ], [ -73.824738, 40.856588 ], [ -73.824722, 40.856512 ], [ -73.824706, 40.856439 ], [ -73.824694, 40.856403 ], [ -73.824678, 40.856363 ], [ -73.824654, 40.856322 ], [ -73.824623, 40.856285 ], [ -73.824591, 40.856253 ], [ -73.824556, 40.856222 ], [ -73.824518, 40.856194 ], [ -73.824479, 40.856168 ], [ -73.824434, 40.856144 ], [ -73.824396, 40.856126 ], [ -73.824355, 40.85611 ], [ -73.824308, 40.856094 ], [ -73.824263, 40.856081 ], [ -73.824215, 40.85607 ], [ -73.824168, 40.856064 ], [ -73.824125, 40.856064 ], [ -73.822384, 40.856097 ], [ -73.822298, 40.8561 ], [ -73.822219, 40.856107 ], [ -73.821978, 40.85612 ], [ -73.821949, 40.85612 ], [ -73.821933, 40.856115 ], [ -73.821822, 40.856043 ], [ -73.821769, 40.856001 ], [ -73.821721, 40.85597 ], [ -73.8217, 40.855957 ] ] } },
{ "type": "Feature", "properties": { "cls": "shared", "highway": "cycleway", "name": "City Island Greenway" }, "geometry": { "type": "LineString", "coordinates": [ [ -73.802755, 40.859728 ], [ -73.802649, 40.859685 ], [ -73.802568, 40.859657 ] ] } },
{ "type": "Feature", "properties": { "cls": "separated", "highway": "cycleway", "name": "City Island Greenway" }, "geometry": { "type": "LineString", "coordinates": [ [ -73.801965, 40.862377 ], [ -73.801982, 40.861734 ], [ -73.80195, 40.861604 ], [ -73.801687, 40.861166 ], [ -73.801322, 40.860724 ], [ -73.801269, 40.860674 ], [ -73.801057, 40.860316 ], [ -73.800803, 40.85986 ], [ -73.800653, 40.859687 ], [ -73.800575, 40.859602 ], [ -73.800488, 40.859519 ], [ -73.799997, 40.859185 ], [ -73.79956, 40.858902 ], [ -73.798972, 40.858556 ], [ -73.798776, 40.858457 ], [ -73.798478, 40.858344 ], [ -73.798207, 40.858227 ], [ -73.797745, 40.858002 ], [ -73.797284, 40.857784 ], [ -73.797054, 40.857681 ], [ -73.796976, 40.857673 ], [ -73.796903, 40.857658 ], [ -73.796839, 40.857624 ], [ -73.79678, 40.857585 ], [ -73.795972, 40.857267 ], [ -73.795942, 40.857254 ], [ -73.795929, 40.857242 ], [ -73.795927, 40.857232 ], [ -73.79593, 40.857222 ], [ -73.795935, 40.857212 ] ] } },
{ "type": "Feature", "properties": { "cls": "separated", "highway": "cycleway", "name": "City Island Greenway" }, "geometry": { "type": "LineString", "coordinates": [ [ -73.813525, 40.864373 ], [ -73.81339, 40.864344 ], [ -73.813326, 40.864331 ], [ -73.813273, 40.864318 ], [ -73.813237, 40.864306 ], [ -73.813205, 40.86429 ], [ -73.812923, 40.864144 ], [ -73.812653, 40.864021 ], [ -73.811198, 40.863418 ], [ -73.810769, 40.863243 ], [ -73.810455, 40.863128 ], [ -73.810262, 40.863069 ], [ -73.810082, 40.863023 ], [ -73.809404, 40.862856 ], [ -73.808702, 40.862676 ], [ -73.808162, 40.86255 ], [ -73.807694, 40.86247 ], [ -73.807426, 40.862427 ], [ -73.806524, 40.862313 ], [ -73.806454, 40.862304 ], [ -73.806118, 40.86223 ], [ -73.805486, 40.862035 ], [ -73.805141, 40.861899 ], [ -73.804729, 40.861702 ], [ -73.804155, 40.861393 ], [ -73.803688, 40.861089 ], [ -73.803474, 40.860931 ], [ -73.80335, 40.860765 ], [ -73.803121, 40.860178 ], [ -73.802969, 40.859899 ], [ -73.802857, 40.859773 ], [ -73.802834, 40.859761 ], [ -73.802806, 40.859749 ], [ -73.802755, 40.859728 ] ] } },
{ "type": "Feature", "properties": { "cls": "separated", "highway": "cycleway", "name": "City Island Greenway" }, "geometry": { "type": "LineString", "coordinates": [ [ -73.802033, 40.862377 ], [ -73.801965, 40.862377 ] ] } },
{ "type": "Feature", "properties": { "cls": "separated", "highway": "cycleway", "name": "City Island Greenway" }, "geometry": { "type": "LineString", "coordinates": [ [ -73.802191, 40.862379 ], [ -73.802114, 40.862378 ], [ -73.802033, 40.862377 ] ] } },
{ "type": "Feature", "properties": { "cls": "shared", "highway": "cycleway", "name": "Mosholu-Pelham Greenway" }, "geometry": { "type": "LineString", "coordinates": [ [ -73.814957, 40.863148 ], [ -73.815006, 40.863078 ] ] } },
{ "type": "Feature", "properties": { "cls": "separated", "highway": "cycleway", "name": "City Island Greenway" }, "geometry": { "type": "LineString", "coordinates": [ [ -73.813357, 40.864628 ], [ -73.813307, 40.86461 ], [ -73.813195, 40.864516 ], [ -73.812955, 40.864428 ], [ -73.812682, 40.864338 ], [ -73.812036, 40.864204 ], [ -73.811212, 40.864044 ], [ -73.811065, 40.863995 ], [ -73.80991, 40.863607 ], [ -73.809577, 40.863494 ], [ -73.809055, 40.863351 ], [ -73.808595, 40.863207 ], [ -73.807924, 40.863022 ], [ -73.80754, 40.862929 ], [ -73.807142, 40.86282 ], [ -73.806805, 40.862698 ], [ -73.806437, 40.862572 ], [ -73.805676, 40.86232 ], [ -73.805038, 40.862083 ], [ -73.804863, 40.862014 ], [ -73.804681, 40.86196 ], [ -73.804641, 40.861954 ], [ -73.804088, 40.862066 ], [ -73.804038, 40.862072 ], [ -73.803472, 40.862132 ], [ -73.803118, 40.862164 ], [ -73.802664, 40.862199 ], [ -73.802562, 40.862214 ], [ -73.802481, 40.862237 ], [ -73.802386, 40.862288 ], [ -73.802331, 40.862347 ], [ -73.80228, 40.862368 ], [ -73.802191, 40.862379 ] ] } },
{ "type": "Feature", "properties": { "cls": "shared", "highway": "cycleway", "name": "Mosholu-Pelham Greenway" }, "geometry": { "type": "LineString", "coordinates": [ [ -73.814957, 40.863148 ], [ -73.814454, 40.863779 ], [ -73.81416, 40.864063 ], [ -73.813977, 40.864221 ], [ -73.813805, 40.864314 ], [ -73.813525, 40.864373 ] ] } },
{ "type": "Feature", "properties": { "cls": "separated", "highway": "cycleway", "name": "Park Drive Greenway" }, "geometry": { "type": "LineString", "coordinates": [ [ -73.800713, 40.865954 ], [ -73.800936, 40.865519 ], [ -73.801202, 40.864959 ], [ -73.801317, 40.864716 ], [ -73.801532, 40.864318 ], [ -73.80173, 40.863592 ], [ -73.801757, 40.863464 ], [ -73.801886, 40.862862 ], [ -73.801965, 40.862377 ] ] } },
{ "type": "Feature", "properties": { "cls": "shared", "highway": "cycleway", "name": "Mosholu-Pelham Greenway" }, "geometry": { "type": "LineString", "coordinates": [ [ -73.813525, 40.864373 ], [ -73.813542, 40.864416 ] ] } },
{ "type": "Feature", "properties": { "cls": "shared", "highway": "cycleway", "name": "Mosholu-Pelham Greenway" }, "geometry": { "type": "LineString", "coordinates": [ [ -73.813542, 40.864416 ], [ -73.813555, 40.86444 ], [ -73.813571, 40.864469 ] ] } },
{ "type": "Feature", "properties": { "cls": "shared", "highway": "cycleway", "name": "Mosholu-Pelham Greenway" }, "geometry": { "type": "LineString", "coordinates": [ [ -73.813571, 40.864469 ], [ -73.813606, 40.86449 ], [ -73.813668, 40.864516 ], [ -73.813658, 40.864527 ] ] } },
{ "type": "Feature", "properties": { "cls": "shared", "highway": "cycleway", "name": "Mosholu-Pelham Greenway" }, "geometry": { "type": "LineString", "coordinates": [ [ -73.813658, 40.864527 ], [ -73.813617, 40.864574 ], [ -73.813579, 40.86463 ] ] } },
{ "type": "Feature", "properties": { "cls": "shared", "highway": "cycleway", "name": "City Island Greenway" }, "geometry": { "type": "LineString", "coordinates": [ [ -73.81346, 40.864668 ], [ -73.813382, 40.864637 ], [ -73.813357, 40.864628 ] ] } },
{ "type": "Feature", "properties": { "cls": "shared", "highway": "cycleway", "name": "Mosholu-Pelham Greenway" }, "geometry": { "type": "LineString", "coordinates": [ [ -73.813579, 40.86463 ], [ -73.813533, 40.864698 ], [ -73.813579, 40.864715 ] ] } },
{ "type": "Feature", "properties": { "cls": "shared", "highway": "cycleway", "name": "City Island Greenway" }, "geometry": { "type": "LineString", "coordinates": [ [ -73.813533, 40.864698 ], [ -73.81346, 40.864668 ] ] } },
{ "type": "Feature", "properties": { "cls": "shared", "highway": "cycleway", "name": "Mosholu-Pelham Greenway" }, "geometry": { "type": "LineString", "coordinates": [ [ -73.813579, 40.864715 ], [ -73.813637, 40.864736 ], [ -73.813692, 40.864754 ] ] } },
{ "type": "Feature", "properties": { "cls": "shared", "highway": "cycleway", "name": "Mosholu-Pelham Greenway" }, "geometry": { "type": "LineString", "coordinates": [ [ -73.813692, 40.864754 ], [ -73.81388, 40.864819 ] ] } },
{ "type": "Feature", "properties": { "cls": "shared", "highway": "cycleway", "name": "Mosholu-Pelham Greenway" }, "geometry": { "type": "LineString", "coordinates": [ [ -73.81388, 40.864819 ], [ -73.813935, 40.864837 ], [ -73.813996, 40.864857 ] ] } },
{ "type": "Feature", "properties": { "cls": "shared", "highway": "pedestrian", "name": "Orchard Beach Boardwalk" }, "geometry": { "type": "LineString", "coordinates": [ [ -73.791991, 40.861258 ], [ -73.792141, 40.861274 ], [ -73.792329, 40.861311 ], [ -73.79256, 40.861371 ], [ -73.792753, 40.86144 ], [ -73.792957, 40.861534 ], [ -73.793241, 40.861688 ], [ -73.793466, 40.861834 ], [ -73.79366, 40.861988 ], [ -73.793869, 40.862183 ], [ -73.794046, 40.862374 ], [ -73.794207, 40.862589 ], [ -73.794291, 40.862718 ], [ -73.794352, 40.862812 ], [ -73.794454, 40.863027 ], [ -73.794534, 40.863246 ], [ -73.794609, 40.863522 ], [ -73.794668, 40.863793 ], [ -73.79469, 40.864033 ], [ -73.794668, 40.864374 ], [ -73.794625, 40.864658 ], [ -73.794572, 40.86495 ], [ -73.794502, 40.865205 ], [ -73.794427, 40.865473 ], [ -73.794314, 40.865753 ], [ -73.794094, 40.866171 ], [ -73.793815, 40.86667 ], [ -73.793563, 40.867019 ], [ -73.793332, 40.867295 ], [ -73.793238, 40.867398 ], [ -73.792994, 40.867664 ], [ -73.792711, 40.867943 ], [ -73.792624, 40.868029 ], [ -73.792275, 40.868336 ], [ -73.792204, 40.868399 ], [ -73.792098, 40.868491 ], [ -73.791617, 40.868873 ], [ -73.791433, 40.869019 ], [ -73.79101, 40.869282 ], [ -73.790655, 40.869469 ], [ -73.790361, 40.869615 ], [ -73.79006, 40.869753 ], [ -73.789787, 40.869862 ], [ -73.789491, 40.869952 ], [ -73.789196, 40.870029 ], [ -73.788933, 40.870094 ], [ -73.788461, 40.870191 ], [ -73.788016, 40.870252 ], [ -73.787667, 40.870284 ], [ -73.787314, 40.8703 ], [ -73.786933, 40.870305 ], [ -73.786391, 40.870284 ], [ -73.785929, 40.870244 ], [ -73.785527, 40.870179 ], [ -73.785221, 40.870122 ], [ -73.784964, 40.870061 ] ] } },
{ "type": "Feature", "properties": { "cls": "shared", "highway": "cycleway", "name": "Park Drive Greenway" }, "geometry": { "type": "LineString", "coordinates": [ [ -73.800627, 40.86612 ], [ -73.800665, 40.866047 ], [ -73.800713, 40.865954 ] ] } },
{ "type": "Feature", "properties": { "cls": "separated", "highway": "cycleway", "name": null }, "geometry": { "type": "LineString", "coordinates": [ [ -73.796038, 40.866109 ], [ -73.795924, 40.866288 ] ] } },
{ "type": "Feature", "properties": { "cls": "separated", "highway": "cycleway", "name": "Park Drive Greenway" }, "geometry": { "type": "LineString", "coordinates": [ [ -73.800471, 40.866374 ], [ -73.800544, 40.866279 ], [ -73.800627, 40.86612 ] ] } },
{ "type": "Feature", "properties": { "cls": "separated", "highway": "cycleway", "name": null }, "geometry": { "type": "LineString", "coordinates": [ [ -73.795621, 40.86612 ], [ -73.795688, 40.866275 ] ] } },
{ "type": "Feature", "properties": { "cls": "shared", "highway": "cycleway", "name": "Park Drive Greenway" }, "geometry": { "type": "LineString", "coordinates": [ [ -73.800409, 40.866442 ], [ -73.80044, 40.866408 ], [ -73.800471, 40.866374 ] ] } },
{ "type": "Feature", "properties": { "cls": "separated", "highway": "cycleway", "name": "Park Drive Greenway" }, "geometry": { "type": "LineString", "coordinates": [ [ -73.795331, 40.866268 ], [ -73.795398, 40.866216 ], [ -73.795515, 40.866155 ], [ -73.795621, 40.86612 ], [ -73.795738, 40.8661 ], [ -73.795867, 40.866099 ], [ -73.796038, 40.866109 ], [ -73.796209, 40.86615 ], [ -73.796324, 40.866182 ], [ -73.796527, 40.866205 ], [ -73.799134, 40.866927 ], [ -73.799363, 40.866996 ], [ -73.79955, 40.866996 ], [ -73.799841, 40.866946 ], [ -73.799969, 40.866878 ], [ -73.800244, 40.866638 ], [ -73.800409, 40.866442 ] ] } },
{ "type": "Feature", "properties": { "cls": "shared", "highway": "cycleway", "name": "Mosholu-Pelham Greenway" }, "geometry": { "type": "LineString", "coordinates": [ [ -73.813996, 40.864857 ], [ -73.814028, 40.864868 ], [ -73.813955, 40.86501 ], [ -73.813783, 40.865311 ], [ -73.813413, 40.865957 ], [ -73.813168, 40.86637 ], [ -73.8124, 40.867751 ], [ -73.811954, 40.868596 ], [ -73.811722, 40.869088 ], [ -73.811684, 40.869155 ], [ -73.811681, 40.869183 ], [ -73.811694, 40.869236 ], [ -73.811698, 40.869253 ] ] } },
{ "type": "Feature", "properties": { "cls": "shared", "highway": "cycleway", "name": "Mosholu-Pelham Greenway" }, "geometry": { "type": "LineString", "coordinates": [ [ -73.811698, 40.869253 ], [ -73.811682, 40.869296 ], [ -73.811646, 40.869394 ] ] } },
{ "type": "Feature", "properties": { "cls": "shared", "highway": "cycleway", "name": "Mosholu-Pelham Greenway" }, "geometry": { "type": "LineString", "coordinates": [ [ -73.811646, 40.869394 ], [ -73.811616, 40.869476 ], [ -73.811577, 40.869569 ] ] } },
{ "type": "Feature", "properties": { "cls": "separated", "highway": "cycleway", "name": "Hutchinson River Greenway" }, "geometry": { "type": "LineString", "coordinates": [ [ -73.835202, 40.854695 ], [ -73.835194, 40.85472 ], [ -73.83517, 40.854785 ], [ -73.835051, 40.855019 ], [ -73.835047, 40.855042 ], [ -73.835051, 40.855114 ], [ -73.835047, 40.855153 ], [ -73.835036, 40.855199 ], [ -73.834984, 40.855458 ], [ -73.834937, 40.855654 ], [ -73.834902, 40.855798 ], [ -73.834878, 40.855876 ], [ -73.834847, 40.855943 ], [ -73.834818, 40.855991 ], [ -73.834783, 40.856018 ], [ -73.834749, 40.856039 ], [ -73.834717, 40.856053 ] ] } },
{ "type": "Feature", "properties": { "cls": "shared", "highway": "cycleway", "name": "Mosholu-Pelham Greenway" }, "geometry": { "type": "LineString", "coordinates": [ [ -73.832345, 40.855717 ], [ -73.832367, 40.855707 ] ] } },
{ "type": "Feature", "properties": { "cls": "shared", "highway": "cycleway", "name": "Mosholu-Pelham Greenway" }, "geometry": { "type": "LineString", "coordinates": [ [ -73.832367, 40.855707 ], [ -73.832377, 40.855703 ], [ -73.832388, 40.855701 ], [ -73.832404, 40.8557 ], [ -73.83243, 40.855713 ], [ -73.832444, 40.85572 ], [ -73.832518, 40.855762 ], [ -73.832553, 40.855779 ], [ -73.83259, 40.855793 ], [ -73.832639, 40.855802 ] ] } },
{ "type": "Feature", "properties": { "cls": "shared", "highway": "cycleway", "name": "Mosholu-Pelham Greenway" }, "geometry": { "type": "LineString", "coordinates": [ [ -73.832244, 40.855786 ], [ -73.832275, 40.855765 ], [ -73.832308, 40.855742 ], [ -73.832345, 40.855717 ] ] } },
{ "type": "Feature", "properties": { "cls": "shared", "highway": "cycleway", "name": "Mosholu-Pelham Greenway" }, "geometry": { "type": "LineString", "coordinates": [ [ -73.832225, 40.855799 ], [ -73.832244, 40.855786 ] ] } },
{ "type": "Feature", "properties": { "cls": "shared", "highway": "cycleway", "name": "Mosholu-Pelham Greenway" }, "geometry": { "type": "LineString", "coordinates": [ [ -73.832639, 40.855802 ], [ -73.832679, 40.85581 ], [ -73.832743, 40.855822 ], [ -73.832809, 40.855835 ] ] } },
{ "type": "Feature", "properties": { "cls": "shared", "highway": "cycleway", "name": "Mosholu-Pelham Greenway" }, "geometry": { "type": "LineString", "coordinates": [ [ -73.832809, 40.855835 ], [ -73.83288, 40.855847 ], [ -73.833205, 40.855898 ], [ -73.833253, 40.855904 ] ] } },
{ "type": "Feature", "properties": { "cls": "shared", "highway": "cycleway", "name": "Mosholu-Pelham Greenway" }, "geometry": { "type": "LineString", "coordinates": [ [ -73.833253, 40.855904 ], [ -73.833318, 40.855912 ], [ -73.833444, 40.855921 ] ] } },
{ "type": "Feature", "properties": { "cls": "shared", "highway": "cycleway", "name": "Mosholu-Pelham Greenway" }, "geometry": { "type": "LineString", "coordinates": [ [ -73.826718, 40.853449 ], [ -73.826892, 40.85395 ], [ -73.826911, 40.854062 ], [ -73.826911, 40.854406 ], [ -73.826904, 40.854668 ], [ -73.826935, 40.854732 ], [ -73.826982, 40.854793 ], [ -73.827125, 40.854942 ], [ -73.827261, 40.855055 ], [ -73.82742, 40.855178 ], [ -73.827585, 40.855292 ], [ -73.827695, 40.85537 ], [ -73.827793, 40.855447 ], [ -73.827855, 40.855503 ], [ -73.827902, 40.855564 ], [ -73.82794, 40.855624 ], [ -73.828029, 40.85576 ], [ -73.828162, 40.855961 ], [ -73.828178, 40.856007 ] ] } },
{ "type": "Feature", "properties": { "cls": "shared", "highway": "cycleway", "name": "Mosholu-Pelham Greenway" }, "geometry": { "type": "LineString", "coordinates": [ [ -73.830231, 40.855607 ], [ -73.830241, 40.855619 ], [ -73.830253, 40.855634 ] ] } },
{ "type": "Feature", "properties": { "cls": "shared", "highway": "cycleway", "name": "Mosholu-Pelham Greenway" }, "geometry": { "type": "LineString", "coordinates": [ [ -73.830253, 40.855634 ], [ -73.830273, 40.855659 ], [ -73.830288, 40.855676 ] ] } },
{ "type": "Feature", "properties": { "cls": "shared", "highway": "cycleway", "name": "Mosholu-Pelham Greenway" }, "geometry": { "type": "LineString", "coordinates": [ [ -73.830288, 40.855676 ], [ -73.8303, 40.855691 ], [ -73.830313, 40.855698 ], [ -73.830334, 40.855702 ], [ -73.830467, 40.855679 ], [ -73.830654, 40.855655 ], [ -73.830871, 40.855646 ], [ -73.831047, 40.855645 ], [ -73.831148, 40.85564 ], [ -73.83122, 40.855633 ], [ -73.831281, 40.855627 ], [ -73.831351, 40.855627 ], [ -73.831482, 40.855635 ], [ -73.831563, 40.855646 ], [ -73.83165, 40.85566 ], [ -73.831774, 40.855683 ], [ -73.831893, 40.85571 ], [ -73.831941, 40.855722 ], [ -73.832171, 40.8558 ], [ -73.832184, 40.855805 ], [ -73.832197, 40.855808 ], [ -73.832209, 40.855807 ], [ -73.832217, 40.855805 ], [ -73.832225, 40.855799 ] ] } },
{ "type": "Feature", "properties": { "cls": "shared", "highway": "cycleway", "name": null }, "geometry": { "type": "LineString", "coordinates": [ [ -73.828544, 40.855788 ], [ -73.828551, 40.855782 ] ] } },
{ "type": "Feature", "properties": { "cls": "shared", "highway": "cycleway", "name": "Mosholu-Pelham Greenway" }, "geometry": { "type": "LineString", "coordinates": [ [ -73.828178, 40.856007 ], [ -73.82822, 40.856007 ], [ -73.828394, 40.85604 ], [ -73.82848, 40.856044 ], [ -73.828648, 40.856024 ], [ -73.828949, 40.85598 ], [ -73.829117, 40.855951 ], [ -73.829285, 40.855917 ], [ -73.829409, 40.855889 ], [ -73.829575, 40.855845 ], [ -73.829732, 40.855794 ], [ -73.830231, 40.855607 ] ] } },
{ "type": "Feature", "properties": { "cls": "shared", "highway": "cycleway", "name": "Mosholu-Pelham Greenway" }, "geometry": { "type": "LineString", "coordinates": [ [ -73.82794, 40.855624 ], [ -73.827972, 40.8558 ], [ -73.827972, 40.855857 ], [ -73.827963, 40.855918 ], [ -73.827946, 40.855976 ], [ -73.827935, 40.856002 ], [ -73.827922, 40.85603 ], [ -73.827907, 40.856053 ], [ -73.827886, 40.856087 ], [ -73.827841, 40.856147 ] ] } },
{ "type": "Feature", "properties": { "cls": "shared", "highway": "cycleway", "name": null }, "geometry": { "type": "LineString", "coordinates": [ [ -73.826405, 40.848753 ], [ -73.826458, 40.848907 ] ] } },
{ "type": "Feature", "properties": { "cls": "shared", "highway": "cycleway", "name": null }, "geometry": { "type": "LineString", "coordinates": [ [ -73.826458, 40.848907 ], [ -73.826493, 40.849076 ], [ -73.826534, 40.849071 ], [ -73.826502, 40.848921 ], [ -73.826816, 40.848882 ] ] } },
{ "type": "Feature", "properties": { "cls": "shared", "highway": "cycleway", "name": null }, "geometry": { "type": "LineString", "coordinates": [ [ -73.825996, 40.851432 ], [ -73.825654, 40.851377 ] ] } },
{ "type": "Feature", "properties": { "cls": "shared", "highway": "cycleway", "name": null }, "geometry": { "type": "LineString", "coordinates": [ [ -73.826371, 40.851518 ], [ -73.825996, 40.851432 ] ] } },
{ "type": "Feature", "properties": { "cls": "separated", "highway": "cycleway", "name": null }, "geometry": { "type": "LineString", "coordinates": [ [ -73.82576, 40.853262 ], [ -73.825758, 40.853266 ], [ -73.825748, 40.853287 ], [ -73.825733, 40.853316 ], [ -73.825689, 40.853393 ], [ -73.825652, 40.853453 ], [ -73.825619, 40.853494 ], [ -73.825583, 40.853535 ], [ -73.825562, 40.853566 ], [ -73.825539, 40.853618 ], [ -73.825518, 40.853647 ], [ -73.825458, 40.85371 ], [ -73.82541, 40.85376 ], [ -73.825292, 40.853927 ], [ -73.82519, 40.85403 ], [ -73.824947, 40.854248 ], [ -73.824903, 40.854278 ], [ -73.824737, 40.854357 ], [ -73.824253, 40.854577 ] ] } },
{ "type": "Feature", "properties": { "cls": "shared", "highway": "cycleway", "name": "Hutchinson River Greenway" }, "geometry": { "type": "LineString", "coordinates": [ [ -73.825561, 40.856287 ], [ -73.825441, 40.856242 ], [ -73.825321, 40.856192 ], [ -73.825295, 40.856173 ], [ -73.825268, 40.856158 ], [ -73.825242, 40.85614 ], [ -73.82522, 40.85612 ], [ -73.82519, 40.856079 ], [ -73.825194, 40.856 ], [ -73.825235, 40.855934 ], [ -73.825272, 40.855889 ], [ -73.825323, 40.855847 ], [ -73.825382, 40.855807 ], [ -73.825429, 40.855779 ], [ -73.825486, 40.855761 ], [ -73.825556, 40.855744 ], [ -73.825614, 40.855741 ], [ -73.825675, 40.855733 ], [ -73.825744, 40.855745 ], [ -73.825796, 40.855759 ], [ -73.825857, 40.855781 ], [ -73.825907, 40.855801 ], [ -73.825944, 40.855839 ], [ -73.825973, 40.855869 ], [ -73.826004, 40.855899 ], [ -73.826038, 40.855963 ], [ -73.826061, 40.856004 ], [ -73.826079, 40.856065 ], [ -73.826095, 40.856127 ], [ -73.826109, 40.856195 ], [ -73.826118, 40.856261 ] ] } },
{ "type": "Feature", "properties": { "cls": "shared", "highway": "cycleway", "name": "Mosholu-Pelham Greenway" }, "geometry": { "type": "LineString", "coordinates": [ [ -73.833444, 40.855921 ], [ -73.833565, 40.855933 ], [ -73.833618, 40.855932 ], [ -73.833684, 40.855927 ], [ -73.833884, 40.855912 ], [ -73.833896, 40.855912 ], [ -73.833904, 40.855915 ], [ -73.833911, 40.855924 ], [ -73.833928, 40.855953 ] ] } },
{ "type": "Feature", "properties": { "cls": "shared", "highway": "cycleway", "name": "Mosholu-Pelham Greenway" }, "geometry": { "type": "LineString", "coordinates": [ [ -73.833928, 40.855953 ], [ -73.833949, 40.855981 ], [ -73.833964, 40.855996 ] ] } },
{ "type": "Feature", "properties": { "cls": "shared", "highway": "cycleway", "name": "Mosholu-Pelham Greenway" }, "geometry": { "type": "LineString", "coordinates": [ [ -73.833964, 40.855996 ], [ -73.833973, 40.856008 ], [ -73.833977, 40.856014 ], [ -73.833985, 40.85602 ], [ -73.833997, 40.856022 ], [ -73.83409, 40.856022 ], [ -73.834113, 40.856025 ], [ -73.834305, 40.856068 ], [ -73.834405, 40.856082 ], [ -73.834486, 40.856091 ], [ -73.83453, 40.856091 ], [ -73.834575, 40.856085 ] ] } },
{ "type": "Feature", "properties": { "cls": "shared", "highway": "cycleway", "name": "Hutchinson River Greenway" }, "geometry": { "type": "LineString", "coordinates": [ [ -73.834717, 40.856053 ], [ -73.834696, 40.85606 ] ] } },
{ "type": "Feature", "properties": { "cls": "shared", "highway": "cycleway", "name": "Mosholu-Pelham Greenway" }, "geometry": { "type": "LineString", "coordinates": [ [ -73.834672, 40.856064 ], [ -73.834693, 40.856059 ], [ -73.834696, 40.85606 ] ] } },
{ "type": "Feature", "properties": { "cls": "shared", "highway": "cycleway", "name": "Mosholu-Pelham Greenway" }, "geometry": { "type": "LineString", "coordinates": [ [ -73.8346, 40.856079 ], [ -73.834637, 40.856071 ], [ -73.834672, 40.856064 ] ] } },
{ "type": "Feature", "properties": { "cls": "shared", "highway": "cycleway", "name": "Mosholu-Pelham Greenway" }, "geometry": { "type": "LineString", "coordinates": [ [ -73.834575, 40.856085 ], [ -73.8346, 40.856079 ] ] } },
{ "type": "Feature", "properties": { "cls": "shared", "highway": "cycleway", "name": null }, "geometry": { "type": "LineString", "coordinates": [ [ -73.835198, 40.856022 ], [ -73.835172, 40.856077 ], [ -73.835159, 40.856217 ], [ -73.835159, 40.856236 ], [ -73.835168, 40.856255 ], [ -73.835187, 40.85629 ] ] } },
{ "type": "Feature", "properties": { "cls": "shared", "highway": "cycleway", "name": "Mosholu-Pelham Greenway" }, "geometry": { "type": "LineString", "coordinates": [ [ -73.834696, 40.85606 ], [ -73.83473, 40.856118 ], [ -73.834796, 40.856175 ], [ -73.834845, 40.856201 ], [ -73.834902, 40.85623 ], [ -73.834956, 40.856252 ], [ -73.835023, 40.856268 ], [ -73.835135, 40.856288 ], [ -73.835187, 40.85629 ] ] } },
{ "type": "Feature", "properties": { "cls": "shared", "highway": "cycleway", "name": "Mosholu-Pelham Greenway" }, "geometry": { "type": "LineString", "coordinates": [ [ -73.835187, 40.85629 ], [ -73.835397, 40.856323 ] ] } },
{ "type": "Feature", "properties": { "cls": "shared", "highway": "cycleway", "name": null }, "geometry": { "type": "LineString", "coordinates": [ [ -73.82519, 40.856079 ], [ -73.825201, 40.856161 ], [ -73.825238, 40.856283 ], [ -73.82524, 40.856336 ], [ -73.825217, 40.8564 ] ] } },
{ "type": "Feature", "properties": { "cls": "shared", "highway": "cycleway", "name": "Mosholu-Pelham Greenway" }, "geometry": { "type": "LineString", "coordinates": [ [ -73.82766, 40.856287 ], [ -73.827606, 40.856242 ], [ -73.827569, 40.856219 ], [ -73.827512, 40.856176 ], [ -73.827461, 40.856152 ], [ -73.827395, 40.856144 ], [ -73.827226, 40.856186 ], [ -73.826788, 40.856315 ], [ -73.826672, 40.856342 ], [ -73.826528, 40.856351 ], [ -73.826109, 40.856398 ], [ -73.825944, 40.856389 ], [ -73.825793, 40.856367 ], [ -73.825675, 40.856319 ], [ -73.825561, 40.856287 ] ] } },
{ "type": "Feature", "properties": { "cls": "shared", "highway": "cycleway", "name": "Mosholu-Pelham Greenway" }, "geometry": { "type": "LineString", "coordinates": [ [ -73.825561, 40.856287 ], [ -73.825436, 40.856299 ], [ -73.825314, 40.85634 ], [ -73.825258, 40.856373 ], [ -73.825217, 40.8564 ] ] } },
{ "type": "Feature", "properties": { "cls": "shared", "highway": "cycleway", "name": "Hutchinson River Greenway" }, "geometry": { "type": "LineString", "coordinates": [ [ -73.826118, 40.856261 ], [ -73.826232, 40.856995 ] ] } },
{ "type": "Feature", "properties": { "cls": "shared", "highway": "cycleway", "name": "Hutchinson River Greenway" }, "geometry": { "type": "LineString", "coordinates": [ [ -73.826232, 40.856995 ], [ -73.826246, 40.857079 ], [ -73.826252, 40.857138 ], [ -73.826257, 40.857193 ], [ -73.826263, 40.857261 ], [ -73.826262, 40.857308 ], [ -73.826248, 40.857402 ], [ -73.826241, 40.857482 ], [ -73.826242, 40.857546 ], [ -73.826236, 40.857613 ], [ -73.826233, 40.85767 ], [ -73.82623, 40.857742 ], [ -73.826272, 40.857946 ], [ -73.826349, 40.858117 ] ] } },
{ "type": "Feature", "properties": { "cls": "shared", "highway": "cycleway", "name": "Hutchinson River Greenway" }, "geometry": { "type": "LineString", "coordinates": [ [ -73.826349, 40.858117 ], [ -73.826374, 40.85819 ], [ -73.826402, 40.858264 ], [ -73.826458, 40.858358 ], [ -73.826509, 40.858436 ], [ -73.826636, 40.85866 ], [ -73.826729, 40.858857 ] ] } },
{ "type": "Feature", "properties": { "cls": "shared", "highway": "cycleway", "name": "Mosholu-Pelham Greenway" }, "geometry": { "type": "LineString", "coordinates": [ [ -73.828178, 40.856007 ], [ -73.828198, 40.855975 ], [ -73.828234, 40.855952 ], [ -73.828527, 40.855799 ], [ -73.828536, 40.855793 ], [ -73.828544, 40.855788 ] ] } },
{ "type": "Feature", "properties": { "cls": "shared", "highway": "cycleway", "name": "Mosholu-Pelham Greenway" }, "geometry": { "type": "LineString", "coordinates": [ [ -73.828178, 40.856007 ], [ -73.828093, 40.856024 ], [ -73.828028, 40.856052 ], [ -73.827979, 40.856064 ], [ -73.827937, 40.856075 ], [ -73.827841, 40.856147 ], [ -73.82766, 40.856287 ] ] } },
{ "type": "Feature", "properties": { "cls": "shared", "highway": "cycleway", "name": "Hutchinson River Greenway" }, "geometry": { "type": "LineString", "coordinates": [ [ -73.826729, 40.858857 ], [ -73.826829, 40.859134 ] ] } },
{ "type": "Feature", "properties": { "cls": "shared", "highway": "cycleway", "name": "Hutchinson River Greenway" }, "geometry": { "type": "LineString", "coordinates": [ [ -73.820108, 40.870005 ], [ -73.820126, 40.869969 ], [ -73.820135, 40.869951 ], [ -73.820158, 40.869922 ], [ -73.820202, 40.869878 ], [ -73.820478, 40.869607 ], [ -73.820499, 40.869588 ] ] } },
{ "type": "Feature", "properties": { "cls": "shared", "highway": "cycleway", "name": "Hutchinson River Greenway" }, "geometry": { "type": "LineString", "coordinates": [ [ -73.818995, 40.873022 ], [ -73.819068, 40.873008 ], [ -73.819221, 40.87299 ], [ -73.819377, 40.87298 ], [ -73.819451, 40.872968 ], [ -73.819506, 40.872948 ], [ -73.819619, 40.872889 ], [ -73.819701, 40.872835 ], [ -73.819783, 40.872772 ], [ -73.819839, 40.872724 ], [ -73.819904, 40.872663 ], [ -73.819958, 40.872599 ], [ -73.820016, 40.872523 ], [ -73.820056, 40.872466 ], [ -73.820116, 40.872362 ], [ -73.820144, 40.87229 ], [ -73.820168, 40.872218 ], [ -73.820188, 40.872098 ], [ -73.820196, 40.871996 ], [ -73.820191, 40.871877 ], [ -73.820178, 40.871776 ], [ -73.820138, 40.871591 ], [ -73.820113, 40.871487 ], [ -73.82009, 40.871409 ], [ -73.820045, 40.871294 ], [ -73.819972, 40.87111 ], [ -73.819968, 40.871078 ], [ -73.819967, 40.871048 ], [ -73.819971, 40.870984 ], [ -73.819987, 40.87087 ], [ -73.820018, 40.870721 ], [ -73.820034, 40.870636 ], [ -73.820004, 40.8705 ], [ -73.820012, 40.870314 ], [ -73.820076, 40.870182 ], [ -73.820096, 40.870047 ], [ -73.820108, 40.870005 ] ] } },
{ "type": "Feature", "properties": { "cls": "shared", "highway": "cycleway", "name": "Hutchinson River Greenway" }, "geometry": { "type": "LineString", "coordinates": [ [ -73.818355, 40.873095 ], [ -73.818498, 40.873091 ], [ -73.818634, 40.873082 ], [ -73.818861, 40.873048 ], [ -73.818995, 40.873022 ] ] } },
{ "type": "Feature", "properties": { "cls": "shared", "highway": "cycleway", "name": "Hutchinson River Greenway" }, "geometry": { "type": "LineString", "coordinates": [ [ -73.817812, 40.873467 ], [ -73.817857, 40.873457 ], [ -73.817955, 40.873437 ], [ -73.817996, 40.873427 ], [ -73.81805, 40.873409 ], [ -73.818072, 40.873399 ], [ -73.818097, 40.873385 ], [ -73.818118, 40.87337 ], [ -73.818157, 40.873336 ], [ -73.818175, 40.873312 ], [ -73.818194, 40.873277 ], [ -73.818229, 40.87319 ], [ -73.818238, 40.87317 ], [ -73.818263, 40.873137 ], [ -73.818306, 40.873105 ], [ -73.81833, 40.873097 ], [ -73.818355, 40.873095 ] ] } },
{ "type": "Feature", "properties": { "cls": "shared", "highway": "cycleway", "name": "Hutchinson River Greenway" }, "geometry": { "type": "LineString", "coordinates": [ [ -73.817716, 40.873485 ], [ -73.817766, 40.873476 ], [ -73.817812, 40.873467 ] ] } },
{ "type": "Feature", "properties": { "cls": "shared", "highway": "cycleway", "name": "Mosholu-Pelham Greenway" }, "geometry": { "type": "LineString", "coordinates": [ [ -73.811577, 40.869569 ], [ -73.81156, 40.869598 ], [ -73.811541, 40.86963 ] ] } },
{ "type": "Feature", "properties": { "cls": "shared", "highway": "cycleway", "name": "Hutchinson River Greenway" }, "geometry": { "type": "LineString", "coordinates": [ [ -73.811525, 40.869656 ], [ -73.81162, 40.869657 ], [ -73.811749, 40.86969 ], [ -73.812163, 40.869884 ], [ -73.812592, 40.870047 ] ] } },
{ "type": "Feature", "properties": { "cls": "shared", "highway": "cycleway", "name": "Hutchinson River Greenway" }, "geometry": { "type": "LineString", "coordinates": [ [ -73.812592, 40.870047 ], [ -73.812941, 40.870174 ] ] } },
{ "type": "Feature", "properties": { "cls": "shared", "highway": "cycleway", "name": "Mosholu-Pelham Greenway" }, "geometry": { "type": "LineString", "coordinates": [ [ -73.811541, 40.86963 ], [ -73.811525, 40.869656 ], [ -73.81152, 40.869666 ], [ -73.811443, 40.869769 ], [ -73.811432, 40.870033 ], [ -73.811495, 40.870309 ], [ -73.811313, 40.870536 ], [ -73.811105, 40.870737 ], [ -73.810778, 40.87092 ], [ -73.810703, 40.870949 ] ] } },
{ "type": "Feature", "properties": { "cls": "shared", "highway": "cycleway", "name": "Mosholu-Pelham Greenway" }, "geometry": { "type": "LineString", "coordinates": [ [ -73.810703, 40.870949 ], [ -73.81057, 40.871015 ], [ -73.81051, 40.871062 ], [ -73.810445, 40.871134 ], [ -73.810306, 40.871316 ] ] } },
{ "type": "Feature", "properties": { "cls": "shared", "highway": "cycleway", "name": "Hutchinson River Greenway" }, "geometry": { "type": "LineString", "coordinates": [ [ -73.812941, 40.870174 ], [ -73.813431, 40.87035 ], [ -73.813586, 40.870411 ], [ -73.813673, 40.870448 ], [ -73.813759, 40.870491 ], [ -73.814049, 40.870652 ], [ -73.814135, 40.870703 ], [ -73.81424, 40.87077 ], [ -73.8143, 40.870816 ], [ -73.814403, 40.870924 ], [ -73.814527, 40.871032 ], [ -73.814649, 40.871126 ], [ -73.814715, 40.871183 ], [ -73.814821, 40.871288 ], [ -73.815091, 40.871573 ], [ -73.815138, 40.871629 ], [ -73.815227, 40.871754 ], [ -73.815273, 40.871813 ], [ -73.815311, 40.871859 ], [ -73.815347, 40.871892 ], [ -73.81542, 40.871937 ], [ -73.815593, 40.872046 ], [ -73.815729, 40.872134 ], [ -73.815829, 40.872208 ], [ -73.81614, 40.872443 ], [ -73.816191, 40.872473 ], [ -73.816289, 40.87252 ], [ -73.816372, 40.872565 ], [ -73.816447, 40.872621 ], [ -73.816714, 40.872891 ], [ -73.816846, 40.873018 ], [ -73.816969, 40.873144 ], [ -73.817014, 40.873187 ], [ -73.81707, 40.873228 ], [ -73.817139, 40.873273 ], [ -73.817296, 40.873353 ], [ -73.817392, 40.873401 ], [ -73.817525, 40.873453 ], [ -73.817628, 40.873484 ], [ -73.81767, 40.873489 ], [ -73.817716, 40.873485 ] ] } },
{ "type": "Feature", "properties": { "cls": "shared", "highway": "cycleway", "name": "Mosholu-Pelham Greenway" }, "geometry": { "type": "LineString", "coordinates": [ [ -73.810306, 40.871316 ], [ -73.81022, 40.871437 ], [ -73.810126, 40.87157 ], [ -73.810045, 40.871685 ], [ -73.809626, 40.872306 ], [ -73.809258, 40.872791 ], [ -73.809061, 40.872969 ], [ -73.808908, 40.873085 ], [ -73.808701, 40.873208 ], [ -73.808504, 40.87328 ], [ -73.808466, 40.873294 ], [ -73.80824, 40.873402 ], [ -73.807991, 40.87352 ], [ -73.807748, 40.873603 ], [ -73.807263, 40.873693 ], [ -73.806313, 40.873925 ], [ -73.806079, 40.873995 ], [ -73.805584, 40.8742 ], [ -73.804245, 40.874816 ], [ -73.803393, 40.875188 ], [ -73.803153, 40.875359 ], [ -73.802361, 40.875664 ], [ -73.801916, 40.87579 ], [ -73.801033, 40.876025 ], [ -73.800386, 40.876216 ], [ -73.799993, 40.876344 ], [ -73.799358, 40.876565 ], [ -73.799061, 40.876669 ], [ -73.798698, 40.876792 ], [ -73.798221, 40.876949 ], [ -73.79796, 40.877027 ], [ -73.797745, 40.877102 ], [ -73.797531, 40.877192 ], [ -73.79739, 40.87728 ], [ -73.797277, 40.877384 ], [ -73.797202, 40.877458 ], [ -73.797072, 40.877611 ], [ -73.796945, 40.87776 ], [ -73.796615, 40.878154 ], [ -73.796095, 40.878747 ], [ -73.795987, 40.8789 ], [ -73.795941, 40.87905 ], [ -73.795897, 40.879269 ], [ -73.795906, 40.879629 ], [ -73.795993, 40.87996 ], [ -73.795983, 40.880114 ], [ -73.795941, 40.880307 ], [ -73.795982, 40.880594 ], [ -73.79604, 40.880855 ], [ -73.79604, 40.880923 ], [ -73.795974, 40.881095 ], [ -73.795782, 40.881398 ], [ -73.795696, 40.88177 ], [ -73.795689, 40.881927 ], [ -73.795769, 40.882325 ], [ -73.795831, 40.882446 ], [ -73.795925, 40.882554 ], [ -73.796146, 40.882711 ], [ -73.796347, 40.882812 ], [ -73.796912, 40.88301 ], [ -73.797069, 40.883071 ], [ -73.797185, 40.883132 ], [ -73.797285, 40.883225 ], [ -73.797413, 40.883589 ], [ -73.797428, 40.883689 ] ] } }
]
}
