{
"type": "FeatureCollection",
"name": "084-lisbon-monsanto-forest-park",
"crs": { "type": "name", "properties": { "name": "urn:ogc:def:crs:OGC:1.3:CRS84" } },
"xy_coordinate_resolution": 1e-06,
"features": [
{ "type": "Feature", "properties": { "cls": "shared", "highway": "path", "name": null }, "geometry": { "type": "LineString", "coordinates": [ [ -9.17224, 38.724319 ], [ -9.172664, 38.724275 ] ] } },
{ "type": "Feature", "properties": { "cls": "shared", "highway": "cycleway", "name": "Corredor Verde do Vale de Alcântara" }, "geometry": { "type": "LineString", "coordinates": [ [ -9.170922, 38.727914 ], [ -9.170954, 38.727823 ], [ -9.170977, 38.727749 ], [ -9.171064, 38.727524 ], [ -9.171061, 38.727479 ], [ -9.171111, 38.72739 ], [ -9.17115, 38.727288 ], [ -9.171171, 38.727166 ], [ -9.171175, 38.727039 ], [ -9.171158, 38.726953 ], [ -9.171148, 38.726915 ], [ -9.171156, 38.726895 ], [ -9.17116, 38.726883 ] ] } },
{ "type": "Feature", "properties": { "cls": "shared", "highway": "cycleway", "name": "Corredor Verde do Vale de Alcântara" }, "geometry": { "type": "LineString", "coordinates": [ [ -9.170502, 38.728806 ], [ -9.170922, 38.727914 ] ] } },
{ "type": "Feature", "properties": { "cls": "sharrow", "highway": "residential", "name": "Rua Padre José Gallea" }, "geometry": { "type": "LineString", "coordinates": [ [ -9.174371, 38.729385 ], [ -9.174375, 38.729358 ] ] } },
{ "type": "Feature", "properties": { "cls": "separated", "highway": "cycleway", "name": "Pista do Panorâmico" }, "geometry": { "type": "LineString", "coordinates": [ [ -9.18282, 38.728438 ], [ -9.182913, 38.728425 ], [ -9.183032, 38.728401 ], [ -9.183131, 38.728361 ], [ -9.183262, 38.728265 ], [ -9.183488, 38.728059 ], [ -9.183683, 38.727915 ], [ -9.183794, 38.727852 ], [ -9.183912, 38.727799 ], [ -9.184012, 38.72779 ], [ -9.184113, 38.727789 ], [ -9.184205, 38.7278 ], [ -9.184298, 38.727821 ], [ -9.184656, 38.727979 ], [ -9.18495, 38.728108 ], [ -9.185201, 38.728274 ], [ -9.185333, 38.728325 ], [ -9.185468, 38.728356 ], [ -9.185614, 38.728354 ], [ -9.18571, 38.728334 ], [ -9.185811, 38.728301 ], [ -9.186186, 38.728065 ], [ -9.186221, 38.728044 ], [ -9.186397, 38.727966 ], [ -9.186587, 38.727941 ], [ -9.186818, 38.727977 ], [ -9.186968, 38.728054 ], [ -9.187176, 38.728262 ], [ -9.187274, 38.728367 ], [ -9.187373, 38.728483 ], [ -9.187569, 38.728705 ], [ -9.1877, 38.728808 ], [ -9.187875, 38.728892 ], [ -9.188017, 38.72891 ], [ -9.188156, 38.72891 ], [ -9.188311, 38.728863 ], [ -9.188755, 38.728713 ], [ -9.188995, 38.728624 ], [ -9.189131, 38.728549 ], [ -9.189216, 38.728462 ], [ -9.189286, 38.728334 ], [ -9.189303, 38.728244 ], [ -9.189304, 38.728185 ], [ -9.1893, 38.728144 ] ] } },
{ "type": "Feature", "properties": { "cls": "separated", "highway": "cycleway", "name": "Pista do Panorâmico" }, "geometry": { "type": "LineString", "coordinates": [ [ -9.181414, 38.72977 ], [ -9.18142, 38.729752 ], [ -9.181422, 38.729734 ], [ -9.181422, 38.729715 ], [ -9.181417, 38.729689 ], [ -9.181409, 38.729664 ], [ -9.181384, 38.729621 ], [ -9.181331, 38.729556 ], [ -9.181273, 38.729492 ], [ -9.181209, 38.729429 ], [ -9.181178, 38.729401 ], [ -9.181147, 38.729375 ], [ -9.180972, 38.729264 ], [ -9.180762, 38.729111 ], [ -9.180558, 38.728953 ], [ -9.180357, 38.728795 ], [ -9.180261, 38.728713 ], [ -9.180171, 38.728631 ], [ -9.18015, 38.728602 ], [ -9.18014, 38.728556 ], [ -9.180129, 38.728437 ], [ -9.180119, 38.728294 ], [ -9.180131, 38.727878 ], [ -9.180175, 38.727733 ], [ -9.180243, 38.7276 ], [ -9.180334, 38.727514 ], [ -9.180437, 38.727441 ], [ -9.180522, 38.727394 ], [ -9.180616, 38.727355 ], [ -9.180702, 38.727329 ], [ -9.180799, 38.72732 ], [ -9.180931, 38.727323 ], [ -9.180976, 38.727331 ], [ -9.181021, 38.72734 ], [ -9.181119, 38.727374 ], [ -9.181166, 38.727402 ], [ -9.181265, 38.727447 ], [ -9.181348, 38.727504 ], [ -9.181927, 38.727913 ], [ -9.182269, 38.728137 ], [ -9.182557, 38.728335 ], [ -9.182708, 38.728422 ], [ -9.18282, 38.728438 ] ] } },
{ "type": "Feature", "properties": { "cls": "separated", "highway": "path", "name": "Pista do Panorâmico" }, "geometry": { "type": "LineString", "coordinates": [ [ -9.180268, 38.730506 ], [ -9.180302, 38.730464 ], [ -9.180341, 38.730429 ], [ -9.180431, 38.730367 ], [ -9.180534, 38.730306 ], [ -9.180636, 38.730256 ], [ -9.181004, 38.730089 ], [ -9.181253, 38.730001 ], [ -9.181352, 38.729915 ], [ -9.18138, 38.729871 ], [ -9.181414, 38.72977 ] ] } },
{ "type": "Feature", "properties": { "cls": "shared", "highway": "pedestrian", "name": null }, "geometry": { "type": "LineString", "coordinates": [ [ -9.201774, 38.717586 ], [ -9.201682, 38.71767 ] ] } },
{ "type": "Feature", "properties": { "cls": "shared", "highway": "path", "name": null }, "geometry": { "type": "LineString", "coordinates": [ [ -9.201604, 38.71774 ], [ -9.201591, 38.717754 ], [ -9.201403, 38.717625 ] ] } },
{ "type": "Feature", "properties": { "cls": "separated", "highway": "cycleway", "name": "Pista do Panorâmico" }, "geometry": { "type": "LineString", "coordinates": [ [ -9.1893, 38.728144 ], [ -9.189251, 38.728042 ], [ -9.189202, 38.727958 ], [ -9.1891, 38.727794 ], [ -9.188759, 38.727232 ], [ -9.188658, 38.727068 ], [ -9.188606, 38.726964 ], [ -9.188585, 38.726894 ], [ -9.188574, 38.726826 ], [ -9.188589, 38.726744 ], [ -9.188612, 38.726678 ], [ -9.188687, 38.7266 ], [ -9.188808, 38.726528 ], [ -9.188875, 38.726502 ], [ -9.188945, 38.726486 ], [ -9.189048, 38.726486 ], [ -9.18915, 38.726497 ], [ -9.189231, 38.726518 ], [ -9.189311, 38.726555 ], [ -9.189376, 38.726602 ], [ -9.189427, 38.72666 ], [ -9.189471, 38.726741 ], [ -9.1895, 38.726827 ], [ -9.189581, 38.72713 ], [ -9.189629, 38.727365 ], [ -9.18966, 38.727501 ], [ -9.189689, 38.727613 ], [ -9.189739, 38.727738 ], [ -9.189795, 38.727845 ], [ -9.189832, 38.727904 ], [ -9.189872, 38.727968 ], [ -9.18995, 38.728064 ], [ -9.189996, 38.728107 ] ] } },
{ "type": "Feature", "properties": { "cls": "separated", "highway": "tertiary", "name": "Estrada do Outeiro-Norte" }, "geometry": { "type": "LineString", "coordinates": [ [ -9.203919, 38.730123 ], [ -9.203985, 38.729862 ], [ -9.204201, 38.728899 ], [ -9.204327, 38.728481 ], [ -9.204423, 38.728147 ], [ -9.204522, 38.727793 ], [ -9.204526, 38.727674 ], [ -9.204505, 38.727583 ], [ -9.204468, 38.72751 ], [ -9.204419, 38.727438 ], [ -9.204382, 38.727393 ], [ -9.204325, 38.72735 ], [ -9.204277, 38.727308 ], [ -9.2042, 38.72727 ], [ -9.204133, 38.727247 ], [ -9.204047, 38.727227 ], [ -9.203993, 38.727218 ], [ -9.203926, 38.727212 ], [ -9.203835, 38.72721 ], [ -9.203757, 38.727221 ], [ -9.20301, 38.727378 ], [ -9.202196, 38.727486 ], [ -9.201896, 38.72752 ], [ -9.201527, 38.72752 ], [ -9.20142, 38.727511 ], [ -9.201252, 38.72748 ], [ -9.2009, 38.727379 ], [ -9.200621, 38.727263 ], [ -9.200324, 38.727118 ], [ -9.200129, 38.726973 ], [ -9.199939, 38.726793 ], [ -9.199754, 38.726561 ], [ -9.199572, 38.726246 ], [ -9.199473, 38.72599 ], [ -9.199374, 38.725722 ] ] } },
{ "type": "Feature", "properties": { "cls": "separated", "highway": "path", "name": "Pista do Panorâmico" }, "geometry": { "type": "LineString", "coordinates": [ [ -9.189996, 38.728107 ], [ -9.19042, 38.728422 ], [ -9.190511, 38.728481 ], [ -9.190592, 38.728519 ], [ -9.190672, 38.728527 ] ] } },
{ "type": "Feature", "properties": { "cls": "separated", "highway": "cycleway", "name": "Ciclovia Parque de Campismo" }, "geometry": { "type": "MultiLineString", "coordinates": [ [ [ -9.203641, 38.738952 ], [ -9.203913, 38.738898 ] ], [ [ -9.203965, 38.738887 ], [ -9.204106, 38.73885 ] ], [ [ -9.204149, 38.738838 ], [ -9.204334, 38.73875 ], [ -9.204466, 38.738639 ], [ -9.204487, 38.738613 ], [ -9.204557, 38.738525 ], [ -9.204659, 38.738384 ], [ -9.204797, 38.738143 ], [ -9.205224, 38.737448 ] ], [ [ -9.208341, 38.732557 ], [ -9.208912, 38.731652 ], [ -9.20899, 38.731312 ], [ -9.208972, 38.731025 ], [ -9.208917, 38.730827 ], [ -9.208898, 38.730778 ], [ -9.208871, 38.730709 ], [ -9.208681, 38.730272 ], [ -9.208623, 38.730011 ], [ -9.208646, 38.729812 ], [ -9.208662, 38.729706 ], [ -9.208768, 38.729481 ], [ -9.208787, 38.729459 ], [ -9.209095, 38.729098 ], [ -9.209237, 38.728864 ], [ -9.209302, 38.728601 ], [ -9.209295, 38.72844 ], [ -9.209243, 38.728174 ], [ -9.209237, 38.728158 ], [ -9.209134, 38.727868 ], [ -9.20881, 38.72699 ], [ -9.208334, 38.725469 ], [ -9.208319, 38.725356 ], [ -9.20831, 38.725293 ], [ -9.208109, 38.724691 ], [ -9.207937, 38.724719 ] ] ] } },
{ "type": "Feature", "properties": { "cls": "sharrow", "highway": "tertiary", "name": "Rua Padre Domingos Maurício dos Santos" }, "geometry": { "type": "LineString", "coordinates": [ [ -9.175243, 38.73112 ], [ -9.175242, 38.73112 ] ] } },
{ "type": "Feature", "properties": { "cls": "separated", "highway": "path", "name": "Pista do Panorâmico" }, "geometry": { "type": "LineString", "coordinates": [ [ -9.180207, 38.73207 ], [ -9.180229, 38.732095 ], [ -9.180262, 38.732123 ], [ -9.180313, 38.73216 ], [ -9.180346, 38.732175 ], [ -9.180376, 38.732183 ], [ -9.180459, 38.732191 ], [ -9.180567, 38.732178 ], [ -9.180672, 38.732166 ], [ -9.180725, 38.732154 ], [ -9.180775, 38.732134 ], [ -9.180844, 38.732095 ], [ -9.180873, 38.732066 ], [ -9.180902, 38.732037 ], [ -9.180909, 38.732027 ], [ -9.180918, 38.731988 ], [ -9.18093, 38.731927 ], [ -9.180924, 38.731877 ], [ -9.180914, 38.731839 ], [ -9.180897, 38.731798 ], [ -9.180853, 38.731731 ], [ -9.180611, 38.731518 ], [ -9.180437, 38.731381 ], [ -9.180322, 38.731289 ], [ -9.180283, 38.731249 ], [ -9.180256, 38.731213 ], [ -9.180235, 38.731167 ], [ -9.180224, 38.731122 ], [ -9.180211, 38.731017 ], [ -9.180189, 38.7309 ], [ -9.180184, 38.730827 ], [ -9.180199, 38.730743 ], [ -9.180212, 38.730667 ], [ -9.180237, 38.730563 ], [ -9.180268, 38.730506 ] ] } },
{ "type": "Feature", "properties": { "cls": "separated", "highway": "path", "name": "Pista do Panorâmico" }, "geometry": { "type": "LineString", "coordinates": [ [ -9.180151, 38.731984 ], [ -9.180169, 38.731999 ], [ -9.180186, 38.732037 ], [ -9.180195, 38.732055 ], [ -9.180207, 38.73207 ] ] } },
{ "type": "Feature", "properties": { "cls": "separated", "highway": "cycleway", "name": null }, "geometry": { "type": "MultiLineString", "coordinates": [ [ [ -9.18212, 38.742939 ], [ -9.182033, 38.742929 ], [ -9.182003, 38.742948 ], [ -9.181953, 38.74295 ], [ -9.181928, 38.742938 ], [ -9.181911, 38.74292 ], [ -9.181905, 38.742888 ], [ -9.181878, 38.742867 ], [ -9.181849, 38.74286 ], [ -9.18182, 38.742862 ], [ -9.181778, 38.742883 ], [ -9.181753, 38.742891 ], [ -9.181729, 38.742894 ], [ -9.181565, 38.742836 ] ], [ [ -9.177833, 38.740963 ], [ -9.176653, 38.740274 ], [ -9.175406, 38.739541 ], [ -9.174779, 38.739169 ], [ -9.174473, 38.738962 ], [ -9.174161, 38.73878 ], [ -9.173929, 38.738663 ], [ -9.173688, 38.738544 ], [ -9.173573, 38.738485 ], [ -9.173465, 38.738409 ], [ -9.173373, 38.738329 ], [ -9.173215, 38.738126 ], [ -9.173014, 38.737837 ], [ -9.172827, 38.737558 ], [ -9.172741, 38.737427 ], [ -9.172673, 38.737307 ], [ -9.172538, 38.737054 ] ] ] } },
{ "type": "Feature", "properties": { "cls": "separated", "highway": "cycleway", "name": null }, "geometry": { "type": "LineString", "coordinates": [ [ -9.182047, 38.74249 ], [ -9.182051, 38.742543 ], [ -9.182104, 38.742571 ], [ -9.182879, 38.742905 ] ] } },
{ "type": "Feature", "properties": { "cls": "separated", "highway": "cycleway", "name": null }, "geometry": { "type": "LineString", "coordinates": [ [ -9.182879, 38.742905 ], [ -9.182845, 38.742914 ] ] } },
{ "type": "Feature", "properties": { "cls": "separated", "highway": "cycleway", "name": null }, "geometry": { "type": "LineString", "coordinates": [ [ -9.182845, 38.742914 ], [ -9.182595, 38.743006 ] ] } },
{ "type": "Feature", "properties": { "cls": "separated", "highway": "cycleway", "name": null }, "geometry": { "type": "LineString", "coordinates": [ [ -9.182595, 38.743006 ], [ -9.182403, 38.743075 ], [ -9.182371, 38.743081 ], [ -9.182329, 38.743051 ], [ -9.182308, 38.74299 ], [ -9.182286, 38.742977 ], [ -9.182224, 38.742993 ], [ -9.182165, 38.742999 ], [ -9.182139, 38.742972 ], [ -9.18212, 38.742939 ] ] } },
{ "type": "Feature", "properties": { "cls": "separated", "highway": "tertiary", "name": "Estrada do Barcal" }, "geometry": { "type": "LineString", "coordinates": [ [ -9.192061, 38.740806 ], [ -9.193951, 38.739843 ], [ -9.194114, 38.739812 ], [ -9.194235, 38.739798 ], [ -9.19434, 38.739798 ], [ -9.194452, 38.739809 ], [ -9.194587, 38.73984 ], [ -9.194696, 38.739887 ], [ -9.194854, 38.73997 ], [ -9.19495, 38.740026 ], [ -9.195034, 38.740084 ], [ -9.195184, 38.740214 ], [ -9.195296, 38.740279 ], [ -9.195417, 38.74033 ], [ -9.195556, 38.740372 ], [ -9.195698, 38.740398 ], [ -9.195843, 38.740411 ], [ -9.195987, 38.740409 ], [ -9.196182, 38.740385 ], [ -9.196352, 38.740335 ], [ -9.196491, 38.740285 ], [ -9.196633, 38.740207 ], [ -9.196745, 38.740125 ], [ -9.196824, 38.740047 ], [ -9.196994, 38.739843 ], [ -9.197173, 38.73962 ], [ -9.197298, 38.739505 ], [ -9.197541, 38.739336 ], [ -9.197748, 38.739272 ], [ -9.197933, 38.739208 ], [ -9.198246, 38.739107 ], [ -9.198543, 38.739001 ], [ -9.198811, 38.738878 ], [ -9.199109, 38.738707 ], [ -9.199298, 38.738608 ], [ -9.199483, 38.738497 ], [ -9.19965, 38.738381 ], [ -9.199815, 38.738256 ], [ -9.200308, 38.737799 ], [ -9.200394, 38.737697 ], [ -9.200495, 38.737574 ], [ -9.200627, 38.737396 ], [ -9.20084, 38.737067 ], [ -9.200853, 38.737038 ] ] } },
{ "type": "Feature", "properties": { "cls": "separated", "highway": "cycleway", "name": null }, "geometry": { "type": "LineString", "coordinates": [ [ -9.20115, 38.739816 ], [ -9.201184, 38.739722 ], [ -9.201205, 38.739693 ], [ -9.201406, 38.739556 ], [ -9.201457, 38.739509 ], [ -9.201486, 38.739474 ], [ -9.2015, 38.739424 ], [ -9.201512, 38.739374 ], [ -9.201543, 38.739302 ], [ -9.20161, 38.739233 ], [ -9.201702, 38.739156 ], [ -9.201866, 38.739058 ], [ -9.201926, 38.739024 ], [ -9.20199, 38.738974 ], [ -9.202054, 38.738887 ], [ -9.202116, 38.738909 ], [ -9.202143, 38.738917 ], [ -9.20219, 38.738973 ], [ -9.202223, 38.738996 ], [ -9.202253, 38.739002 ], [ -9.2023, 38.738999 ] ] } },
{ "type": "Feature", "properties": { "cls": "separated", "highway": "cycleway", "name": null }, "geometry": { "type": "LineString", "coordinates": [ [ -9.20115, 38.739816 ], [ -9.20111, 38.739892 ], [ -9.200973, 38.739978 ], [ -9.200874, 38.740036 ], [ -9.200774, 38.740104 ], [ -9.200568, 38.740294 ], [ -9.200344, 38.740549 ], [ -9.200211, 38.740686 ], [ -9.200142, 38.740734 ], [ -9.200058, 38.740777 ], [ -9.199757, 38.740928 ], [ -9.199609, 38.741009 ], [ -9.199463, 38.741099 ], [ -9.199288, 38.741225 ], [ -9.199124, 38.741362 ], [ -9.198934, 38.741545 ], [ -9.198749, 38.741731 ], [ -9.198537, 38.741946 ] ] } },
{ "type": "Feature", "properties": { "cls": "separated", "highway": "tertiary", "name": "Estrada do Barcal" }, "geometry": { "type": "LineString", "coordinates": [ [ -9.188868, 38.741263 ], [ -9.188979, 38.74116 ], [ -9.18926, 38.741015 ], [ -9.189574, 38.740939 ], [ -9.189769, 38.740907 ], [ -9.189962, 38.740886 ], [ -9.190113, 38.740887 ], [ -9.190263, 38.740897 ], [ -9.190419, 38.740932 ], [ -9.190678, 38.741012 ], [ -9.190833, 38.741055 ], [ -9.190982, 38.741071 ], [ -9.191147, 38.741077 ], [ -9.191309, 38.741061 ], [ -9.191772, 38.740907 ], [ -9.192061, 38.740806 ] ] } },
{ "type": "Feature", "properties": { "cls": "separated", "highway": "cycleway", "name": null }, "geometry": { "type": "LineString", "coordinates": [ [ -9.198537, 38.741946 ], [ -9.198386, 38.742101 ] ] } },
{ "type": "Feature", "properties": { "cls": "separated", "highway": "cycleway", "name": null }, "geometry": { "type": "LineString", "coordinates": [ [ -9.198386, 38.742101 ], [ -9.19813, 38.742353 ], [ -9.198002, 38.742469 ], [ -9.197908, 38.742547 ], [ -9.197743, 38.742667 ], [ -9.197556, 38.742791 ], [ -9.197393, 38.742884 ], [ -9.197257, 38.742954 ], [ -9.1971, 38.743029 ], [ -9.197011, 38.743068 ], [ -9.196817, 38.743144 ], [ -9.196666, 38.743196 ], [ -9.196529, 38.74324 ], [ -9.196318, 38.743294 ], [ -9.196074, 38.743344 ], [ -9.195954, 38.743364 ], [ -9.19581, 38.743383 ], [ -9.195227, 38.743456 ], [ -9.194806, 38.743507 ], [ -9.194076, 38.743589 ], [ -9.192921, 38.743714 ], [ -9.192221, 38.74379 ], [ -9.191905, 38.743823 ], [ -9.191682, 38.743848 ], [ -9.190943, 38.743927 ], [ -9.19074, 38.743948 ], [ -9.190284, 38.743996 ], [ -9.189572, 38.744071 ], [ -9.189034, 38.744128 ], [ -9.18862, 38.744173 ], [ -9.188209, 38.744214 ], [ -9.18799, 38.744232 ], [ -9.187808, 38.744244 ], [ -9.187511, 38.744251 ], [ -9.187283, 38.744254 ], [ -9.186921, 38.74424 ], [ -9.186644, 38.744219 ], [ -9.186326, 38.744185 ], [ -9.186081, 38.744149 ], [ -9.185856, 38.744112 ], [ -9.185578, 38.744057 ], [ -9.185356, 38.744009 ], [ -9.184715, 38.743873 ], [ -9.18433, 38.743792 ], [ -9.1841, 38.743744 ], [ -9.184049, 38.743731 ], [ -9.184033, 38.743719 ], [ -9.184026, 38.743702 ], [ -9.184026, 38.743679 ], [ -9.18402, 38.743605 ], [ -9.184006, 38.743535 ], [ -9.183984, 38.743482 ], [ -9.183954, 38.743428 ], [ -9.183927, 38.743386 ], [ -9.183882, 38.743336 ], [ -9.183836, 38.743291 ], [ -9.183792, 38.743261 ], [ -9.183454, 38.74312 ], [ -9.183184, 38.743022 ], [ -9.182879, 38.742905 ] ] } },
{ "type": "Feature", "properties": { "cls": "shared", "highway": "path", "name": "Ponte Pedonal e Ciclável acesso norte a Monsanto" }, "geometry": { "type": "LineString", "coordinates": [ [ -9.189744, 38.743877 ], [ -9.189852, 38.7444 ] ] } },
{ "type": "Feature", "properties": { "cls": "sharrow", "highway": "residential", "name": "Rua 5" }, "geometry": { "type": "LineString", "coordinates": [ [ -9.16819, 38.727866 ], [ -9.168175, 38.727876 ] ] } },
{ "type": "Feature", "properties": { "cls": "sharrow", "highway": "residential", "name": "Rua 2" }, "geometry": { "type": "LineString", "coordinates": [ [ -9.166565, 38.726883 ], [ -9.167022, 38.727258 ], [ -9.1673, 38.727467 ], [ -9.167581, 38.727708 ] ] } },
{ "type": "Feature", "properties": { "cls": "sharrow", "highway": "residential", "name": "Rua 6" }, "geometry": { "type": "LineString", "coordinates": [ ] } },
{ "type": "Feature", "properties": { "cls": "sharrow", "highway": "residential", "name": "Rua 7" }, "geometry": { "type": "LineString", "coordinates": [ [ -9.168602, 38.7282 ], [ -9.168639, 38.72817 ], [ -9.168678, 38.728136 ] ] } },
{ "type": "Feature", "properties": { "cls": "sharrow", "highway": "residential", "name": "Rua 2" }, "geometry": { "type": "LineString", "coordinates": [ [ -9.167589, 38.727715 ], [ -9.167581, 38.727708 ] ] } },
{ "type": "Feature", "properties": { "cls": "sharrow", "highway": "residential", "name": "Rua 12" }, "geometry": { "type": "LineString", "coordinates": [ [ -9.169877, 38.727571 ], [ -9.169605, 38.727891 ], [ -9.169333, 38.728183 ], [ -9.16907, 38.728473 ], [ -9.169016, 38.728519 ], [ -9.168788, 38.728714 ], [ -9.168513, 38.728932 ], [ -9.168307, 38.729082 ] ] } },
{ "type": "Feature", "properties": { "cls": "sharrow", "highway": "residential", "name": "Rua 10" }, "geometry": { "type": "LineString", "coordinates": [ [ -9.168299, 38.728424 ], [ -9.168384, 38.728358 ], [ -9.168602, 38.7282 ] ] } },
{ "type": "Feature", "properties": { "cls": "shared", "highway": "cycleway", "name": "Corredor Verde do Vale de Alcântara" }, "geometry": { "type": "LineString", "coordinates": [ [ -9.169976, 38.729438 ], [ -9.170009, 38.72942 ], [ -9.170055, 38.729389 ], [ -9.170074, 38.729357 ], [ -9.170087, 38.729312 ], [ -9.170096, 38.729258 ], [ -9.170114, 38.729212 ], [ -9.170137, 38.72918 ], [ -9.170158, 38.729153 ], [ -9.170212, 38.729125 ], [ -9.170297, 38.729083 ], [ -9.170337, 38.729045 ], [ -9.170386, 38.728994 ], [ -9.170429, 38.728938 ], [ -9.17047, 38.728876 ], [ -9.170502, 38.728806 ] ] } },
{ "type": "Feature", "properties": { "cls": "sharrow", "highway": "residential", "name": "Rua 8" }, "geometry": { "type": "LineString", "coordinates": [ [ -9.168175, 38.727876 ], [ -9.167978, 38.728024 ] ] } },
{ "type": "Feature", "properties": { "cls": "sharrow", "highway": "residential", "name": "Rua Miguel Ângelo de Blasco" }, "geometry": { "type": "LineString", "coordinates": [ [ -9.170961, 38.73404 ], [ -9.17093, 38.734246 ], [ -9.170925, 38.734452 ] ] } },
{ "type": "Feature", "properties": { "cls": "separated", "highway": "cycleway", "name": null }, "geometry": { "type": "LineString", "coordinates": [ [ -9.172421, 38.736589 ], [ -9.172412, 38.736569 ], [ -9.17229, 38.736611 ] ] } },
{ "type": "Feature", "properties": { "cls": "shared", "highway": "path", "name": null }, "geometry": { "type": "LineString", "coordinates": [ [ -9.172294, 38.736633 ], [ -9.172421, 38.736589 ], [ -9.172851, 38.736517 ] ] } },
{ "type": "Feature", "properties": { "cls": "separated", "highway": "cycleway", "name": null }, "geometry": { "type": "LineString", "coordinates": [ [ -9.172538, 38.737054 ], [ -9.172431, 38.736825 ], [ -9.172364, 38.736661 ], [ -9.172385, 38.736637 ], [ -9.17242, 38.736617 ], [ -9.172421, 38.736589 ] ] } }
]
}
