{
"type": "FeatureCollection",
"name": "085-paris-bois-de-vincennes",
"crs": { "type": "name", "properties": { "name": "urn:ogc:def:crs:OGC:1.3:CRS84" } },
"xy_coordinate_resolution": 1e-06,
"features": [
{ "type": "Feature", "properties": { "cls": "shared", "highway": "path", "name": "Avenue de Gravelle" }, "geometry": { "type": "LineString", "coordinates": [ [ 2.456151, 48.817638 ], [ 2.457508, 48.817372 ], [ 2.457761, 48.817341 ], [ 2.458664, 48.817283 ], [ 2.458759, 48.817294 ] ] } },
{ "type": "Feature", "properties": { "cls": "shared", "highway": "path", "name": "Avenue de Gravelle" }, "geometry": { "type": "LineString", "coordinates": [ [ 2.454941, 48.817878 ], [ 2.455262, 48.81782 ], [ 2.456151, 48.817638 ] ] } },
{ "type": "Feature", "properties": { "cls": "shared", "highway": "path", "name": "Route des Barrières" }, "geometry": { "type": "LineString", "coordinates": [ [ 2.445749, 48.81862 ], [ 2.446005, 48.818603 ], [ 2.446326, 48.818572 ], [ 2.446612, 48.818534 ], [ 2.447039, 48.818506 ], [ 2.447835, 48.818455 ], [ 2.448425, 48.818429 ], [ 2.449182, 48.818368 ], [ 2.449926, 48.81828 ], [ 2.44996, 48.818275 ], [ 2.450523, 48.818172 ], [ 2.451359, 48.81801 ], [ 2.452036, 48.817842 ], [ 2.45212, 48.817813 ], [ 2.452752, 48.817621 ], [ 2.453349, 48.817403 ], [ 2.453324, 48.817382 ], [ 2.453021, 48.817366 ], [ 2.452988, 48.817362 ] ] } },
{ "type": "Feature", "properties": { "cls": "shared", "highway": "path", "name": "Avenue des Canadiens" }, "geometry": { "type": "LineString", "coordinates": [ [ 2.458759, 48.817294 ], [ 2.458776, 48.817301 ] ] } },
{ "type": "Feature", "properties": { "cls": "separated", "highway": "footway", "name": null }, "geometry": { "type": "LineString", "coordinates": [ [ 2.460742, 48.818293 ], [ 2.460686, 48.818244 ], [ 2.460657, 48.818213 ] ] } },
{ "type": "Feature", "properties": { "cls": "separated", "highway": "cycleway", "name": "Avenue des Canadiens" }, "geometry": { "type": "LineString", "coordinates": [ ] } },
{ "type": "Feature", "properties": { "cls": "shared", "highway": "footway", "name": null }, "geometry": { "type": "LineString", "coordinates": [ [ 2.460754, 48.818258 ], [ 2.460692, 48.818314 ], [ 2.461094, 48.818512 ] ] } },
{ "type": "Feature", "properties": { "cls": "separated", "highway": "footway", "name": null }, "geometry": { "type": "LineString", "coordinates": [ [ 2.461197, 48.818466 ], [ 2.461122, 48.818497 ], [ 2.460742, 48.818293 ] ] } },
{ "type": "Feature", "properties": { "cls": "shared", "highway": "path", "name": "Avenue de Gravelle" }, "geometry": { "type": "LineString", "coordinates": [ [ 2.451614, 48.818432 ], [ 2.451799, 48.818399 ], [ 2.452096, 48.818342 ], [ 2.452381, 48.818289 ], [ 2.452855, 48.818215 ], [ 2.453122, 48.818175 ], [ 2.453529, 48.818123 ], [ 2.453857, 48.818068 ], [ 2.454146, 48.818022 ], [ 2.454577, 48.817947 ], [ 2.454941, 48.817878 ] ] } },
{ "type": "Feature", "properties": { "cls": "shared", "highway": "path", "name": "Avenue de Gravelle" }, "geometry": { "type": "LineString", "coordinates": [ [ 2.451388, 48.818475 ], [ 2.451614, 48.818432 ] ] } },
{ "type": "Feature", "properties": { "cls": "shared", "highway": "path", "name": "Avenue de Gravelle" }, "geometry": { "type": "LineString", "coordinates": [ [ 2.445739, 48.818716 ], [ 2.445824, 48.81872 ], [ 2.446283, 48.818737 ], [ 2.446821, 48.818746 ], [ 2.447561, 48.818747 ], [ 2.447964, 48.818738 ], [ 2.448723, 48.818714 ], [ 2.44889, 48.818711 ], [ 2.448929, 48.818711 ], [ 2.449898, 48.818682 ], [ 2.450543, 48.818621 ], [ 2.450996, 48.818554 ], [ 2.451208, 48.818512 ], [ 2.451388, 48.818475 ] ] } },
{ "type": "Feature", "properties": { "cls": "painted", "highway": "tertiary", "name": "Avenue de Gravelle" }, "geometry": { "type": "LineString", "coordinates": [ [ 2.445743, 48.818662 ], [ 2.445696, 48.818661 ], [ 2.444799, 48.818634 ], [ 2.444481, 48.818632 ], [ 2.443773, 48.818623 ], [ 2.443212, 48.818621 ], [ 2.442887, 48.818623 ] ] } },
{ "type": "Feature", "properties": { "cls": "separated", "highway": "cycleway", "name": "Route des Barrières" }, "geometry": { "type": "LineString", "coordinates": [ [ 2.445739, 48.818716 ], [ 2.445743, 48.818662 ], [ 2.445749, 48.81862 ] ] } },
{ "type": "Feature", "properties": { "cls": "painted", "highway": "unclassified", "name": "Route du Pesage" }, "geometry": { "type": "LineString", "coordinates": [ [ 2.442887, 48.818623 ], [ 2.443132, 48.818731 ] ] } },
{ "type": "Feature", "properties": { "cls": "shared", "highway": "path", "name": "Avenue de Gravelle" }, "geometry": { "type": "LineString", "coordinates": [ [ 2.444924, 48.81869 ], [ 2.445692, 48.818714 ], [ 2.445739, 48.818716 ] ] } },
{ "type": "Feature", "properties": { "cls": "shared", "highway": "path", "name": "Avenue de Gravelle" }, "geometry": { "type": "LineString", "coordinates": [ [ 2.442723, 48.818698 ], [ 2.442821, 48.818704 ], [ 2.442934, 48.818727 ], [ 2.443081, 48.81878 ], [ 2.443132, 48.818731 ], [ 2.443186, 48.818687 ], [ 2.443215, 48.81868 ], [ 2.443257, 48.818669 ], [ 2.443833, 48.818667 ], [ 2.4448, 48.818685 ] ] } },
{ "type": "Feature", "properties": { "cls": "painted", "highway": "tertiary", "name": "Avenue de Gravelle" }, "geometry": { "type": "LineString", "coordinates": [ [ 2.442887, 48.818623 ], [ 2.44224, 48.81865 ], [ 2.441139, 48.818745 ], [ 2.440064, 48.818883 ], [ 2.439647, 48.818946 ], [ 2.438978, 48.819068 ], [ 2.438459, 48.819169 ], [ 2.437947, 48.81929 ], [ 2.437857, 48.81931 ], [ 2.437273, 48.819467 ], [ 2.437159, 48.8195 ], [ 2.437058, 48.819529 ], [ 2.43655, 48.819699 ] ] } },
{ "type": "Feature", "properties": { "cls": "shared", "highway": "path", "name": "Avenue de Gravelle" }, "geometry": { "type": "LineString", "coordinates": [ [ 2.435548, 48.820146 ], [ 2.436101, 48.81993 ], [ 2.436399, 48.819815 ], [ 2.436438, 48.8198 ], [ 2.437229, 48.819547 ], [ 2.437313, 48.819524 ], [ 2.437889, 48.819366 ], [ 2.437971, 48.819344 ], [ 2.438444, 48.819236 ], [ 2.438925, 48.819135 ], [ 2.440107, 48.818939 ], [ 2.440161, 48.81893 ], [ 2.44116, 48.818808 ], [ 2.441737, 48.81875 ], [ 2.442363, 48.818703 ], [ 2.442617, 48.818691 ], [ 2.442723, 48.818698 ] ] } },
{ "type": "Feature", "properties": { "cls": "separated", "highway": "cycleway", "name": "Avenue des Canadiens" }, "geometry": { "type": "LineString", "coordinates": [ [ 2.462159, 48.818962 ], [ 2.462183, 48.818999 ], [ 2.462197, 48.819041 ], [ 2.4622, 48.819052 ] ] } },
{ "type": "Feature", "properties": { "cls": "separated", "highway": "cycleway", "name": null }, "geometry": { "type": "LineString", "coordinates": [ [ 2.462274, 48.819063 ], [ 2.4622, 48.819052 ] ] } },
{ "type": "Feature", "properties": { "cls": "separated", "highway": "cycleway", "name": "Avenue des Canadiens" }, "geometry": { "type": "LineString", "coordinates": [ [ 2.4622, 48.819052 ], [ 2.462206, 48.819083 ] ] } },
{ "type": "Feature", "properties": { "cls": "separated", "highway": "cycleway", "name": "Avenue des Canadiens" }, "geometry": { "type": "LineString", "coordinates": [ [ 2.462397, 48.819091 ], [ 2.462362, 48.819082 ], [ 2.462274, 48.819063 ] ] } },
{ "type": "Feature", "properties": { "cls": "separated", "highway": "cycleway", "name": "Avenue des Canadiens" }, "geometry": { "type": "LineString", "coordinates": [ [ 2.462206, 48.819083 ], [ 2.462196, 48.819108 ] ] } },
{ "type": "Feature", "properties": { "cls": "separated", "highway": "cycleway", "name": "Avenue des Canadiens" }, "geometry": { "type": "LineString", "coordinates": [ [ 2.462196, 48.819108 ], [ 2.462207, 48.819114 ], [ 2.462308, 48.819149 ] ] } },
{ "type": "Feature", "properties": { "cls": "shared", "highway": "path", "name": "Route de la Pyramide" }, "geometry": { "type": "LineString", "coordinates": [ [ 2.462196, 48.819108 ], [ 2.46218, 48.819152 ], [ 2.462098, 48.819264 ], [ 2.461986, 48.819418 ], [ 2.461908, 48.819509 ], [ 2.461868, 48.819556 ], [ 2.461676, 48.819789 ], [ 2.461591, 48.819873 ], [ 2.461503, 48.819941 ], [ 2.461259, 48.820103 ], [ 2.460995, 48.820235 ], [ 2.460716, 48.820434 ], [ 2.460306, 48.82071 ] ] } },
{ "type": "Feature", "properties": { "cls": "shared", "highway": "path", "name": "Route de la Pyramide" }, "geometry": { "type": "LineString", "coordinates": [ [ 2.460306, 48.82071 ], [ 2.460251, 48.820747 ] ] } },
{ "type": "Feature", "properties": { "cls": "shared", "highway": "path", "name": "Route de la Pyramide" }, "geometry": { "type": "LineString", "coordinates": [ [ 2.460251, 48.820747 ], [ 2.460225, 48.820769 ], [ 2.46006, 48.820901 ], [ 2.459803, 48.82115 ], [ 2.459563, 48.821424 ], [ 2.459317, 48.821743 ], [ 2.458963, 48.822219 ], [ 2.458843, 48.822392 ], [ 2.458711, 48.82258 ], [ 2.458382, 48.823011 ], [ 2.458181, 48.823275 ], [ 2.457937, 48.823572 ], [ 2.457856, 48.82368 ] ] } },
{ "type": "Feature", "properties": { "cls": "shared", "highway": "path", "name": null }, "geometry": { "type": "LineString", "coordinates": [ [ 2.457856, 48.82368 ], [ 2.457904, 48.823684 ] ] } },
{ "type": "Feature", "properties": { "cls": "separated", "highway": "path", "name": null }, "geometry": { "type": "LineString", "coordinates": [ [ 2.457904, 48.823684 ], [ 2.457955, 48.823703 ], [ 2.457988, 48.823714 ] ] } },
{ "type": "Feature", "properties": { "cls": "shared", "highway": "path", "name": "Route de la Pyramide" }, "geometry": { "type": "LineString", "coordinates": [ [ 2.457856, 48.82368 ], [ 2.457794, 48.823681 ], [ 2.45773, 48.823693 ], [ 2.457677, 48.823703 ], [ 2.457634, 48.823724 ] ] } },
{ "type": "Feature", "properties": { "cls": "shared", "highway": "path", "name": null }, "geometry": { "type": "LineString", "coordinates": [ [ 2.457988, 48.823714 ], [ 2.458038, 48.823747 ], [ 2.458068, 48.82378 ], [ 2.458095, 48.823839 ], [ 2.458083, 48.823924 ], [ 2.458052, 48.823962 ] ] } },
{ "type": "Feature", "properties": { "cls": "separated", "highway": "path", "name": null }, "geometry": { "type": "LineString", "coordinates": [ [ 2.458052, 48.823962 ], [ 2.458015, 48.823991 ], [ 2.457992, 48.824009 ] ] } },
{ "type": "Feature", "properties": { "cls": "shared", "highway": "path", "name": null }, "geometry": { "type": "LineString", "coordinates": [ [ 2.457992, 48.824009 ], [ 2.457925, 48.824049 ] ] } },
{ "type": "Feature", "properties": { "cls": "separated", "highway": "path", "name": null }, "geometry": { "type": "LineString", "coordinates": [ [ 2.457708, 48.824054 ], [ 2.457667, 48.824039 ], [ 2.457623, 48.824022 ] ] } },
{ "type": "Feature", "properties": { "cls": "shared", "highway": "path", "name": null }, "geometry": { "type": "LineString", "coordinates": [ [ 2.457925, 48.824049 ], [ 2.457839, 48.824063 ], [ 2.45775, 48.824063 ], [ 2.457708, 48.824054 ] ] } },
{ "type": "Feature", "properties": { "cls": "shared", "highway": "path", "name": "Avenue de l'École de Joinville" }, "geometry": { "type": "LineString", "coordinates": [ [ 2.462352, 48.825084 ], [ 2.462369, 48.825123 ], [ 2.462393, 48.825177 ], [ 2.462412, 48.825244 ], [ 2.462579, 48.82583 ], [ 2.462575, 48.825916 ], [ 2.462568, 48.825986 ], [ 2.462517, 48.826018 ], [ 2.462476, 48.826045 ] ] } },
{ "type": "Feature", "properties": { "cls": "sharrow", "highway": "tertiary", "name": "Avenue de Gravelle" }, "geometry": { "type": "LineString", "coordinates": [ [ 2.43655, 48.819699 ], [ 2.436356, 48.819765 ], [ 2.4362, 48.819818 ], [ 2.436052, 48.819875 ], [ 2.43576, 48.819993 ] ] } },
{ "type": "Feature", "properties": { "cls": "painted", "highway": "tertiary", "name": "Avenue de Gravelle" }, "geometry": { "type": "LineString", "coordinates": [ [ 2.43576, 48.819993 ], [ 2.43547, 48.820111 ], [ 2.435271, 48.8202 ], [ 2.434901, 48.820373 ], [ 2.434313, 48.820724 ], [ 2.433793, 48.82108 ], [ 2.433441, 48.821368 ], [ 2.432959, 48.821784 ], [ 2.432871, 48.821859 ], [ 2.432767, 48.821947 ], [ 2.432739, 48.82197 ], [ 2.432546, 48.822113 ], [ 2.432176, 48.822355 ], [ 2.431434, 48.822792 ], [ 2.431245, 48.822888 ], [ 2.43062, 48.823156 ] ] } },
{ "type": "Feature", "properties": { "cls": "shared", "highway": "path", "name": "Avenue de Gravelle" }, "geometry": { "type": "LineString", "coordinates": [ [ 2.43069, 48.823204 ], [ 2.430964, 48.823087 ], [ 2.431284, 48.822941 ], [ 2.431517, 48.822826 ], [ 2.432071, 48.822519 ], [ 2.432594, 48.822161 ], [ 2.433374, 48.821521 ], [ 2.433584, 48.821338 ], [ 2.433792, 48.821173 ], [ 2.434437, 48.820731 ], [ 2.434838, 48.820488 ], [ 2.435288, 48.820265 ], [ 2.435548, 48.820146 ] ] } },
{ "type": "Feature", "properties": { "cls": "painted", "highway": "tertiary", "name": "Avenue de Gravelle" }, "geometry": { "type": "LineString", "coordinates": [ ] } },
{ "type": "Feature", "properties": { "cls": "shared", "highway": "path", "name": "Avenue de Gravelle" }, "geometry": { "type": "LineString", "coordinates": [ [ 2.430671, 48.823211 ], [ 2.43069, 48.823204 ] ] } },
{ "type": "Feature", "properties": { "cls": "shared", "highway": "path", "name": "Avenue de Gravelle" }, "geometry": { "type": "LineString", "coordinates": [ [ 2.420104, 48.824208 ], [ 2.420112, 48.824179 ], [ 2.420118, 48.824169 ], [ 2.420141, 48.824156 ], [ 2.420178, 48.824146 ], [ 2.420208, 48.824142 ], [ 2.420297, 48.824131 ], [ 2.420492, 48.824124 ], [ 2.420762, 48.824119 ], [ 2.421289, 48.824122 ], [ 2.421696, 48.824134 ] ] } },
{ "type": "Feature", "properties": { "cls": "shared", "highway": "path", "name": "Avenue de Gravelle" }, "geometry": { "type": "MultiLineString", "coordinates": [ [ [ 2.403816, 48.829225 ], [ 2.403816, 48.829208 ], [ 2.403963, 48.829107 ], [ 2.404116, 48.828978 ], [ 2.404134, 48.828967 ] ], [ [ 2.404597, 48.828717 ], [ 2.404696, 48.828663 ], [ 2.40504, 48.828443 ], [ 2.405131, 48.828389 ], [ 2.405327, 48.828259 ], [ 2.405447, 48.828178 ], [ 2.405625, 48.828067 ], [ 2.405782, 48.827946 ], [ 2.406184, 48.827608 ], [ 2.406438, 48.827396 ] ] ] } },
{ "type": "Feature", "properties": { "cls": "separated", "highway": "cycleway", "name": null }, "geometry": { "type": "LineString", "coordinates": [ [ 2.442741, 48.823019 ], [ 2.442701, 48.822986 ], [ 2.442657, 48.822956 ], [ 2.44262, 48.822931 ], [ 2.442509, 48.822885 ], [ 2.442409, 48.822869 ], [ 2.442282, 48.822879 ], [ 2.442181, 48.822917 ], [ 2.442119, 48.822954 ], [ 2.442064, 48.823 ] ] } },
{ "type": "Feature", "properties": { "cls": "painted", "highway": "service", "name": "Route de Bourbon" }, "geometry": { "type": "LineString", "coordinates": [ [ 2.442918, 48.823846 ], [ 2.442741, 48.823019 ] ] } },
{ "type": "Feature", "properties": { "cls": "separated", "highway": "path", "name": "Route de la Pyramide" }, "geometry": { "type": "LineString", "coordinates": [ [ 2.457634, 48.823724 ], [ 2.45759, 48.823752 ], [ 2.457558, 48.823773 ] ] } },
{ "type": "Feature", "properties": { "cls": "shared", "highway": "path", "name": "Route de la Pyramide" }, "geometry": { "type": "LineString", "coordinates": [ [ 2.457558, 48.823773 ], [ 2.457539, 48.8238 ], [ 2.457527, 48.823827 ], [ 2.45753, 48.823873 ] ] } },
{ "type": "Feature", "properties": { "cls": "separated", "highway": "path", "name": "Route de la Pyramide" }, "geometry": { "type": "LineString", "coordinates": [ [ 2.45753, 48.823873 ], [ 2.457534, 48.8239 ], [ 2.45754, 48.823924 ] ] } },
{ "type": "Feature", "properties": { "cls": "shared", "highway": "path", "name": "Route de la Pyramide" }, "geometry": { "type": "LineString", "coordinates": [ [ 2.45754, 48.823924 ], [ 2.457553, 48.82397 ] ] } },
{ "type": "Feature", "properties": { "cls": "shared", "highway": "path", "name": null }, "geometry": { "type": "LineString", "coordinates": [ [ 2.457623, 48.824022 ], [ 2.457588, 48.824004 ], [ 2.457553, 48.82397 ] ] } },
{ "type": "Feature", "properties": { "cls": "shared", "highway": "path", "name": "Route de la Pyramide" }, "geometry": { "type": "LineString", "coordinates": [ [ 2.457553, 48.82397 ], [ 2.457531, 48.824007 ], [ 2.457519, 48.824029 ], [ 2.457473, 48.824099 ], [ 2.457169, 48.824432 ], [ 2.456603, 48.825012 ], [ 2.455954, 48.825612 ], [ 2.454684, 48.826706 ] ] } },
{ "type": "Feature", "properties": { "cls": "painted", "highway": "service", "name": "Route de Bourbon" }, "geometry": { "type": "LineString", "coordinates": [ [ 2.443729, 48.827452 ], [ 2.443725, 48.827435 ], [ 2.443149, 48.824802 ], [ 2.442918, 48.823846 ] ] } },
{ "type": "Feature", "properties": { "cls": "shared", "highway": "path", "name": "Route de la Pyramide" }, "geometry": { "type": "LineString", "coordinates": [ [ 2.454684, 48.826706 ], [ 2.454629, 48.826751 ], [ 2.454562, 48.82678 ], [ 2.454466, 48.826783 ], [ 2.454419, 48.826791 ], [ 2.454364, 48.8268 ] ] } },
{ "type": "Feature", "properties": { "cls": "shared", "highway": "path", "name": "Carrefour de Beauté" }, "geometry": { "type": "LineString", "coordinates": [ [ 2.464346, 48.826927 ], [ 2.464314, 48.826937 ], [ 2.464259, 48.826968 ] ] } },
{ "type": "Feature", "properties": { "cls": "shared", "highway": "path", "name": "Carrefour de Beauté" }, "geometry": { "type": "LineString", "coordinates": [ [ 2.464259, 48.826968 ], [ 2.464205, 48.82701 ] ] } },
{ "type": "Feature", "properties": { "cls": "shared", "highway": "path", "name": "Carrefour de Beauté" }, "geometry": { "type": "LineString", "coordinates": [ [ 2.464205, 48.82701 ], [ 2.464158, 48.827051 ] ] } },
{ "type": "Feature", "properties": { "cls": "shared", "highway": "path", "name": "Carrefour de Beauté" }, "geometry": { "type": "LineString", "coordinates": [ [ 2.464158, 48.827051 ], [ 2.464125, 48.827085 ], [ 2.464115, 48.827097 ], [ 2.464101, 48.827129 ], [ 2.464098, 48.827151 ], [ 2.4641, 48.827186 ], [ 2.464108, 48.82721 ], [ 2.464135, 48.827269 ], [ 2.464187, 48.827327 ], [ 2.464224, 48.827347 ] ] } },
{ "type": "Feature", "properties": { "cls": "separated", "highway": "path", "name": "Carrefour de Beauté" }, "geometry": { "type": "LineString", "coordinates": [ [ 2.464224, 48.827347 ], [ 2.464279, 48.827364 ], [ 2.464383, 48.827397 ] ] } },
{ "type": "Feature", "properties": { "cls": "separated", "highway": "cycleway", "name": "Avenue du Tremblay" }, "geometry": { "type": "LineString", "coordinates": [ [ 2.464851, 48.825303 ], [ 2.464981, 48.82456 ], [ 2.465085, 48.824185 ] ] } },
{ "type": "Feature", "properties": { "cls": "separated", "highway": "cycleway", "name": "Avenue du Tremblay" }, "geometry": { "type": "LineString", "coordinates": [ [ 2.464797, 48.825577 ], [ 2.464851, 48.825303 ] ] } },
{ "type": "Feature", "properties": { "cls": "shared", "highway": "path", "name": "Route de la Pyramide" }, "geometry": { "type": "LineString", "coordinates": [ [ 2.454364, 48.8268 ], [ 2.454325, 48.826808 ], [ 2.454291, 48.826815 ] ] } },
{ "type": "Feature", "properties": { "cls": "shared", "highway": "path", "name": "Route de la Pyramide" }, "geometry": { "type": "LineString", "coordinates": [ [ 2.454291, 48.826815 ], [ 2.454223, 48.826837 ], [ 2.454121, 48.826895 ], [ 2.454061, 48.826964 ], [ 2.454044, 48.827025 ] ] } },
{ "type": "Feature", "properties": { "cls": "shared", "highway": "path", "name": "Route de la Pyramide" }, "geometry": { "type": "LineString", "coordinates": [ [ 2.454044, 48.827025 ], [ 2.454038, 48.827064 ], [ 2.45404, 48.827099 ] ] } },
{ "type": "Feature", "properties": { "cls": "painted", "highway": "service", "name": "Route de Bourbon" }, "geometry": { "type": "LineString", "coordinates": [ [ 2.443792, 48.827782 ], [ 2.443769, 48.827664 ], [ 2.443729, 48.827452 ] ] } },
{ "type": "Feature", "properties": { "cls": "shared", "highway": "path", "name": "Route de la Pyramide" }, "geometry": { "type": "LineString", "coordinates": [ [ 2.45404, 48.827099 ], [ 2.454053, 48.827139 ], [ 2.454067, 48.827169 ], [ 2.454083, 48.827192 ], [ 2.454067, 48.827204 ], [ 2.45399, 48.827273 ], [ 2.453924, 48.827338 ], [ 2.451712, 48.828992 ] ] } },
{ "type": "Feature", "properties": { "cls": "painted", "highway": "service", "name": "Route Dauphine" }, "geometry": { "type": "LineString", "coordinates": [ [ 2.442064, 48.823 ], [ 2.441375, 48.824896 ], [ 2.440798, 48.826515 ], [ 2.440781, 48.826565 ], [ 2.440753, 48.82665 ], [ 2.440308, 48.827869 ], [ 2.439228, 48.830884 ], [ 2.439073, 48.831319 ], [ 2.438825, 48.832035 ], [ 2.438608, 48.832619 ], [ 2.437928, 48.834471 ] ] } },
{ "type": "Feature", "properties": { "cls": "painted", "highway": "service", "name": "Route de Bourbon" }, "geometry": { "type": "LineString", "coordinates": [ [ 2.445088, 48.83344 ], [ 2.444578, 48.831177 ], [ 2.444512, 48.830882 ], [ 2.444229, 48.829635 ], [ 2.443831, 48.827985 ], [ 2.443792, 48.827782 ] ] } },
{ "type": "Feature", "properties": { "cls": "shared", "highway": "path", "name": "Route de la Pyramide" }, "geometry": { "type": "LineString", "coordinates": [ [ 2.451712, 48.828992 ], [ 2.451362, 48.829236 ], [ 2.450992, 48.829511 ], [ 2.450315, 48.830023 ], [ 2.448938, 48.831077 ], [ 2.447324, 48.832241 ], [ 2.446263, 48.832985 ], [ 2.445384, 48.833559 ], [ 2.445189, 48.833659 ], [ 2.445035, 48.833725 ], [ 2.444913, 48.833835 ], [ 2.444693, 48.834034 ] ] } },
{ "type": "Feature", "properties": { "cls": "painted", "highway": "secondary", "name": "Avenue du Tremblay" }, "geometry": { "type": "LineString", "coordinates": [ [ 2.453144, 48.835833 ], [ 2.453897, 48.835037 ], [ 2.454684, 48.834284 ], [ 2.454714, 48.834255 ], [ 2.454815, 48.834165 ], [ 2.454907, 48.834088 ], [ 2.454998, 48.834011 ], [ 2.455091, 48.83393 ], [ 2.455119, 48.833906 ], [ 2.455506, 48.833597 ], [ 2.456286, 48.833019 ], [ 2.457213, 48.832395 ], [ 2.459173, 48.831124 ], [ 2.460321, 48.830353 ], [ 2.461091, 48.829835 ], [ 2.461116, 48.829818 ] ] } },
{ "type": "Feature", "properties": { "cls": "separated", "highway": "cycleway", "name": "Route de Bourbon" }, "geometry": { "type": "LineString", "coordinates": [ [ 2.444863, 48.833804 ], [ 2.444952, 48.833716 ], [ 2.445018, 48.833642 ], [ 2.445047, 48.833604 ], [ 2.445089, 48.833536 ], [ 2.445088, 48.83344 ] ] } },
{ "type": "Feature", "properties": { "cls": "shared", "highway": "path", "name": "Carrefour de Beauté" }, "geometry": { "type": "LineString", "coordinates": [ [ 2.464383, 48.827397 ], [ 2.464415, 48.8274 ] ] } },
{ "type": "Feature", "properties": { "cls": "painted", "highway": "secondary", "name": "Avenue du Tremblay" }, "geometry": { "type": "LineString", "coordinates": [ [ 2.463693, 48.827924 ], [ 2.463979, 48.827668 ], [ 2.464086, 48.827561 ], [ 2.46416, 48.827481 ], [ 2.464249, 48.827393 ] ] } },
{ "type": "Feature", "properties": { "cls": "painted", "highway": "secondary", "name": "Avenue du Tremblay" }, "geometry": { "type": "LineString", "coordinates": [ [ 2.461556, 48.829519 ], [ 2.461912, 48.829279 ], [ 2.46251, 48.828859 ], [ 2.463411, 48.82816 ], [ 2.463693, 48.827924 ] ] } },
{ "type": "Feature", "properties": { "cls": "painted", "highway": "secondary", "name": "Avenue du Tremblay" }, "geometry": { "type": "LineString", "coordinates": [ [ 2.461116, 48.829818 ], [ 2.461193, 48.829765 ], [ 2.461332, 48.82967 ], [ 2.461556, 48.829519 ] ] } },
{ "type": "Feature", "properties": { "cls": "separated", "highway": "cycleway", "name": null }, "geometry": { "type": "LineString", "coordinates": [ [ 2.464881, 48.834042 ], [ 2.464727, 48.833179 ], [ 2.46462, 48.832381 ], [ 2.464586, 48.831567 ], [ 2.464562, 48.831493 ], [ 2.464482, 48.831385 ], [ 2.464394, 48.831282 ] ] } },
{ "type": "Feature", "properties": { "cls": "separated", "highway": "cycleway", "name": null }, "geometry": { "type": "LineString", "coordinates": [ [ 2.460584, 48.838853 ], [ 2.460607, 48.83888 ] ] } },
{ "type": "Feature", "properties": { "cls": "separated", "highway": "cycleway", "name": null }, "geometry": { "type": "LineString", "coordinates": [ [ 2.460607, 48.83888 ], [ 2.460625, 48.838907 ], [ 2.460659, 48.83896 ] ] } },
{ "type": "Feature", "properties": { "cls": "shared", "highway": "path", "name": "Avenue de Fontenay" }, "geometry": { "type": "LineString", "coordinates": [ [ 2.4602, 48.839087 ], [ 2.460195, 48.839072 ], [ 2.460162, 48.839026 ], [ 2.460142, 48.838994 ] ] } },
{ "type": "Feature", "properties": { "cls": "shared", "highway": "path", "name": "Avenue de Fontenay" }, "geometry": { "type": "LineString", "coordinates": [ [ 2.460279, 48.83914 ], [ 2.460223, 48.839121 ], [ 2.4602, 48.839087 ] ] } },
{ "type": "Feature", "properties": { "cls": "separated", "highway": "cycleway", "name": "Route Royale de Beauté" }, "geometry": { "type": "LineString", "coordinates": [ [ 2.444226, 48.834012 ], [ 2.44443, 48.833984 ], [ 2.444545, 48.833965 ], [ 2.444649, 48.833941 ], [ 2.44475, 48.833889 ], [ 2.444812, 48.833846 ], [ 2.444863, 48.833804 ] ] } },
{ "type": "Feature", "properties": { "cls": "painted", "highway": "service", "name": "Route Royale de Beauté" }, "geometry": { "type": "LineString", "coordinates": [ [ 2.437928, 48.834471 ], [ 2.437893, 48.83457 ], [ 2.437891, 48.834651 ], [ 2.437918, 48.83469 ], [ 2.437963, 48.83472 ], [ 2.438011, 48.834739 ], [ 2.438062, 48.834753 ], [ 2.438127, 48.834756 ], [ 2.4382, 48.834751 ], [ 2.438385, 48.834729 ], [ 2.441805, 48.834309 ], [ 2.443427, 48.834114 ], [ 2.444226, 48.834012 ] ] } },
{ "type": "Feature", "properties": { "cls": "painted", "highway": "secondary", "name": "Avenue du Tremblay" }, "geometry": { "type": "LineString", "coordinates": [ [ 2.453095, 48.835892 ], [ 2.453144, 48.835833 ] ] } },
{ "type": "Feature", "properties": { "cls": "shared", "highway": "path", "name": "Route de la Pyramide" }, "geometry": { "type": "LineString", "coordinates": [ [ 2.43767, 48.839234 ], [ 2.437745, 48.83918 ], [ 2.439207, 48.838134 ], [ 2.440763, 48.837025 ], [ 2.441181, 48.836718 ], [ 2.441337, 48.836603 ], [ 2.44152, 48.836468 ], [ 2.443226, 48.835184 ], [ 2.444458, 48.83422 ], [ 2.444473, 48.834209 ], [ 2.444693, 48.834034 ] ] } },
{ "type": "Feature", "properties": { "cls": "painted", "highway": "secondary", "name": "Avenue du Tremblay" }, "geometry": { "type": "LineString", "coordinates": [ [ 2.451975, 48.837518 ], [ 2.452117, 48.837262 ], [ 2.452676, 48.836404 ], [ 2.453095, 48.835892 ] ] } },
{ "type": "Feature", "properties": { "cls": "painted", "highway": "secondary", "name": "Avenue du Tremblay" }, "geometry": { "type": "LineString", "coordinates": [ [ 2.450549, 48.839637 ], [ 2.451731, 48.837844 ], [ 2.451975, 48.837518 ] ] } },
{ "type": "Feature", "properties": { "cls": "painted", "highway": "secondary", "name": "Avenue du Tremblay" }, "geometry": { "type": "LineString", "coordinates": [ [ 2.449711, 48.840902 ], [ 2.450549, 48.839637 ] ] } },
{ "type": "Feature", "properties": { "cls": "separated", "highway": "cycleway", "name": "Mail des Minimes" }, "geometry": { "type": "LineString", "coordinates": [ [ 2.438782, 48.840445 ], [ 2.438826, 48.840569 ] ] } },
{ "type": "Feature", "properties": { "cls": "separated", "highway": "cycleway", "name": "Mail des Minimes" }, "geometry": { "type": "LineString", "coordinates": [ [ 2.438826, 48.840569 ], [ 2.438835, 48.840607 ] ] } },
{ "type": "Feature", "properties": { "cls": "shared", "highway": "cycleway", "name": "Cours des Maréchaux" }, "geometry": { "type": "LineString", "coordinates": [ [ 2.438835, 48.840607 ], [ 2.43884, 48.840625 ] ] } },
{ "type": "Feature", "properties": { "cls": "painted", "highway": "primary", "name": "Avenue de Nogent" }, "geometry": { "type": "LineString", "coordinates": [ [ 2.469596, 48.83646 ], [ 2.469582, 48.836463 ] ] } },
{ "type": "Feature", "properties": { "cls": "separated", "highway": "cycleway", "name": "Avenue de Nogent" }, "geometry": { "type": "LineString", "coordinates": [ [ 2.469585, 48.836488 ], [ 2.469582, 48.836463 ] ] } },
{ "type": "Feature", "properties": { "cls": "separated", "highway": "cycleway", "name": "Avenue de Fontenay" }, "geometry": { "type": "LineString", "coordinates": [ [ 2.461303, 48.840162 ], [ 2.461164, 48.83995 ], [ 2.460952, 48.839701 ], [ 2.460712, 48.839455 ], [ 2.460357, 48.839156 ], [ 2.460279, 48.83914 ] ] } },
{ "type": "Feature", "properties": { "cls": "separated", "highway": "cycleway", "name": "Avenue de Nogent" }, "geometry": { "type": "LineString", "coordinates": [ [ 2.447325, 48.843649 ], [ 2.447462, 48.843565 ], [ 2.447626, 48.843462 ], [ 2.447663, 48.843439 ], [ 2.447862, 48.843313 ], [ 2.44806, 48.843169 ], [ 2.44839, 48.842885 ], [ 2.448797, 48.842476 ], [ 2.449015, 48.842273 ], [ 2.449152, 48.842157 ], [ 2.449225, 48.842099 ], [ 2.449273, 48.842061 ], [ 2.449448, 48.841952 ], [ 2.449679, 48.841842 ], [ 2.450089, 48.841708 ], [ 2.45064, 48.841531 ], [ 2.451383, 48.841316 ], [ 2.452795, 48.840922 ], [ 2.45485, 48.840381 ], [ 2.457329, 48.83979 ], [ 2.458564, 48.839486 ], [ 2.459394, 48.839277 ], [ 2.460195, 48.839072 ], [ 2.460347, 48.839032 ], [ 2.460598, 48.838973 ], [ 2.460659, 48.83896 ], [ 2.461768, 48.838661 ], [ 2.462961, 48.838344 ], [ 2.465477, 48.837661 ], [ 2.467668, 48.83705 ], [ 2.46957, 48.836527 ] ] } },
{ "type": "Feature", "properties": { "cls": "separated", "highway": "path", "name": null }, "geometry": { "type": "LineString", "coordinates": [ [ 2.419802, 48.824173 ], [ 2.419801, 48.824158 ] ] } },
{ "type": "Feature", "properties": { "cls": "shared", "highway": "path", "name": null }, "geometry": { "type": "LineString", "coordinates": [ [ 2.419809, 48.824217 ], [ 2.419802, 48.824173 ] ] } },
{ "type": "Feature", "properties": { "cls": "shared", "highway": "path", "name": "Avenue de Gravelle" }, "geometry": { "type": "LineString", "coordinates": [ [ 2.419326, 48.824239 ], [ 2.419472, 48.824231 ], [ 2.419635, 48.824228 ], [ 2.419765, 48.824218 ], [ 2.419809, 48.824217 ], [ 2.419861, 48.824215 ] ] } },
{ "type": "Feature", "properties": { "cls": "shared", "highway": "path", "name": "Avenue Daumesnil" }, "geometry": { "type": "LineString", "coordinates": [ [ 2.421341, 48.835391 ], [ 2.421932, 48.835596 ], [ 2.42208, 48.835644 ], [ 2.422191, 48.835689 ] ] } },
{ "type": "Feature", "properties": { "cls": "shared", "highway": "path", "name": "Avenue Daumesnil" }, "geometry": { "type": "LineString", "coordinates": [ [ 2.422191, 48.835689 ], [ 2.42259, 48.835842 ], [ 2.423084, 48.836066 ], [ 2.423193, 48.836122 ], [ 2.423863, 48.836469 ], [ 2.424125, 48.836604 ], [ 2.424815, 48.83701 ], [ 2.425449, 48.837418 ] ] } },
{ "type": "Feature", "properties": { "cls": "shared", "highway": "path", "name": "Avenue Daumesnil" }, "geometry": { "type": "LineString", "coordinates": [ [ 2.425449, 48.837418 ], [ 2.425787, 48.837651 ] ] } },
{ "type": "Feature", "properties": { "cls": "shared", "highway": "path", "name": "Route du Lac de Saint-Mandé" }, "geometry": { "type": "LineString", "coordinates": [ [ 2.425311, 48.837583 ], [ 2.425256, 48.837653 ] ] } },
{ "type": "Feature", "properties": { "cls": "shared", "highway": "path", "name": "Avenue Daumesnil" }, "geometry": { "type": "LineString", "coordinates": [ [ 2.425787, 48.837651 ], [ 2.426374, 48.838004 ], [ 2.426632, 48.838127 ], [ 2.426882, 48.838232 ], [ 2.427429, 48.838455 ], [ 2.428041, 48.838694 ], [ 2.428336, 48.838798 ], [ 2.428647, 48.838897 ], [ 2.429236, 48.839063 ], [ 2.429518, 48.839133 ], [ 2.429876, 48.839228 ], [ 2.429955, 48.839249 ], [ 2.430079, 48.839282 ] ] } },
{ "type": "Feature", "properties": { "cls": "shared", "highway": "footway", "name": null }, "geometry": { "type": "LineString", "coordinates": [ [ 2.42984, 48.839288 ], [ 2.429876, 48.839228 ] ] } },
{ "type": "Feature", "properties": { "cls": "shared", "highway": "path", "name": "Avenue Daumesnil" }, "geometry": { "type": "LineString", "coordinates": [ [ 2.430079, 48.839282 ], [ 2.430139, 48.839298 ], [ 2.430186, 48.83931 ] ] } },
{ "type": "Feature", "properties": { "cls": "shared", "highway": "footway", "name": null }, "geometry": { "type": "LineString", "coordinates": [ [ 2.430186, 48.83931 ], [ 2.430148, 48.839371 ] ] } },
{ "type": "Feature", "properties": { "cls": "shared", "highway": "footway", "name": null }, "geometry": { "type": "LineString", "coordinates": [ [ 2.429778, 48.83939 ], [ 2.429809, 48.839338 ], [ 2.42984, 48.839288 ] ] } },
{ "type": "Feature", "properties": { "cls": "separated", "highway": "cycleway", "name": null }, "geometry": { "type": "LineString", "coordinates": [ [ 2.420028, 48.843412 ], [ 2.419989, 48.843393 ] ] } },
{ "type": "Feature", "properties": { "cls": "shared", "highway": "path", "name": null }, "geometry": { "type": "LineString", "coordinates": [ [ 2.420138, 48.843383 ], [ 2.420143, 48.843403 ], [ 2.420147, 48.843418 ] ] } },
{ "type": "Feature", "properties": { "cls": "shared", "highway": "footway", "name": null }, "geometry": { "type": "LineString", "coordinates": [ [ 2.430148, 48.839371 ], [ 2.430118, 48.839418 ], [ 2.430088, 48.839467 ] ] } },
{ "type": "Feature", "properties": { "cls": "shared", "highway": "footway", "name": null }, "geometry": { "type": "LineString", "coordinates": [ [ 2.429741, 48.839451 ], [ 2.429778, 48.83939 ] ] } },
{ "type": "Feature", "properties": { "cls": "shared", "highway": "footway", "name": null }, "geometry": { "type": "LineString", "coordinates": [ [ 2.430088, 48.839467 ], [ 2.430047, 48.839531 ] ] } },
{ "type": "Feature", "properties": { "cls": "shared", "highway": "path", "name": "Avenue Daumesnil" }, "geometry": { "type": "LineString", "coordinates": [ [ 2.430186, 48.83931 ], [ 2.43202, 48.839791 ], [ 2.432075, 48.839807 ] ] } },
{ "type": "Feature", "properties": { "cls": "shared", "highway": "path", "name": "Route de la Pyramide" }, "geometry": { "type": "LineString", "coordinates": [ [ 2.43767, 48.839234 ], [ 2.437598, 48.839288 ], [ 2.437543, 48.839329 ], [ 2.436935, 48.839739 ], [ 2.436658, 48.839925 ], [ 2.436512, 48.840022 ], [ 2.436185, 48.84026 ], [ 2.436177, 48.8403 ] ] } },
{ "type": "Feature", "properties": { "cls": "shared", "highway": "cycleway", "name": "Avenue Daumesnil" }, "geometry": { "type": "LineString", "coordinates": [ [ 2.432075, 48.839807 ], [ 2.432148, 48.839827 ], [ 2.432226, 48.839853 ] ] } },
{ "type": "Feature", "properties": { "cls": "shared", "highway": "path", "name": "Avenue Daumesnil" }, "geometry": { "type": "LineString", "coordinates": [ [ 2.432226, 48.839853 ], [ 2.432385, 48.839905 ], [ 2.434156, 48.840355 ] ] } },
{ "type": "Feature", "properties": { "cls": "separated", "highway": "path", "name": "Mail des Minimes" }, "geometry": { "type": "LineString", "coordinates": [ [ 2.436177, 48.8403 ], [ 2.436244, 48.840341 ] ] } },
{ "type": "Feature", "properties": { "cls": "separated", "highway": "cycleway", "name": "Avenue des Minimes" }, "geometry": { "type": "LineString", "coordinates": [ [ 2.438288, 48.84038 ], [ 2.438313, 48.840377 ], [ 2.438477, 48.84036 ], [ 2.438528, 48.840358 ], [ 2.438648, 48.840349 ], [ 2.43873, 48.840352 ], [ 2.438754, 48.840366 ] ] } },
{ "type": "Feature", "properties": { "cls": "separated", "highway": "cycleway", "name": "Mail des Minimes" }, "geometry": { "type": "LineString", "coordinates": [ [ 2.436244, 48.840341 ], [ 2.436313, 48.840383 ], [ 2.436363, 48.840414 ] ] } },
{ "type": "Feature", "properties": { "cls": "separated", "highway": "cycleway", "name": "Avenue Daumesnil" }, "geometry": { "type": "LineString", "coordinates": [ [ 2.434311, 48.840391 ], [ 2.434194, 48.840364 ], [ 2.434156, 48.840355 ] ] } },
{ "type": "Feature", "properties": { "cls": "separated", "highway": "cycleway", "name": "Mail des Minimes" }, "geometry": { "type": "LineString", "coordinates": [ [ 2.438754, 48.840366 ], [ 2.438765, 48.840389 ], [ 2.438782, 48.840445 ] ] } },
{ "type": "Feature", "properties": { "cls": "separated", "highway": "path", "name": null }, "geometry": { "type": "LineString", "coordinates": [ [ 2.434156, 48.840355 ], [ 2.43412, 48.840413 ] ] } },
{ "type": "Feature", "properties": { "cls": "separated", "highway": "cycleway", "name": "Cours des Maréchaux" }, "geometry": { "type": "LineString", "coordinates": [ [ 2.438297, 48.840432 ], [ 2.438292, 48.840405 ], [ 2.438288, 48.84038 ] ] } },
{ "type": "Feature", "properties": { "cls": "separated", "highway": "cycleway", "name": "Avenue Daumesnil" }, "geometry": { "type": "LineString", "coordinates": [ [ 2.434402, 48.840415 ], [ 2.434361, 48.840405 ], [ 2.434311, 48.840391 ] ] } },
{ "type": "Feature", "properties": { "cls": "separated", "highway": "cycleway", "name": "Esplanade Saint-Louis" }, "geometry": { "type": "LineString", "coordinates": [ [ 2.436177, 48.8403 ], [ 2.436078, 48.840362 ], [ 2.436051, 48.840374 ], [ 2.43601, 48.840383 ], [ 2.435963, 48.840386 ], [ 2.435912, 48.840383 ], [ 2.435857, 48.840374 ], [ 2.435765, 48.840356 ], [ 2.435683, 48.840349 ], [ 2.435594, 48.840347 ], [ 2.435523, 48.840352 ], [ 2.435466, 48.840357 ], [ 2.435398, 48.840369 ], [ 2.435337, 48.840387 ], [ 2.435249, 48.840418 ], [ 2.435182, 48.840447 ], [ 2.435015, 48.84053 ], [ 2.434955, 48.840548 ], [ 2.434889, 48.840547 ] ] } },
{ "type": "Feature", "properties": { "cls": "separated", "highway": "cycleway", "name": "Avenue des Minimes" }, "geometry": { "type": "LineString", "coordinates": [ [ 2.436363, 48.840414 ], [ 2.436451, 48.840468 ], [ 2.436478, 48.840493 ], [ 2.436498, 48.840502 ], [ 2.436539, 48.840513 ], [ 2.436608, 48.840515 ], [ 2.437038, 48.840488 ], [ 2.43781, 48.840421 ], [ 2.438288, 48.84038 ] ] } },
{ "type": "Feature", "properties": { "cls": "separated", "highway": "cycleway", "name": "Cours des Maréchaux" }, "geometry": { "type": "LineString", "coordinates": [ [ 2.438306, 48.840514 ], [ 2.438302, 48.840479 ], [ 2.438297, 48.840432 ] ] } },
{ "type": "Feature", "properties": { "cls": "separated", "highway": "cycleway", "name": null }, "geometry": { "type": "LineString", "coordinates": [ [ 2.43412, 48.840413 ], [ 2.434092, 48.840466 ], [ 2.434066, 48.840514 ] ] } },
{ "type": "Feature", "properties": { "cls": "separated", "highway": "cycleway", "name": "Avenue Daumesnil" }, "geometry": { "type": "LineString", "coordinates": [ [ 2.434889, 48.840547 ], [ 2.434788, 48.840527 ], [ 2.434591, 48.840467 ], [ 2.434402, 48.840415 ] ] } },
{ "type": "Feature", "properties": { "cls": "separated", "highway": "path", "name": null }, "geometry": { "type": "LineString", "coordinates": [ [ 2.434066, 48.840514 ], [ 2.434055, 48.840535 ] ] } },
{ "type": "Feature", "properties": { "cls": "separated", "highway": "cycleway", "name": "Cours des Maréchaux" }, "geometry": { "type": "LineString", "coordinates": [ [ 2.438306, 48.840514 ], [ 2.438333, 48.840664 ] ] } },
{ "type": "Feature", "properties": { "cls": "separated", "highway": "cycleway", "name": "Cours des Maréchaux" }, "geometry": { "type": "LineString", "coordinates": [ [ 2.438736, 48.840632 ], [ 2.4387, 48.840636 ], [ 2.438659, 48.84064 ] ] } },
{ "type": "Feature", "properties": { "cls": "separated", "highway": "cycleway", "name": "Cours des Maréchaux" }, "geometry": { "type": "LineString", "coordinates": [ [ 2.438659, 48.84064 ], [ 2.438579, 48.840648 ] ] } },
{ "type": "Feature", "properties": { "cls": "separated", "highway": "cycleway", "name": "Cours des Maréchaux" }, "geometry": { "type": "LineString", "coordinates": [ [ 2.438333, 48.840664 ], [ 2.438363, 48.840662 ], [ 2.438579, 48.840648 ] ] } },
{ "type": "Feature", "properties": { "cls": "separated", "highway": "path", "name": null }, "geometry": { "type": "LineString", "coordinates": [ [ 2.434055, 48.840535 ], [ 2.434108, 48.840758 ] ] } },
{ "type": "Feature", "properties": { "cls": "separated", "highway": "cycleway", "name": "Cours des Maréchaux" }, "geometry": { "type": "LineString", "coordinates": [ [ 2.438073, 48.840683 ], [ 2.438333, 48.840664 ] ] } },
{ "type": "Feature", "properties": { "cls": "separated", "highway": "cycleway", "name": "Cours des Maréchaux" }, "geometry": { "type": "LineString", "coordinates": [ [ 2.438579, 48.840648 ], [ 2.438588, 48.840704 ] ] } },
{ "type": "Feature", "properties": { "cls": "separated", "highway": "footway", "name": null }, "geometry": { "type": "LineString", "coordinates": [ [ 2.438073, 48.840683 ], [ 2.438001, 48.840688 ] ] } },
{ "type": "Feature", "properties": { "cls": "separated", "highway": "footway", "name": null }, "geometry": { "type": "LineString", "coordinates": [ [ 2.438001, 48.840688 ], [ 2.437947, 48.840692 ], [ 2.437883, 48.840696 ] ] } },
{ "type": "Feature", "properties": { "cls": "separated", "highway": "footway", "name": null }, "geometry": { "type": "LineString", "coordinates": [ [ 2.437883, 48.840696 ], [ 2.437853, 48.840699 ], [ 2.437476, 48.84073 ] ] } },
{ "type": "Feature", "properties": { "cls": "separated", "highway": "cycleway", "name": null }, "geometry": { "type": "LineString", "coordinates": [ [ 2.438789, 48.840725 ], [ 2.438719, 48.840731 ], [ 2.438658, 48.840737 ] ] } },
{ "type": "Feature", "properties": { "cls": "separated", "highway": "cycleway", "name": null }, "geometry": { "type": "LineString", "coordinates": [ [ 2.438658, 48.840737 ], [ 2.438598, 48.840742 ] ] } },
{ "type": "Feature", "properties": { "cls": "separated", "highway": "cycleway", "name": "Cours des Maréchaux" }, "geometry": { "type": "LineString", "coordinates": [ [ 2.438588, 48.840704 ], [ 2.438598, 48.840742 ], [ 2.438631, 48.840909 ] ] } },
{ "type": "Feature", "properties": { "cls": "separated", "highway": "cycleway", "name": null }, "geometry": { "type": "LineString", "coordinates": [ [ 2.434114, 48.840809 ], [ 2.434121, 48.840848 ], [ 2.434123, 48.840888 ] ] } },
{ "type": "Feature", "properties": { "cls": "separated", "highway": "cycleway", "name": "Cours des Maréchaux" }, "geometry": { "type": "LineString", "coordinates": [ [ 2.438432, 48.842457 ], [ 2.438422, 48.842409 ], [ 2.438121, 48.840953 ], [ 2.438095, 48.840797 ], [ 2.438087, 48.840753 ], [ 2.438073, 48.840683 ] ] } },
{ "type": "Feature", "properties": { "cls": "separated", "highway": "cycleway", "name": "Route de la Tourelle" }, "geometry": { "type": "MultiLineString", "coordinates": [ [ [ 2.423194, 48.842788 ], [ 2.423425, 48.842601 ], [ 2.423525, 48.84252 ], [ 2.423532, 48.842514 ] ], [ [ 2.424232, 48.841936 ], [ 2.424278, 48.841904 ], [ 2.424445, 48.841834 ] ] ] } },
{ "type": "Feature", "properties": { "cls": "separated", "highway": "cycleway", "name": "Cours des Maréchaux" }, "geometry": { "type": "LineString", "coordinates": [ [ 2.438459, 48.842599 ], [ 2.438447, 48.842528 ], [ 2.438432, 48.842457 ] ] } },
{ "type": "Feature", "properties": { "cls": "separated", "highway": "cycleway", "name": "Avenue Anna Politkovskaïa" }, "geometry": { "type": "LineString", "coordinates": [ [ 2.4228, 48.842989 ], [ 2.42297, 48.842913 ], [ 2.423039, 48.842878 ], [ 2.423104, 48.84284 ], [ 2.423194, 48.842788 ] ] } },
{ "type": "Feature", "properties": { "cls": "separated", "highway": "cycleway", "name": "Avenue Anna Politkovskaïa" }, "geometry": { "type": "LineString", "coordinates": [ [ 2.422745, 48.843012 ], [ 2.42277, 48.843002 ], [ 2.4228, 48.842989 ] ] } },
{ "type": "Feature", "properties": { "cls": "separated", "highway": "cycleway", "name": "Avenue de Gravelle" }, "geometry": { "type": "LineString", "coordinates": [ [ 2.403685, 48.829267 ], [ 2.403731, 48.829252 ], [ 2.403816, 48.829225 ] ] } },
{ "type": "Feature", "properties": { "cls": "separated", "highway": "cycleway", "name": "Avenue de Gravelle" }, "geometry": { "type": "LineString", "coordinates": [ [ 2.403581, 48.829301 ], [ 2.403651, 48.829278 ], [ 2.403685, 48.829267 ] ] } },
{ "type": "Feature", "properties": { "cls": "separated", "highway": "cycleway", "name": "Avenue de Gravelle" }, "geometry": { "type": "LineString", "coordinates": [ [ 2.403436, 48.829351 ], [ 2.403532, 48.829316 ], [ 2.403581, 48.829301 ] ] } },
{ "type": "Feature", "properties": { "cls": "shared", "highway": "path", "name": "Avenue de Gravelle" }, "geometry": { "type": "LineString", "coordinates": [ [ 2.403149, 48.829396 ], [ 2.403186, 48.829383 ], [ 2.403249, 48.82936 ], [ 2.403332, 48.829345 ], [ 2.403436, 48.829351 ] ] } },
{ "type": "Feature", "properties": { "cls": "separated", "highway": "cycleway", "name": "Place du Cardinal Lavigerie" }, "geometry": { "type": "LineString", "coordinates": [ [ 2.404061, 48.832314 ], [ 2.404029, 48.832334 ] ] } },
{ "type": "Feature", "properties": { "cls": "separated", "highway": "cycleway", "name": "Cours des Maréchaux" }, "geometry": { "type": "LineString", "coordinates": [ [ 2.43884, 48.840625 ], [ 2.438736, 48.840632 ] ] } },
{ "type": "Feature", "properties": { "cls": "separated", "highway": "cycleway", "name": null }, "geometry": { "type": "LineString", "coordinates": [ [ 2.43884, 48.840625 ], [ 2.438844, 48.840645 ], [ 2.438837, 48.840666 ], [ 2.438789, 48.840725 ] ] } },
{ "type": "Feature", "properties": { "cls": "painted", "highway": "secondary", "name": "Avenue du Tremblay" }, "geometry": { "type": "LineString", "coordinates": [ [ 2.449233, 48.841636 ], [ 2.449256, 48.841603 ], [ 2.449711, 48.840902 ] ] } },
{ "type": "Feature", "properties": { "cls": "separated", "highway": "cycleway", "name": "Cours des Maréchaux" }, "geometry": { "type": "LineString", "coordinates": [ [ 2.438631, 48.840909 ], [ 2.438928, 48.842365 ], [ 2.438941, 48.842417 ] ] } },
{ "type": "Feature", "properties": { "cls": "separated", "highway": "cycleway", "name": "Avenue du Tremblay" }, "geometry": { "type": "LineString", "coordinates": [ [ 2.449056, 48.841792 ], [ 2.449075, 48.841759 ], [ 2.44913, 48.841666 ], [ 2.449233, 48.841636 ], [ 2.449245, 48.84172 ], [ 2.449199, 48.841799 ], [ 2.449176, 48.841831 ] ] } },
{ "type": "Feature", "properties": { "cls": "separated", "highway": "cycleway", "name": "Avenue du Tremblay" }, "geometry": { "type": "LineString", "coordinates": [ [ 2.449056, 48.841792 ], [ 2.449115, 48.841812 ] ] } },
{ "type": "Feature", "properties": { "cls": "separated", "highway": "cycleway", "name": "Avenue du Tremblay" }, "geometry": { "type": "LineString", "coordinates": [ [ 2.449115, 48.841812 ], [ 2.449176, 48.841831 ] ] } },
{ "type": "Feature", "properties": { "cls": "separated", "highway": "cycleway", "name": "Avenue du Tremblay" }, "geometry": { "type": "LineString", "coordinates": [ [ 2.449176, 48.841831 ], [ 2.449191, 48.841917 ] ] } },
{ "type": "Feature", "properties": { "cls": "separated", "highway": "cycleway", "name": "Avenue du Tremblay" }, "geometry": { "type": "LineString", "coordinates": [ [ 2.449191, 48.841917 ], [ 2.449198, 48.841971 ], [ 2.449197, 48.842038 ], [ 2.449206, 48.842074 ], [ 2.449225, 48.842099 ] ] } },
{ "type": "Feature", "properties": { "cls": "separated", "highway": "cycleway", "name": "Cours des Maréchaux" }, "geometry": { "type": "LineString", "coordinates": [ [ 2.438941, 48.842417 ], [ 2.438952, 48.842485 ], [ 2.438969, 48.842559 ] ] } },
{ "type": "Feature", "properties": { "cls": "separated", "highway": "cycleway", "name": "Route des Sabotiers" }, "geometry": { "type": "LineString", "coordinates": [ [ 2.447626, 48.843462 ], [ 2.447551, 48.843412 ], [ 2.447499, 48.843399 ], [ 2.447365, 48.843384 ] ] } },
{ "type": "Feature", "properties": { "cls": "separated", "highway": "cycleway", "name": "Cours des Maréchaux" }, "geometry": { "type": "LineString", "coordinates": [ [ 2.438969, 48.842559 ], [ 2.43927, 48.844044 ], [ 2.439314, 48.844262 ] ] } },
{ "type": "Feature", "properties": { "cls": "separated", "highway": "cycleway", "name": "Avenue de Nogent" }, "geometry": { "type": "LineString", "coordinates": [ [ 2.447115, 48.84374 ], [ 2.447252, 48.843688 ], [ 2.447325, 48.843649 ] ] } },
{ "type": "Feature", "properties": { "cls": "separated", "highway": "cycleway", "name": "Avenue de Nogent" }, "geometry": { "type": "LineString", "coordinates": [ [ 2.441284, 48.844429 ], [ 2.442323, 48.844335 ], [ 2.442432, 48.844327 ], [ 2.443379, 48.844241 ], [ 2.444513, 48.844141 ], [ 2.445674, 48.844035 ], [ 2.445857, 48.844009 ], [ 2.446126, 48.843959 ], [ 2.446421, 48.8439 ], [ 2.446852, 48.843809 ], [ 2.447067, 48.843753 ], [ 2.447077, 48.84375 ], [ 2.447115, 48.84374 ] ] } },
{ "type": "Feature", "properties": { "cls": "separated", "highway": "cycleway", "name": "Cours des Maréchaux" }, "geometry": { "type": "LineString", "coordinates": [ [ 2.439314, 48.844262 ], [ 2.439377, 48.844265 ], [ 2.43939, 48.844266 ], [ 2.439405, 48.844335 ], [ 2.439421, 48.844334 ] ] } },
{ "type": "Feature", "properties": { "cls": "separated", "highway": "cycleway", "name": "Cours des Maréchaux" }, "geometry": { "type": "LineString", "coordinates": [ [ 2.439421, 48.844334 ], [ 2.43945, 48.844332 ], [ 2.439496, 48.844328 ] ] } },
{ "type": "Feature", "properties": { "cls": "separated", "highway": "cycleway", "name": "Cours des Maréchaux" }, "geometry": { "type": "LineString", "coordinates": [ [ 2.439496, 48.844328 ], [ 2.43951, 48.844326 ], [ 2.439518, 48.844356 ] ] } },
{ "type": "Feature", "properties": { "cls": "separated", "highway": "primary", "name": "Avenue de Nogent" }, "geometry": { "type": "LineString", "coordinates": [ [ 2.441012, 48.844423 ], [ 2.440805, 48.84445 ], [ 2.440797, 48.844451 ] ] } },
{ "type": "Feature", "properties": { "cls": "shared", "highway": "path", "name": null }, "geometry": { "type": "LineString", "coordinates": [ [ 2.420148, 48.843503 ], [ 2.420113, 48.84351 ] ] } },
{ "type": "Feature", "properties": { "cls": "separated", "highway": "cycleway", "name": "Avenue Anna Politkovskaïa" }, "geometry": { "type": "LineString", "coordinates": [ [ 2.42001, 48.843413 ], [ 2.420028, 48.843412 ], [ 2.420049, 48.843412 ], [ 2.420143, 48.843403 ], [ 2.420832, 48.843341 ], [ 2.420976, 48.843328 ], [ 2.421265, 48.843302 ], [ 2.421459, 48.843284 ], [ 2.421649, 48.843264 ], [ 2.421962, 48.843232 ], [ 2.422061, 48.84322 ], [ 2.422166, 48.843202 ], [ 2.422272, 48.843174 ], [ 2.422483, 48.84311 ], [ 2.422606, 48.843065 ], [ 2.422745, 48.843012 ] ] } },
{ "type": "Feature", "properties": { "cls": "shared", "highway": "path", "name": null }, "geometry": { "type": "LineString", "coordinates": [ [ 2.420147, 48.843418 ], [ 2.420151, 48.843433 ], [ 2.420157, 48.843461 ] ] } },
{ "type": "Feature", "properties": { "cls": "separated", "highway": "cycleway", "name": "Cours des Maréchaux" }, "geometry": { "type": "LineString", "coordinates": [ [ 2.438732, 48.844462 ], [ 2.43877, 48.844431 ], [ 2.438823, 48.844389 ], [ 2.438766, 48.844087 ], [ 2.438459, 48.842599 ] ] } },
{ "type": "Feature", "properties": { "cls": "shared", "highway": "path", "name": null }, "geometry": { "type": "LineString", "coordinates": [ [ 2.420157, 48.843461 ], [ 2.420163, 48.843481 ], [ 2.420157, 48.843491 ], [ 2.420148, 48.843503 ] ] } },
{ "type": "Feature", "properties": { "cls": "separated", "highway": "cycleway", "name": "Avenue de Paris" }, "geometry": { "type": "LineString", "coordinates": [ [ 2.44054, 48.844495 ], [ 2.441019, 48.844454 ], [ 2.441194, 48.844445 ], [ 2.441284, 48.844429 ] ] } }
]
}
