{
"type": "FeatureCollection",
"name": "086-san-diego-los-penasquitos-canyon-preserve",
"crs": { "type": "name", "properties": { "name": "urn:ogc:def:crs:OGC:1.3:CRS84" } },
"xy_coordinate_resolution": 1e-06,
"features": [
{ "type": "Feature", "properties": { "cls": "painted", "highway": "primary", "name": "Black Mountain Road" }, "geometry": { "type": "LineString", "coordinates": [ [ -117.128121, 32.938314 ], [ -117.127414, 32.93744 ], [ -117.127409, 32.937433 ] ] } },
{ "type": "Feature", "properties": { "cls": "painted", "highway": "primary", "name": "Black Mountain Road" }, "geometry": { "type": "LineString", "coordinates": [ [ -117.127264, 32.937525 ], [ -117.128389, 32.938948 ], [ -117.128453, 32.939043 ] ] } },
{ "type": "Feature", "properties": { "cls": "painted", "highway": "primary", "name": "Black Mountain Road" }, "geometry": { "type": "LineString", "coordinates": [ [ -117.128961, 32.939727 ], [ -117.128819, 32.939331 ], [ -117.128697, 32.939079 ], [ -117.128563, 32.93886 ], [ -117.128121, 32.938314 ] ] } },
{ "type": "Feature", "properties": { "cls": "painted", "highway": "primary", "name": "Black Mountain Road" }, "geometry": { "type": "LineString", "coordinates": [ [ -117.128453, 32.939043 ], [ -117.128525, 32.939149 ], [ -117.128652, 32.939373 ], [ -117.12881, 32.939766 ] ] } },
{ "type": "Feature", "properties": { "cls": "painted", "highway": "primary", "name": "Black Mountain Road" }, "geometry": { "type": "LineString", "coordinates": [ [ -117.12912, 32.94027 ], [ -117.128961, 32.939727 ] ] } },
{ "type": "Feature", "properties": { "cls": "painted", "highway": "primary", "name": "Black Mountain Road" }, "geometry": { "type": "LineString", "coordinates": [ [ -117.12881, 32.939766 ], [ -117.128974, 32.940295 ] ] } },
{ "type": "Feature", "properties": { "cls": "painted", "highway": "primary", "name": "Black Mountain Road" }, "geometry": { "type": "LineString", "coordinates": [ [ -117.129198, 32.940565 ], [ -117.129184, 32.940513 ], [ -117.12912, 32.94027 ] ] } },
{ "type": "Feature", "properties": { "cls": "painted", "highway": "primary", "name": "Black Mountain Road" }, "geometry": { "type": "LineString", "coordinates": [ [ -117.128974, 32.940295 ], [ -117.129046, 32.940508 ], [ -117.129057, 32.940539 ], [ -117.129072, 32.940584 ] ] } },
{ "type": "Feature", "properties": { "cls": "shared", "highway": "cycleway", "name": "Cara Knott Bike Path" }, "geometry": { "type": "LineString", "coordinates": [ [ -117.108312, 32.943276 ], [ -117.108132, 32.943691 ], [ -117.108082, 32.943807 ] ] } },
{ "type": "Feature", "properties": { "cls": "shared", "highway": "cycleway", "name": "Cara Knott Bike Path" }, "geometry": { "type": "LineString", "coordinates": [ [ -117.108082, 32.943807 ], [ -117.107529, 32.944895 ] ] } },
{ "type": "Feature", "properties": { "cls": "shared", "highway": "cycleway", "name": "Cara Knott Bike Path" }, "geometry": { "type": "LineString", "coordinates": [ [ -117.107529, 32.944895 ], [ -117.107472, 32.944957 ], [ -117.10741, 32.945003 ] ] } },
{ "type": "Feature", "properties": { "cls": "shared", "highway": "cycleway", "name": "Cara Knott Bike Path" }, "geometry": { "type": "Point", "coordinates": [ -117.10741, 32.945003 ] } },
{ "type": "Feature", "properties": { "cls": "painted", "highway": "secondary", "name": "Camino Santa Fe" }, "geometry": { "type": "LineString", "coordinates": [ [ -117.172365, 32.911475 ], [ -117.173082, 32.912894 ], [ -117.173207, 32.913075 ], [ -117.173324, 32.913233 ], [ -117.173488, 32.91341 ], [ -117.173621, 32.913544 ], [ -117.173698, 32.913606 ], [ -117.173781, 32.913673 ], [ -117.173857, 32.913739 ] ] } },
{ "type": "Feature", "properties": { "cls": "painted", "highway": "secondary", "name": "Camino Santa Fe" }, "geometry": { "type": "LineString", "coordinates": [ [ -117.173947, 32.913661 ], [ -117.173867, 32.913607 ], [ -117.173711, 32.913466 ], [ -117.173574, 32.913338 ], [ -117.173439, 32.913177 ], [ -117.173309, 32.913011 ], [ -117.173211, 32.912848 ], [ -117.172481, 32.911447 ] ] } },
{ "type": "Feature", "properties": { "cls": "painted", "highway": "secondary", "name": "Camino Santa Fe" }, "geometry": { "type": "LineString", "coordinates": [ [ -117.175286, 32.914267 ], [ -117.175179, 32.914233 ], [ -117.174841, 32.914118 ], [ -117.174594, 32.914028 ], [ -117.174276, 32.913877 ], [ -117.174102, 32.913767 ], [ -117.174, 32.913699 ], [ -117.173947, 32.913661 ] ] } },
{ "type": "Feature", "properties": { "cls": "painted", "highway": "secondary", "name": "Camino Santa Fe" }, "geometry": { "type": "LineString", "coordinates": [ [ -117.173857, 32.913739 ], [ -117.173922, 32.913782 ], [ -117.174027, 32.913849 ], [ -117.174207, 32.913962 ], [ -117.174523, 32.914119 ], [ -117.174778, 32.914223 ], [ -117.175144, 32.91434 ], [ -117.175239, 32.914368 ] ] } },
{ "type": "Feature", "properties": { "cls": "painted", "highway": "secondary", "name": "Camino Santa Fe" }, "geometry": { "type": "LineString", "coordinates": [ [ -117.175239, 32.914368 ], [ -117.175437, 32.914421 ], [ -117.176342, 32.914694 ], [ -117.176566, 32.914767 ], [ -117.176783, 32.914876 ], [ -117.177019, 32.915022 ], [ -117.177241, 32.915169 ], [ -117.177446, 32.915315 ], [ -117.177673, 32.915522 ], [ -117.177886, 32.915777 ], [ -117.177992, 32.915935 ] ] } },
{ "type": "Feature", "properties": { "cls": "painted", "highway": "secondary", "name": "Sorrento Valley Boulevard" }, "geometry": { "type": "LineString", "coordinates": [ [ -117.207251, 32.906944 ], [ -117.207318, 32.906941 ], [ -117.207396, 32.906938 ], [ -117.207571, 32.906938 ], [ -117.207727, 32.906941 ], [ -117.207872, 32.906952 ], [ -117.20803, 32.906971 ], [ -117.208186, 32.906995 ], [ -117.208336, 32.907026 ], [ -117.20864, 32.907092 ], [ -117.208953, 32.907164 ], [ -117.209399, 32.907262 ], [ -117.209555, 32.907296 ], [ -117.209723, 32.907325 ], [ -117.209882, 32.907345 ], [ -117.210041, 32.907359 ], [ -117.210336, 32.907371 ], [ -117.210507, 32.907371 ], [ -117.210674, 32.907363 ], [ -117.210816, 32.907354 ], [ -117.21094, 32.907339 ], [ -117.211109, 32.907318 ], [ -117.21126, 32.907292 ], [ -117.211425, 32.907259 ], [ -117.211539, 32.907232 ], [ -117.211711, 32.907184 ], [ -117.211872, 32.907131 ], [ -117.212006, 32.907084 ], [ -117.21215, 32.907028 ], [ -117.212316, 32.906953 ], [ -117.212437, 32.906894 ], [ -117.212545, 32.90684 ], [ -117.212692, 32.906758 ], [ -117.212819, 32.906679 ], [ -117.212923, 32.906607 ], [ -117.213067, 32.906501 ], [ -117.213178, 32.906414 ], [ -117.213271, 32.906334 ], [ -117.213324, 32.906286 ], [ -117.213395, 32.906218 ], [ -117.213499, 32.90611 ], [ -117.213599, 32.906 ], [ -117.213691, 32.905886 ], [ -117.213756, 32.905802 ], [ -117.21384, 32.905679 ], [ -117.213848, 32.905664 ] ] } },
{ "type": "Feature", "properties": { "cls": "painted", "highway": "secondary", "name": "Sorrento Valley Boulevard" }, "geometry": { "type": "LineString", "coordinates": [ [ -117.207554, 32.906834 ], [ -117.207399, 32.906834 ], [ -117.20724, 32.90684 ] ] } },
{ "type": "Feature", "properties": { "cls": "painted", "highway": "secondary", "name": "Sorrento Valley Boulevard" }, "geometry": { "type": "LineString", "coordinates": [ [ -117.20724, 32.90684 ], [ -117.207078, 32.906856 ], [ -117.206949, 32.906873 ], [ -117.206818, 32.906894 ], [ -117.206696, 32.906918 ], [ -117.206489, 32.906969 ], [ -117.206286, 32.907021 ], [ -117.206113, 32.907064 ] ] } },
{ "type": "Feature", "properties": { "cls": "painted", "highway": "secondary", "name": "Sorrento Valley Boulevard" }, "geometry": { "type": "LineString", "coordinates": [ [ -117.213747, 32.905662 ], [ -117.213717, 32.905707 ], [ -117.213638, 32.905813 ], [ -117.213545, 32.905929 ], [ -117.21344, 32.906048 ], [ -117.213346, 32.906146 ], [ -117.213238, 32.906246 ], [ -117.213121, 32.90635 ], [ -117.213005, 32.906441 ], [ -117.212831, 32.906569 ], [ -117.21278, 32.906604 ], [ -117.212658, 32.906681 ], [ -117.212507, 32.906767 ], [ -117.212402, 32.906821 ] ] } },
{ "type": "Feature", "properties": { "cls": "painted", "highway": "secondary", "name": "Sorrento Valley Boulevard" }, "geometry": { "type": "LineString", "coordinates": [ [ -117.206697, 32.907025 ], [ -117.206799, 32.907005 ], [ -117.20692, 32.906984 ], [ -117.207079, 32.906962 ], [ -117.207251, 32.906944 ] ] } },
{ "type": "Feature", "properties": { "cls": "painted", "highway": "secondary", "name": "Sorrento Valley Boulevard" }, "geometry": { "type": "LineString", "coordinates": [ [ -117.212402, 32.906821 ], [ -117.21226, 32.906891 ], [ -117.212102, 32.90696 ], [ -117.211957, 32.907017 ], [ -117.211817, 32.907068 ], [ -117.211637, 32.907125 ], [ -117.211479, 32.907167 ], [ -117.211323, 32.907202 ], [ -117.211151, 32.907236 ], [ -117.211037, 32.907254 ], [ -117.210775, 32.907284 ], [ -117.2106, 32.907294 ], [ -117.210444, 32.907297 ], [ -117.210286, 32.907295 ], [ -117.210125, 32.907289 ], [ -117.20997, 32.907277 ], [ -117.209812, 32.907258 ], [ -117.209656, 32.907236 ], [ -117.209506, 32.907208 ], [ -117.209346, 32.907173 ], [ -117.209188, 32.907134 ], [ -117.209041, 32.907096 ], [ -117.208859, 32.907048 ], [ -117.20858, 32.906976 ], [ -117.208308, 32.906914 ], [ -117.208131, 32.906881 ], [ -117.207924, 32.906853 ], [ -117.207773, 32.90684 ], [ -117.207605, 32.906834 ], [ -117.207554, 32.906834 ] ] } },
{ "type": "Feature", "properties": { "cls": "painted", "highway": "secondary", "name": "Sorrento Valley Boulevard" }, "geometry": { "type": "LineString", "coordinates": [ [ -117.20617, 32.907159 ], [ -117.206333, 32.907117 ], [ -117.20648, 32.907079 ], [ -117.206697, 32.907025 ] ] } },
{ "type": "Feature", "properties": { "cls": "painted", "highway": "secondary", "name": "Sorrento Valley Boulevard" }, "geometry": { "type": "LineString", "coordinates": [ [ -117.206113, 32.907064 ], [ -117.205703, 32.90717 ] ] } },
{ "type": "Feature", "properties": { "cls": "painted", "highway": "secondary", "name": "Sorrento Valley Boulevard" }, "geometry": { "type": "LineString", "coordinates": [ [ -117.205699, 32.907283 ], [ -117.205955, 32.907218 ], [ -117.20617, 32.907159 ] ] } },
{ "type": "Feature", "properties": { "cls": "painted", "highway": "secondary", "name": "Sorrento Valley Boulevard" }, "geometry": { "type": "LineString", "coordinates": [ [ -117.205703, 32.90717 ], [ -117.205299, 32.90728 ], [ -117.20522, 32.907304 ], [ -117.205093, 32.907346 ], [ -117.204937, 32.907406 ], [ -117.204795, 32.907466 ], [ -117.204651, 32.907534 ], [ -117.204521, 32.907598 ], [ -117.204384, 32.907672 ], [ -117.204262, 32.907743 ], [ -117.204136, 32.907825 ], [ -117.204027, 32.907899 ], [ -117.203895, 32.907996 ], [ -117.203685, 32.908168 ], [ -117.203467, 32.908355 ], [ -117.203255, 32.908538 ], [ -117.203167, 32.908614 ] ] } },
{ "type": "Feature", "properties": { "cls": "painted", "highway": "secondary", "name": "Sorrento Valley Boulevard" }, "geometry": { "type": "LineString", "coordinates": [ [ -117.203398, 32.908565 ], [ -117.203438, 32.90853 ], [ -117.203648, 32.908351 ], [ -117.203808, 32.908211 ], [ -117.204014, 32.908048 ], [ -117.204129, 32.907964 ], [ -117.204244, 32.907885 ], [ -117.204407, 32.907785 ], [ -117.204586, 32.907687 ], [ -117.204736, 32.907613 ], [ -117.204891, 32.907542 ], [ -117.205055, 32.907475 ], [ -117.205173, 32.907432 ], [ -117.205268, 32.907402 ], [ -117.205364, 32.907374 ], [ -117.205699, 32.907283 ] ] } },
{ "type": "Feature", "properties": { "cls": "painted", "highway": "secondary", "name": "Camino Santa Fe" }, "geometry": { "type": "LineString", "coordinates": [ [ -117.178113, 32.915886 ], [ -117.177987, 32.915721 ], [ -117.177755, 32.915452 ], [ -117.17753, 32.915255 ], [ -117.177307, 32.915094 ], [ -117.17708, 32.91493 ], [ -117.176836, 32.914784 ], [ -117.176625, 32.914681 ], [ -117.176392, 32.914593 ], [ -117.175478, 32.914319 ], [ -117.175286, 32.914267 ] ] } },
{ "type": "Feature", "properties": { "cls": "separated", "highway": "cycleway", "name": null }, "geometry": { "type": "LineString", "coordinates": [ [ -117.174631, 32.936396 ], [ -117.174664, 32.936527 ], [ -117.174684, 32.936755 ], [ -117.174647, 32.936856 ], [ -117.174639, 32.936876 ] ] } },
{ "type": "Feature", "properties": { "cls": "separated", "highway": "cycleway", "name": null }, "geometry": { "type": "MultiLineString", "coordinates": [ [ [ -117.178236, 32.943176 ], [ -117.178206, 32.943159 ], [ -117.178082, 32.943157 ], [ -117.177787, 32.943178 ], [ -117.177449, 32.943214 ], [ -117.177118, 32.943245 ] ], [ [ -117.177102, 32.943246 ], [ -117.176757, 32.943259 ], [ -117.176419, 32.943228 ], [ -117.176391, 32.943225 ], [ -117.176356, 32.943221 ], [ -117.176028, 32.943187 ], [ -117.175939, 32.943194 ] ] ] } }
]
}
