{
"type": "FeatureCollection",
"name": "087-birmingham-sutton-park",
"crs": { "type": "name", "properties": { "name": "urn:ogc:def:crs:OGC:1.3:CRS84" } },
"xy_coordinate_resolution": 1e-06,
"features": [
{ "type": "Feature", "properties": { "cls": "separated", "highway": "cycleway", "name": null }, "geometry": { "type": "Point", "coordinates": [ -1.868274, 52.55707 ] } },
{ "type": "Feature", "properties": { "cls": "separated", "highway": "cycleway", "name": null }, "geometry": { "type": "LineString", "coordinates": [ [ -1.868274, 52.55707 ], [ -1.86809, 52.557126 ] ] } },
{ "type": "Feature", "properties": { "cls": "separated", "highway": "cycleway", "name": null }, "geometry": { "type": "LineString", "coordinates": [ [ -1.843425, 52.559104 ], [ -1.843845, 52.558748 ], [ -1.844541, 52.558064 ], [ -1.844896, 52.557928 ], [ -1.845185, 52.557864 ], [ -1.845272, 52.557857 ] ] } },
{ "type": "Feature", "properties": { "cls": "shared", "highway": "cycleway", "name": null }, "geometry": { "type": "LineString", "coordinates": [ [ -1.858832, 52.560707 ], [ -1.858951, 52.560657 ], [ -1.859104, 52.560601 ], [ -1.860147, 52.560162 ], [ -1.860414, 52.56002 ], [ -1.860651, 52.559839 ], [ -1.861019, 52.559474 ], [ -1.86144, 52.559137 ] ] } },
{ "type": "Feature", "properties": { "cls": "separated", "highway": "cycleway", "name": null }, "geometry": { "type": "LineString", "coordinates": [ [ -1.843425, 52.559104 ], [ -1.842572, 52.559802 ], [ -1.84154, 52.560197 ], [ -1.840897, 52.560523 ], [ -1.840601, 52.560694 ], [ -1.840453, 52.56091 ], [ -1.840363, 52.561096 ] ] } },
{ "type": "Feature", "properties": { "cls": "shared", "highway": "cycleway", "name": null }, "geometry": { "type": "LineString", "coordinates": [ [ -1.858832, 52.560707 ], [ -1.858314, 52.560897 ], [ -1.857678, 52.561108 ], [ -1.857106, 52.561247 ], [ -1.856892, 52.561271 ], [ -1.856414, 52.561323 ], [ -1.855404, 52.561404 ], [ -1.854314, 52.561562 ], [ -1.853597, 52.561599 ], [ -1.85321, 52.56162 ], [ -1.852899, 52.561648 ], [ -1.851971, 52.561688 ], [ -1.851623, 52.56169 ], [ -1.851599, 52.56169 ] ] } },
{ "type": "Feature", "properties": { "cls": "shared", "highway": "cycleway", "name": null }, "geometry": { "type": "LineString", "coordinates": [ [ -1.840363, 52.561096 ], [ -1.840655, 52.561208 ], [ -1.840816, 52.561407 ], [ -1.840789, 52.561658 ], [ -1.840698, 52.561956 ], [ -1.840661, 52.562191 ], [ -1.840562, 52.562414 ], [ -1.840544, 52.562461 ], [ -1.840502, 52.562565 ] ] } },
{ "type": "Feature", "properties": { "cls": "shared", "highway": "cycleway", "name": null }, "geometry": { "type": "LineString", "coordinates": [ [ -1.840811, 52.562518 ], [ -1.841124, 52.562492 ], [ -1.842945, 52.562302 ], [ -1.843375, 52.562266 ], [ -1.844217, 52.562163 ], [ -1.845058, 52.562105 ], [ -1.846249, 52.561999 ], [ -1.847443, 52.561884 ], [ -1.847812, 52.561861 ], [ -1.847904, 52.561856 ], [ -1.848145, 52.561835 ] ] } },
{ "type": "Feature", "properties": { "cls": "shared", "highway": "cycleway", "name": null }, "geometry": { "type": "LineString", "coordinates": [ [ -1.840502, 52.562565 ], [ -1.840811, 52.562518 ] ] } },
{ "type": "Feature", "properties": { "cls": "shared", "highway": "cycleway", "name": null }, "geometry": { "type": "LineString", "coordinates": [ [ -1.837302, 52.560841 ], [ -1.837614, 52.560671 ], [ -1.839527, 52.560127 ], [ -1.839867, 52.56003 ], [ -1.842476, 52.559307 ], [ -1.842966, 52.559181 ], [ -1.843425, 52.559104 ] ] } },
{ "type": "Feature", "properties": { "cls": "shared", "highway": "cycleway", "name": null }, "geometry": { "type": "LineString", "coordinates": [ [ -1.836701, 52.560676 ], [ -1.836736, 52.560679 ] ] } },
{ "type": "Feature", "properties": { "cls": "separated", "highway": "cycleway", "name": null }, "geometry": { "type": "LineString", "coordinates": [ [ -1.836986, 52.560761 ], [ -1.836736, 52.560679 ] ] } },
{ "type": "Feature", "properties": { "cls": "separated", "highway": "cycleway", "name": null }, "geometry": { "type": "LineString", "coordinates": [ [ -1.836986, 52.560761 ], [ -1.837091, 52.560802 ] ] } },
{ "type": "Feature", "properties": { "cls": "separated", "highway": "cycleway", "name": null }, "geometry": { "type": "LineString", "coordinates": [ [ -1.837302, 52.560841 ], [ -1.837141, 52.560794 ], [ -1.836986, 52.560761 ] ] } },
{ "type": "Feature", "properties": { "cls": "separated", "highway": "cycleway", "name": null }, "geometry": { "type": "LineString", "coordinates": [ [ -1.837091, 52.560802 ], [ -1.837169, 52.560831 ] ] } },
{ "type": "Feature", "properties": { "cls": "separated", "highway": "cycleway", "name": null }, "geometry": { "type": "LineString", "coordinates": [ [ -1.837169, 52.560831 ], [ -1.837302, 52.560841 ] ] } },
{ "type": "Feature", "properties": { "cls": "separated", "highway": "cycleway", "name": null }, "geometry": { "type": "LineString", "coordinates": [ [ -1.836694, 52.561043 ], [ -1.836736, 52.560679 ] ] } },
{ "type": "Feature", "properties": { "cls": "separated", "highway": "cycleway", "name": null }, "geometry": { "type": "LineString", "coordinates": [ [ -1.836683, 52.561142 ], [ -1.836694, 52.561043 ] ] } },
{ "type": "Feature", "properties": { "cls": "separated", "highway": "cycleway", "name": null }, "geometry": { "type": "LineString", "coordinates": [ [ -1.836662, 52.561307 ], [ -1.836683, 52.561142 ] ] } },
{ "type": "Feature", "properties": { "cls": "separated", "highway": "cycleway", "name": null }, "geometry": { "type": "LineString", "coordinates": [ [ -1.8387, 52.561726 ], [ -1.838422, 52.561609 ], [ -1.837948, 52.561325 ], [ -1.837702, 52.561145 ], [ -1.837504, 52.560981 ], [ -1.837302, 52.560841 ] ] } },
{ "type": "Feature", "properties": { "cls": "separated", "highway": "cycleway", "name": null }, "geometry": { "type": "LineString", "coordinates": [ [ -1.8387, 52.561726 ], [ -1.839083, 52.56145 ], [ -1.839641, 52.561113 ], [ -1.83973, 52.561078 ], [ -1.839843, 52.561067 ], [ -1.84019, 52.561076 ], [ -1.840363, 52.561096 ] ] } },
{ "type": "Feature", "properties": { "cls": "separated", "highway": "cycleway", "name": null }, "geometry": { "type": "LineString", "coordinates": [ [ -1.840811, 52.562518 ], [ -1.840544, 52.562461 ], [ -1.840269, 52.562367 ], [ -1.839829, 52.562244 ], [ -1.839434, 52.56205 ], [ -1.8387, 52.561726 ] ] } },
{ "type": "Feature", "properties": { "cls": "shared", "highway": "cycleway", "name": null }, "geometry": { "type": "LineString", "coordinates": [ [ -1.835538, 52.564088 ], [ -1.835714, 52.563592 ], [ -1.8358, 52.563144 ], [ -1.8358, 52.562993 ], [ -1.8358, 52.562711 ], [ -1.835913, 52.562358 ], [ -1.836277, 52.561891 ], [ -1.836662, 52.561307 ], [ -1.836782, 52.561185 ], [ -1.837028, 52.561011 ], [ -1.837302, 52.560841 ] ] } },
{ "type": "Feature", "properties": { "cls": "separated", "highway": "cycleway", "name": null }, "geometry": { "type": "LineString", "coordinates": [ [ -1.840502, 52.562565 ], [ -1.840162, 52.562666 ], [ -1.839787, 52.562893 ], [ -1.839562, 52.563052 ], [ -1.839382, 52.563172 ], [ -1.839042, 52.563306 ], [ -1.838804, 52.563351 ], [ -1.838359, 52.563426 ], [ -1.837849, 52.563563 ], [ -1.837066, 52.563817 ], [ -1.835701, 52.564154 ] ] } },
{ "type": "Feature", "properties": { "cls": "shared", "highway": "cycleway", "name": null }, "geometry": { "type": "LineString", "coordinates": [ [ -1.841538, 52.571457 ], [ -1.841747, 52.570915 ], [ -1.841737, 52.570689 ], [ -1.841619, 52.570425 ], [ -1.841439, 52.570158 ], [ -1.840751, 52.569418 ], [ -1.840606, 52.569275 ], [ -1.840211, 52.568532 ], [ -1.839861, 52.567922 ], [ -1.839711, 52.567783 ], [ -1.839555, 52.5677 ], [ -1.839239, 52.567548 ], [ -1.837898, 52.567349 ], [ -1.837059, 52.567259 ] ] } },
{ "type": "Feature", "properties": { "cls": "shared", "highway": "cycleway", "name": null }, "geometry": { "type": "LineString", "coordinates": [ [ -1.840502, 52.562565 ], [ -1.840479, 52.562613 ], [ -1.840354, 52.562846 ], [ -1.840339, 52.562941 ], [ -1.840318, 52.563038 ], [ -1.84031, 52.563195 ], [ -1.840327, 52.563326 ], [ -1.840342, 52.563511 ], [ -1.840395, 52.563639 ], [ -1.840433, 52.563747 ], [ -1.840487, 52.563823 ], [ -1.840793, 52.564172 ], [ -1.840861, 52.564331 ], [ -1.840838, 52.564492 ], [ -1.840686, 52.564861 ], [ -1.840444, 52.56524 ], [ -1.84032, 52.56549 ], [ -1.840134, 52.565647 ] ] } },
{ "type": "Feature", "properties": { "cls": "shared", "highway": "cycleway", "name": null }, "geometry": { "type": "LineString", "coordinates": [ [ -1.849049, 52.562672 ], [ -1.849124, 52.562775 ], [ -1.849188, 52.563065 ], [ -1.849249, 52.563418 ], [ -1.849275, 52.563794 ], [ -1.849361, 52.564021 ], [ -1.849604, 52.564226 ], [ -1.849864, 52.564358 ], [ -1.850176, 52.564448 ], [ -1.850471, 52.564574 ], [ -1.850688, 52.564711 ], [ -1.851069, 52.56497 ], [ -1.851321, 52.565116 ], [ -1.85172, 52.565295 ], [ -1.852223, 52.565537 ], [ -1.852518, 52.565638 ], [ -1.852778, 52.565832 ], [ -1.853472, 52.566198 ], [ -1.854009, 52.566542 ], [ -1.854486, 52.566832 ], [ -1.854911, 52.567112 ], [ -1.855223, 52.567423 ], [ -1.855509, 52.567804 ], [ -1.85576, 52.568147 ], [ -1.856012, 52.568437 ], [ -1.856281, 52.568742 ], [ -1.856463, 52.569115 ], [ -1.856662, 52.569648 ], [ -1.856775, 52.570022 ], [ -1.856827, 52.570433 ], [ -1.856879, 52.570775 ], [ -1.857005, 52.570993 ] ] } },
{ "type": "Feature", "properties": { "cls": "shared", "highway": "cycleway", "name": null }, "geometry": { "type": "LineString", "coordinates": [ [ -1.850441, 52.568234 ], [ -1.849654, 52.567936 ], [ -1.848508, 52.567664 ], [ -1.847668, 52.567442 ], [ -1.845962, 52.566902 ], [ -1.845139, 52.566644 ], [ -1.843488, 52.566315 ], [ -1.843278, 52.566289 ], [ -1.843156, 52.566291 ], [ -1.843021, 52.566288 ], [ -1.8427, 52.566297 ], [ -1.84215, 52.566316 ], [ -1.841603, 52.566322 ], [ -1.841099, 52.566316 ], [ -1.840643, 52.566268 ], [ -1.84036, 52.566178 ], [ -1.840174, 52.566054 ], [ -1.840161, 52.565944 ], [ -1.840134, 52.565647 ], [ -1.840085, 52.56553 ], [ -1.840009, 52.565416 ], [ -1.839873, 52.565289 ] ] } },
{ "type": "Feature", "properties": { "cls": "shared", "highway": "cycleway", "name": null }, "geometry": { "type": "LineString", "coordinates": [ [ -1.856523, 52.571135 ], [ -1.855651, 52.570847 ], [ -1.85505, 52.570673 ], [ -1.854504, 52.570494 ], [ -1.854163, 52.570343 ], [ -1.853834, 52.570128 ], [ -1.853229, 52.569692 ], [ -1.852587, 52.569266 ], [ -1.85207, 52.568977 ], [ -1.851261, 52.568617 ], [ -1.850441, 52.568234 ] ] } },
{ "type": "Feature", "properties": { "cls": "shared", "highway": "cycleway", "name": "Lord Donegal's Ride" }, "geometry": { "type": "LineString", "coordinates": [ [ -1.857005, 52.570993 ], [ -1.856523, 52.571135 ] ] } },
{ "type": "Feature", "properties": { "cls": "separated", "highway": "cycleway", "name": null }, "geometry": { "type": "LineString", "coordinates": [ [ -1.857005, 52.570993 ], [ -1.857345, 52.571466 ] ] } },
{ "type": "Feature", "properties": { "cls": "separated", "highway": "cycleway", "name": null }, "geometry": { "type": "LineString", "coordinates": [ [ -1.857345, 52.571466 ], [ -1.856523, 52.571135 ] ] } },
{ "type": "Feature", "properties": { "cls": "separated", "highway": "cycleway", "name": null }, "geometry": { "type": "LineString", "coordinates": [ [ -1.857345, 52.571466 ], [ -1.857685, 52.571685 ], [ -1.858427, 52.572209 ], [ -1.858596, 52.572336 ] ] } }
]
}
