{
"type": "FeatureCollection",
"name": "089-kansas-city-longview-lake-park",
"crs": { "type": "name", "properties": { "name": "urn:ogc:def:crs:OGC:1.3:CRS84" } },
"xy_coordinate_resolution": 1e-06,
"features": [
{ "type": "Feature", "properties": { "cls": "shared", "highway": "cycleway", "name": "Longview Lake Trail" }, "geometry": { "type": "LineString", "coordinates": [ [ -94.501863, 38.872059 ], [ -94.501164, 38.871942 ] ] } },
{ "type": "Feature", "properties": { "cls": "shared", "highway": "cycleway", "name": "Little Blue Bike Trail" }, "geometry": { "type": "LineString", "coordinates": [ [ -94.502363, 38.872137 ], [ -94.502534, 38.872054 ], [ -94.502835, 38.871903 ], [ -94.503157, 38.871753 ], [ -94.503554, 38.871661 ], [ -94.504069, 38.871878 ], [ -94.504183, 38.87195 ] ] } },
{ "type": "Feature", "properties": { "cls": "shared", "highway": "cycleway", "name": "Longview Lake Trail" }, "geometry": { "type": "LineString", "coordinates": [ [ -94.50056, 38.875804 ], [ -94.50076, 38.875786 ], [ -94.500882, 38.875745 ], [ -94.501161, 38.875537 ], [ -94.501236, 38.875194 ], [ -94.501247, 38.874727 ], [ -94.501354, 38.874534 ], [ -94.501504, 38.874442 ], [ -94.502298, 38.874276 ], [ -94.502674, 38.873891 ], [ -94.502878, 38.873215 ], [ -94.502813, 38.87263 ], [ -94.502363, 38.872137 ], [ -94.501863, 38.872059 ] ] } },
{ "type": "Feature", "properties": { "cls": "shared", "highway": "cycleway", "name": "Longview Lake Trail" }, "geometry": { "type": "LineString", "coordinates": [ [ -94.501164, 38.871942 ], [ -94.500704, 38.872082 ], [ -94.500442, 38.87268 ], [ -94.500399, 38.873173 ], [ -94.500378, 38.873424 ], [ -94.499852, 38.873641 ], [ -94.499026, 38.873975 ], [ -94.498522, 38.874158 ], [ -94.496859, 38.874267 ], [ -94.494992, 38.874317 ], [ -94.494735, 38.87415 ], [ -94.494713, 38.873398 ], [ -94.494659, 38.873106 ], [ -94.494466, 38.872922 ], [ -94.493844, 38.872889 ], [ -94.493769, 38.872931 ], [ -94.493747, 38.873014 ], [ -94.493651, 38.873975 ], [ -94.493565, 38.874384 ], [ -94.493351, 38.874493 ], [ -94.491645, 38.874501 ], [ -94.490797, 38.875203 ], [ -94.490518, 38.875386 ], [ -94.490325, 38.87572 ], [ -94.490325, 38.876606 ], [ -94.490389, 38.876698 ], [ -94.490535, 38.876745 ], [ -94.490662, 38.876759 ] ] } },
{ "type": "Feature", "properties": { "cls": "shared", "highway": "cycleway", "name": "Longview Lake Trail" }, "geometry": { "type": "LineString", "coordinates": [ [ -94.490662, 38.876759 ], [ -94.490983, 38.876782 ] ] } },
{ "type": "Feature", "properties": { "cls": "shared", "highway": "cycleway", "name": "Longview Lake Trail" }, "geometry": { "type": "LineString", "coordinates": [ [ -94.490983, 38.876782 ], [ -94.491731, 38.87689 ] ] } },
{ "type": "Feature", "properties": { "cls": "shared", "highway": "cycleway", "name": "Longview Lake Trail" }, "geometry": { "type": "LineString", "coordinates": [ [ -94.480283, 38.906427 ], [ -94.480429, 38.906317 ], [ -94.48081, 38.906373 ], [ -94.481216, 38.906411 ], [ -94.481516, 38.906395 ], [ -94.481796, 38.906342 ], [ -94.48194, 38.90628 ], [ -94.482072, 38.906178 ], [ -94.482118, 38.906073 ], [ -94.482096, 38.905883 ], [ -94.481849, 38.905374 ], [ -94.481806, 38.90479 ], [ -94.481663, 38.904466 ], [ -94.481465, 38.904144 ], [ -94.481352, 38.903957 ], [ -94.481259, 38.903854 ], [ -94.481538, 38.903212 ], [ -94.481538, 38.903053 ], [ -94.48135, 38.902856 ], [ -94.481217, 38.902717 ], [ -94.481161, 38.902578 ], [ -94.481195, 38.901942 ], [ -94.481284, 38.901829 ], [ -94.48138, 38.901747 ], [ -94.481712, 38.901585 ], [ -94.482068, 38.901423 ], [ -94.482356, 38.901282 ], [ -94.482611, 38.901141 ], [ -94.482887, 38.900863 ], [ -94.48319, 38.900456 ], [ -94.48341, 38.900339 ], [ -94.483644, 38.900302 ], [ -94.483819, 38.900293 ], [ -94.483995, 38.900331 ], [ -94.484187, 38.900458 ], [ -94.484465, 38.900815 ], [ -94.484583, 38.901015 ], [ -94.484722, 38.90121 ], [ -94.4854, 38.902204 ], [ -94.485534, 38.902313 ], [ -94.485668, 38.902321 ], [ -94.485883, 38.902243 ], [ -94.485983, 38.902179 ], [ -94.486055, 38.900999 ], [ -94.486383, 38.900631 ], [ -94.486728, 38.900373 ], [ -94.48681, 38.90029 ], [ -94.48691, 38.90028 ], [ -94.487035, 38.900326 ], [ -94.487589, 38.900807 ], [ -94.487912, 38.901113 ], [ -94.48808, 38.901247 ], [ -94.488276, 38.90135 ], [ -94.488405, 38.901366 ], [ -94.488534, 38.901334 ], [ -94.488662, 38.901212 ], [ -94.488705, 38.901016 ], [ -94.488844, 38.900732 ], [ -94.489013, 38.900585 ], [ -94.489112, 38.900427 ], [ -94.48922, 38.900197 ], [ -94.489393, 38.90002 ], [ -94.489553, 38.899875 ], [ -94.489748, 38.899695 ], [ -94.489896, 38.899446 ], [ -94.489967, 38.899339 ], [ -94.490284, 38.899235 ], [ -94.490487, 38.899133 ], [ -94.490581, 38.899043 ], [ -94.490744, 38.898781 ], [ -94.490765, 38.898753 ], [ -94.490942, 38.898528 ], [ -94.491575, 38.897845 ], [ -94.492106, 38.897091 ], [ -94.492471, 38.896582 ], [ -94.492385, 38.89634 ], [ -94.492391, 38.896194 ], [ -94.492432, 38.895912 ], [ -94.492447, 38.895604 ], [ -94.492378, 38.895474 ], [ -94.492274, 38.895372 ], [ -94.492046, 38.895209 ], [ -94.491748, 38.895093 ], [ -94.491504, 38.895049 ], [ -94.491245, 38.895049 ], [ -94.490942, 38.89508 ], [ -94.490761, 38.89515 ], [ -94.490614, 38.895242 ], [ -94.490014, 38.89558 ], [ -94.489741, 38.895713 ], [ -94.489595, 38.895753 ], [ -94.489435, 38.895755 ], [ -94.48923, 38.895645 ], [ -94.48908, 38.895513 ], [ -94.488995, 38.8953 ], [ -94.488984, 38.895124 ], [ -94.489061, 38.894936 ], [ -94.489193, 38.894775 ], [ -94.489531, 38.894344 ], [ -94.489736, 38.894098 ], [ -94.489882, 38.893777 ], [ -94.489936, 38.893563 ], [ -94.489874, 38.893142 ], [ -94.490054, 38.892867 ], [ -94.490236, 38.892648 ], [ -94.490282, 38.892497 ], [ -94.490175, 38.892239 ], [ -94.490037, 38.891974 ], [ -94.490069, 38.891358 ], [ -94.490127, 38.891083 ], [ -94.490271, 38.890912 ], [ -94.490493, 38.8908 ], [ -94.490714, 38.890758 ], [ -94.490965, 38.890775 ], [ -94.491195, 38.890839 ], [ -94.491655, 38.890979 ], [ -94.492331, 38.891079 ], [ -94.492883, 38.891358 ], [ -94.49315, 38.891451 ], [ -94.493286, 38.891446 ], [ -94.493418, 38.891361 ], [ -94.49345, 38.891252 ], [ -94.49343, 38.891186 ], [ -94.493361, 38.891132 ], [ -94.493222, 38.891004 ], [ -94.492728, 38.89062 ], [ -94.492481, 38.890269 ], [ -94.492503, 38.889768 ], [ -94.492503, 38.889534 ], [ -94.492117, 38.889259 ], [ -94.492052, 38.889108 ], [ -94.492138, 38.889008 ], [ -94.493544, 38.888615 ], [ -94.493608, 38.888482 ], [ -94.493587, 38.888348 ], [ -94.493318, 38.888006 ], [ -94.493318, 38.887597 ], [ -94.493233, 38.887413 ], [ -94.492707, 38.886845 ], [ -94.492707, 38.886127 ], [ -94.492653, 38.886002 ], [ -94.492514, 38.885985 ], [ -94.492077, 38.886005 ], [ -94.491703, 38.885986 ], [ -94.491585, 38.885929 ], [ -94.491451, 38.885484 ], [ -94.491741, 38.885409 ], [ -94.491795, 38.885237 ], [ -94.491803, 38.885065 ], [ -94.491795, 38.884958 ], [ -94.491548, 38.884707 ], [ -94.491527, 38.883254 ], [ -94.490636, 38.882093 ], [ -94.490497, 38.881776 ], [ -94.490593, 38.880749 ], [ -94.490711, 38.880548 ], [ -94.491484, 38.879888 ], [ -94.491731, 38.87689 ], [ -94.491763, 38.87608 ], [ -94.491838, 38.875812 ], [ -94.492095, 38.875704 ], [ -94.492524, 38.875712 ], [ -94.493801, 38.875812 ], [ -94.494263, 38.875971 ], [ -94.494391, 38.876314 ], [ -94.494989, 38.876458 ] ] } },
{ "type": "Feature", "properties": { "cls": "shared", "highway": "cycleway", "name": null }, "geometry": { "type": "LineString", "coordinates": [ [ -94.489435, 38.895755 ], [ -94.490086, 38.895244 ] ] } },
{ "type": "Feature", "properties": { "cls": "shared", "highway": "cycleway", "name": null }, "geometry": { "type": "LineString", "coordinates": [ [ -94.491189, 38.898809 ], [ -94.491093, 38.898779 ], [ -94.491004, 38.898765 ], [ -94.490905, 38.898767 ], [ -94.490822, 38.898765 ], [ -94.490765, 38.898753 ] ] } },
{ "type": "Feature", "properties": { "cls": "shared", "highway": "cycleway", "name": null }, "geometry": { "type": "LineString", "coordinates": [ [ -94.491189, 38.898809 ], [ -94.491255, 38.898834 ], [ -94.491393, 38.898887 ], [ -94.491476, 38.898917 ] ] } },
{ "type": "Feature", "properties": { "cls": "shared", "highway": "cycleway", "name": "Harry Truman Drive Trail" }, "geometry": { "type": "LineString", "coordinates": [ [ -94.498204, 38.900066 ], [ -94.498152, 38.900059 ], [ -94.497874, 38.900093 ], [ -94.497624, 38.900115 ], [ -94.497429, 38.900117 ], [ -94.497186, 38.900101 ], [ -94.497049, 38.900094 ], [ -94.496846, 38.900115 ], [ -94.496702, 38.900122 ], [ -94.496439, 38.900109 ], [ -94.496255, 38.900092 ], [ -94.495994, 38.900102 ], [ -94.495876, 38.900085 ], [ -94.49575, 38.900042 ], [ -94.495677, 38.900029 ], [ -94.49548, 38.900041 ], [ -94.495235, 38.90003 ], [ -94.495038, 38.900046 ], [ -94.494914, 38.900053 ], [ -94.494544, 38.900008 ], [ -94.494368, 38.900001 ], [ -94.494083, 38.900011 ], [ -94.493826, 38.900022 ], [ -94.493634, 38.900013 ], [ -94.493404, 38.89997 ], [ -94.493204, 38.899928 ], [ -94.493002, 38.899938 ], [ -94.492851, 38.899952 ], [ -94.492686, 38.899945 ], [ -94.492516, 38.899934 ], [ -94.492351, 38.899916 ], [ -94.49182, 38.899862 ], [ -94.491717, 38.899835 ], [ -94.491637, 38.899789 ], [ -94.49157, 38.899715 ], [ -94.491536, 38.899625 ], [ -94.491539, 38.899542 ], [ -94.491682, 38.899304 ], [ -94.491713, 38.899222 ], [ -94.491716, 38.899153 ], [ -94.491688, 38.899082 ], [ -94.49162, 38.899 ], [ -94.491559, 38.898956 ], [ -94.491476, 38.898917 ] ] } },
{ "type": "Feature", "properties": { "cls": "painted", "highway": "secondary", "name": "Raytown Road" }, "geometry": { "type": "LineString", "coordinates": [ [ -94.494338, 38.885656 ], [ -94.494339, 38.885784 ], [ -94.494308, 38.886266 ], [ -94.494303, 38.886339 ], [ -94.493834, 38.893492 ], [ -94.493771, 38.89445 ], [ -94.493657, 38.8949 ], [ -94.493477, 38.895325 ], [ -94.49338, 38.895501 ], [ -94.492485, 38.896904 ], [ -94.492391, 38.897051 ], [ -94.491255, 38.898834 ], [ -94.490751, 38.899626 ], [ -94.490503, 38.900017 ], [ -94.490203, 38.900427 ], [ -94.488889, 38.901797 ], [ -94.488793, 38.901898 ], [ -94.488382, 38.902328 ], [ -94.485418, 38.905422 ], [ -94.484037, 38.90687 ], [ -94.483772, 38.907133 ], [ -94.483224, 38.907692 ], [ -94.482745, 38.908397 ], [ -94.482624, 38.908668 ], [ -94.48255, 38.90889 ], [ -94.482472, 38.909255 ], [ -94.481582, 38.9156 ], [ -94.48154, 38.915901 ], [ -94.481346, 38.916925 ], [ -94.481203, 38.917332 ], [ -94.481053, 38.917637 ], [ -94.480908, 38.917872 ], [ -94.480852, 38.917948 ], [ -94.480699, 38.918155 ], [ -94.480482, 38.918401 ], [ -94.480323, 38.91855 ], [ -94.480282, 38.918589 ], [ -94.480108, 38.918729 ], [ -94.477201, 38.920809 ], [ -94.475415, 38.922104 ] ] } },
{ "type": "Feature", "properties": { "cls": "painted", "highway": "secondary", "name": "Raytown Road" }, "geometry": { "type": "LineString", "coordinates": [ [ -94.475527, 38.922192 ], [ -94.477305, 38.920897 ], [ -94.47777, 38.920564 ], [ -94.480166, 38.91885 ], [ -94.480396, 38.918669 ], [ -94.480454, 38.918615 ], [ -94.480604, 38.918474 ], [ -94.480828, 38.918219 ], [ -94.480999, 38.917989 ], [ -94.481044, 38.917928 ], [ -94.481083, 38.917864 ], [ -94.481193, 38.917684 ], [ -94.481348, 38.91737 ], [ -94.481496, 38.91695 ], [ -94.481695, 38.9159 ], [ -94.481732, 38.915637 ], [ -94.482637, 38.909189 ], [ -94.482751, 38.908755 ], [ -94.482942, 38.908339 ], [ -94.483, 38.908243 ], [ -94.48315, 38.908023 ], [ -94.483236, 38.907906 ], [ -94.484168, 38.906944 ], [ -94.485227, 38.905814 ], [ -94.485521, 38.905508 ], [ -94.488892, 38.901999 ], [ -94.49023, 38.900597 ], [ -94.490543, 38.900205 ], [ -94.490663, 38.900022 ], [ -94.49089, 38.899674 ], [ -94.491393, 38.898887 ], [ -94.49261, 38.896976 ], [ -94.493584, 38.895432 ], [ -94.493775, 38.894989 ], [ -94.493894, 38.894532 ], [ -94.493932, 38.894249 ], [ -94.49398, 38.8935 ], [ -94.494438, 38.886343 ], [ -94.494474, 38.885782 ], [ -94.494482, 38.885656 ] ] } },
{ "type": "Feature", "properties": { "cls": "shared", "highway": "cycleway", "name": "Longview Lake Trail" }, "geometry": { "type": "LineString", "coordinates": [ [ -94.47989, 38.904272 ], [ -94.479766, 38.904253 ], [ -94.47976, 38.904204 ], [ -94.479756, 38.903993 ], [ -94.479832, 38.903871 ], [ -94.479917, 38.903836 ], [ -94.481259, 38.903854 ] ] } },
{ "type": "Feature", "properties": { "cls": "shared", "highway": "cycleway", "name": "Longview Lake Trail" }, "geometry": { "type": "LineString", "coordinates": [ [ -94.480175, 38.90653 ], [ -94.480283, 38.906427 ] ] } },
{ "type": "Feature", "properties": { "cls": "shared", "highway": "cycleway", "name": "Longview Lake Trail" }, "geometry": { "type": "LineString", "coordinates": [ [ -94.474877, 38.914592 ], [ -94.475466, 38.914507 ], [ -94.475815, 38.914501 ], [ -94.47622, 38.914664 ], [ -94.476404, 38.91474 ], [ -94.476642, 38.914819 ], [ -94.477107, 38.914924 ], [ -94.477282, 38.914952 ], [ -94.477493, 38.914955 ], [ -94.477694, 38.914908 ], [ -94.47788, 38.914841 ], [ -94.478008, 38.914741 ], [ -94.478086, 38.914673 ], [ -94.478143, 38.914555 ], [ -94.478246, 38.914313 ], [ -94.478405, 38.913881 ], [ -94.478341, 38.913697 ], [ -94.478205, 38.913609 ], [ -94.478059, 38.913532 ], [ -94.477772, 38.913408 ], [ -94.477547, 38.913269 ], [ -94.477456, 38.913139 ], [ -94.477377, 38.912923 ], [ -94.477317, 38.912733 ], [ -94.477214, 38.912613 ], [ -94.477026, 38.912514 ], [ -94.476849, 38.912456 ], [ -94.476464, 38.912332 ], [ -94.475892, 38.912252 ], [ -94.475561, 38.91222 ], [ -94.47544, 38.912196 ], [ -94.475345, 38.912156 ], [ -94.47484, 38.911829 ], [ -94.474789, 38.911686 ], [ -94.474827, 38.911611 ], [ -94.474895, 38.911565 ], [ -94.475063, 38.911514 ], [ -94.475749, 38.911419 ], [ -94.476186, 38.911372 ], [ -94.476423, 38.911289 ], [ -94.47662, 38.911123 ], [ -94.477, 38.9107 ], [ -94.478341, 38.910684 ], [ -94.479049, 38.910383 ], [ -94.479168, 38.910262 ], [ -94.479258, 38.909949 ], [ -94.479311, 38.909675 ], [ -94.479317, 38.909482 ], [ -94.479304, 38.909362 ], [ -94.479259, 38.909276 ], [ -94.479052, 38.909079 ], [ -94.478839, 38.908902 ], [ -94.478362, 38.90858 ], [ -94.478293, 38.908497 ], [ -94.478265, 38.908415 ], [ -94.478268, 38.908241 ], [ -94.478255, 38.908075 ], [ -94.478223, 38.907885 ], [ -94.478161, 38.907744 ], [ -94.4781, 38.90757 ], [ -94.478085, 38.907485 ], [ -94.478085, 38.907428 ], [ -94.478084, 38.907311 ], [ -94.478099, 38.907243 ], [ -94.478158, 38.907184 ], [ -94.478223, 38.907161 ], [ -94.478311, 38.907157 ], [ -94.478522, 38.907239 ], [ -94.478731, 38.907373 ], [ -94.47894, 38.907528 ], [ -94.479283, 38.907867 ], [ -94.479488, 38.908016 ], [ -94.479704, 38.908156 ], [ -94.480024, 38.908363 ], [ -94.480186, 38.908481 ], [ -94.480366, 38.908567 ], [ -94.480619, 38.908622 ], [ -94.480877, 38.908658 ], [ -94.48113, 38.908677 ], [ -94.481287, 38.908684 ], [ -94.481408, 38.908672 ], [ -94.481475, 38.908628 ], [ -94.481527, 38.908586 ], [ -94.481615, 38.908476 ], [ -94.481694, 38.908361 ], [ -94.481845, 38.908128 ], [ -94.481994, 38.9079 ], [ -94.482073, 38.907765 ], [ -94.482124, 38.907661 ], [ -94.482136, 38.90759 ], [ -94.482139, 38.907535 ], [ -94.48209, 38.907459 ], [ -94.48205, 38.907415 ], [ -94.481999, 38.90736 ], [ -94.481868, 38.907289 ], [ -94.481656, 38.907202 ], [ -94.481471, 38.907146 ], [ -94.481286, 38.907114 ], [ -94.480916, 38.907102 ], [ -94.480695, 38.907044 ], [ -94.480549, 38.906984 ], [ -94.480378, 38.906877 ], [ -94.480177, 38.906735 ], [ -94.480115, 38.906666 ], [ -94.480115, 38.906618 ], [ -94.480175, 38.90653 ] ] } },
{ "type": "Feature", "properties": { "cls": "shared", "highway": "cycleway", "name": null }, "geometry": { "type": "LineString", "coordinates": [ [ -94.451069, 38.91375 ], [ -94.451086, 38.913837 ], [ -94.451111, 38.914018 ], [ -94.451104, 38.914135 ] ] } },
{ "type": "Feature", "properties": { "cls": "shared", "highway": "cycleway", "name": "Longview Lake Trail" }, "geometry": { "type": "LineString", "coordinates": [ [ -94.474843, 38.914907 ], [ -94.474877, 38.914592 ], [ -94.474632, 38.914489 ], [ -94.474474, 38.914416 ], [ -94.47438, 38.91436 ], [ -94.474338, 38.914284 ], [ -94.474338, 38.914211 ], [ -94.47435, 38.914114 ], [ -94.474354, 38.914083 ] ] } },
{ "type": "Feature", "properties": { "cls": "painted", "highway": "tertiary", "name": "East 109th Street" }, "geometry": { "type": "LineString", "coordinates": [ [ -94.475415, 38.922104 ], [ -94.474716, 38.921552 ], [ -94.474429, 38.921379 ], [ -94.474142, 38.921259 ], [ -94.473763, 38.921161 ], [ -94.473404, 38.921123 ], [ -94.472985, 38.921123 ], [ -94.472625, 38.921169 ], [ -94.472191, 38.921261 ], [ -94.471842, 38.921395 ], [ -94.471472, 38.921557 ], [ -94.47115, 38.921766 ], [ -94.470828, 38.922075 ], [ -94.470587, 38.92235 ], [ -94.47034, 38.922618 ], [ -94.47011, 38.922843 ], [ -94.469863, 38.923006 ], [ -94.4696, 38.923148 ], [ -94.469278, 38.923264 ], [ -94.46504, 38.924124 ], [ -94.464595, 38.924183 ], [ -94.464096, 38.924199 ], [ -94.460545, 38.924091 ], [ -94.454767, 38.923895 ], [ -94.450273, 38.923751 ] ] } },
{ "type": "Feature", "properties": { "cls": "painted", "highway": "tertiary", "name": "East 109th Street" }, "geometry": { "type": "LineString", "coordinates": [ [ -94.45026, 38.923888 ], [ -94.454767, 38.924024 ], [ -94.460534, 38.924228 ], [ -94.464091, 38.924329 ], [ -94.4646, 38.924295 ], [ -94.46511, 38.924216 ], [ -94.469315, 38.923344 ], [ -94.469686, 38.923214 ], [ -94.469927, 38.923097 ], [ -94.470206, 38.92291 ], [ -94.470447, 38.922693 ], [ -94.470462, 38.922676 ], [ -94.4707, 38.922409 ], [ -94.470936, 38.922142 ], [ -94.471284, 38.921841 ], [ -94.471591, 38.921656 ], [ -94.471917, 38.921486 ], [ -94.47225, 38.921374 ], [ -94.472625, 38.921286 ], [ -94.472995, 38.921244 ], [ -94.473386, 38.92124 ], [ -94.473736, 38.921275 ], [ -94.474063, 38.921354 ], [ -94.474368, 38.921477 ], [ -94.474641, 38.92164 ], [ -94.475281, 38.922196 ] ] } },
{ "type": "Feature", "properties": { "cls": "painted", "highway": "tertiary", "name": "James A Reed Road" }, "geometry": { "type": "LineString", "coordinates": [ [ -94.477693, 38.92276 ], [ -94.47732, 38.922814 ], [ -94.476908, 38.922802 ], [ -94.476594, 38.922745 ], [ -94.476257, 38.922563 ], [ -94.475925, 38.922409 ], [ -94.475527, 38.922192 ] ] } },
{ "type": "Feature", "properties": { "cls": "painted", "highway": "tertiary", "name": "James A Reed Road" }, "geometry": { "type": "LineString", "coordinates": [ [ -94.475281, 38.922196 ], [ -94.475431, 38.922271 ], [ -94.475659, 38.922402 ], [ -94.476057, 38.92263 ], [ -94.476537, 38.922844 ], [ -94.476704, 38.922907 ], [ -94.476876, 38.922945 ], [ -94.477356, 38.922986 ], [ -94.477753, 38.922916 ] ] } }
]
}
