{
"type": "FeatureCollection",
"name": "090-london-richmond-park",
"crs": { "type": "name", "properties": { "name": "urn:ogc:def:crs:OGC:1.3:CRS84" } },
"xy_coordinate_resolution": 1e-06,
"features": [
{ "type": "Feature", "properties": { "cls": "separated", "highway": "cycleway", "name": null }, "geometry": { "type": "LineString", "coordinates": [ [ -0.286335, 51.420277 ], [ -0.2864, 51.420292 ] ] } },
{ "type": "Feature", "properties": { "cls": "shared", "highway": "cycleway", "name": "The Tamsin Trail" }, "geometry": { "type": "LineString", "coordinates": [ [ -0.286532, 51.4211 ], [ -0.286521, 51.420719 ], [ -0.28646, 51.420634 ] ] } },
{ "type": "Feature", "properties": { "cls": "shared", "highway": "cycleway", "name": "The Tamsin Trail" }, "geometry": { "type": "LineString", "coordinates": [ [ -0.286144, 51.421112 ], [ -0.286168, 51.42111 ], [ -0.286417, 51.421096 ], [ -0.286532, 51.4211 ] ] } },
{ "type": "Feature", "properties": { "cls": "shared", "highway": "cycleway", "name": "The Tamsin Trail" }, "geometry": { "type": "LineString", "coordinates": [ [ -0.286081, 51.421116 ], [ -0.286144, 51.421112 ] ] } },
{ "type": "Feature", "properties": { "cls": "shared", "highway": "cycleway", "name": "The Tamsin Trail" }, "geometry": { "type": "LineString", "coordinates": [ [ -0.2849, 51.421309 ], [ -0.28492, 51.42131 ], [ -0.285093, 51.421299 ], [ -0.285125, 51.421287 ], [ -0.285393, 51.421194 ], [ -0.285555, 51.42112 ], [ -0.285667, 51.421075 ], [ -0.28568, 51.42107 ], [ -0.285807, 51.421065 ], [ -0.285865, 51.421072 ], [ -0.285922, 51.421087 ], [ -0.285972, 51.421114 ], [ -0.286016, 51.421117 ], [ -0.286081, 51.421116 ] ] } },
{ "type": "Feature", "properties": { "cls": "shared", "highway": "cycleway", "name": "The Tamsin Trail" }, "geometry": { "type": "LineString", "coordinates": [ [ -0.284841, 51.42131 ], [ -0.2849, 51.421309 ] ] } },
{ "type": "Feature", "properties": { "cls": "shared", "highway": "cycleway", "name": "The Tamsin Trail" }, "geometry": { "type": "LineString", "coordinates": [ [ -0.282709, 51.422066 ], [ -0.282918, 51.422063 ], [ -0.28321, 51.422013 ], [ -0.283379, 51.422012 ], [ -0.283591, 51.421937 ], [ -0.283758, 51.421927 ], [ -0.283878, 51.421913 ], [ -0.284092, 51.421864 ], [ -0.284189, 51.421832 ], [ -0.284307, 51.421723 ], [ -0.284342, 51.421655 ], [ -0.284355, 51.421591 ], [ -0.284413, 51.421513 ], [ -0.284477, 51.421455 ], [ -0.284556, 51.421416 ], [ -0.284641, 51.421393 ], [ -0.284708, 51.421371 ], [ -0.284763, 51.421362 ], [ -0.284793, 51.421342 ], [ -0.284809, 51.421326 ], [ -0.284841, 51.42131 ] ] } },
{ "type": "Feature", "properties": { "cls": "shared", "highway": "cycleway", "name": "The Tamsin Trail" }, "geometry": { "type": "LineString", "coordinates": [ [ -0.282637, 51.422076 ], [ -0.282709, 51.422066 ] ] } },
{ "type": "Feature", "properties": { "cls": "shared", "highway": "cycleway", "name": "The Tamsin Trail" }, "geometry": { "type": "LineString", "coordinates": [ [ -0.286531, 51.421165 ], [ -0.286619, 51.421385 ], [ -0.286715, 51.421656 ], [ -0.286738, 51.421883 ], [ -0.286837, 51.422088 ], [ -0.286973, 51.42221 ], [ -0.28707, 51.422325 ], [ -0.287378, 51.422658 ], [ -0.287551, 51.423045 ], [ -0.287782, 51.423521 ], [ -0.287847, 51.423723 ], [ -0.287921, 51.424106 ], [ -0.288021, 51.424438 ], [ -0.288221, 51.424636 ], [ -0.28855, 51.424831 ], [ -0.288728, 51.424921 ], [ -0.289075, 51.425661 ], [ -0.289308, 51.426274 ], [ -0.289316, 51.426684 ], [ -0.289344, 51.426801 ], [ -0.289473, 51.427022 ], [ -0.289631, 51.427472 ] ] } },
{ "type": "Feature", "properties": { "cls": "shared", "highway": "cycleway", "name": "The Tamsin Trail" }, "geometry": { "type": "LineString", "coordinates": [ [ -0.275962, 51.42604 ], [ -0.276061, 51.42595 ], [ -0.276072, 51.42594 ], [ -0.276223, 51.425798 ], [ -0.276301, 51.425638 ], [ -0.276334, 51.425479 ], [ -0.276416, 51.425361 ], [ -0.276478, 51.425232 ], [ -0.27663, 51.425126 ], [ -0.276797, 51.42506 ], [ -0.276939, 51.424997 ], [ -0.277003, 51.42494 ], [ -0.277025, 51.424834 ], [ -0.277003, 51.424704 ], [ -0.277054, 51.424627 ], [ -0.277202, 51.424507 ], [ -0.27729, 51.424465 ], [ -0.277438, 51.42441 ], [ -0.277628, 51.424247 ], [ -0.277757, 51.424174 ], [ -0.277837, 51.424092 ], [ -0.277851, 51.423982 ], [ -0.277904, 51.423918 ], [ -0.278068, 51.423836 ], [ -0.278216, 51.423729 ], [ -0.278666, 51.423344 ], [ -0.278857, 51.423207 ], [ -0.279154, 51.423057 ], [ -0.279267, 51.422995 ], [ -0.279355, 51.422911 ], [ -0.279455, 51.422771 ], [ -0.279621, 51.422652 ], [ -0.279763, 51.422578 ], [ -0.279863, 51.422527 ], [ -0.280026, 51.422493 ], [ -0.28019, 51.422499 ], [ -0.280333, 51.422541 ], [ -0.280607, 51.422538 ], [ -0.280911, 51.422513 ], [ -0.281358, 51.422498 ], [ -0.281732, 51.422439 ], [ -0.282137, 51.422326 ], [ -0.282366, 51.422214 ], [ -0.282637, 51.422076 ] ] } },
{ "type": "Feature", "properties": { "cls": "separated", "highway": "cycleway", "name": null }, "geometry": { "type": "LineString", "coordinates": [ [ -0.275509, 51.425837 ], [ -0.275516, 51.425841 ], [ -0.275501, 51.425854 ], [ -0.275525, 51.425866 ], [ -0.275585, 51.425854 ] ] } },
{ "type": "Feature", "properties": { "cls": "shared", "highway": "path", "name": "The Tamsin Trail" }, "geometry": { "type": "LineString", "coordinates": [ [ -0.287327, 51.433181 ], [ -0.287206, 51.433018 ], [ -0.287157, 51.432951 ], [ -0.287058, 51.432727 ], [ -0.287031, 51.432517 ], [ -0.287061, 51.432357 ], [ -0.28714, 51.432266 ], [ -0.287244, 51.432187 ], [ -0.287623, 51.432024 ], [ -0.287753, 51.431794 ], [ -0.288027, 51.431611 ], [ -0.288485, 51.431076 ], [ -0.288578, 51.43095 ], [ -0.288617, 51.430851 ], [ -0.28862, 51.430712 ], [ -0.288578, 51.430474 ], [ -0.288465, 51.43021 ], [ -0.288399, 51.429899 ], [ -0.288294, 51.429445 ], [ -0.28815, 51.428962 ], [ -0.288081, 51.428538 ], [ -0.288055, 51.4284 ], [ -0.28796, 51.428214 ], [ -0.287823, 51.428003 ], [ -0.287663, 51.427639 ], [ -0.287566, 51.427351 ], [ -0.287429, 51.427079 ], [ -0.286518, 51.425662 ], [ -0.286468, 51.425578 ], [ -0.286417, 51.425417 ], [ -0.286288, 51.424896 ], [ -0.28619, 51.424314 ], [ -0.286086, 51.423755 ], [ -0.286069, 51.423402 ], [ -0.286086, 51.422989 ], [ -0.286201, 51.4226 ], [ -0.286259, 51.422442 ], [ -0.286361, 51.422079 ], [ -0.28646, 51.421611 ], [ -0.286531, 51.421165 ], [ -0.286532, 51.4211 ] ] } },
{ "type": "Feature", "properties": { "cls": "shared", "highway": "cycleway", "name": "The Tamsin Trail" }, "geometry": { "type": "LineString", "coordinates": [ [ -0.289631, 51.427472 ], [ -0.289786, 51.427731 ], [ -0.289932, 51.428046 ], [ -0.290036, 51.428337 ], [ -0.29018, 51.428574 ], [ -0.290328, 51.428908 ], [ -0.290444, 51.429156 ], [ -0.290616, 51.42945 ], [ -0.290733, 51.429791 ], [ -0.290682, 51.429959 ], [ -0.290557, 51.430097 ], [ -0.290468, 51.430241 ], [ -0.290494, 51.43035 ], [ -0.290617, 51.430501 ], [ -0.290653, 51.430577 ] ] } },
{ "type": "Feature", "properties": { "cls": "shared", "highway": "cycleway", "name": null }, "geometry": { "type": "LineString", "coordinates": [ [ -0.290653, 51.430577 ], [ -0.290676, 51.430625 ] ] } },
{ "type": "Feature", "properties": { "cls": "shared", "highway": "cycleway", "name": null }, "geometry": { "type": "LineString", "coordinates": [ [ -0.290676, 51.430625 ], [ -0.290735, 51.430752 ] ] } },
{ "type": "Feature", "properties": { "cls": "shared", "highway": "cycleway", "name": null }, "geometry": { "type": "LineString", "coordinates": [ [ -0.290735, 51.430752 ], [ -0.290758, 51.4308 ] ] } },
{ "type": "Feature", "properties": { "cls": "shared", "highway": "cycleway", "name": "The Tamsin Trail" }, "geometry": { "type": "LineString", "coordinates": [ [ -0.290758, 51.4308 ], [ -0.290762, 51.430809 ], [ -0.290793, 51.430855 ] ] } },
{ "type": "Feature", "properties": { "cls": "shared", "highway": "cycleway", "name": "The Tamsin Trail" }, "geometry": { "type": "LineString", "coordinates": [ [ -0.290793, 51.430855 ], [ -0.290826, 51.430904 ] ] } },
{ "type": "Feature", "properties": { "cls": "shared", "highway": "cycleway", "name": "The Tamsin Trail" }, "geometry": { "type": "LineString", "coordinates": [ [ -0.290826, 51.430904 ], [ -0.291138, 51.431369 ], [ -0.291238, 51.431695 ], [ -0.291313, 51.432016 ], [ -0.291318, 51.432096 ] ] } },
{ "type": "Feature", "properties": { "cls": "shared", "highway": "cycleway", "name": null }, "geometry": { "type": "LineString", "coordinates": [ [ -0.291318, 51.432096 ], [ -0.291324, 51.432194 ] ] } },
{ "type": "Feature", "properties": { "cls": "separated", "highway": "cycleway", "name": null }, "geometry": { "type": "LineString", "coordinates": [ [ -0.291324, 51.432194 ], [ -0.291328, 51.432311 ] ] } },
{ "type": "Feature", "properties": { "cls": "shared", "highway": "cycleway", "name": "The Tamsin Trail" }, "geometry": { "type": "LineString", "coordinates": [ [ -0.268144, 51.431326 ], [ -0.268184, 51.431208 ], [ -0.268267, 51.431119 ], [ -0.268616, 51.430964 ], [ -0.268766, 51.430885 ], [ -0.26893, 51.430796 ], [ -0.269223, 51.43069 ], [ -0.269329, 51.430635 ], [ -0.269528, 51.430492 ], [ -0.269689, 51.430383 ], [ -0.269882, 51.430281 ], [ -0.270017, 51.430137 ], [ -0.270421, 51.429997 ], [ -0.270775, 51.429887 ], [ -0.270963, 51.429765 ], [ -0.270986, 51.429702 ], [ -0.271051, 51.429579 ], [ -0.271148, 51.42947 ], [ -0.27132, 51.429377 ], [ -0.271491, 51.429231 ], [ -0.271684, 51.429074 ], [ -0.271902, 51.428959 ], [ -0.272073, 51.428823 ], [ -0.272175, 51.428686 ], [ -0.27225, 51.428572 ], [ -0.27232, 51.428497 ], [ -0.272454, 51.428423 ], [ -0.272642, 51.428331 ], [ -0.272916, 51.428114 ], [ -0.273184, 51.427912 ], [ -0.273422, 51.427698 ], [ -0.273988, 51.427263 ], [ -0.274157, 51.427107 ], [ -0.274621, 51.426918 ], [ -0.275144, 51.426692 ], [ -0.275429, 51.42652 ], [ -0.275552, 51.426346 ], [ -0.275627, 51.426213 ], [ -0.275672, 51.4262 ], [ -0.275765, 51.426172 ], [ -0.275812, 51.426139 ], [ -0.275962, 51.42604 ] ] } },
{ "type": "Feature", "properties": { "cls": "shared", "highway": "cycleway", "name": "The Tamsin Trail" }, "geometry": { "type": "LineString", "coordinates": [ [ -0.267272, 51.432308 ], [ -0.267318, 51.432226 ], [ -0.267334, 51.432126 ], [ -0.267366, 51.432009 ], [ -0.267412, 51.431842 ], [ -0.267527, 51.431708 ], [ -0.267798, 51.431557 ], [ -0.268093, 51.431398 ], [ -0.268144, 51.431326 ] ] } },
{ "type": "Feature", "properties": { "cls": "shared", "highway": "cycleway", "name": "The Tamsin Trail" }, "geometry": { "type": "LineString", "coordinates": [ [ -0.264679, 51.433424 ], [ -0.264858, 51.433303 ], [ -0.265094, 51.433226 ], [ -0.265314, 51.433229 ], [ -0.26546, 51.433208 ], [ -0.265639, 51.433158 ], [ -0.265819, 51.433185 ], [ -0.266066, 51.433242 ], [ -0.266256, 51.433238 ], [ -0.26642, 51.433082 ], [ -0.266451, 51.433026 ], [ -0.266522, 51.432901 ], [ -0.266709, 51.43276 ], [ -0.266835, 51.432656 ], [ -0.266998, 51.432453 ], [ -0.267272, 51.432308 ] ] } },
{ "type": "Feature", "properties": { "cls": "shared", "highway": "cycleway", "name": "The Tamsin Trail" }, "geometry": { "type": "LineString", "coordinates": [ [ -0.256805, 51.436528 ], [ -0.256659, 51.436684 ], [ -0.256659, 51.436688 ] ] } },
{ "type": "Feature", "properties": { "cls": "shared", "highway": "cycleway", "name": "The Tamsin Trail" }, "geometry": { "type": "LineString", "coordinates": [ [ -0.256659, 51.436688 ], [ -0.256649, 51.436788 ], [ -0.256669, 51.43694 ], [ -0.256521, 51.43702 ], [ -0.256458, 51.437082 ] ] } },
{ "type": "Feature", "properties": { "cls": "separated", "highway": "cycleway", "name": null }, "geometry": { "type": "LineString", "coordinates": [ [ -0.268563, 51.440358 ], [ -0.26854, 51.44038 ], [ -0.268515, 51.440411 ], [ -0.268506, 51.440472 ] ] } },
{ "type": "Feature", "properties": { "cls": "shared", "highway": "pedestrian", "name": null }, "geometry": { "type": "LineString", "coordinates": [ [ -0.268182, 51.4392 ], [ -0.268218, 51.439196 ], [ -0.268254, 51.439192 ], [ -0.26867, 51.439177 ], [ -0.26895, 51.439166 ], [ -0.269706, 51.439152 ], [ -0.270383, 51.439165 ], [ -0.271321, 51.439171 ], [ -0.271758, 51.439158 ], [ -0.27195, 51.439151 ], [ -0.272311, 51.439137 ], [ -0.272595, 51.439111 ], [ -0.273172, 51.439046 ], [ -0.273472, 51.439 ], [ -0.273669, 51.438963 ], [ -0.274182, 51.438854 ], [ -0.274473, 51.438773 ], [ -0.27488, 51.43864 ], [ -0.2757, 51.438398 ], [ -0.275986, 51.438305 ], [ -0.277691, 51.437737 ], [ -0.27856, 51.437469 ], [ -0.278645, 51.437427 ], [ -0.2788, 51.437373 ], [ -0.279403, 51.437165 ], [ -0.280213, 51.436837 ], [ -0.280604, 51.436657 ], [ -0.280851, 51.436543 ], [ -0.281142, 51.436397 ], [ -0.28165, 51.436118 ], [ -0.282011, 51.435905 ], [ -0.28237, 51.435661 ], [ -0.283065, 51.435187 ], [ -0.283092, 51.435168 ], [ -0.283147, 51.435152 ] ] } },
{ "type": "Feature", "properties": { "cls": "shared", "highway": "cycleway", "name": null }, "geometry": { "type": "LineString", "coordinates": [ [ -0.292061, 51.432087 ], [ -0.291935, 51.432105 ], [ -0.291842, 51.432139 ], [ -0.291593, 51.432167 ], [ -0.291324, 51.432194 ] ] } },
{ "type": "Feature", "properties": { "cls": "separated", "highway": "cycleway", "name": null }, "geometry": { "type": "LineString", "coordinates": [ [ -0.291328, 51.432311 ], [ -0.291319, 51.432383 ] ] } },
{ "type": "Feature", "properties": { "cls": "shared", "highway": "cycleway", "name": "The Tamsin Trail" }, "geometry": { "type": "LineString", "coordinates": [ [ -0.291324, 51.432194 ], [ -0.290758, 51.432234 ], [ -0.289993, 51.432303 ], [ -0.28964, 51.432362 ], [ -0.289351, 51.432497 ], [ -0.289088, 51.432594 ], [ -0.288398, 51.432886 ], [ -0.287807, 51.433128 ], [ -0.287626, 51.43317 ], [ -0.287327, 51.433181 ] ] } },
{ "type": "Feature", "properties": { "cls": "shared", "highway": "cycleway", "name": null }, "geometry": { "type": "LineString", "coordinates": [ [ -0.287327, 51.433181 ], [ -0.287179, 51.43321 ], [ -0.287077, 51.433239 ], [ -0.286971, 51.433227 ], [ -0.286892, 51.433185 ], [ -0.286733, 51.433156 ] ] } },
{ "type": "Feature", "properties": { "cls": "shared", "highway": "cycleway", "name": null }, "geometry": { "type": "LineString", "coordinates": [ [ -0.287626, 51.43317 ], [ -0.287528, 51.433239 ], [ -0.287488, 51.433336 ] ] } },
{ "type": "Feature", "properties": { "cls": "shared", "highway": "pedestrian", "name": null }, "geometry": { "type": "LineString", "coordinates": [ [ -0.283147, 51.435152 ], [ -0.283261, 51.435067 ] ] } },
{ "type": "Feature", "properties": { "cls": "shared", "highway": "cycleway", "name": "The Tamsin Trail" }, "geometry": { "type": "LineString", "coordinates": [ [ -0.293312, 51.44228 ], [ -0.293229, 51.442154 ], [ -0.293164, 51.442055 ], [ -0.292881, 51.441856 ], [ -0.292739, 51.441762 ], [ -0.292641, 51.441657 ], [ -0.292582, 51.441562 ], [ -0.292544, 51.441386 ], [ -0.292296, 51.441144 ], [ -0.292051, 51.440292 ], [ -0.29195, 51.44011 ], [ -0.291872, 51.43977 ], [ -0.291906, 51.439458 ], [ -0.291952, 51.439243 ], [ -0.291326, 51.437951 ], [ -0.291295, 51.437792 ], [ -0.291228, 51.437523 ], [ -0.29109, 51.437132 ], [ -0.290899, 51.436888 ], [ -0.290691, 51.436675 ], [ -0.290363, 51.436332 ], [ -0.289925, 51.435873 ], [ -0.289189, 51.435172 ], [ -0.288941, 51.434939 ], [ -0.288855, 51.434858 ], [ -0.288044, 51.433984 ], [ -0.287985, 51.43392 ], [ -0.28787, 51.433774 ], [ -0.287701, 51.433612 ], [ -0.287488, 51.433336 ], [ -0.287327, 51.433181 ] ] } },
{ "type": "Feature", "properties": { "cls": "shared", "highway": "cycleway", "name": null }, "geometry": { "type": "LineString", "coordinates": [ [ -0.291319, 51.432383 ], [ -0.291432, 51.432742 ], [ -0.291431, 51.433027 ], [ -0.29151, 51.4332 ], [ -0.291715, 51.433816 ], [ -0.29172, 51.433869 ], [ -0.291757, 51.434278 ], [ -0.291744, 51.434476 ], [ -0.291779, 51.43467 ], [ -0.291985, 51.435072 ], [ -0.292246, 51.435744 ], [ -0.292396, 51.436209 ], [ -0.292685, 51.436697 ], [ -0.292902, 51.436926 ], [ -0.292924, 51.436965 ], [ -0.293024, 51.437145 ], [ -0.293148, 51.437244 ], [ -0.293282, 51.437354 ], [ -0.293551, 51.437665 ], [ -0.293736, 51.437844 ], [ -0.294038, 51.438156 ], [ -0.294192, 51.438315 ], [ -0.29482, 51.438925 ], [ -0.295587, 51.439785 ], [ -0.295677, 51.439873 ], [ -0.296757, 51.440919 ], [ -0.296973, 51.441215 ], [ -0.297174, 51.44153 ], [ -0.297297, 51.441727 ], [ -0.297573, 51.442207 ], [ -0.297653, 51.442405 ], [ -0.298014, 51.442981 ], [ -0.2983, 51.443517 ], [ -0.298889, 51.444449 ], [ -0.299243, 51.44504 ], [ -0.299483, 51.445488 ], [ -0.299566, 51.445646 ], [ -0.29971, 51.445885 ], [ -0.299701, 51.446017 ], [ -0.299719, 51.446112 ] ] } },
{ "type": "Feature", "properties": { "cls": "shared", "highway": "cycleway", "name": "The Tamsin Trail" }, "geometry": { "type": "LineString", "coordinates": [ [ -0.294053, 51.444874 ], [ -0.29391, 51.44469 ], [ -0.293835, 51.444594 ], [ -0.293611, 51.444044 ], [ -0.293525, 51.443688 ], [ -0.293531, 51.443355 ], [ -0.293426, 51.442813 ], [ -0.293346, 51.442625 ], [ -0.293305, 51.442397 ], [ -0.293312, 51.44228 ] ] } },
{ "type": "Feature", "properties": { "cls": "shared", "highway": "cycleway", "name": null }, "geometry": { "type": "LineString", "coordinates": [ [ -0.295125, 51.446499 ], [ -0.295063, 51.446473 ], [ -0.294883, 51.446337 ], [ -0.294716, 51.446164 ], [ -0.294615, 51.445985 ], [ -0.294565, 51.445558 ], [ -0.294284, 51.445129 ], [ -0.294053, 51.444874 ] ] } },
{ "type": "Feature", "properties": { "cls": "shared", "highway": "path", "name": null }, "geometry": { "type": "LineString", "coordinates": [ [ -0.299719, 51.446112 ], [ -0.299754, 51.446208 ], [ -0.299761, 51.446264 ] ] } },
{ "type": "Feature", "properties": { "cls": "separated", "highway": "cycleway", "name": null }, "geometry": { "type": "Point", "coordinates": [ -0.299761, 51.446264 ] } },
{ "type": "Feature", "properties": { "cls": "shared", "highway": "cycleway", "name": "The Tamsin Trail" }, "geometry": { "type": "LineString", "coordinates": [ [ -0.295801, 51.449671 ], [ -0.295548, 51.449313 ], [ -0.29533, 51.448957 ], [ -0.295083, 51.44869 ], [ -0.294947, 51.448511 ], [ -0.294916, 51.448362 ], [ -0.294905, 51.448167 ], [ -0.294861, 51.447827 ], [ -0.29474, 51.446931 ], [ -0.294661, 51.446571 ], [ -0.294689, 51.446468 ], [ -0.294673, 51.446304 ], [ -0.294676, 51.446222 ], [ -0.294601, 51.446028 ], [ -0.294558, 51.445983 ], [ -0.294426, 51.445908 ], [ -0.294359, 51.445868 ], [ -0.2943, 51.445777 ], [ -0.294235, 51.445581 ], [ -0.294198, 51.445513 ], [ -0.294134, 51.445425 ], [ -0.294064, 51.445117 ], [ -0.294078, 51.445048 ], [ -0.294093, 51.444973 ], [ -0.294053, 51.444874 ] ] } },
{ "type": "Feature", "properties": { "cls": "shared", "highway": "cycleway", "name": "Terrace Walk" }, "geometry": { "type": "LineString", "coordinates": [ [ -0.295801, 51.449671 ], [ -0.295865, 51.449546 ], [ -0.295811, 51.449371 ], [ -0.29562, 51.448661 ], [ -0.295342, 51.448339 ], [ -0.295123, 51.447894 ], [ -0.295024, 51.447696 ], [ -0.295035, 51.447468 ], [ -0.295132, 51.447171 ], [ -0.295158, 51.446897 ], [ -0.295143, 51.446557 ], [ -0.295125, 51.446499 ] ] } },
{ "type": "Feature", "properties": { "cls": "separated", "highway": "cycleway", "name": null }, "geometry": { "type": "LineString", "coordinates": [ [ -0.268811, 51.440376 ], [ -0.268813, 51.440407 ], [ -0.268777, 51.440436 ], [ -0.268733, 51.440472 ], [ -0.268675, 51.440485 ], [ -0.268623, 51.440514 ] ] } },
{ "type": "Feature", "properties": { "cls": "shared", "highway": "cycleway", "name": null }, "geometry": { "type": "LineString", "coordinates": [ [ -0.268623, 51.440514 ], [ -0.268559, 51.440496 ], [ -0.268506, 51.440472 ], [ -0.26828, 51.440434 ] ] } },
{ "type": "Feature", "properties": { "cls": "separated", "highway": "cycleway", "name": null }, "geometry": { "type": "LineString", "coordinates": [ [ -0.267301, 51.451517 ], [ -0.267265, 51.451531 ], [ -0.267227, 51.45159 ], [ -0.26719, 51.451643 ], [ -0.267151, 51.451681 ], [ -0.267119, 51.45171 ], [ -0.267067, 51.451775 ], [ -0.267056, 51.451814 ], [ -0.26705, 51.451853 ] ] } },
{ "type": "Feature", "properties": { "cls": "shared", "highway": "cycleway", "name": null }, "geometry": { "type": "LineString", "coordinates": [ [ -0.267176, 51.452084 ], [ -0.267137, 51.452042 ], [ -0.26706, 51.452012 ] ] } },
{ "type": "Feature", "properties": { "cls": "separated", "highway": "cycleway", "name": null }, "geometry": { "type": "LineString", "coordinates": [ [ -0.267137, 51.452042 ], [ -0.267207, 51.452059 ], [ -0.267292, 51.452077 ] ] } },
{ "type": "Feature", "properties": { "cls": "separated", "highway": "cycleway", "name": null }, "geometry": { "type": "LineString", "coordinates": [ [ -0.267292, 51.452077 ], [ -0.267351, 51.452074 ], [ -0.26741, 51.452073 ] ] } },
{ "type": "Feature", "properties": { "cls": "shared", "highway": "cycleway", "name": null }, "geometry": { "type": "LineString", "coordinates": [ [ -0.267444, 51.456735 ], [ -0.26737, 51.456665 ], [ -0.267309, 51.456623 ], [ -0.267236, 51.456524 ], [ -0.267171, 51.45637 ], [ -0.267115, 51.456203 ], [ -0.26704, 51.455957 ], [ -0.267002, 51.455739 ], [ -0.266979, 51.45555 ], [ -0.266967, 51.455298 ], [ -0.266981, 51.454973 ], [ -0.26701, 51.454665 ], [ -0.267052, 51.454183 ], [ -0.267104, 51.453858 ], [ -0.267241, 51.453087 ], [ -0.267285, 51.452708 ], [ -0.267283, 51.452351 ], [ -0.26728, 51.452273 ], [ -0.267263, 51.452198 ], [ -0.267176, 51.452084 ] ] } },
{ "type": "Feature", "properties": { "cls": "shared", "highway": "cycleway", "name": "The Tamsin Trail" }, "geometry": { "type": "LineString", "coordinates": [ [ -0.268134, 51.456196 ], [ -0.268212, 51.456195 ] ] } },
{ "type": "Feature", "properties": { "cls": "shared", "highway": "cycleway", "name": "The Tamsin Trail" }, "geometry": { "type": "LineString", "coordinates": [ [ -0.267459, 51.456682 ], [ -0.267495, 51.456661 ], [ -0.26759, 51.456657 ], [ -0.267686, 51.456657 ], [ -0.267715, 51.456655 ], [ -0.267737, 51.45664 ], [ -0.26782, 51.456575 ], [ -0.267849, 51.456519 ], [ -0.267926, 51.456465 ], [ -0.268014, 51.456404 ], [ -0.268028, 51.456339 ], [ -0.268019, 51.4563 ], [ -0.268019, 51.456261 ], [ -0.268033, 51.456229 ], [ -0.268049, 51.456212 ], [ -0.26807, 51.456204 ], [ -0.268134, 51.456196 ] ] } },
{ "type": "Feature", "properties": { "cls": "shared", "highway": "cycleway", "name": "The Tamsin Trail" }, "geometry": { "type": "LineString", "coordinates": [ [ -0.267444, 51.456735 ], [ -0.267484, 51.456714 ] ] } },
{ "type": "Feature", "properties": { "cls": "shared", "highway": "path", "name": "The Tamsin Trail" }, "geometry": { "type": "LineString", "coordinates": [ [ -0.295662, 51.449849 ], [ -0.295716, 51.449772 ], [ -0.295801, 51.449671 ] ] } },
{ "type": "Feature", "properties": { "cls": "shared", "highway": "cycleway", "name": "The Tamsin Trail" }, "geometry": { "type": "LineString", "coordinates": [ [ -0.295603, 51.449923 ], [ -0.295627, 51.449888 ], [ -0.295662, 51.449849 ] ] } },
{ "type": "Feature", "properties": { "cls": "shared", "highway": "cycleway", "name": "The Tamsin Trail" }, "geometry": { "type": "LineString", "coordinates": [ [ -0.295575, 51.449956 ], [ -0.295603, 51.449923 ] ] } },
{ "type": "Feature", "properties": { "cls": "shared", "highway": "cycleway", "name": "The Tamsin Trail" }, "geometry": { "type": "LineString", "coordinates": [ [ -0.294544, 51.450927 ], [ -0.29469, 51.450828 ], [ -0.29489, 51.450699 ], [ -0.29524, 51.450488 ], [ -0.295412, 51.450391 ], [ -0.29551, 51.450324 ], [ -0.295533, 51.450239 ], [ -0.295538, 51.450203 ], [ -0.295546, 51.450152 ], [ -0.29555, 51.450019 ], [ -0.295575, 51.449956 ] ] } },
{ "type": "Feature", "properties": { "cls": "shared", "highway": "cycleway", "name": null }, "geometry": { "type": "LineString", "coordinates": [ [ -0.26741, 51.452073 ], [ -0.267485, 51.452066 ], [ -0.267734, 51.452017 ], [ -0.268128, 51.452008 ], [ -0.269085, 51.451997 ], [ -0.269451, 51.451986 ], [ -0.269816, 51.451966 ], [ -0.270717, 51.451913 ], [ -0.27142, 51.451842 ], [ -0.272375, 51.451734 ], [ -0.273564, 51.451591 ], [ -0.27379, 51.451555 ], [ -0.274054, 51.451514 ], [ -0.274485, 51.451429 ], [ -0.275461, 51.451252 ], [ -0.276041, 51.451148 ], [ -0.276423, 51.451076 ], [ -0.277139, 51.450923 ], [ -0.277666, 51.450848 ], [ -0.278043, 51.450795 ], [ -0.278942, 51.450606 ], [ -0.27903, 51.450586 ], [ -0.279984, 51.45037 ], [ -0.281068, 51.450081 ], [ -0.28204, 51.449767 ], [ -0.282714, 51.449514 ], [ -0.283342, 51.449286 ], [ -0.283729, 51.449168 ], [ -0.284115, 51.449067 ], [ -0.284865, 51.448938 ], [ -0.285424, 51.448905 ], [ -0.286461, 51.448851 ], [ -0.286931, 51.448851 ], [ -0.287041, 51.448854 ], [ -0.287522, 51.448866 ], [ -0.287941, 51.44888 ], [ -0.288236, 51.448889 ], [ -0.289379, 51.448974 ], [ -0.289729, 51.449012 ], [ -0.29076, 51.449125 ], [ -0.292, 51.449286 ], [ -0.292687, 51.449404 ], [ -0.293553, 51.449568 ], [ -0.294525, 51.449765 ], [ -0.294911, 51.449836 ], [ -0.295028, 51.449848 ], [ -0.295282, 51.449881 ], [ -0.295575, 51.449956 ] ] } },
{ "type": "Feature", "properties": { "cls": "shared", "highway": "cycleway", "name": "The Tamsin Trail" }, "geometry": { "type": "LineString", "coordinates": [ [ -0.294483, 51.450966 ], [ -0.294544, 51.450927 ] ] } },
{ "type": "Feature", "properties": { "cls": "shared", "highway": "cycleway", "name": "The Tamsin Trail" }, "geometry": { "type": "LineString", "coordinates": [ [ -0.287926, 51.454547 ], [ -0.288281, 51.454321 ], [ -0.288645, 51.454081 ], [ -0.289014, 51.453812 ], [ -0.289281, 51.453608 ], [ -0.289544, 51.453448 ], [ -0.28985, 51.453254 ], [ -0.290114, 51.453088 ], [ -0.290402, 51.452909 ], [ -0.290561, 51.452823 ], [ -0.290733, 51.452753 ], [ -0.290904, 51.45269 ], [ -0.291329, 51.452548 ], [ -0.291662, 51.452432 ], [ -0.291928, 51.45234 ], [ -0.292136, 51.452265 ], [ -0.292293, 51.452214 ], [ -0.292456, 51.452133 ], [ -0.292873, 51.45194 ], [ -0.293017, 51.451875 ], [ -0.293077, 51.451841 ], [ -0.293212, 51.451762 ], [ -0.293365, 51.451664 ], [ -0.293573, 51.451539 ], [ -0.293796, 51.451426 ], [ -0.294182, 51.451173 ], [ -0.294483, 51.450966 ] ] } },
{ "type": "Feature", "properties": { "cls": "shared", "highway": "cycleway", "name": "The Tamsin Trail" }, "geometry": { "type": "LineString", "coordinates": [ [ -0.287517, 51.454825 ], [ -0.287702, 51.454711 ], [ -0.287926, 51.454547 ] ] } },
{ "type": "Feature", "properties": { "cls": "shared", "highway": "cycleway", "name": "The Tamsin Trail" }, "geometry": { "type": "LineString", "coordinates": [ [ -0.287447, 51.454852 ], [ -0.287517, 51.454825 ] ] } },
{ "type": "Feature", "properties": { "cls": "shared", "highway": "path", "name": "The Tamsin Trail" }, "geometry": { "type": "LineString", "coordinates": [ [ -0.268212, 51.456195 ], [ -0.268257, 51.456198 ], [ -0.26834, 51.4562 ], [ -0.268529, 51.456194 ], [ -0.268785, 51.456171 ], [ -0.269043, 51.456122 ], [ -0.269543, 51.456052 ], [ -0.269855, 51.456008 ], [ -0.270399, 51.455939 ], [ -0.27047, 51.455932 ], [ -0.270606, 51.455919 ], [ -0.271687, 51.455804 ], [ -0.272198, 51.455765 ], [ -0.27267, 51.455751 ], [ -0.273126, 51.455755 ], [ -0.273813, 51.455764 ], [ -0.274325, 51.455755 ], [ -0.27463, 51.455783 ], [ -0.274802, 51.455824 ], [ -0.274882, 51.455858 ], [ -0.274941, 51.455883 ], [ -0.275132, 51.455897 ], [ -0.275406, 51.455868 ], [ -0.275625, 51.455875 ], [ -0.276382, 51.455918 ], [ -0.27784, 51.455979 ], [ -0.278275, 51.455991 ], [ -0.278812, 51.456055 ], [ -0.278908, 51.456066 ], [ -0.278972, 51.456063 ], [ -0.27915, 51.45603 ], [ -0.27933, 51.456042 ], [ -0.279658, 51.456043 ], [ -0.280031, 51.456034 ], [ -0.280336, 51.456036 ], [ -0.280628, 51.456075 ], [ -0.280883, 51.456103 ], [ -0.281165, 51.456106 ], [ -0.281434, 51.456091 ], [ -0.281889, 51.456113 ], [ -0.281972, 51.456105 ], [ -0.282157, 51.456021 ], [ -0.282306, 51.4559 ], [ -0.282328, 51.455817 ], [ -0.282352, 51.455765 ], [ -0.282389, 51.455707 ], [ -0.282471, 51.455666 ], [ -0.28259, 51.455625 ], [ -0.282795, 51.455554 ], [ -0.282972, 51.45551 ], [ -0.28306, 51.455474 ], [ -0.28313, 51.455438 ], [ -0.283188, 51.455423 ], [ -0.283326, 51.45542 ], [ -0.283518, 51.455422 ], [ -0.283853, 51.455423 ], [ -0.284001, 51.455413 ], [ -0.284211, 51.455383 ], [ -0.284292, 51.455358 ], [ -0.28437, 51.455345 ], [ -0.284474, 51.455347 ], [ -0.28454, 51.455365 ], [ -0.284666, 51.455391 ], [ -0.284778, 51.455407 ], [ -0.285002, 51.455401 ], [ -0.285195, 51.455369 ], [ -0.285293, 51.455349 ], [ -0.285365, 51.455349 ], [ -0.285431, 51.455361 ], [ -0.285482, 51.455387 ], [ -0.285602, 51.455482 ], [ -0.285733, 51.45554 ], [ -0.28585, 51.455575 ], [ -0.285975, 51.455613 ], [ -0.286222, 51.455622 ], [ -0.286484, 51.455601 ], [ -0.28668, 51.455562 ], [ -0.286861, 51.455451 ], [ -0.287, 51.455333 ], [ -0.287049, 51.455116 ], [ -0.287065, 51.455005 ], [ -0.287088, 51.454927 ], [ -0.287124, 51.454896 ], [ -0.287184, 51.45487 ], [ -0.287359, 51.454866 ], [ -0.287447, 51.454852 ] ] } },
{ "type": "Feature", "properties": { "cls": "shared", "highway": "cycleway", "name": null }, "geometry": { "type": "LineString", "coordinates": [ [ -0.267444, 51.456735 ], [ -0.267501, 51.456826 ], [ -0.267525, 51.456928 ] ] } },
{ "type": "Feature", "properties": { "cls": "separated", "highway": "cycleway", "name": null }, "geometry": { "type": "LineString", "coordinates": [ [ -0.256659, 51.436688 ], [ -0.256634, 51.436665 ], [ -0.256548, 51.436584 ], [ -0.256455, 51.436478 ], [ -0.25642, 51.436425 ] ] } },
{ "type": "Feature", "properties": { "cls": "shared", "highway": "cycleway", "name": "Beverley Walk" }, "geometry": { "type": "LineString", "coordinates": [ [ -0.255116, 51.437374 ], [ -0.255159, 51.437373 ], [ -0.255981, 51.43724 ], [ -0.256458, 51.437082 ] ] } },
{ "type": "Feature", "properties": { "cls": "shared", "highway": "cycleway", "name": null }, "geometry": { "type": "LineString", "coordinates": [ [ -0.256474, 51.437284 ], [ -0.256431, 51.437246 ], [ -0.256326, 51.437224 ], [ -0.256174, 51.437223 ], [ -0.255981, 51.43724 ] ] } },
{ "type": "Feature", "properties": { "cls": "separated", "highway": "cycleway", "name": null }, "geometry": { "type": "LineString", "coordinates": [ [ -0.254288, 51.437305 ], [ -0.254248, 51.437313 ] ] } },
{ "type": "Feature", "properties": { "cls": "separated", "highway": "cycleway", "name": "Beverley Walk" }, "geometry": { "type": "LineString", "coordinates": [ [ -0.254288, 51.437305 ], [ -0.254735, 51.437389 ], [ -0.255116, 51.437374 ] ] } },
{ "type": "Feature", "properties": { "cls": "separated", "highway": "cycleway", "name": null }, "geometry": { "type": "LineString", "coordinates": [ [ -0.254248, 51.437313 ], [ -0.254081, 51.437374 ] ] } },
{ "type": "Feature", "properties": { "cls": "separated", "highway": "cycleway", "name": "Chohole Gate Path" }, "geometry": { "type": "Point", "coordinates": [ -0.254081, 51.437374 ] } },
{ "type": "Feature", "properties": { "cls": "shared", "highway": "cycleway", "name": "The Tamsin Trail" }, "geometry": { "type": "LineString", "coordinates": [ [ -0.256805, 51.436528 ], [ -0.256954, 51.436416 ], [ -0.257069, 51.436345 ], [ -0.257129, 51.436329 ], [ -0.257204, 51.436328 ], [ -0.257415, 51.436335 ], [ -0.257572, 51.436321 ], [ -0.257686, 51.436332 ], [ -0.257807, 51.436318 ], [ -0.25789, 51.436253 ], [ -0.257941, 51.436206 ], [ -0.258184, 51.436102 ], [ -0.25881, 51.435868 ], [ -0.258972, 51.435822 ], [ -0.25925, 51.435743 ], [ -0.259625, 51.4356 ], [ -0.260108, 51.43542 ], [ -0.26047, 51.435273 ], [ -0.260703, 51.435149 ], [ -0.260905, 51.43508 ], [ -0.261173, 51.434945 ], [ -0.26139, 51.434895 ], [ -0.261685, 51.434728 ], [ -0.261921, 51.434634 ], [ -0.26223, 51.434458 ], [ -0.262517, 51.434378 ], [ -0.262747, 51.434301 ], [ -0.262895, 51.434241 ], [ -0.263388, 51.434102 ], [ -0.263496, 51.434077 ], [ -0.263608, 51.434012 ], [ -0.263678, 51.433979 ], [ -0.263825, 51.433963 ], [ -0.26385, 51.433942 ], [ -0.263885, 51.433912 ], [ -0.263909, 51.433845 ], [ -0.263997, 51.433719 ], [ -0.264155, 51.433617 ], [ -0.26434, 51.433567 ], [ -0.264496, 51.433532 ], [ -0.264679, 51.433424 ] ] } },
{ "type": "Feature", "properties": { "cls": "shared", "highway": "cycleway", "name": null }, "geometry": { "type": "LineString", "coordinates": [ [ -0.26705, 51.451853 ], [ -0.267048, 51.451888 ], [ -0.267046, 51.451924 ] ] } },
{ "type": "Feature", "properties": { "cls": "separated", "highway": "cycleway", "name": null }, "geometry": { "type": "LineString", "coordinates": [ [ -0.267046, 51.451924 ], [ -0.267044, 51.451946 ], [ -0.26706, 51.452012 ] ] } },
{ "type": "Feature", "properties": { "cls": "shared", "highway": "cycleway", "name": null }, "geometry": { "type": "LineString", "coordinates": [ [ -0.26706, 51.452012 ], [ -0.266894, 51.451975 ], [ -0.266745, 51.451964 ], [ -0.266122, 51.451979 ], [ -0.265562, 51.452043 ], [ -0.265128, 51.452104 ], [ -0.264083, 51.452253 ], [ -0.263701, 51.452308 ], [ -0.262158, 51.452579 ], [ -0.260422, 51.452928 ], [ -0.259909, 51.453029 ], [ -0.259639, 51.453077 ], [ -0.259364, 51.453105 ] ] } },
{ "type": "Feature", "properties": { "cls": "shared", "highway": "cycleway", "name": null }, "geometry": { "type": "LineString", "coordinates": [ [ -0.259364, 51.453105 ], [ -0.259173, 51.45316 ] ] } },
{ "type": "Feature", "properties": { "cls": "shared", "highway": "cycleway", "name": "The Tamsin Trail" }, "geometry": { "type": "LineString", "coordinates": [ [ -0.25931, 51.454275 ], [ -0.259473, 51.454319 ] ] } },
{ "type": "Feature", "properties": { "cls": "shared", "highway": "cycleway", "name": "The Tamsin Trail" }, "geometry": { "type": "LineString", "coordinates": [ [ -0.259473, 51.454319 ], [ -0.259528, 51.454334 ], [ -0.259869, 51.454437 ], [ -0.260159, 51.454549 ], [ -0.260509, 51.454676 ], [ -0.260745, 51.454808 ], [ -0.261048, 51.454982 ], [ -0.261274, 51.455104 ], [ -0.261591, 51.455263 ], [ -0.261908, 51.455442 ], [ -0.262229, 51.455602 ], [ -0.262467, 51.455737 ], [ -0.26282, 51.455953 ], [ -0.263166, 51.456134 ], [ -0.263596, 51.456299 ], [ -0.263944, 51.456376 ], [ -0.264185, 51.456416 ], [ -0.264369, 51.45649 ], [ -0.264565, 51.456586 ] ] } },
{ "type": "Feature", "properties": { "cls": "shared", "highway": "cycleway", "name": "The Tamsin Trail" }, "geometry": { "type": "LineString", "coordinates": [ [ -0.256458, 51.437082 ], [ -0.25646, 51.437206 ], [ -0.256474, 51.437284 ], [ -0.256486, 51.437401 ], [ -0.256446, 51.437477 ], [ -0.256362, 51.437561 ], [ -0.256322, 51.437637 ], [ -0.256344, 51.437779 ], [ -0.256296, 51.437937 ], [ -0.25624, 51.438066 ], [ -0.256286, 51.438191 ], [ -0.256369, 51.438309 ], [ -0.25642, 51.438529 ], [ -0.256433, 51.438632 ], [ -0.256393, 51.438745 ], [ -0.256374, 51.438854 ], [ -0.256413, 51.439013 ], [ -0.256425, 51.439137 ], [ -0.256427, 51.439283 ], [ -0.256408, 51.439393 ], [ -0.256347, 51.439576 ], [ -0.256351, 51.439696 ], [ -0.256396, 51.439804 ], [ -0.256431, 51.439937 ], [ -0.25645, 51.440153 ], [ -0.256433, 51.440494 ], [ -0.256441, 51.440664 ], [ -0.256412, 51.440811 ], [ -0.256359, 51.440964 ], [ -0.256383, 51.441071 ], [ -0.256375, 51.441199 ], [ -0.256259, 51.441484 ], [ -0.256174, 51.441796 ], [ -0.256068, 51.441951 ], [ -0.25591, 51.442121 ], [ -0.255883, 51.442178 ], [ -0.255808, 51.442403 ], [ -0.255718, 51.442613 ], [ -0.255824, 51.442836 ], [ -0.255826, 51.442954 ], [ -0.255757, 51.443183 ], [ -0.255731, 51.443343 ], [ -0.255755, 51.443514 ], [ -0.255762, 51.443687 ], [ -0.255711, 51.443868 ], [ -0.255616, 51.443987 ], [ -0.255535, 51.444092 ], [ -0.255504, 51.444215 ], [ -0.255471, 51.444352 ], [ -0.255392, 51.444444 ], [ -0.255304, 51.444553 ], [ -0.2553, 51.444661 ], [ -0.255321, 51.444795 ], [ -0.255344, 51.444941 ], [ -0.25537, 51.445152 ], [ -0.255409, 51.445286 ], [ -0.25541, 51.445424 ], [ -0.255348, 51.445596 ], [ -0.255328, 51.445746 ], [ -0.255304, 51.445951 ], [ -0.255283, 51.446214 ], [ -0.255241, 51.446437 ], [ -0.255175, 51.446652 ], [ -0.255113, 51.446829 ], [ -0.255048, 51.446909 ], [ -0.254975, 51.446992 ], [ -0.254994, 51.447167 ], [ -0.255026, 51.44733 ] ] } },
{ "type": "Feature", "properties": { "cls": "shared", "highway": "cycleway", "name": "The Tamsin Trail" }, "geometry": { "type": "LineString", "coordinates": [ [ -0.255026, 51.44733 ], [ -0.255101, 51.44755 ], [ -0.255158, 51.447755 ], [ -0.25522, 51.447923 ], [ -0.255283, 51.448073 ], [ -0.255287, 51.448151 ], [ -0.255275, 51.448282 ], [ -0.25528, 51.448443 ], [ -0.255325, 51.448608 ], [ -0.255424, 51.448871 ], [ -0.255478, 51.449094 ], [ -0.25549, 51.449193 ], [ -0.255482, 51.449255 ], [ -0.25542, 51.449307 ] ] } },
{ "type": "Feature", "properties": { "cls": "shared", "highway": "cycleway", "name": "The Tamsin Trail" }, "geometry": { "type": "LineString", "coordinates": [ [ -0.25542, 51.449307 ], [ -0.255244, 51.449371 ] ] } },
{ "type": "Feature", "properties": { "cls": "shared", "highway": "cycleway", "name": "The Tamsin Trail" }, "geometry": { "type": "LineString", "coordinates": [ [ -0.255244, 51.449371 ], [ -0.25514, 51.449411 ], [ -0.255097, 51.449459 ], [ -0.255075, 51.449517 ], [ -0.255077, 51.449584 ], [ -0.255091, 51.449646 ], [ -0.25518, 51.449768 ], [ -0.255216, 51.449865 ], [ -0.255204, 51.449986 ], [ -0.255237, 51.450088 ], [ -0.255337, 51.450257 ], [ -0.255342, 51.450346 ], [ -0.255311, 51.450449 ], [ -0.255251, 51.45074 ], [ -0.255236, 51.450801 ], [ -0.255192, 51.451037 ], [ -0.255198, 51.451165 ], [ -0.255174, 51.451271 ], [ -0.25512, 51.451413 ], [ -0.255134, 51.451492 ], [ -0.255188, 51.451556 ], [ -0.255251, 51.451615 ], [ -0.255285, 51.451657 ], [ -0.255304, 51.451725 ], [ -0.255337, 51.45178 ], [ -0.255369, 51.451808 ], [ -0.255486, 51.451851 ], [ -0.255549, 51.451885 ], [ -0.255599, 51.451942 ], [ -0.255644, 51.452034 ], [ -0.25567, 51.452147 ], [ -0.255723, 51.452237 ], [ -0.255739, 51.452295 ], [ -0.255732, 51.452343 ], [ -0.255735, 51.452426 ], [ -0.25571, 51.452484 ], [ -0.255733, 51.452559 ], [ -0.25576, 51.452624 ], [ -0.255826, 51.452724 ], [ -0.255928, 51.452797 ], [ -0.256082, 51.452992 ], [ -0.256163, 51.453054 ], [ -0.256283, 51.453108 ], [ -0.256408, 51.453235 ], [ -0.256635, 51.453451 ], [ -0.256677, 51.453473 ], [ -0.256782, 51.453569 ], [ -0.25701, 51.453671 ], [ -0.257133, 51.453765 ] ] } },
{ "type": "Feature", "properties": { "cls": "shared", "highway": "cycleway", "name": null }, "geometry": { "type": "LineString", "coordinates": [ [ -0.259173, 51.45316 ], [ -0.259127, 51.453181 ], [ -0.258859, 51.453299 ], [ -0.258522, 51.453432 ], [ -0.257783, 51.453728 ], [ -0.257576, 51.453814 ], [ -0.257532, 51.453835 ] ] } },
{ "type": "Feature", "properties": { "cls": "shared", "highway": "cycleway", "name": "The Tamsin Trail" }, "geometry": { "type": "LineString", "coordinates": [ [ -0.257133, 51.453765 ], [ -0.257172, 51.453822 ] ] } },
{ "type": "Feature", "properties": { "cls": "shared", "highway": "cycleway", "name": "The Tamsin Trail" }, "geometry": { "type": "LineString", "coordinates": [ [ -0.257172, 51.453822 ], [ -0.25721, 51.453833 ] ] } },
{ "type": "Feature", "properties": { "cls": "shared", "highway": "cycleway", "name": "The Tamsin Trail" }, "geometry": { "type": "LineString", "coordinates": [ [ -0.25721, 51.453833 ], [ -0.257257, 51.453847 ], [ -0.257335, 51.45387 ] ] } },
{ "type": "Feature", "properties": { "cls": "shared", "highway": "cycleway", "name": "The Tamsin Trail" }, "geometry": { "type": "LineString", "coordinates": [ [ -0.257532, 51.453835 ], [ -0.257437, 51.45385 ], [ -0.257392, 51.453886 ] ] } },
{ "type": "Feature", "properties": { "cls": "shared", "highway": "cycleway", "name": "The Tamsin Trail" }, "geometry": { "type": "LineString", "coordinates": [ [ -0.257335, 51.45387 ], [ -0.257392, 51.453886 ] ] } },
{ "type": "Feature", "properties": { "cls": "shared", "highway": "cycleway", "name": null }, "geometry": { "type": "LineString", "coordinates": [ [ -0.257392, 51.453886 ], [ -0.257197, 51.454024 ] ] } },
{ "type": "Feature", "properties": { "cls": "shared", "highway": "cycleway", "name": "The Tamsin Trail" }, "geometry": { "type": "LineString", "coordinates": [ [ -0.257532, 51.453835 ], [ -0.258002, 51.453949 ], [ -0.258778, 51.454138 ], [ -0.25931, 51.454275 ] ] } },
{ "type": "Feature", "properties": { "cls": "separated", "highway": "cycleway", "name": null }, "geometry": { "type": "Point", "coordinates": [ -0.257197, 51.454024 ] } },
{ "type": "Feature", "properties": { "cls": "shared", "highway": "cycleway", "name": "The Tamsin Trail" }, "geometry": { "type": "LineString", "coordinates": [ [ -0.264565, 51.456586 ], [ -0.264722, 51.456696 ], [ -0.264801, 51.456854 ], [ -0.264879, 51.456943 ], [ -0.264941, 51.456967 ], [ -0.265011, 51.456981 ], [ -0.265209, 51.456982 ], [ -0.265443, 51.456972 ], [ -0.265782, 51.456965 ], [ -0.266019, 51.456946 ], [ -0.266134, 51.456935 ], [ -0.266242, 51.456915 ], [ -0.266385, 51.456861 ], [ -0.266516, 51.456821 ], [ -0.266681, 51.456805 ], [ -0.266821, 51.456802 ], [ -0.267027, 51.456787 ], [ -0.267232, 51.456766 ], [ -0.267326, 51.456755 ], [ -0.267444, 51.456735 ] ] } }
]
}
