{
"type": "FeatureCollection",
"name": "091-sao-paulo-anhanguera-park",
"crs": { "type": "name", "properties": { "name": "urn:ogc:def:crs:OGC:1.3:CRS84" } },
"xy_coordinate_resolution": 1e-06,
"features": [
{ "type": "Feature", "properties": { "cls": "shared", "highway": "cycleway", "name": "Ciclovia do Parque Anhanguera" }, "geometry": { "type": "LineString", "coordinates": [ [ -46.783546, -23.419173 ], [ -46.783331, -23.419581 ], [ -46.782918, -23.419847 ], [ -46.78207, -23.421732 ], [ -46.781729, -23.423059 ], [ -46.781711, -23.42313 ], [ -46.780831, -23.423864 ], [ -46.780118, -23.424651 ], [ -46.779662, -23.424661 ], [ -46.779589, -23.424612 ], [ -46.779442, -23.424513 ], [ -46.779335, -23.424376 ], [ -46.779351, -23.424006 ], [ -46.779849, -23.423337 ], [ -46.779871, -23.422653 ], [ -46.780842, -23.42223 ], [ -46.781008, -23.421836 ], [ -46.780756, -23.421068 ], [ -46.781099, -23.420659 ], [ -46.780804, -23.420256 ], [ -46.780992, -23.419832 ], [ -46.780815, -23.419463 ], [ -46.780214, -23.419099 ], [ -46.78011, -23.418894 ] ] } },
{ "type": "Feature", "properties": { "cls": "shared", "highway": "cycleway", "name": "Ciclovia do Parque Anhanguera" }, "geometry": { "type": "LineString", "coordinates": [ [ -46.781921, -23.417543 ], [ -46.782007, -23.417491 ], [ -46.782164, -23.417523 ], [ -46.782866, -23.418138 ], [ -46.783014, -23.418332 ], [ -46.783298, -23.418558 ], [ -46.783421, -23.41901 ], [ -46.783546, -23.419173 ] ] } },
{ "type": "Feature", "properties": { "cls": "shared", "highway": "cycleway", "name": "Ciclovia do Parque Anhanguera" }, "geometry": { "type": "LineString", "coordinates": [ [ -46.781921, -23.417543 ], [ -46.781718, -23.417713 ], [ -46.781558, -23.417893 ], [ -46.781487, -23.41796 ], [ -46.781447, -23.417981 ], [ -46.7814, -23.417993 ], [ -46.781358, -23.417986 ], [ -46.781219, -23.417946 ], [ -46.781138, -23.417928 ], [ -46.780984, -23.417924 ], [ -46.780724, -23.417954 ], [ -46.78052, -23.418005 ], [ -46.780383, -23.418058 ], [ -46.78028, -23.418118 ], [ -46.780195, -23.418203 ], [ -46.780124, -23.418333 ], [ -46.780094, -23.418496 ], [ -46.780105, -23.41877 ], [ -46.78011, -23.418894 ] ] } }
]
}
