{
"type": "FeatureCollection",
"name": "094-regina-wascana-centre",
"crs": { "type": "name", "properties": { "name": "urn:ogc:def:crs:OGC:1.3:CRS84" } },
"xy_coordinate_resolution": 1e-06,
"features": [
{ "type": "Feature", "properties": { "cls": "painted", "highway": "residential", "name": "Research Drive" }, "geometry": { "type": "LineString", "coordinates": [ [ -104.594094, 50.410455 ], [ -104.593644, 50.410715 ] ] } },
{ "type": "Feature", "properties": { "cls": "painted", "highway": "residential", "name": "Research Drive" }, "geometry": { "type": "LineString", "coordinates": [ [ -104.592498, 50.411699 ], [ -104.592591, 50.411659 ], [ -104.59291, 50.411431 ], [ -104.593703, 50.410785 ], [ -104.594209, 50.410515 ] ] } },
{ "type": "Feature", "properties": { "cls": "painted", "highway": "residential", "name": "Research Drive" }, "geometry": { "type": "LineString", "coordinates": [ [ -104.593644, 50.410715 ], [ -104.592771, 50.4114 ], [ -104.59249, 50.41158 ], [ -104.592395, 50.411631 ] ] } },
{ "type": "Feature", "properties": { "cls": "shared", "highway": "path", "name": null }, "geometry": { "type": "LineString", "coordinates": [ [ -104.594329, 50.410579 ], [ -104.594324, 50.410607 ], [ -104.594307, 50.41067 ], [ -104.594245, 50.410727 ], [ -104.594171, 50.410768 ], [ -104.593896, 50.410854 ], [ -104.593801, 50.410894 ], [ -104.593694, 50.410964 ], [ -104.593644, 50.411007 ], [ -104.593587, 50.41109 ], [ -104.593526, 50.41116 ], [ -104.59343, 50.41122 ], [ -104.593279, 50.411292 ], [ -104.59319, 50.41135 ], [ -104.593129, 50.411411 ], [ -104.593059, 50.411507 ], [ -104.592976, 50.411582 ], [ -104.592693, 50.411704 ], [ -104.592592, 50.411753 ], [ -104.592488, 50.411797 ], [ -104.591109, 50.412669 ], [ -104.591049, 50.412699 ] ] } },
{ "type": "Feature", "properties": { "cls": "shared", "highway": "path", "name": null }, "geometry": { "type": "LineString", "coordinates": [ [ -104.60622, 50.423555 ], [ -104.60618, 50.423579 ], [ -104.606102, 50.42363 ], [ -104.606069, 50.423641 ], [ -104.606018, 50.423644 ], [ -104.602083, 50.423649 ], [ -104.601972, 50.423663 ] ] } },
{ "type": "Feature", "properties": { "cls": "shared", "highway": "path", "name": null }, "geometry": { "type": "LineString", "coordinates": [ [ -104.606402, 50.425119 ], [ -104.60641, 50.424562 ], [ -104.606411, 50.423961 ], [ -104.606418, 50.423554 ] ] } },
{ "type": "Feature", "properties": { "cls": "shared", "highway": "path", "name": null }, "geometry": { "type": "LineString", "coordinates": [ [ -104.606318, 50.42514 ], [ -104.606357, 50.425125 ], [ -104.606402, 50.425119 ], [ -104.606447, 50.425124 ], [ -104.606486, 50.425139 ], [ -104.606514, 50.425163 ], [ -104.606527, 50.425191 ], [ -104.606523, 50.42522 ], [ -104.606502, 50.425246 ], [ -104.606469, 50.425266 ], [ -104.606427, 50.425276 ], [ -104.606382, 50.425277 ], [ -104.606339, 50.425266 ], [ -104.606304, 50.425247 ], [ -104.606284, 50.425221 ], [ -104.606279, 50.425192 ], [ -104.606291, 50.425164 ], [ -104.606318, 50.42514 ] ] } },
{ "type": "Feature", "properties": { "cls": "shared", "highway": "path", "name": null }, "geometry": { "type": "LineString", "coordinates": [ [ -104.584689, 50.419898 ], [ -104.584675, 50.419858 ], [ -104.584599, 50.419745 ] ] } },
{ "type": "Feature", "properties": { "cls": "shared", "highway": "path", "name": null }, "geometry": { "type": "LineString", "coordinates": [ [ -104.584689, 50.419898 ], [ -104.584724, 50.41986 ], [ -104.584798, 50.419762 ] ] } },
{ "type": "Feature", "properties": { "cls": "shared", "highway": "path", "name": null }, "geometry": { "type": "LineString", "coordinates": [ [ -104.591569, 50.420711 ], [ -104.591108, 50.420197 ], [ -104.591094, 50.420182 ] ] } },
{ "type": "Feature", "properties": { "cls": "shared", "highway": "path", "name": null }, "geometry": { "type": "LineString", "coordinates": [ [ -104.584689, 50.419898 ], [ -104.584695, 50.420072 ], [ -104.58471, 50.420134 ], [ -104.584731, 50.420188 ], [ -104.584743, 50.420252 ], [ -104.584732, 50.420296 ], [ -104.584701, 50.420343 ], [ -104.584664, 50.420381 ], [ -104.584539, 50.420486 ], [ -104.584449, 50.420579 ], [ -104.584373, 50.420685 ], [ -104.584323, 50.420777 ], [ -104.584298, 50.420854 ], [ -104.584286, 50.420935 ], [ -104.584296, 50.42103 ], [ -104.584307, 50.421101 ], [ -104.584327, 50.421188 ] ] } },
{ "type": "Feature", "properties": { "cls": "shared", "highway": "path", "name": null }, "geometry": { "type": "LineString", "coordinates": [ [ -104.591818, 50.420881 ], [ -104.591745, 50.420834 ], [ -104.591684, 50.420803 ], [ -104.591569, 50.420711 ] ] } },
{ "type": "Feature", "properties": { "cls": "shared", "highway": "path", "name": null }, "geometry": { "type": "LineString", "coordinates": [ [ -104.591438, 50.420881 ], [ -104.59153, 50.420838 ], [ -104.591565, 50.4208 ], [ -104.591577, 50.420765 ], [ -104.591569, 50.420711 ] ] } },
{ "type": "Feature", "properties": { "cls": "shared", "highway": "path", "name": "Trans Canada Trail" }, "geometry": { "type": "LineString", "coordinates": [ [ -104.593468, 50.422021 ], [ -104.59342, 50.421889 ], [ -104.593378, 50.421791 ], [ -104.593331, 50.421712 ], [ -104.593297, 50.421668 ], [ -104.593248, 50.421611 ], [ -104.593198, 50.421559 ], [ -104.593087, 50.421458 ], [ -104.592902, 50.421293 ], [ -104.592856, 50.421257 ], [ -104.592788, 50.421208 ], [ -104.592731, 50.421172 ], [ -104.592646, 50.421127 ], [ -104.592572, 50.421092 ], [ -104.592455, 50.421052 ], [ -104.592358, 50.421024 ], [ -104.592202, 50.42098 ], [ -104.592065, 50.420943 ], [ -104.591891, 50.420896 ], [ -104.591818, 50.420881 ] ] } },
{ "type": "Feature", "properties": { "cls": "shared", "highway": "path", "name": null }, "geometry": { "type": "LineString", "coordinates": [ [ -104.593618, 50.422114 ], [ -104.593562, 50.422083 ], [ -104.593514, 50.422058 ], [ -104.593468, 50.422021 ] ] } },
{ "type": "Feature", "properties": { "cls": "shared", "highway": "path", "name": "Trans Canada Trail" }, "geometry": { "type": "LineString", "coordinates": [ [ -104.593422, 50.422177 ], [ -104.593446, 50.422093 ], [ -104.593468, 50.422021 ] ] } },
{ "type": "Feature", "properties": { "cls": "shared", "highway": "path", "name": null }, "geometry": { "type": "LineString", "coordinates": [ [ -104.593618, 50.422114 ], [ -104.593735, 50.422112 ] ] } },
{ "type": "Feature", "properties": { "cls": "shared", "highway": "path", "name": null }, "geometry": { "type": "LineString", "coordinates": [ [ -104.593422, 50.422177 ], [ -104.593463, 50.422155 ], [ -104.593526, 50.422134 ], [ -104.593618, 50.422114 ] ] } },
{ "type": "Feature", "properties": { "cls": "shared", "highway": "path", "name": "Trans Canada Trail" }, "geometry": { "type": "LineString", "coordinates": [ [ -104.593071, 50.423033 ], [ -104.593065, 50.423002 ], [ -104.593067, 50.42297 ], [ -104.593082, 50.422929 ], [ -104.593122, 50.42288 ], [ -104.593173, 50.422819 ], [ -104.593207, 50.422773 ], [ -104.593247, 50.422695 ], [ -104.593261, 50.422636 ], [ -104.59327, 50.422463 ], [ -104.593283, 50.422409 ], [ -104.593305, 50.422354 ], [ -104.593375, 50.422242 ], [ -104.593422, 50.422177 ] ] } },
{ "type": "Feature", "properties": { "cls": "shared", "highway": "path", "name": null }, "geometry": { "type": "LineString", "coordinates": [ [ -104.593235, 50.423236 ], [ -104.593267, 50.423221 ] ] } },
{ "type": "Feature", "properties": { "cls": "shared", "highway": "path", "name": null }, "geometry": { "type": "LineString", "coordinates": [ [ -104.594327, 50.42334 ], [ -104.594323, 50.423341 ], [ -104.594281, 50.423347 ], [ -104.594239, 50.423348 ], [ -104.594179, 50.423331 ], [ -104.594069, 50.423265 ], [ -104.59403, 50.423253 ], [ -104.593985, 50.423241 ], [ -104.593933, 50.423235 ], [ -104.593897, 50.423236 ], [ -104.593832, 50.423249 ], [ -104.593752, 50.423264 ], [ -104.593659, 50.423278 ], [ -104.593559, 50.42328 ], [ -104.593499, 50.423278 ], [ -104.593433, 50.423269 ], [ -104.593356, 50.423252 ], [ -104.593267, 50.423221 ] ] } },
{ "type": "Feature", "properties": { "cls": "shared", "highway": "path", "name": null }, "geometry": { "type": "LineString", "coordinates": [ [ -104.583713, 50.419825 ], [ -104.583638, 50.41988 ], [ -104.583562, 50.419936 ], [ -104.583461, 50.419995 ], [ -104.583319, 50.420066 ], [ -104.583194, 50.420113 ], [ -104.583042, 50.420172 ], [ -104.582911, 50.420226 ], [ -104.582785, 50.420299 ], [ -104.582673, 50.420376 ], [ -104.582519, 50.420485 ], [ -104.582351, 50.42058 ], [ -104.582182, 50.42067 ], [ -104.581967, 50.420773 ] ] } },
{ "type": "Feature", "properties": { "cls": "shared", "highway": "path", "name": "Trans Canada Trail" }, "geometry": { "type": "LineString", "coordinates": [ [ -104.575984, 50.423333 ], [ -104.576368, 50.422747 ], [ -104.576671, 50.422323 ], [ -104.576829, 50.422114 ], [ -104.576892, 50.422045 ], [ -104.576963, 50.421989 ], [ -104.577044, 50.421947 ], [ -104.577122, 50.421907 ], [ -104.577278, 50.421846 ], [ -104.578035, 50.421545 ], [ -104.578248, 50.421461 ], [ -104.578463, 50.421386 ], [ -104.578647, 50.421331 ], [ -104.578846, 50.421283 ], [ -104.579014, 50.421247 ], [ -104.579194, 50.421218 ], [ -104.579379, 50.421194 ], [ -104.580155, 50.42113 ], [ -104.580532, 50.421108 ], [ -104.580792, 50.421078 ], [ -104.580948, 50.421045 ], [ -104.581061, 50.421012 ], [ -104.581296, 50.42093 ], [ -104.581439, 50.420886 ], [ -104.581662, 50.420833 ], [ -104.581967, 50.420773 ], [ -104.582133, 50.420749 ], [ -104.582322, 50.420737 ], [ -104.582576, 50.420733 ], [ -104.582799, 50.420746 ], [ -104.583039, 50.420773 ], [ -104.583259, 50.420818 ], [ -104.58341, 50.420853 ], [ -104.58353, 50.420891 ], [ -104.583796, 50.420988 ], [ -104.583994, 50.421061 ], [ -104.584327, 50.421188 ], [ -104.584496, 50.421248 ], [ -104.584625, 50.421293 ], [ -104.58472, 50.421315 ], [ -104.584824, 50.421324 ], [ -104.584976, 50.421321 ], [ -104.585148, 50.421305 ], [ -104.585283, 50.421287 ], [ -104.585372, 50.421269 ], [ -104.58551, 50.421234 ], [ -104.585574, 50.421212 ], [ -104.585633, 50.421183 ], [ -104.585687, 50.421145 ], [ -104.585732, 50.421104 ], [ -104.585793, 50.42104 ], [ -104.585892, 50.420938 ], [ -104.586008, 50.420837 ], [ -104.586169, 50.420705 ], [ -104.586252, 50.420641 ], [ -104.586338, 50.420589 ], [ -104.586404, 50.42056 ], [ -104.58649, 50.420531 ], [ -104.586592, 50.420505 ], [ -104.586704, 50.420489 ], [ -104.586918, 50.42048 ], [ -104.587126, 50.420495 ], [ -104.587413, 50.420524 ], [ -104.587604, 50.420555 ], [ -104.587797, 50.420592 ], [ -104.58797, 50.420639 ], [ -104.588124, 50.420701 ], [ -104.588272, 50.420778 ], [ -104.588417, 50.42088 ], [ -104.588545, 50.420975 ], [ -104.588694, 50.421081 ], [ -104.588792, 50.421142 ], [ -104.588918, 50.421203 ], [ -104.589068, 50.421247 ], [ -104.589318, 50.421313 ], [ -104.589466, 50.421334 ], [ -104.589571, 50.421346 ], [ -104.589645, 50.421348 ], [ -104.58972, 50.421343 ], [ -104.589836, 50.421322 ], [ -104.58995, 50.421295 ], [ -104.590028, 50.421275 ], [ -104.59086, 50.421029 ], [ -104.591071, 50.420969 ], [ -104.591278, 50.420916 ], [ -104.591438, 50.420881 ], [ -104.591573, 50.420874 ], [ -104.591818, 50.420881 ] ] } },
{ "type": "Feature", "properties": { "cls": "shared", "highway": "path", "name": "Trans Canada Trail" }, "geometry": { "type": "Point", "coordinates": [ -104.575764, 50.423693 ] } },
{ "type": "Feature", "properties": { "cls": "shared", "highway": "path", "name": "Trans Canada Trail" }, "geometry": { "type": "LineString", "coordinates": [ [ -104.574151, 50.426271 ], [ -104.574193, 50.426276 ], [ -104.574318, 50.426294 ], [ -104.574436, 50.426307 ], [ -104.574527, 50.42631 ], [ -104.574609, 50.426299 ], [ -104.574715, 50.426271 ], [ -104.574852, 50.426223 ], [ -104.575015, 50.42615 ], [ -104.57521, 50.426053 ], [ -104.575353, 50.425986 ], [ -104.575521, 50.425872 ], [ -104.575592, 50.425821 ], [ -104.575687, 50.425736 ], [ -104.575751, 50.425662 ], [ -104.575795, 50.425593 ], [ -104.575825, 50.425528 ], [ -104.575841, 50.425474 ], [ -104.575841, 50.425417 ], [ -104.575827, 50.425363 ], [ -104.575805, 50.425316 ], [ -104.575775, 50.42527 ], [ -104.575662, 50.425118 ], [ -104.57563, 50.425049 ], [ -104.575606, 50.424968 ], [ -104.575596, 50.42489 ], [ -104.575603, 50.424819 ], [ -104.575613, 50.424761 ], [ -104.57564, 50.424684 ], [ -104.575676, 50.424615 ], [ -104.57575, 50.424513 ], [ -104.575823, 50.424429 ], [ -104.575923, 50.424332 ], [ -104.575984, 50.424255 ], [ -104.576007, 50.424211 ], [ -104.576013, 50.42418 ], [ -104.576003, 50.424155 ], [ -104.575985, 50.424129 ], [ -104.575812, 50.423948 ], [ -104.575772, 50.423899 ], [ -104.575752, 50.423855 ], [ -104.57574, 50.423821 ], [ -104.575734, 50.423783 ], [ -104.575739, 50.423743 ], [ -104.575764, 50.423693 ] ] } },
{ "type": "Feature", "properties": { "cls": "shared", "highway": "path", "name": null }, "geometry": { "type": "LineString", "coordinates": [ [ -104.581797, 50.425033 ], [ -104.581579, 50.425077 ], [ -104.581458, 50.425117 ], [ -104.581337, 50.425205 ], [ -104.581245, 50.425268 ], [ -104.58116, 50.425311 ], [ -104.581019, 50.425366 ], [ -104.580864, 50.425418 ], [ -104.580776, 50.425448 ], [ -104.580735, 50.425493 ], [ -104.580667, 50.42564 ], [ -104.58068, 50.425817 ], [ -104.58068, 50.425837 ], [ -104.58068, 50.42587 ], [ -104.580683, 50.425899 ] ] } },
{ "type": "Feature", "properties": { "cls": "shared", "highway": "path", "name": null }, "geometry": { "type": "MultiLineString", "coordinates": [ [ [ -104.575353, 50.425986 ], [ -104.575568, 50.425948 ] ], [ [ -104.57563, 50.42594 ], [ -104.575747, 50.425933 ], [ -104.575863, 50.425928 ] ] ] } },
{ "type": "Feature", "properties": { "cls": "shared", "highway": "path", "name": null }, "geometry": { "type": "LineString", "coordinates": [ [ -104.575783, 50.425939 ], [ -104.575747, 50.425933 ] ] } },
{ "type": "Feature", "properties": { "cls": "shared", "highway": "path", "name": null }, "geometry": { "type": "LineString", "coordinates": [ [ -104.594492, 50.425168 ], [ -104.594616, 50.425209 ] ] } },
{ "type": "Feature", "properties": { "cls": "shared", "highway": "path", "name": "Trans Canada Trail" }, "geometry": { "type": "LineString", "coordinates": [ [ -104.600523, 50.429352 ], [ -104.600358, 50.429401 ], [ -104.60019, 50.429437 ], [ -104.600017, 50.429467 ], [ -104.599824, 50.429482 ], [ -104.599664, 50.429485 ], [ -104.599174, 50.429432 ], [ -104.598869, 50.429458 ], [ -104.59849, 50.429519 ], [ -104.598278, 50.429557 ], [ -104.598216, 50.429572 ], [ -104.59815, 50.429603 ], [ -104.59808, 50.429647 ], [ -104.597889, 50.42978 ], [ -104.597836, 50.429811 ], [ -104.597775, 50.429834 ], [ -104.597709, 50.429848 ], [ -104.597652, 50.429849 ], [ -104.597602, 50.429845 ], [ -104.597552, 50.429837 ], [ -104.597498, 50.429824 ], [ -104.597428, 50.429801 ], [ -104.597332, 50.429767 ], [ -104.597094, 50.429662 ], [ -104.597018, 50.429634 ], [ -104.596954, 50.429619 ], [ -104.596876, 50.429605 ], [ -104.596658, 50.429597 ], [ -104.596555, 50.429587 ], [ -104.596511, 50.429574 ], [ -104.596474, 50.429554 ], [ -104.596435, 50.429528 ], [ -104.596383, 50.429487 ], [ -104.596298, 50.42942 ], [ -104.596214, 50.429367 ], [ -104.596085, 50.429303 ], [ -104.595714, 50.429127 ], [ -104.595624, 50.429076 ], [ -104.595555, 50.429028 ], [ -104.595478, 50.428964 ], [ -104.595365, 50.428869 ], [ -104.595259, 50.428812 ], [ -104.595173, 50.428762 ], [ -104.595049, 50.428675 ], [ -104.594908, 50.428581 ], [ -104.594723, 50.428435 ], [ -104.594584, 50.428314 ], [ -104.594461, 50.428189 ], [ -104.594269, 50.42796 ], [ -104.594118, 50.427727 ], [ -104.593983, 50.427544 ], [ -104.593941, 50.427489 ], [ -104.593904, 50.427453 ], [ -104.593864, 50.427419 ], [ -104.593812, 50.427383 ], [ -104.593669, 50.427297 ], [ -104.593536, 50.427215 ], [ -104.593385, 50.427124 ], [ -104.593288, 50.427063 ], [ -104.593248, 50.427026 ], [ -104.593206, 50.426989 ], [ -104.593179, 50.426947 ], [ -104.593163, 50.426918 ], [ -104.59315, 50.426888 ], [ -104.593146, 50.426835 ], [ -104.593147, 50.426774 ], [ -104.593166, 50.42668 ], [ -104.593188, 50.426558 ], [ -104.593226, 50.426361 ], [ -104.593246, 50.426309 ], [ -104.593271, 50.42626 ], [ -104.593285, 50.426241 ], [ -104.593305, 50.426225 ], [ -104.593338, 50.426207 ], [ -104.593415, 50.426172 ], [ -104.593485, 50.426139 ], [ -104.593529, 50.426111 ], [ -104.593574, 50.42608 ], [ -104.593596, 50.42606 ], [ -104.593624, 50.426028 ], [ -104.593667, 50.425971 ], [ -104.593741, 50.425874 ], [ -104.593795, 50.425805 ], [ -104.593856, 50.425734 ], [ -104.59397, 50.425617 ], [ -104.593989, 50.425601 ], [ -104.594023, 50.425576 ], [ -104.594056, 50.425553 ], [ -104.594101, 50.425529 ], [ -104.594157, 50.425502 ], [ -104.594259, 50.42545 ], [ -104.594312, 50.425417 ], [ -104.594358, 50.425378 ], [ -104.594397, 50.425333 ], [ -104.594436, 50.425268 ], [ -104.594492, 50.425168 ], [ -104.594502, 50.425131 ], [ -104.594507, 50.425072 ], [ -104.594518, 50.424903 ], [ -104.59456, 50.424836 ], [ -104.594686, 50.424635 ], [ -104.594737, 50.424548 ], [ -104.594758, 50.424498 ], [ -104.594765, 50.424447 ], [ -104.594765, 50.424383 ], [ -104.594757, 50.424341 ], [ -104.594743, 50.424304 ], [ -104.594711, 50.424259 ], [ -104.594216, 50.423534 ], [ -104.59417, 50.423482 ], [ -104.594122, 50.423447 ], [ -104.594046, 50.42341 ], [ -104.59399, 50.423387 ], [ -104.593912, 50.42337 ], [ -104.593852, 50.423359 ], [ -104.593761, 50.423351 ], [ -104.593646, 50.423344 ], [ -104.593518, 50.423332 ], [ -104.593438, 50.42332 ], [ -104.593389, 50.423308 ], [ -104.593346, 50.423294 ], [ -104.593295, 50.423274 ], [ -104.593235, 50.423236 ], [ -104.593178, 50.423197 ], [ -104.593125, 50.423154 ], [ -104.593081, 50.423099 ], [ -104.593066, 50.423064 ], [ -104.593071, 50.423033 ] ] } },
{ "type": "Feature", "properties": { "cls": "shared", "highway": "path", "name": null }, "geometry": { "type": "LineString", "coordinates": [ [ -104.594023, 50.427093 ], [ -104.593936, 50.427093 ], [ -104.593851, 50.427097 ], [ -104.593808, 50.427108 ], [ -104.593762, 50.427127 ], [ -104.593724, 50.427156 ], [ -104.593699, 50.427205 ], [ -104.593669, 50.427297 ] ] } },
{ "type": "Feature", "properties": { "cls": "shared", "highway": "path", "name": null }, "geometry": { "type": "LineString", "coordinates": [ [ -104.58426, 50.432146 ], [ -104.584274, 50.432143 ], [ -104.584301, 50.432138 ], [ -104.58436, 50.432126 ] ] } },
{ "type": "Feature", "properties": { "cls": "shared", "highway": "path", "name": null }, "geometry": { "type": "LineString", "coordinates": [ [ -104.596557, 50.433358 ], [ -104.596655, 50.433229 ], [ -104.596781, 50.433118 ], [ -104.597042, 50.43298 ], [ -104.597215, 50.432866 ], [ -104.597407, 50.432735 ], [ -104.597508, 50.432671 ], [ -104.597635, 50.432601 ], [ -104.597797, 50.43253 ], [ -104.597975, 50.432462 ], [ -104.59827, 50.432378 ], [ -104.598366, 50.432352 ], [ -104.59849, 50.432322 ], [ -104.598643, 50.432301 ], [ -104.598812, 50.432284 ], [ -104.599092, 50.432269 ], [ -104.599382, 50.432265 ], [ -104.599786, 50.432277 ], [ -104.600229, 50.432318 ], [ -104.600737, 50.432391 ], [ -104.600914, 50.432404 ], [ -104.601274, 50.432414 ], [ -104.601454, 50.432422 ] ] } },
{ "type": "Feature", "properties": { "cls": "shared", "highway": "path", "name": null }, "geometry": { "type": "LineString", "coordinates": [ [ -104.585143, 50.43307 ], [ -104.585237, 50.433008 ] ] } },
{ "type": "Feature", "properties": { "cls": "shared", "highway": "path", "name": null }, "geometry": { "type": "MultiLineString", "coordinates": [ [ [ -104.575863, 50.425928 ], [ -104.576193, 50.42592 ], [ -104.57654, 50.425885 ], [ -104.576621, 50.425885 ], [ -104.577133, 50.425873 ], [ -104.577511, 50.425867 ], [ -104.577705, 50.425855 ], [ -104.57792, 50.425815 ], [ -104.578084, 50.425784 ], [ -104.578227, 50.425788 ], [ -104.578432, 50.425807 ], [ -104.578679, 50.425819 ], [ -104.579627, 50.425831 ], [ -104.58068, 50.425837 ], [ -104.582012, 50.425833 ], [ -104.582162, 50.425842 ], [ -104.582242, 50.425859 ], [ -104.582273, 50.425871 ], [ -104.582319, 50.425888 ], [ -104.582391, 50.425905 ], [ -104.582409, 50.425909 ], [ -104.582587, 50.425945 ] ], [ [ -104.582669, 50.425972 ], [ -104.582781, 50.426012 ], [ -104.583037, 50.426148 ], [ -104.583166, 50.426237 ] ], [ [ -104.58363, 50.426579 ], [ -104.58366, 50.426616 ], [ -104.583696, 50.42666 ], [ -104.583736, 50.42675 ], [ -104.583766, 50.426858 ], [ -104.583778, 50.427048 ], [ -104.583787, 50.428431 ], [ -104.583781, 50.428578 ], [ -104.583778, 50.428639 ], [ -104.583779, 50.428678 ], [ -104.583779, 50.428711 ], [ -104.583728, 50.428852 ], [ -104.583731, 50.429531 ], [ -104.583739, 50.43003 ], [ -104.583782, 50.430334 ], [ -104.583793, 50.430564 ], [ -104.583792, 50.430774 ], [ -104.583791, 50.430914 ], [ -104.583791, 50.430937 ], [ -104.58379, 50.430969 ], [ -104.583804, 50.431074 ], [ -104.583838, 50.431137 ], [ -104.583885, 50.431228 ], [ -104.583924, 50.431336 ], [ -104.584072, 50.431678 ] ] ] } },
{ "type": "Feature", "properties": { "cls": "shared", "highway": "path", "name": null }, "geometry": { "type": "LineString", "coordinates": [ [ -104.606325, 50.428936 ], [ -104.606313, 50.428936 ], [ -104.606262, 50.428928 ] ] } },
{ "type": "Feature", "properties": { "cls": "shared", "highway": "path", "name": null }, "geometry": { "type": "LineString", "coordinates": [ [ -104.60654, 50.428937 ], [ -104.606509, 50.428936 ] ] } },
{ "type": "Feature", "properties": { "cls": "shared", "highway": "path", "name": null }, "geometry": { "type": "LineString", "coordinates": [ [ -104.606509, 50.428936 ], [ -104.606352, 50.428936 ] ] } },
{ "type": "Feature", "properties": { "cls": "shared", "highway": "path", "name": null }, "geometry": { "type": "LineString", "coordinates": [ [ -104.606352, 50.428936 ], [ -104.606325, 50.428936 ] ] } },
{ "type": "Feature", "properties": { "cls": "shared", "highway": "path", "name": null }, "geometry": { "type": "LineString", "coordinates": [ [ -104.600523, 50.429352 ], [ -104.600665, 50.429273 ], [ -104.601083, 50.429056 ], [ -104.601128, 50.429035 ], [ -104.601221, 50.429003 ], [ -104.601326, 50.428973 ], [ -104.601806, 50.428841 ], [ -104.601822, 50.428835 ] ] } },
{ "type": "Feature", "properties": { "cls": "shared", "highway": "path", "name": null }, "geometry": { "type": "LineString", "coordinates": [ [ -104.601806, 50.428841 ], [ -104.601811, 50.428872 ], [ -104.601812, 50.428902 ], [ -104.601812, 50.428932 ], [ -104.601803, 50.428962 ], [ -104.601743, 50.42908 ], [ -104.601725, 50.429134 ], [ -104.601716, 50.429183 ], [ -104.601719, 50.429215 ], [ -104.601728, 50.429252 ], [ -104.601746, 50.429289 ], [ -104.601771, 50.429318 ], [ -104.60182, 50.429349 ], [ -104.601895, 50.429394 ] ] } },
{ "type": "Feature", "properties": { "cls": "shared", "highway": "path", "name": "Trans Canada Trail" }, "geometry": { "type": "LineString", "coordinates": [ [ -104.603446, 50.429597 ], [ -104.603423, 50.429505 ], [ -104.603397, 50.429438 ], [ -104.603356, 50.429384 ], [ -104.603329, 50.42934 ], [ -104.603278, 50.429304 ], [ -104.603247, 50.429283 ], [ -104.603201, 50.429225 ], [ -104.603167, 50.429162 ], [ -104.60313, 50.429082 ], [ -104.603116, 50.429042 ], [ -104.60311, 50.428989 ], [ -104.603125, 50.428953 ], [ -104.60316, 50.428917 ], [ -104.603197, 50.428889 ], [ -104.60328, 50.428843 ], [ -104.603361, 50.428817 ], [ -104.603493, 50.428795 ], [ -104.603642, 50.42876 ], [ -104.603852, 50.428724 ], [ -104.604041, 50.428684 ] ] } },
{ "type": "Feature", "properties": { "cls": "shared", "highway": "path", "name": "Blue Trail" }, "geometry": { "type": "LineString", "coordinates": [ [ -104.603446, 50.429597 ], [ -104.603341, 50.429547 ], [ -104.603248, 50.429475 ], [ -104.603098, 50.429344 ] ] } },
{ "type": "Feature", "properties": { "cls": "shared", "highway": "path", "name": null }, "geometry": { "type": "LineString", "coordinates": [ [ -104.603247, 50.429283 ], [ -104.603247, 50.429364 ], [ -104.603248, 50.429475 ], [ -104.603238, 50.429567 ], [ -104.603237, 50.429569 ] ] } },
{ "type": "Feature", "properties": { "cls": "shared", "highway": "path", "name": "Trans Canada Trail" }, "geometry": { "type": "LineString", "coordinates": [ [ -104.603027, 50.429891 ], [ -104.602977, 50.42989 ], [ -104.602925, 50.429879 ], [ -104.602877, 50.429866 ], [ -104.602835, 50.429844 ], [ -104.602791, 50.429798 ], [ -104.602745, 50.429735 ], [ -104.602665, 50.429619 ], [ -104.602591, 50.429534 ], [ -104.602567, 50.429509 ], [ -104.602538, 50.429487 ], [ -104.602503, 50.429466 ], [ -104.60247, 50.429454 ], [ -104.602431, 50.429439 ], [ -104.602395, 50.429431 ], [ -104.602353, 50.429427 ], [ -104.602223, 50.429418 ], [ -104.601895, 50.429394 ], [ -104.601853, 50.429394 ], [ -104.60181, 50.429399 ], [ -104.601739, 50.429409 ], [ -104.601595, 50.429427 ], [ -104.601436, 50.429444 ], [ -104.60134, 50.429446 ], [ -104.601219, 50.429448 ], [ -104.601059, 50.429446 ], [ -104.600923, 50.42943 ], [ -104.60074, 50.4294 ], [ -104.600592, 50.429369 ], [ -104.600523, 50.429352 ] ] } },
{ "type": "Feature", "properties": { "cls": "shared", "highway": "path", "name": "Blue Trail" }, "geometry": { "type": "LineString", "coordinates": [ [ -104.603478, 50.429676 ], [ -104.603472, 50.429664 ], [ -104.603453, 50.429631 ], [ -104.603446, 50.429597 ] ] } },
{ "type": "Feature", "properties": { "cls": "shared", "highway": "path", "name": "Blue Trail" }, "geometry": { "type": "LineString", "coordinates": [ [ -104.603502, 50.429681 ], [ -104.603478, 50.429676 ] ] } },
{ "type": "Feature", "properties": { "cls": "shared", "highway": "path", "name": "Trans Canada Trail" }, "geometry": { "type": "LineString", "coordinates": [ [ -104.60338, 50.429798 ], [ -104.603422, 50.429782 ], [ -104.603447, 50.429769 ], [ -104.603468, 50.429752 ], [ -104.603478, 50.429717 ], [ -104.603478, 50.429701 ], [ -104.603478, 50.429676 ] ] } },
{ "type": "Feature", "properties": { "cls": "shared", "highway": "path", "name": "Blue Trail" }, "geometry": { "type": "LineString", "coordinates": [ [ -104.603789, 50.429981 ], [ -104.603781, 50.429942 ], [ -104.603736, 50.429876 ], [ -104.60369, 50.429815 ], [ -104.603631, 50.429751 ], [ -104.603584, 50.429718 ], [ -104.603534, 50.429692 ], [ -104.603502, 50.429681 ] ] } },
{ "type": "Feature", "properties": { "cls": "shared", "highway": "path", "name": "Trans Canada Trail" }, "geometry": { "type": "LineString", "coordinates": [ [ -104.603027, 50.429891 ], [ -104.603088, 50.429876 ] ] } },
{ "type": "Feature", "properties": { "cls": "shared", "highway": "path", "name": "Blue Trail" }, "geometry": { "type": "LineString", "coordinates": [ [ -104.603836, 50.430127 ], [ -104.603812, 50.4301 ], [ -104.603798, 50.430084 ], [ -104.603794, 50.430076 ], [ -104.603788, 50.430039 ], [ -104.603789, 50.429981 ] ] } },
{ "type": "Feature", "properties": { "cls": "shared", "highway": "path", "name": null }, "geometry": { "type": "LineString", "coordinates": [ [ -104.603786, 50.430411 ], [ -104.603821, 50.430397 ], [ -104.603818, 50.430301 ], [ -104.603828, 50.430214 ], [ -104.603836, 50.430127 ] ] } },
{ "type": "Feature", "properties": { "cls": "shared", "highway": "path", "name": "Blue Trail" }, "geometry": { "type": "LineString", "coordinates": [ [ -104.603836, 50.430127 ], [ -104.603883, 50.430149 ], [ -104.603933, 50.430185 ], [ -104.604036, 50.430325 ], [ -104.604239, 50.430602 ], [ -104.604272, 50.430633 ], [ -104.604295, 50.43065 ], [ -104.604324, 50.430664 ], [ -104.604462, 50.430684 ], [ -104.6045, 50.430702 ], [ -104.60453, 50.430732 ], [ -104.604568, 50.430804 ] ] } },
{ "type": "Feature", "properties": { "cls": "shared", "highway": "path", "name": null }, "geometry": { "type": "LineString", "coordinates": [ [ -104.606587, 50.430698 ], [ -104.606481, 50.430698 ] ] } },
{ "type": "Feature", "properties": { "cls": "shared", "highway": "path", "name": null }, "geometry": { "type": "LineString", "coordinates": [ [ -104.606025, 50.430881 ], [ -104.60595, 50.43086 ], [ -104.605914, 50.430855 ], [ -104.605787, 50.430834 ], [ -104.605718, 50.430825 ], [ -104.605576, 50.430791 ], [ -104.605478, 50.430776 ] ] } },
{ "type": "Feature", "properties": { "cls": "shared", "highway": "path", "name": null }, "geometry": { "type": "LineString", "coordinates": [ [ -104.605735, 50.430982 ], [ -104.605765, 50.430932 ], [ -104.605762, 50.430884 ], [ -104.605718, 50.430825 ] ] } },
{ "type": "Feature", "properties": { "cls": "shared", "highway": "path", "name": null }, "geometry": { "type": "LineString", "coordinates": [ [ -104.605431, 50.431136 ], [ -104.60555, 50.431053 ], [ -104.605556, 50.431049 ], [ -104.605735, 50.430982 ], [ -104.605909, 50.430925 ], [ -104.606025, 50.430881 ], [ -104.606129, 50.430847 ], [ -104.606182, 50.430861 ], [ -104.606262, 50.430892 ], [ -104.606301, 50.430903 ], [ -104.606353, 50.430886 ], [ -104.606391, 50.430855 ], [ -104.606418, 50.430818 ], [ -104.606415, 50.430782 ], [ -104.606424, 50.430747 ], [ -104.606451, 50.430723 ], [ -104.606481, 50.430698 ] ] } },
{ "type": "Feature", "properties": { "cls": "shared", "highway": "footway", "name": null }, "geometry": { "type": "MultiLineString", "coordinates": [ [ [ -104.604319, 50.431804 ], [ -104.604332, 50.431799 ] ], [ [ -104.604695, 50.431669 ], [ -104.604706, 50.431665 ] ] ] } },
{ "type": "Feature", "properties": { "cls": "shared", "highway": "path", "name": null }, "geometry": { "type": "LineString", "coordinates": [ [ -104.604079, 50.431881 ], [ -104.604267, 50.431819 ], [ -104.604319, 50.431804 ] ] } },
{ "type": "Feature", "properties": { "cls": "shared", "highway": "path", "name": null }, "geometry": { "type": "LineString", "coordinates": [ [ -104.601454, 50.432422 ], [ -104.60209, 50.432522 ], [ -104.602353, 50.432543 ], [ -104.602519, 50.432545 ], [ -104.602693, 50.432531 ], [ -104.602873, 50.432501 ], [ -104.603042, 50.432462 ], [ -104.603166, 50.432418 ], [ -104.60333, 50.432335 ], [ -104.603572, 50.432197 ], [ -104.603796, 50.432014 ], [ -104.603902, 50.431953 ], [ -104.604079, 50.431881 ] ] } },
{ "type": "Feature", "properties": { "cls": "shared", "highway": "path", "name": null }, "geometry": { "type": "LineString", "coordinates": [ [ -104.608431, 50.423547 ], [ -104.608429, 50.423574 ] ] } },
{ "type": "Feature", "properties": { "cls": "shared", "highway": "path", "name": null }, "geometry": { "type": "LineString", "coordinates": [ [ -104.608429, 50.423574 ], [ -104.608435, 50.423849 ] ] } },
{ "type": "Feature", "properties": { "cls": "shared", "highway": "path", "name": null }, "geometry": { "type": "LineString", "coordinates": [ [ -104.607899, 50.42396 ], [ -104.607816, 50.423957 ], [ -104.606411, 50.423961 ] ] } },
{ "type": "Feature", "properties": { "cls": "shared", "highway": "path", "name": null }, "geometry": { "type": "LineString", "coordinates": [ [ -104.608947, 50.424067 ], [ -104.609331, 50.424067 ] ] } },
{ "type": "Feature", "properties": { "cls": "shared", "highway": "path", "name": null }, "geometry": { "type": "LineString", "coordinates": [ [ -104.60641, 50.424562 ], [ -104.607884, 50.424565 ] ] } },
{ "type": "Feature", "properties": { "cls": "shared", "highway": "path", "name": null }, "geometry": { "type": "LineString", "coordinates": [ [ -104.60894, 50.424709 ], [ -104.609251, 50.42473 ] ] } },
{ "type": "Feature", "properties": { "cls": "shared", "highway": "path", "name": null }, "geometry": { "type": "LineString", "coordinates": [ [ -104.609251, 50.42473 ], [ -104.60933, 50.424734 ], [ -104.609392, 50.424737 ] ] } },
{ "type": "Feature", "properties": { "cls": "shared", "highway": "path", "name": null }, "geometry": { "type": "LineString", "coordinates": [ [ -104.612886, 50.425897 ], [ -104.612966, 50.425901 ], [ -104.613057, 50.425931 ], [ -104.613162, 50.425965 ], [ -104.613261, 50.42598 ], [ -104.613355, 50.425981 ], [ -104.613467, 50.425969 ], [ -104.613572, 50.425949 ], [ -104.613665, 50.425922 ], [ -104.613784, 50.425866 ], [ -104.613854, 50.425816 ], [ -104.613906, 50.42577 ], [ -104.613964, 50.425704 ], [ -104.614042, 50.425622 ], [ -104.61411, 50.425563 ], [ -104.614209, 50.425491 ], [ -104.614336, 50.425408 ], [ -104.614474, 50.425342 ], [ -104.614667, 50.42528 ], [ -104.614817, 50.425244 ], [ -104.614984, 50.425224 ], [ -104.615139, 50.425217 ], [ -104.61529, 50.425223 ], [ -104.61543, 50.425238 ], [ -104.615543, 50.425258 ], [ -104.615638, 50.425281 ], [ -104.615751, 50.425317 ], [ -104.615875, 50.425365 ], [ -104.616001, 50.425437 ], [ -104.6161, 50.425502 ], [ -104.616186, 50.425576 ], [ -104.616261, 50.425663 ], [ -104.616309, 50.425727 ], [ -104.616362, 50.425838 ], [ -104.616387, 50.425935 ], [ -104.6164, 50.425989 ], [ -104.616404, 50.426055 ], [ -104.616367, 50.426194 ], [ -104.616261, 50.426371 ], [ -104.616111, 50.426519 ], [ -104.615982, 50.426607 ], [ -104.615828, 50.426682 ], [ -104.615689, 50.426733 ], [ -104.615548, 50.426769 ], [ -104.615358, 50.426813 ], [ -104.615197, 50.426835 ], [ -104.615024, 50.42684 ], [ -104.614908, 50.426853 ], [ -104.614798, 50.426881 ], [ -104.614703, 50.426917 ], [ -104.614649, 50.426949 ], [ -104.614614, 50.426984 ], [ -104.614605, 50.427054 ], [ -104.614607, 50.4276 ] ] } },
{ "type": "Feature", "properties": { "cls": "shared", "highway": "path", "name": null }, "geometry": { "type": "LineString", "coordinates": [ [ -104.611019, 50.426565 ], [ -104.611042, 50.426614 ], [ -104.611072, 50.426705 ], [ -104.611077, 50.426768 ], [ -104.611074, 50.426829 ], [ -104.611078, 50.426886 ], [ -104.611029, 50.427167 ], [ -104.61104, 50.427185 ], [ -104.611052, 50.427204 ], [ -104.611078, 50.427233 ], [ -104.611081, 50.427261 ], [ -104.611074, 50.427285 ], [ -104.611056, 50.427306 ] ] } },
{ "type": "Feature", "properties": { "cls": "shared", "highway": "path", "name": null }, "geometry": { "type": "LineString", "coordinates": [ [ -104.60894, 50.42595 ], [ -104.60894, 50.425265 ], [ -104.60894, 50.424709 ], [ -104.608947, 50.424067 ], [ -104.60895, 50.423919 ], [ -104.608936, 50.42389 ], [ -104.608915, 50.423866 ], [ -104.608883, 50.423855 ], [ -104.608842, 50.423853 ], [ -104.608435, 50.423849 ], [ -104.60821, 50.423846 ], [ -104.608016, 50.423832 ], [ -104.607975, 50.423834 ], [ -104.607946, 50.42385 ], [ -104.607932, 50.423877 ], [ -104.607899, 50.42396 ], [ -104.607884, 50.424072 ], [ -104.607884, 50.424565 ], [ -104.607885, 50.42523 ], [ -104.607889, 50.425265 ], [ -104.607919, 50.4253 ], [ -104.607924, 50.425954 ] ] } },
{ "type": "Feature", "properties": { "cls": "shared", "highway": "path", "name": null }, "geometry": { "type": "LineString", "coordinates": [ [ -104.606991, 50.425266 ], [ -104.607889, 50.425265 ], [ -104.60894, 50.425265 ] ] } },
{ "type": "Feature", "properties": { "cls": "shared", "highway": "path", "name": null }, "geometry": { "type": "LineString", "coordinates": [ [ -104.606944, 50.425317 ], [ -104.606969, 50.425304 ], [ -104.606985, 50.425286 ], [ -104.606991, 50.425266 ], [ -104.606984, 50.425245 ], [ -104.606965, 50.425226 ], [ -104.606936, 50.425214 ], [ -104.606902, 50.425209 ], [ -104.606867, 50.425213 ], [ -104.606838, 50.425225 ], [ -104.606817, 50.425243 ], [ -104.606809, 50.425264 ], [ -104.606814, 50.425284 ], [ -104.606829, 50.425302 ], [ -104.606852, 50.425316 ], [ -104.606882, 50.425323 ], [ -104.606914, 50.425324 ], [ -104.606944, 50.425317 ] ] } },
{ "type": "Feature", "properties": { "cls": "shared", "highway": "path", "name": null }, "geometry": { "type": "LineString", "coordinates": [ [ -104.606376, 50.425956 ], [ -104.607924, 50.425954 ], [ -104.608191, 50.425954 ], [ -104.608407, 50.425954 ], [ -104.60894, 50.42595 ] ] } },
{ "type": "Feature", "properties": { "cls": "shared", "highway": "path", "name": null }, "geometry": { "type": "LineString", "coordinates": [ [ -104.608939, 50.426311 ], [ -104.60894, 50.42595 ] ] } },
{ "type": "Feature", "properties": { "cls": "shared", "highway": "path", "name": null }, "geometry": { "type": "LineString", "coordinates": [ [ -104.607379, 50.42642 ], [ -104.607448, 50.42651 ], [ -104.607603, 50.426554 ], [ -104.607696, 50.426572 ], [ -104.607782, 50.426584 ], [ -104.607875, 50.426591 ], [ -104.607959, 50.426591 ], [ -104.608113, 50.426585 ], [ -104.608277, 50.426559 ], [ -104.608427, 50.42651 ], [ -104.608939, 50.426311 ], [ -104.609029, 50.426276 ], [ -104.609204, 50.426219 ], [ -104.609334, 50.42618 ], [ -104.609452, 50.426151 ], [ -104.609565, 50.426131 ], [ -104.609677, 50.426119 ], [ -104.609758, 50.426118 ], [ -104.609862, 50.426123 ], [ -104.609968, 50.426137 ], [ -104.610106, 50.426159 ], [ -104.610211, 50.426181 ], [ -104.610314, 50.426206 ], [ -104.610418, 50.426237 ], [ -104.610533, 50.426273 ], [ -104.610639, 50.426306 ], [ -104.610681, 50.426322 ], [ -104.610745, 50.426349 ], [ -104.610798, 50.426376 ], [ -104.610847, 50.426411 ], [ -104.610896, 50.426445 ], [ -104.610975, 50.426524 ], [ -104.611019, 50.426565 ] ] } },
{ "type": "Feature", "properties": { "cls": "shared", "highway": "path", "name": null }, "geometry": { "type": "LineString", "coordinates": [ [ -104.610681, 50.426322 ], [ -104.61065, 50.426428 ] ] } },
{ "type": "Feature", "properties": { "cls": "shared", "highway": "path", "name": null }, "geometry": { "type": "LineString", "coordinates": [ [ -104.61065, 50.426428 ], [ -104.610847, 50.426411 ] ] } },
{ "type": "Feature", "properties": { "cls": "shared", "highway": "path", "name": null }, "geometry": { "type": "LineString", "coordinates": [ [ -104.607707, 50.426828 ], [ -104.60755, 50.426837 ], [ -104.607208, 50.426863 ], [ -104.607159, 50.426809 ] ] } },
{ "type": "Feature", "properties": { "cls": "shared", "highway": "path", "name": "Blue Trail" }, "geometry": { "type": "LineString", "coordinates": [ [ -104.607707, 50.426828 ], [ -104.608062, 50.42682 ], [ -104.608392, 50.426838 ], [ -104.608743, 50.426866 ], [ -104.609166, 50.426925 ], [ -104.609383, 50.426952 ], [ -104.609479, 50.426972 ], [ -104.609577, 50.427002 ], [ -104.609673, 50.427038 ], [ -104.609803, 50.427108 ], [ -104.610019, 50.427262 ], [ -104.610026, 50.427266 ], [ -104.610159, 50.427339 ], [ -104.610824, 50.42768 ], [ -104.610882, 50.427712 ], [ -104.611104, 50.427812 ], [ -104.6113, 50.427888 ], [ -104.611407, 50.427928 ], [ -104.611506, 50.427972 ], [ -104.611598, 50.428028 ], [ -104.611697, 50.4281 ] ] } },
{ "type": "Feature", "properties": { "cls": "shared", "highway": "path", "name": null }, "geometry": { "type": "LineString", "coordinates": [ [ -104.606809, 50.425264 ], [ -104.606469, 50.425266 ] ] } },
{ "type": "Feature", "properties": { "cls": "shared", "highway": "path", "name": null }, "geometry": { "type": "LineString", "coordinates": [ [ -104.606393, 50.426109 ], [ -104.606376, 50.425956 ], [ -104.60638, 50.425478 ], [ -104.606382, 50.425277 ] ] } },
{ "type": "Feature", "properties": { "cls": "shared", "highway": "path", "name": null }, "geometry": { "type": "LineString", "coordinates": [ [ -104.601925, 50.423611 ], [ -104.601946, 50.423625 ], [ -104.601972, 50.423663 ], [ -104.601989, 50.423695 ], [ -104.602, 50.423741 ], [ -104.602005, 50.42378 ], [ -104.602018, 50.423897 ], [ -104.602032, 50.424259 ], [ -104.602042, 50.424514 ], [ -104.602044, 50.424732 ], [ -104.602024, 50.424991 ], [ -104.602008, 50.425149 ], [ -104.602011, 50.425282 ], [ -104.602016, 50.425361 ], [ -104.602008, 50.425404 ], [ -104.601988, 50.425451 ], [ -104.601955, 50.425509 ], [ -104.601886, 50.425621 ], [ -104.601858, 50.425678 ], [ -104.601856, 50.425728 ], [ -104.601865, 50.425774 ], [ -104.601889, 50.425896 ], [ -104.601891, 50.425943 ], [ -104.601875, 50.425979 ], [ -104.60185, 50.426028 ], [ -104.601692, 50.426283 ], [ -104.601672, 50.426325 ], [ -104.601658, 50.426373 ], [ -104.601651, 50.426421 ], [ -104.601661, 50.426726 ], [ -104.601653, 50.426772 ], [ -104.601627, 50.426822 ], [ -104.60158, 50.426919 ], [ -104.601569, 50.426964 ], [ -104.60158, 50.427157 ], [ -104.601598, 50.427218 ], [ -104.601619, 50.427256 ], [ -104.601663, 50.427299 ], [ -104.601847, 50.427415 ], [ -104.60188, 50.427451 ], [ -104.601899, 50.427497 ], [ -104.601917, 50.427538 ], [ -104.601926, 50.427594 ], [ -104.60193, 50.427681 ], [ -104.601951, 50.427763 ], [ -104.602025, 50.427933 ], [ -104.602067, 50.427994 ], [ -104.602123, 50.428063 ], [ -104.602178, 50.428114 ], [ -104.602269, 50.428194 ], [ -104.602317, 50.428235 ], [ -104.602345, 50.428283 ], [ -104.602361, 50.428343 ], [ -104.602382, 50.428374 ] ] } },
{ "type": "Feature", "properties": { "cls": "shared", "highway": "path", "name": null }, "geometry": { "type": "LineString", "coordinates": [ [ -104.605334, 50.42705 ], [ -104.605334, 50.42734 ], [ -104.605343, 50.427529 ], [ -104.605376, 50.427579 ] ] } },
{ "type": "Feature", "properties": { "cls": "shared", "highway": "path", "name": null }, "geometry": { "type": "LineString", "coordinates": [ [ -104.606428, 50.427117 ], [ -104.60646, 50.427157 ], [ -104.60647, 50.427235 ], [ -104.606474, 50.427276 ], [ -104.606471, 50.427324 ], [ -104.606439, 50.427418 ], [ -104.60642, 50.42751 ], [ -104.606408, 50.427552 ] ] } },
{ "type": "Feature", "properties": { "cls": "shared", "highway": "path", "name": "Blue Trail" }, "geometry": { "type": "LineString", "coordinates": [ [ -104.604041, 50.428684 ], [ -104.604364, 50.428638 ], [ -104.604526, 50.428607 ], [ -104.604648, 50.428575 ], [ -104.604799, 50.42853 ], [ -104.604949, 50.428473 ], [ -104.605054, 50.428427 ], [ -104.605125, 50.428387 ], [ -104.605249, 50.428303 ], [ -104.605392, 50.428194 ], [ -104.605483, 50.428177 ], [ -104.605583, 50.428148 ], [ -104.60564, 50.428124 ], [ -104.605709, 50.428093 ], [ -104.605798, 50.428047 ], [ -104.605869, 50.42799 ], [ -104.605968, 50.427913 ], [ -104.606034, 50.427836 ], [ -104.606131, 50.42773 ], [ -104.606234, 50.427649 ], [ -104.606326, 50.427596 ], [ -104.606408, 50.427552 ], [ -104.606476, 50.42753 ], [ -104.60654, 50.427507 ], [ -104.606598, 50.427485 ], [ -104.606656, 50.427442 ], [ -104.606715, 50.427383 ], [ -104.60675, 50.427325 ], [ -104.606922, 50.427204 ], [ -104.607172, 50.427111 ], [ -104.607348, 50.427036 ], [ -104.607515, 50.42695 ], [ -104.607707, 50.426828 ] ] } },
{ "type": "Feature", "properties": { "cls": "shared", "highway": "path", "name": null }, "geometry": { "type": "LineString", "coordinates": [ [ -104.605723, 50.427826 ], [ -104.605968, 50.427913 ], [ -104.606081, 50.427973 ] ] } },
{ "type": "Feature", "properties": { "cls": "shared", "highway": "path", "name": null }, "geometry": { "type": "LineString", "coordinates": [ [ -104.606081, 50.427973 ], [ -104.606403, 50.428135 ] ] } },
{ "type": "Feature", "properties": { "cls": "shared", "highway": "path", "name": null }, "geometry": { "type": "LineString", "coordinates": [ [ -104.606476, 50.428168 ], [ -104.606612, 50.428153 ], [ -104.606642, 50.428159 ], [ -104.606676, 50.428173 ], [ -104.606701, 50.428193 ], [ -104.606705, 50.428292 ] ] } },
{ "type": "Feature", "properties": { "cls": "shared", "highway": "path", "name": null }, "geometry": { "type": "LineString", "coordinates": [ [ -104.606403, 50.428135 ], [ -104.606476, 50.428168 ], [ -104.606499, 50.428193 ], [ -104.606507, 50.428229 ], [ -104.606493, 50.428288 ], [ -104.606331, 50.428412 ], [ -104.606273, 50.428445 ], [ -104.60629, 50.428512 ], [ -104.606311, 50.42856 ], [ -104.606335, 50.428609 ], [ -104.606445, 50.428916 ] ] } },
{ "type": "Feature", "properties": { "cls": "shared", "highway": "path", "name": null }, "geometry": { "type": "LineString", "coordinates": [ [ -104.606335, 50.428609 ], [ -104.606421, 50.428604 ], [ -104.606458, 50.428595 ], [ -104.606494, 50.428574 ], [ -104.60651, 50.428548 ], [ -104.606512, 50.428523 ], [ -104.606498, 50.428494 ], [ -104.606468, 50.428479 ] ] } },
{ "type": "Feature", "properties": { "cls": "shared", "highway": "footway", "name": null }, "geometry": { "type": "LineString", "coordinates": [ [ -104.602521, 50.428559 ], [ -104.602502, 50.428564 ] ] } },
{ "type": "Feature", "properties": { "cls": "shared", "highway": "path", "name": "Blue Trail" }, "geometry": { "type": "LineString", "coordinates": [ [ -104.602521, 50.428559 ], [ -104.602606, 50.428594 ], [ -104.602743, 50.428615 ], [ -104.603168, 50.428605 ], [ -104.603339, 50.428606 ], [ -104.603513, 50.428616 ], [ -104.603881, 50.428662 ], [ -104.604041, 50.428684 ] ] } },
{ "type": "Feature", "properties": { "cls": "shared", "highway": "path", "name": null }, "geometry": { "type": "LineString", "coordinates": [ [ -104.606262, 50.428928 ], [ -104.606162, 50.428896 ], [ -104.606082, 50.428859 ], [ -104.60604, 50.428824 ], [ -104.606001, 50.428756 ], [ -104.606003, 50.428703 ], [ -104.606025, 50.428644 ], [ -104.606079, 50.428581 ], [ -104.606185, 50.428502 ], [ -104.606273, 50.428445 ] ] } },
{ "type": "Feature", "properties": { "cls": "shared", "highway": "path", "name": null }, "geometry": { "type": "LineString", "coordinates": [ [ -104.601806, 50.428841 ], [ -104.601762, 50.428807 ] ] } },
{ "type": "Feature", "properties": { "cls": "shared", "highway": "path", "name": null }, "geometry": { "type": "LineString", "coordinates": [ [ -104.606657, 50.428887 ], [ -104.60654, 50.428937 ] ] } },
{ "type": "Feature", "properties": { "cls": "shared", "highway": "path", "name": "Blue Trail" }, "geometry": { "type": "LineString", "coordinates": [ [ -104.602521, 50.428559 ], [ -104.60252, 50.428583 ] ] } },
{ "type": "Feature", "properties": { "cls": "shared", "highway": "path", "name": null }, "geometry": { "type": "LineString", "coordinates": [ [ -104.611056, 50.427306 ], [ -104.611032, 50.427324 ], [ -104.61098, 50.42734 ], [ -104.610915, 50.427356 ], [ -104.610887, 50.427417 ], [ -104.610882, 50.427453 ], [ -104.610881, 50.427495 ], [ -104.610896, 50.427547 ], [ -104.61092, 50.42759 ], [ -104.610939, 50.427632 ] ] } },
{ "type": "Feature", "properties": { "cls": "shared", "highway": "path", "name": null }, "geometry": { "type": "LineString", "coordinates": [ [ -104.610939, 50.427632 ], [ -104.610882, 50.427712 ] ] } },
{ "type": "Feature", "properties": { "cls": "shared", "highway": "path", "name": null }, "geometry": { "type": "LineString", "coordinates": [ [ -104.606705, 50.428292 ], [ -104.606707, 50.428321 ], [ -104.606766, 50.428367 ], [ -104.606766, 50.428482 ], [ -104.606718, 50.42853 ], [ -104.606722, 50.42871 ], [ -104.606735, 50.428777 ], [ -104.60674, 50.428852 ], [ -104.606657, 50.428887 ] ] } },
{ "type": "Feature", "properties": { "cls": "shared", "highway": "path", "name": null }, "geometry": { "type": "LineString", "coordinates": [ [ -104.606587, 50.430698 ], [ -104.606708, 50.430724 ], [ -104.606744, 50.430744 ], [ -104.606773, 50.43076 ], [ -104.606814, 50.430794 ], [ -104.606824, 50.430851 ], [ -104.606818, 50.430898 ], [ -104.606806, 50.430917 ], [ -104.606788, 50.431105 ], [ -104.606786, 50.43112 ], [ -104.606784, 50.431139 ], [ -104.606787, 50.43117 ], [ -104.606784, 50.431191 ], [ -104.606768, 50.431218 ], [ -104.606687, 50.431343 ] ] } },
{ "type": "Feature", "properties": { "cls": "shared", "highway": "path", "name": null }, "geometry": { "type": "LineString", "coordinates": [ [ -104.606801, 50.431121 ], [ -104.606786, 50.43112 ] ] } },
{ "type": "Feature", "properties": { "cls": "shared", "highway": "path", "name": null }, "geometry": { "type": "LineString", "coordinates": [ [ -104.607249, 50.431146 ], [ -104.607219, 50.431148 ], [ -104.607148, 50.431143 ] ] } },
{ "type": "Feature", "properties": { "cls": "shared", "highway": "path", "name": null }, "geometry": { "type": "LineString", "coordinates": [ [ -104.607249, 50.431146 ], [ -104.607279, 50.431156 ], [ -104.607344, 50.431194 ] ] } },
{ "type": "Feature", "properties": { "cls": "shared", "highway": "path", "name": null }, "geometry": { "type": "LineString", "coordinates": [ [ -104.607344, 50.431194 ], [ -104.607452, 50.431254 ], [ -104.60753, 50.431293 ] ] } },
{ "type": "Feature", "properties": { "cls": "shared", "highway": "path", "name": null }, "geometry": { "type": "LineString", "coordinates": [ [ -104.60753, 50.431293 ], [ -104.607595, 50.431326 ], [ -104.607669, 50.431363 ] ] } },
{ "type": "Feature", "properties": { "cls": "shared", "highway": "path", "name": "Blue Trail" }, "geometry": { "type": "LineString", "coordinates": [ [ -104.606687, 50.431343 ], [ -104.606653, 50.431395 ] ] } },
{ "type": "Feature", "properties": { "cls": "shared", "highway": "path", "name": null }, "geometry": { "type": "LineString", "coordinates": [ [ -104.610939, 50.427632 ], [ -104.611129, 50.427738 ], [ -104.611245, 50.427815 ], [ -104.611287, 50.427854 ], [ -104.6113, 50.427888 ] ] } },
{ "type": "Feature", "properties": { "cls": "shared", "highway": "path", "name": null }, "geometry": { "type": "LineString", "coordinates": [ [ -104.6134, 50.42953 ], [ -104.613572, 50.429532 ] ] } },
{ "type": "Feature", "properties": { "cls": "shared", "highway": "path", "name": "Blue Trail" }, "geometry": { "type": "LineString", "coordinates": [ [ -104.614834, 50.434904 ], [ -104.614825, 50.434904 ], [ -104.614675, 50.43489 ], [ -104.614547, 50.434872 ], [ -104.614418, 50.434845 ], [ -104.614326, 50.434816 ], [ -104.61426, 50.43479 ], [ -104.614209, 50.434766 ], [ -104.614138, 50.434722 ], [ -104.614079, 50.434683 ], [ -104.614025, 50.434635 ], [ -104.613985, 50.434587 ], [ -104.613818, 50.434335 ], [ -104.613711, 50.434224 ], [ -104.613577, 50.43412 ], [ -104.613413, 50.434027 ], [ -104.613179, 50.433926 ], [ -104.612921, 50.433849 ], [ -104.61233, 50.433706 ], [ -104.612266, 50.433684 ], [ -104.612163, 50.433642 ], [ -104.612069, 50.433592 ], [ -104.611936, 50.433506 ], [ -104.611881, 50.433461 ], [ -104.611861, 50.433443 ], [ -104.611829, 50.433416 ], [ -104.611794, 50.433373 ], [ -104.611772, 50.433339 ], [ -104.611761, 50.43331 ], [ -104.611766, 50.433267 ], [ -104.611778, 50.433228 ], [ -104.611798, 50.433179 ], [ -104.611811, 50.433116 ], [ -104.611807, 50.433065 ], [ -104.611789, 50.433 ], [ -104.61178, 50.432914 ], [ -104.611788, 50.432823 ], [ -104.611816, 50.432489 ], [ -104.611818, 50.432411 ], [ -104.611822, 50.432247 ], [ -104.611856, 50.432102 ], [ -104.611938, 50.431891 ], [ -104.611954, 50.43185 ], [ -104.612045, 50.431693 ], [ -104.612165, 50.43153 ], [ -104.612195, 50.4315 ], [ -104.612236, 50.431458 ], [ -104.612304, 50.431402 ], [ -104.612486, 50.431285 ], [ -104.612531, 50.431241 ], [ -104.61256, 50.431196 ], [ -104.612606, 50.431054 ], [ -104.612637, 50.431002 ], [ -104.612698, 50.430933 ], [ -104.6128, 50.430837 ], [ -104.612864, 50.430752 ], [ -104.612928, 50.430634 ], [ -104.612982, 50.430472 ], [ -104.613101, 50.430279 ], [ -104.613251, 50.429896 ], [ -104.613299, 50.429813 ], [ -104.613352, 50.429733 ], [ -104.613394, 50.429653 ], [ -104.613401, 50.429561 ], [ -104.613401, 50.429556 ], [ -104.6134, 50.42953 ], [ -104.6134, 50.429512 ], [ -104.6134, 50.429502 ], [ -104.613396, 50.429476 ], [ -104.613331, 50.429374 ], [ -104.613309, 50.429299 ], [ -104.613217, 50.429097 ], [ -104.613037, 50.428863 ], [ -104.612937, 50.428753 ], [ -104.612828, 50.428645 ], [ -104.612695, 50.428541 ], [ -104.612579, 50.428465 ], [ -104.612318, 50.428331 ], [ -104.612209, 50.428289 ], [ -104.612122, 50.428261 ], [ -104.61198, 50.428222 ], [ -104.611848, 50.428176 ], [ -104.611783, 50.428148 ], [ -104.611697, 50.4281 ] ] } },
{ "type": "Feature", "properties": { "cls": "shared", "highway": "path", "name": null }, "geometry": { "type": "LineString", "coordinates": [ [ -104.611918, 50.432406 ], [ -104.611818, 50.432411 ] ] } },
{ "type": "Feature", "properties": { "cls": "shared", "highway": "path", "name": null }, "geometry": { "type": "LineString", "coordinates": [ [ -104.607669, 50.431363 ], [ -104.607642, 50.431424 ] ] } },
{ "type": "Feature", "properties": { "cls": "shared", "highway": "path", "name": null }, "geometry": { "type": "LineString", "coordinates": [ [ -104.606822, 50.431672 ], [ -104.60677, 50.43173 ] ] } },
{ "type": "Feature", "properties": { "cls": "shared", "highway": "path", "name": null }, "geometry": { "type": "LineString", "coordinates": [ [ -104.608683, 50.432245 ], [ -104.608681, 50.43222 ], [ -104.608649, 50.432194 ], [ -104.608595, 50.432079 ], [ -104.608545, 50.432022 ], [ -104.608481, 50.431974 ], [ -104.608288, 50.431827 ], [ -104.608038, 50.431612 ], [ -104.607915, 50.431507 ], [ -104.607846, 50.431449 ], [ -104.607788, 50.431405 ], [ -104.607731, 50.431376 ], [ -104.607669, 50.431363 ] ] } },
{ "type": "Feature", "properties": { "cls": "shared", "highway": "path", "name": "Blue Trail" }, "geometry": { "type": "LineString", "coordinates": [ [ -104.607758, 50.432496 ], [ -104.607721, 50.432414 ], [ -104.607742, 50.43238 ], [ -104.607696, 50.432286 ], [ -104.607575, 50.432148 ], [ -104.60746, 50.432054 ], [ -104.60742, 50.432013 ], [ -104.607379, 50.431975 ], [ -104.607254, 50.431871 ], [ -104.606998, 50.431733 ], [ -104.606822, 50.431672 ], [ -104.606764, 50.431618 ], [ -104.606759, 50.431537 ], [ -104.606762, 50.431427 ], [ -104.606715, 50.431362 ], [ -104.606687, 50.431343 ] ] } },
{ "type": "Feature", "properties": { "cls": "shared", "highway": "path", "name": null }, "geometry": { "type": "LineString", "coordinates": [ [ -104.608475, 50.432158 ], [ -104.608504, 50.432096 ], [ -104.608503, 50.432021 ], [ -104.608481, 50.431974 ] ] } },
{ "type": "Feature", "properties": { "cls": "shared", "highway": "path", "name": null }, "geometry": { "type": "LineString", "coordinates": [ [ -104.608686, 50.432375 ], [ -104.608683, 50.432245 ] ] } },
{ "type": "Feature", "properties": { "cls": "shared", "highway": "path", "name": null }, "geometry": { "type": "LineString", "coordinates": [ [ -104.608649, 50.432194 ], [ -104.608539, 50.432169 ], [ -104.608475, 50.432158 ], [ -104.608375, 50.432165 ], [ -104.608274, 50.432188 ], [ -104.608224, 50.432219 ], [ -104.608186, 50.432262 ], [ -104.608171, 50.432302 ], [ -104.608183, 50.432346 ], [ -104.608218, 50.432394 ], [ -104.608265, 50.432438 ], [ -104.608268, 50.432444 ], [ -104.608284, 50.43247 ], [ -104.608287, 50.432475 ], [ -104.608311, 50.432544 ], [ -104.608342, 50.432588 ], [ -104.608427, 50.432625 ], [ -104.608501, 50.432639 ], [ -104.608534, 50.432647 ] ] } },
{ "type": "Feature", "properties": { "cls": "shared", "highway": "path", "name": null }, "geometry": { "type": "LineString", "coordinates": [ [ -104.608268, 50.432444 ], [ -104.608303, 50.432432 ], [ -104.608341, 50.432414 ], [ -104.608371, 50.432407 ], [ -104.608389, 50.432405 ], [ -104.608411, 50.432408 ], [ -104.608437, 50.432414 ] ] } },
{ "type": "Feature", "properties": { "cls": "shared", "highway": "path", "name": null }, "geometry": { "type": "LineString", "coordinates": [ [ -104.608501, 50.43247 ], [ -104.608501, 50.432492 ], [ -104.608501, 50.432498 ] ] } },
{ "type": "Feature", "properties": { "cls": "shared", "highway": "path", "name": null }, "geometry": { "type": "LineString", "coordinates": [ [ -104.608501, 50.432492 ], [ -104.608515, 50.432492 ] ] } },
{ "type": "Feature", "properties": { "cls": "shared", "highway": "path", "name": null }, "geometry": { "type": "LineString", "coordinates": [ [ -104.612169, 50.433412 ], [ -104.612047, 50.433413 ], [ -104.611995, 50.433437 ], [ -104.611937, 50.433442 ], [ -104.611861, 50.433443 ] ] } },
{ "type": "Feature", "properties": { "cls": "shared", "highway": "path", "name": null }, "geometry": { "type": "LineString", "coordinates": [ [ -104.617839, 50.434872 ], [ -104.617823, 50.434849 ], [ -104.617763, 50.434804 ], [ -104.617646, 50.434742 ], [ -104.617585, 50.434702 ], [ -104.617381, 50.434628 ], [ -104.617349, 50.434603 ], [ -104.617329, 50.434579 ], [ -104.617318, 50.434545 ], [ -104.617285, 50.4345 ], [ -104.617153, 50.434407 ], [ -104.617092, 50.434376 ] ] } },
{ "type": "Feature", "properties": { "cls": "shared", "highway": "path", "name": null }, "geometry": { "type": "LineString", "coordinates": [ [ -104.617485, 50.434853 ], [ -104.617476, 50.434761 ], [ -104.617381, 50.434628 ] ] } },
{ "type": "Feature", "properties": { "cls": "shared", "highway": "path", "name": null }, "geometry": { "type": "LineString", "coordinates": [ [ -104.615495, 50.434905 ], [ -104.615803, 50.434906 ], [ -104.615965, 50.434896 ], [ -104.616112, 50.434875 ], [ -104.616351, 50.434826 ], [ -104.616447, 50.434799 ], [ -104.616556, 50.434776 ], [ -104.616673, 50.434766 ], [ -104.616962, 50.434759 ], [ -104.61715, 50.434768 ], [ -104.61733, 50.434806 ], [ -104.617485, 50.434853 ], [ -104.617574, 50.434877 ] ] } },
{ "type": "Feature", "properties": { "cls": "shared", "highway": "path", "name": "Trans Canada Trail" }, "geometry": { "type": "LineString", "coordinates": [ [ -104.617932, 50.434955 ], [ -104.617839, 50.434872 ], [ -104.617574, 50.434877 ] ] } },
{ "type": "Feature", "properties": { "cls": "shared", "highway": "path", "name": "Blue Trail" }, "geometry": { "type": "LineString", "coordinates": [ [ -104.615489, 50.434905 ], [ -104.615149, 50.43492 ], [ -104.614834, 50.434904 ] ] } },
{ "type": "Feature", "properties": { "cls": "shared", "highway": "path", "name": "Trans Canada Trail" }, "geometry": { "type": "LineString", "coordinates": [ [ -104.617953, 50.434955 ], [ -104.617932, 50.434955 ] ] } },
{ "type": "Feature", "properties": { "cls": "shared", "highway": "path", "name": null }, "geometry": { "type": "LineString", "coordinates": [ [ -104.607796, 50.432496 ], [ -104.608483, 50.432498 ], [ -104.608501, 50.432498 ] ] } },
{ "type": "Feature", "properties": { "cls": "shared", "highway": "path", "name": null }, "geometry": { "type": "LineString", "coordinates": [ [ -104.607758, 50.432496 ], [ -104.607796, 50.432496 ] ] } },
{ "type": "Feature", "properties": { "cls": "shared", "highway": "path", "name": null }, "geometry": { "type": "LineString", "coordinates": [ [ -104.607674, 50.432496 ], [ -104.607758, 50.432496 ] ] } },
{ "type": "Feature", "properties": { "cls": "shared", "highway": "path", "name": null }, "geometry": { "type": "LineString", "coordinates": [ [ -104.607844, 50.43322 ], [ -104.607965, 50.43322 ], [ -104.608033, 50.433205 ], [ -104.608188, 50.433099 ], [ -104.608287, 50.433008 ], [ -104.608371, 50.432899 ], [ -104.60841, 50.432833 ], [ -104.608458, 50.432739 ], [ -104.608534, 50.432647 ], [ -104.608612, 50.432617 ], [ -104.608662, 50.432577 ], [ -104.608684, 50.432529 ], [ -104.608686, 50.432493 ], [ -104.608686, 50.432375 ] ] } },
{ "type": "Feature", "properties": { "cls": "shared", "highway": "path", "name": "Blue Trail" }, "geometry": { "type": "LineString", "coordinates": [ [ -104.607844, 50.43322 ], [ -104.607875, 50.433093 ], [ -104.607874, 50.432914 ], [ -104.607825, 50.432675 ], [ -104.607758, 50.432496 ] ] } },
{ "type": "Feature", "properties": { "cls": "shared", "highway": "path", "name": null }, "geometry": { "type": "LineString", "coordinates": [ [ -104.607717, 50.433567 ], [ -104.607648, 50.433556 ] ] } },
{ "type": "Feature", "properties": { "cls": "shared", "highway": "path", "name": "Blue Trail" }, "geometry": { "type": "LineString", "coordinates": [ [ -104.607056, 50.435581 ], [ -104.607076, 50.435509 ], [ -104.607103, 50.435448 ], [ -104.607203, 50.435359 ], [ -104.607208, 50.435263 ], [ -104.607193, 50.435162 ], [ -104.607187, 50.435132 ], [ -104.607176, 50.435079 ], [ -104.607244, 50.4349 ], [ -104.607279, 50.434801 ], [ -104.607281, 50.434765 ], [ -104.607287, 50.434725 ], [ -104.607335, 50.434598 ], [ -104.607383, 50.434468 ], [ -104.607692, 50.433636 ], [ -104.607717, 50.433567 ], [ -104.607761, 50.43346 ], [ -104.607844, 50.43322 ] ] } },
{ "type": "Feature", "properties": { "cls": "shared", "highway": "path", "name": null }, "geometry": { "type": "LineString", "coordinates": [ [ -104.607187, 50.435132 ], [ -104.607071, 50.435114 ] ] } },
{ "type": "Feature", "properties": { "cls": "shared", "highway": "path", "name": null }, "geometry": { "type": "LineString", "coordinates": [ [ -104.607056, 50.435581 ], [ -104.606967, 50.435601 ], [ -104.606874, 50.435618 ], [ -104.606776, 50.435615 ], [ -104.606656, 50.435573 ], [ -104.606559, 50.435532 ], [ -104.606424, 50.435507 ], [ -104.606389, 50.435507 ] ] } },
{ "type": "Feature", "properties": { "cls": "shared", "highway": "path", "name": null }, "geometry": { "type": "LineString", "coordinates": [ [ -104.607195, 50.436012 ], [ -104.607125, 50.436127 ], [ -104.607039, 50.436187 ] ] } },
{ "type": "Feature", "properties": { "cls": "shared", "highway": "path", "name": "Trans Canada Trail" }, "geometry": { "type": "Point", "coordinates": [ -104.574151, 50.426271 ] } },
{ "type": "Feature", "properties": { "cls": "shared", "highway": "path", "name": null }, "geometry": { "type": "LineString", "coordinates": [ [ -104.584072, 50.431678 ], [ -104.584145, 50.431647 ] ] } },
{ "type": "Feature", "properties": { "cls": "shared", "highway": "path", "name": null }, "geometry": { "type": "LineString", "coordinates": [ [ -104.58401, 50.431709 ], [ -104.583857, 50.431725 ] ] } },
{ "type": "Feature", "properties": { "cls": "shared", "highway": "path", "name": null }, "geometry": { "type": "LineString", "coordinates": [ [ -104.583857, 50.431725 ], [ -104.5838, 50.431733 ], [ -104.583703, 50.431735 ] ] } },
{ "type": "Feature", "properties": { "cls": "shared", "highway": "path", "name": null }, "geometry": { "type": "LineString", "coordinates": [ [ -104.583995, 50.431786 ], [ -104.583857, 50.431725 ] ] } },
{ "type": "Feature", "properties": { "cls": "shared", "highway": "path", "name": null }, "geometry": { "type": "LineString", "coordinates": [ [ -104.584212, 50.432891 ], [ -104.584134, 50.432851 ], [ -104.584192, 50.432671 ], [ -104.584239, 50.432598 ], [ -104.5843, 50.432517 ], [ -104.584329, 50.432437 ], [ -104.584308, 50.432322 ], [ -104.58427, 50.432178 ], [ -104.58426, 50.432146 ], [ -104.583995, 50.431786 ], [ -104.58401, 50.431709 ], [ -104.584072, 50.431678 ] ] } },
{ "type": "Feature", "properties": { "cls": "shared", "highway": "path", "name": null }, "geometry": { "type": "LineString", "coordinates": [ [ -104.596457, 50.433506 ], [ -104.596479, 50.433468 ], [ -104.596557, 50.433358 ] ] } },
{ "type": "Feature", "properties": { "cls": "shared", "highway": "path", "name": null }, "geometry": { "type": "LineString", "coordinates": [ [ -104.588208, 50.433621 ], [ -104.588137, 50.433549 ], [ -104.588122, 50.433513 ], [ -104.58811, 50.433471 ], [ -104.588131, 50.433439 ], [ -104.588125, 50.433396 ] ] } },
{ "type": "Feature", "properties": { "cls": "shared", "highway": "path", "name": null }, "geometry": { "type": "LineString", "coordinates": [ [ -104.589453, 50.433464 ], [ -104.589366, 50.433486 ], [ -104.58931, 50.433519 ], [ -104.589269, 50.433536 ], [ -104.589219, 50.43354 ], [ -104.58916, 50.433528 ], [ -104.588906, 50.433463 ], [ -104.588829, 50.433456 ], [ -104.58877, 50.433466 ], [ -104.588725, 50.433479 ], [ -104.588682, 50.433498 ], [ -104.588638, 50.433542 ], [ -104.588592, 50.433605 ], [ -104.588558, 50.433646 ] ] } },
{ "type": "Feature", "properties": { "cls": "shared", "highway": "path", "name": null }, "geometry": { "type": "LineString", "coordinates": [ [ -104.586808, 50.433466 ], [ -104.586798, 50.433511 ], [ -104.586767, 50.43359 ], [ -104.586799, 50.433725 ] ] } },
{ "type": "Feature", "properties": { "cls": "shared", "highway": "path", "name": null }, "geometry": { "type": "LineString", "coordinates": [ [ -104.588208, 50.433621 ], [ -104.588151, 50.4336 ], [ -104.58809, 50.433593 ], [ -104.588001, 50.433614 ] ] } },
{ "type": "Feature", "properties": { "cls": "shared", "highway": "path", "name": null }, "geometry": { "type": "LineString", "coordinates": [ [ -104.586767, 50.43359 ], [ -104.586699, 50.433616 ], [ -104.58663, 50.433627 ] ] } },
{ "type": "Feature", "properties": { "cls": "shared", "highway": "path", "name": null }, "geometry": { "type": "LineString", "coordinates": [ [ -104.583725, 50.433043 ], [ -104.583765, 50.433039 ], [ -104.583979, 50.432995 ], [ -104.584086, 50.432934 ], [ -104.584212, 50.432891 ], [ -104.584341, 50.432872 ], [ -104.584403, 50.432868 ], [ -104.584489, 50.432871 ], [ -104.584582, 50.432885 ], [ -104.584696, 50.432916 ], [ -104.585143, 50.43307 ], [ -104.585499, 50.433281 ], [ -104.585637, 50.43335 ], [ -104.585746, 50.433392 ], [ -104.585874, 50.43343 ], [ -104.586387, 50.433548 ], [ -104.586504, 50.433576 ], [ -104.58663, 50.433627 ], [ -104.586799, 50.433725 ], [ -104.586849, 50.43378 ], [ -104.586925, 50.433839 ], [ -104.587002, 50.433875 ], [ -104.587114, 50.433906 ], [ -104.587225, 50.433917 ], [ -104.587334, 50.433914 ], [ -104.587475, 50.43389 ], [ -104.587612, 50.433883 ], [ -104.587772, 50.433886 ], [ -104.587897, 50.433923 ], [ -104.588017, 50.43396 ], [ -104.588118, 50.434006 ], [ -104.588289, 50.434131 ], [ -104.588357, 50.434156 ], [ -104.58846, 50.434211 ], [ -104.588567, 50.434252 ], [ -104.588679, 50.434291 ], [ -104.588799, 50.434327 ], [ -104.589048, 50.434358 ], [ -104.58926, 50.434367 ], [ -104.589501, 50.434364 ], [ -104.589736, 50.434342 ], [ -104.589941, 50.434311 ], [ -104.590115, 50.434269 ], [ -104.590236, 50.434236 ], [ -104.590318, 50.434212 ], [ -104.59047, 50.434155 ], [ -104.590638, 50.43408 ], [ -104.590777, 50.434001 ], [ -104.590866, 50.433943 ], [ -104.590969, 50.433887 ] ] } },
{ "type": "Feature", "properties": { "cls": "shared", "highway": "path", "name": null }, "geometry": { "type": "LineString", "coordinates": [ [ -104.588558, 50.433646 ], [ -104.588535, 50.433642 ], [ -104.588393, 50.433615 ], [ -104.588291, 50.433606 ], [ -104.588248, 50.433611 ], [ -104.588208, 50.433621 ] ] } },
{ "type": "Feature", "properties": { "cls": "shared", "highway": "path", "name": null }, "geometry": { "type": "LineString", "coordinates": [ [ -104.587475, 50.43389 ], [ -104.587674, 50.433816 ], [ -104.587772, 50.433764 ], [ -104.58791, 50.433676 ], [ -104.588001, 50.433614 ], [ -104.58811, 50.433471 ] ] } },
{ "type": "Feature", "properties": { "cls": "shared", "highway": "path", "name": null }, "geometry": { "type": "LineString", "coordinates": [ [ -104.591335, 50.433676 ], [ -104.591417, 50.433726 ], [ -104.591593, 50.433826 ], [ -104.591725, 50.43387 ], [ -104.591919, 50.433895 ], [ -104.592051, 50.433896 ], [ -104.592228, 50.433879 ], [ -104.5923, 50.433889 ], [ -104.592436, 50.433929 ], [ -104.592584, 50.433971 ], [ -104.592843, 50.43398 ], [ -104.592925, 50.433987 ], [ -104.592997, 50.433994 ], [ -104.593077, 50.433999 ], [ -104.593803, 50.434049 ], [ -104.594708, 50.43411 ], [ -104.595003, 50.434148 ], [ -104.59522, 50.434151 ], [ -104.595326, 50.434146 ], [ -104.595517, 50.434119 ], [ -104.595803, 50.434038 ], [ -104.596051, 50.433897 ], [ -104.59628, 50.433709 ], [ -104.596457, 50.433506 ] ] } },
{ "type": "Feature", "properties": { "cls": "shared", "highway": "path", "name": null }, "geometry": { "type": "LineString", "coordinates": [ [ -104.588001, 50.433614 ], [ -104.588004, 50.433667 ], [ -104.587999, 50.433766 ], [ -104.588013, 50.433834 ], [ -104.588041, 50.433889 ], [ -104.58807, 50.433946 ], [ -104.588118, 50.434006 ] ] } },
{ "type": "Feature", "properties": { "cls": "shared", "highway": "path", "name": null }, "geometry": { "type": "LineString", "coordinates": [ [ -104.591413, 50.433667 ], [ -104.591335, 50.433676 ], [ -104.591248, 50.433699 ], [ -104.591192, 50.433729 ], [ -104.590969, 50.433887 ], [ -104.590922, 50.433949 ], [ -104.590839, 50.434062 ], [ -104.590782, 50.434189 ], [ -104.590764, 50.434271 ], [ -104.590748, 50.434357 ], [ -104.590751, 50.43445 ] ] } },
{ "type": "Feature", "properties": { "cls": "shared", "highway": "path", "name": null }, "geometry": { "type": "LineString", "coordinates": [ [ -104.588345, 50.434353 ], [ -104.588378, 50.4343 ], [ -104.588389, 50.434258 ], [ -104.588383, 50.43422 ], [ -104.588365, 50.434184 ], [ -104.588357, 50.434156 ] ] } },
{ "type": "Feature", "properties": { "cls": "shared", "highway": "path", "name": null }, "geometry": { "type": "LineString", "coordinates": [ [ -104.590318, 50.434212 ], [ -104.590423, 50.4342 ], [ -104.590541, 50.434216 ], [ -104.5906, 50.434244 ], [ -104.590667, 50.434283 ], [ -104.590748, 50.434357 ] ] } },
{ "type": "Feature", "properties": { "cls": "shared", "highway": "path", "name": null }, "geometry": { "type": "LineString", "coordinates": [ [ -104.595517, 50.434119 ], [ -104.595561, 50.434184 ], [ -104.595574, 50.434219 ], [ -104.595589, 50.434261 ], [ -104.595587, 50.434327 ], [ -104.59557, 50.434372 ], [ -104.595528, 50.434426 ], [ -104.595468, 50.434477 ], [ -104.595427, 50.434517 ], [ -104.595392, 50.434588 ], [ -104.595393, 50.434622 ] ] } },
{ "type": "Feature", "properties": { "cls": "shared", "highway": "path", "name": null }, "geometry": { "type": "LineString", "coordinates": [ [ -104.588173, 50.434444 ], [ -104.588251, 50.434385 ], [ -104.588345, 50.434353 ], [ -104.588424, 50.43433 ], [ -104.588562, 50.434316 ], [ -104.588656, 50.43432 ], [ -104.588799, 50.434327 ] ] } },
{ "type": "Feature", "properties": { "cls": "shared", "highway": "path", "name": null }, "geometry": { "type": "LineString", "coordinates": [ [ -104.584086, 50.432934 ], [ -104.584134, 50.432851 ] ] } },
{ "type": "Feature", "properties": { "cls": "shared", "highway": "path", "name": "Trans Canada Trail" }, "geometry": { "type": "LineString", "coordinates": [ [ -104.617574, 50.434877 ], [ -104.617462, 50.43496 ], [ -104.617363, 50.434999 ], [ -104.617246, 50.435021 ], [ -104.617142, 50.435043 ], [ -104.617064, 50.435075 ], [ -104.616985, 50.435123 ], [ -104.616922, 50.435169 ] ] } },
{ "type": "Feature", "properties": { "cls": "shared", "highway": "path", "name": "Blue Trail" }, "geometry": { "type": "LineString", "coordinates": [ [ -104.616922, 50.435169 ], [ -104.616727, 50.435089 ], [ -104.616547, 50.435035 ], [ -104.616402, 50.435001 ], [ -104.616239, 50.434979 ], [ -104.616079, 50.434971 ], [ -104.615681, 50.434972 ], [ -104.615623, 50.434964 ], [ -104.615495, 50.434905 ], [ -104.615489, 50.434905 ] ] } },
{ "type": "Feature", "properties": { "cls": "shared", "highway": "path", "name": "Blue Trail" }, "geometry": { "type": "LineString", "coordinates": [ [ -104.617623, 50.436062 ], [ -104.617618, 50.436045 ], [ -104.617583, 50.435917 ], [ -104.617557, 50.435852 ], [ -104.617514, 50.435774 ], [ -104.617458, 50.435682 ], [ -104.617388, 50.435585 ], [ -104.617355, 50.435538 ], [ -104.617288, 50.43546 ], [ -104.617235, 50.435407 ], [ -104.61719, 50.435362 ], [ -104.617087, 50.435272 ], [ -104.616995, 50.435215 ], [ -104.616922, 50.435169 ] ] } },
{ "type": "Feature", "properties": { "cls": "shared", "highway": "path", "name": null }, "geometry": { "type": "LineString", "coordinates": [ [ -104.617929, 50.436043 ], [ -104.617618, 50.436045 ] ] } },
{ "type": "Feature", "properties": { "cls": "shared", "highway": "path", "name": "Blue Trail" }, "geometry": { "type": "LineString", "coordinates": [ [ -104.617693, 50.436316 ], [ -104.617623, 50.436062 ] ] } },
{ "type": "Feature", "properties": { "cls": "shared", "highway": "path", "name": null }, "geometry": { "type": "LineString", "coordinates": [ [ -104.617697, 50.43633 ], [ -104.617927, 50.43633 ] ] } },
{ "type": "Feature", "properties": { "cls": "shared", "highway": "path", "name": "Blue Trail" }, "geometry": { "type": "LineString", "coordinates": [ [ -104.617693, 50.436316 ], [ -104.617697, 50.43633 ], [ -104.617719, 50.436419 ], [ -104.617726, 50.43648 ], [ -104.617715, 50.436546 ], [ -104.617712, 50.436563 ], [ -104.617685, 50.436635 ], [ -104.617619, 50.436724 ], [ -104.617542, 50.436792 ] ] } },
{ "type": "Feature", "properties": { "cls": "shared", "highway": "path", "name": null }, "geometry": { "type": "LineString", "coordinates": [ [ -104.616843, 50.437007 ], [ -104.617166, 50.437075 ], [ -104.617397, 50.437122 ], [ -104.617497, 50.437142 ], [ -104.61771, 50.437199 ], [ -104.617772, 50.437218 ] ] } },
{ "type": "Feature", "properties": { "cls": "shared", "highway": "path", "name": "Blue Trail" }, "geometry": { "type": "LineString", "coordinates": [ [ -104.617542, 50.436792 ], [ -104.617463, 50.436847 ], [ -104.617336, 50.436908 ], [ -104.617224, 50.436948 ], [ -104.617109, 50.436974 ], [ -104.616843, 50.437007 ], [ -104.616638, 50.437025 ], [ -104.616549, 50.437038 ], [ -104.616406, 50.437064 ], [ -104.61632, 50.437082 ], [ -104.616195, 50.437121 ], [ -104.616073, 50.43716 ], [ -104.615956, 50.437208 ], [ -104.615351, 50.437456 ], [ -104.615266, 50.437487 ], [ -104.615191, 50.437511 ], [ -104.615093, 50.437537 ], [ -104.615007, 50.437554 ], [ -104.614903, 50.437571 ], [ -104.614758, 50.437579 ], [ -104.614615, 50.437582 ], [ -104.614383, 50.437569 ], [ -104.614288, 50.437557 ], [ -104.614152, 50.437539 ], [ -104.614046, 50.437511 ], [ -104.613967, 50.437478 ], [ -104.613939, 50.43746 ] ] } },
{ "type": "Feature", "properties": { "cls": "shared", "highway": "path", "name": null }, "geometry": { "type": "LineString", "coordinates": [ [ -104.616549, 50.437038 ], [ -104.61672, 50.437328 ], [ -104.616769, 50.437374 ], [ -104.616844, 50.437398 ], [ -104.617177, 50.437443 ], [ -104.617212, 50.437459 ], [ -104.617251, 50.437478 ] ] } },
{ "type": "Feature", "properties": { "cls": "shared", "highway": "path", "name": null }, "geometry": { "type": "LineString", "coordinates": [ [ -104.617931, 50.437449 ], [ -104.617947, 50.437414 ], [ -104.617932, 50.437373 ], [ -104.617693, 50.437299 ], [ -104.617548, 50.437244 ], [ -104.617475, 50.437196 ], [ -104.617416, 50.437146 ], [ -104.617397, 50.437122 ] ] } },
{ "type": "Feature", "properties": { "cls": "shared", "highway": "path", "name": "Blue Trail" }, "geometry": { "type": "LineString", "coordinates": [ [ -104.613939, 50.43746 ], [ -104.613919, 50.437413 ], [ -104.61388, 50.437372 ], [ -104.61363, 50.437224 ], [ -104.613527, 50.437182 ], [ -104.613427, 50.437154 ], [ -104.613288, 50.437128 ], [ -104.613152, 50.43711 ], [ -104.613013, 50.437097 ], [ -104.612538, 50.437118 ], [ -104.612452, 50.437131 ], [ -104.61238, 50.437151 ], [ -104.612311, 50.43719 ], [ -104.612218, 50.43726 ] ] } },
{ "type": "Feature", "properties": { "cls": "shared", "highway": "path", "name": null }, "geometry": { "type": "LineString", "coordinates": [ [ -104.617931, 50.437449 ], [ -104.617956, 50.43745 ] ] } },
{ "type": "Feature", "properties": { "cls": "shared", "highway": "path", "name": null }, "geometry": { "type": "LineString", "coordinates": [ [ -104.617733, 50.437553 ], [ -104.617874, 50.437489 ], [ -104.617931, 50.437449 ] ] } },
{ "type": "Feature", "properties": { "cls": "shared", "highway": "path", "name": null }, "geometry": { "type": "LineString", "coordinates": [ [ -104.617251, 50.437553 ], [ -104.617239, 50.437528 ], [ -104.617239, 50.437503 ], [ -104.617251, 50.437478 ], [ -104.617279, 50.437454 ], [ -104.617317, 50.437438 ], [ -104.617362, 50.43743 ], [ -104.617408, 50.437433 ], [ -104.61745, 50.437446 ], [ -104.617483, 50.437467 ], [ -104.617502, 50.437494 ], [ -104.617506, 50.437523 ], [ -104.617494, 50.437552 ], [ -104.617467, 50.437576 ], [ -104.617429, 50.437593 ], [ -104.617384, 50.437601 ], [ -104.617344, 50.437599 ], [ -104.617306, 50.43759 ], [ -104.617274, 50.437574 ], [ -104.617251, 50.437553 ] ] } },
{ "type": "Feature", "properties": { "cls": "shared", "highway": "path", "name": null }, "geometry": { "type": "LineString", "coordinates": [ [ -104.617318, 50.43772 ], [ -104.617344, 50.437724 ], [ -104.617395, 50.437736 ], [ -104.617469, 50.437728 ], [ -104.617542, 50.437703 ], [ -104.617598, 50.437666 ], [ -104.617733, 50.437553 ] ] } },
{ "type": "Feature", "properties": { "cls": "shared", "highway": "path", "name": null }, "geometry": { "type": "LineString", "coordinates": [ [ -104.617384, 50.437601 ], [ -104.617375, 50.437634 ], [ -104.617366, 50.437665 ], [ -104.617318, 50.43772 ] ] } },
{ "type": "Feature", "properties": { "cls": "shared", "highway": "path", "name": null }, "geometry": { "type": "LineString", "coordinates": [ [ -104.614705, 50.437787 ], [ -104.614743, 50.43777 ], [ -104.615007, 50.437554 ] ] } },
{ "type": "Feature", "properties": { "cls": "separated", "highway": "cycleway", "name": null }, "geometry": { "type": "LineString", "coordinates": [ [ -104.607039, 50.436187 ], [ -104.606965, 50.436193 ] ] } },
{ "type": "Feature", "properties": { "cls": "shared", "highway": "path", "name": "Blue Trail" }, "geometry": { "type": "LineString", "coordinates": [ [ -104.607725, 50.436898 ], [ -104.607719, 50.436848 ], [ -104.607697, 50.436821 ], [ -104.607661, 50.436797 ], [ -104.607646, 50.436741 ], [ -104.607638, 50.436707 ], [ -104.607609, 50.436688 ], [ -104.607528, 50.436656 ], [ -104.607474, 50.436603 ], [ -104.607439, 50.436563 ], [ -104.607304, 50.436328 ], [ -104.607277, 50.436218 ], [ -104.607195, 50.436012 ], [ -104.607149, 50.435797 ], [ -104.607105, 50.435692 ], [ -104.607056, 50.435581 ] ] } },
{ "type": "Feature", "properties": { "cls": "separated", "highway": "cycleway", "name": null }, "geometry": { "type": "LineString", "coordinates": [ [ -104.607137, 50.436517 ], [ -104.607024, 50.436527 ] ] } },
{ "type": "Feature", "properties": { "cls": "shared", "highway": "path", "name": null }, "geometry": { "type": "LineString", "coordinates": [ [ -104.607439, 50.436563 ], [ -104.607249, 50.436515 ], [ -104.607137, 50.436517 ] ] } },
{ "type": "Feature", "properties": { "cls": "shared", "highway": "path", "name": null }, "geometry": { "type": "LineString", "coordinates": [ [ -104.607725, 50.436898 ], [ -104.607682, 50.436937 ], [ -104.607637, 50.436982 ], [ -104.607617, 50.437025 ], [ -104.60762, 50.437075 ], [ -104.60777, 50.437258 ], [ -104.607812, 50.437326 ], [ -104.607821, 50.437387 ], [ -104.607812, 50.43743 ], [ -104.607787, 50.437474 ], [ -104.607738, 50.437511 ], [ -104.607672, 50.437538 ] ] } },
{ "type": "Feature", "properties": { "cls": "shared", "highway": "path", "name": "Blue Trail" }, "geometry": { "type": "LineString", "coordinates": [ [ -104.612218, 50.43726 ], [ -104.612134, 50.437319 ], [ -104.612043, 50.437376 ], [ -104.611916, 50.437447 ], [ -104.611777, 50.437517 ], [ -104.611645, 50.437567 ], [ -104.611526, 50.437601 ], [ -104.611414, 50.437624 ], [ -104.611262, 50.437644 ], [ -104.611163, 50.43765 ], [ -104.611091, 50.437653 ], [ -104.610979, 50.437647 ], [ -104.61086, 50.437632 ], [ -104.610761, 50.437615 ], [ -104.610653, 50.437589 ], [ -104.610382, 50.437507 ], [ -104.610261, 50.437486 ], [ -104.610209, 50.437481 ], [ -104.610103, 50.437477 ], [ -104.609972, 50.437484 ], [ -104.609861, 50.437496 ], [ -104.609768, 50.437513 ], [ -104.609389, 50.437592 ], [ -104.609246, 50.437605 ], [ -104.60922, 50.437607 ], [ -104.60905, 50.437603 ], [ -104.608943, 50.437588 ], [ -104.608832, 50.437561 ], [ -104.608739, 50.437532 ], [ -104.608687, 50.437503 ], [ -104.608623, 50.437471 ], [ -104.608568, 50.437429 ], [ -104.608423, 50.437258 ], [ -104.608373, 50.437211 ], [ -104.608321, 50.437179 ], [ -104.608265, 50.437158 ], [ -104.608132, 50.437131 ], [ -104.608063, 50.437118 ], [ -104.607979, 50.437109 ], [ -104.607905, 50.437092 ], [ -104.607866, 50.437052 ], [ -104.607818, 50.436987 ], [ -104.607725, 50.436898 ] ] } },
{ "type": "Feature", "properties": { "cls": "shared", "highway": "path", "name": null }, "geometry": { "type": "LineString", "coordinates": [ [ -104.612291, 50.438296 ], [ -104.612234, 50.438226 ], [ -104.612145, 50.438157 ], [ -104.612027, 50.438105 ], [ -104.611927, 50.438079 ], [ -104.611832, 50.438061 ], [ -104.611714, 50.43806 ], [ -104.611615, 50.438064 ], [ -104.611208, 50.438105 ], [ -104.610673, 50.43815 ], [ -104.610009, 50.438207 ], [ -104.609688, 50.438233 ], [ -104.609608, 50.438239 ], [ -104.609451, 50.438247 ], [ -104.609342, 50.43825 ], [ -104.609158, 50.438246 ], [ -104.609021, 50.43823 ], [ -104.608912, 50.438216 ], [ -104.608734, 50.438179 ], [ -104.608568, 50.438138 ], [ -104.608455, 50.438097 ], [ -104.608297, 50.438033 ], [ -104.60824, 50.438003 ], [ -104.608132, 50.437942 ], [ -104.608047, 50.437891 ], [ -104.607957, 50.437831 ], [ -104.607876, 50.437763 ], [ -104.607796, 50.43768 ], [ -104.607672, 50.437538 ] ] } },
{ "type": "Feature", "properties": { "cls": "shared", "highway": "path", "name": null }, "geometry": { "type": "LineString", "coordinates": [ [ -104.609708, 50.438325 ], [ -104.609696, 50.438284 ], [ -104.609688, 50.438233 ] ] } },
{ "type": "Feature", "properties": { "cls": "shared", "highway": "path", "name": null }, "geometry": { "type": "LineString", "coordinates": [ [ -104.61455, 50.437796 ], [ -104.614387, 50.437612 ], [ -104.614383, 50.437569 ] ] } },
{ "type": "Feature", "properties": { "cls": "shared", "highway": "path", "name": null }, "geometry": { "type": "LineString", "coordinates": [ [ -104.61455, 50.437796 ], [ -104.614584, 50.437788 ], [ -104.61463, 50.437783 ], [ -104.614705, 50.437787 ] ] } },
{ "type": "Feature", "properties": { "cls": "shared", "highway": "path", "name": null }, "geometry": { "type": "LineString", "coordinates": [ [ -104.614519, 50.437943 ], [ -104.614487, 50.437895 ], [ -104.614491, 50.437863 ], [ -104.614508, 50.437834 ], [ -104.61455, 50.437796 ] ] } },
{ "type": "Feature", "properties": { "cls": "shared", "highway": "path", "name": null }, "geometry": { "type": "LineString", "coordinates": [ [ -104.611163, 50.43765 ], [ -104.611225, 50.437707 ], [ -104.611507, 50.437849 ], [ -104.611782, 50.437966 ], [ -104.61191, 50.438041 ], [ -104.611927, 50.438079 ] ] } },
{ "type": "Feature", "properties": { "cls": "shared", "highway": "path", "name": null }, "geometry": { "type": "LineString", "coordinates": [ [ -104.614519, 50.437943 ], [ -104.614386, 50.438008 ], [ -104.614296, 50.438011 ], [ -104.613811, 50.437809 ], [ -104.613709, 50.437782 ], [ -104.613633, 50.437769 ], [ -104.613504, 50.437748 ], [ -104.613461, 50.437741 ] ] } },
{ "type": "Feature", "properties": { "cls": "shared", "highway": "path", "name": null }, "geometry": { "type": "LineString", "coordinates": [ [ -104.612208, 50.438305 ], [ -104.612291, 50.438296 ], [ -104.61237, 50.438289 ], [ -104.61246, 50.438284 ], [ -104.612557, 50.438267 ], [ -104.612743, 50.438143 ], [ -104.612911, 50.438057 ], [ -104.613118, 50.437954 ], [ -104.613218, 50.437893 ], [ -104.613349, 50.43782 ], [ -104.613408, 50.437773 ], [ -104.613461, 50.437741 ], [ -104.613638, 50.437629 ], [ -104.613823, 50.437511 ], [ -104.613939, 50.43746 ] ] } },
{ "type": "Feature", "properties": { "cls": "shared", "highway": "path", "name": null }, "geometry": { "type": "LineString", "coordinates": [ [ -104.61387, 50.439953 ], [ -104.614001, 50.43985 ], [ -104.614119, 50.439747 ], [ -104.614286, 50.439603 ], [ -104.614752, 50.439189 ], [ -104.614884, 50.439083 ], [ -104.615019, 50.438993 ], [ -104.615244, 50.438863 ], [ -104.616164, 50.438375 ], [ -104.616914, 50.437975 ], [ -104.617094, 50.437855 ], [ -104.617318, 50.43772 ] ] } },
{ "type": "Feature", "properties": { "cls": "shared", "highway": "path", "name": null }, "geometry": { "type": "LineString", "coordinates": [ [ -104.615253, 50.440364 ], [ -104.615115, 50.440371 ], [ -104.614886, 50.440378 ], [ -104.614357, 50.440375 ], [ -104.614235, 50.440382 ], [ -104.614099, 50.440406 ], [ -104.61398, 50.440432 ], [ -104.613895, 50.440455 ], [ -104.613857, 50.440456 ] ] } }
]
}
