{
"type": "FeatureCollection",
"name": "095-strongsville-mill-stream-run-reservation",
"crs": { "type": "name", "properties": { "name": "urn:ogc:def:crs:OGC:1.3:CRS84" } },
"xy_coordinate_resolution": 1e-06,
"features": [
{ "type": "Feature", "properties": { "cls": "shared", "highway": "cycleway", "name": "Valley Parkway Connector" }, "geometry": { "type": "LineString", "coordinates": [ [ -81.769648, 41.302409 ], [ -81.769612, 41.302425 ] ] } },
{ "type": "Feature", "properties": { "cls": "shared", "highway": "cycleway", "name": "Mill Stream Run All Purpose Trail" }, "geometry": { "type": "LineString", "coordinates": [ [ -81.806871, 41.317643 ], [ -81.806814, 41.3176 ], [ -81.806736, 41.31756 ], [ -81.806607, 41.317514 ], [ -81.806477, 41.317489 ], [ -81.806329, 41.317473 ], [ -81.806183, 41.317473 ], [ -81.806058, 41.317491 ], [ -81.805906, 41.317528 ], [ -81.805766, 41.317575 ], [ -81.805673, 41.317622 ], [ -81.805633, 41.317661 ], [ -81.805595, 41.317713 ], [ -81.805551, 41.317788 ], [ -81.805493, 41.317888 ], [ -81.805456, 41.317963 ], [ -81.805427, 41.318047 ], [ -81.805402, 41.318104 ], [ -81.805366, 41.318144 ], [ -81.805306, 41.318196 ], [ -81.805276, 41.31823 ], [ -81.805254, 41.31828 ], [ -81.805208, 41.318362 ], [ -81.805146, 41.318464 ], [ -81.80511, 41.318522 ], [ -81.80503, 41.318716 ], [ -81.80501, 41.318753 ], [ -81.804985, 41.318783 ], [ -81.804944, 41.318807 ], [ -81.804864, 41.318841 ], [ -81.804779, 41.318872 ], [ -81.804752, 41.318888 ] ] } },
{ "type": "Feature", "properties": { "cls": "shared", "highway": "cycleway", "name": "Mill Stream Run All Purpose Trail" }, "geometry": { "type": "LineString", "coordinates": [ [ -81.806871, 41.317643 ], [ -81.806904, 41.317675 ], [ -81.80702, 41.317772 ], [ -81.807077, 41.317827 ], [ -81.807105, 41.317872 ], [ -81.807115, 41.317929 ], [ -81.807111, 41.317978 ], [ -81.807097, 41.318039 ], [ -81.807061, 41.31814 ], [ -81.807011, 41.31824 ], [ -81.806993, 41.318286 ], [ -81.80699, 41.318322 ], [ -81.807006, 41.318368 ], [ -81.807042, 41.318415 ], [ -81.807128, 41.318485 ], [ -81.807193, 41.318548 ], [ -81.807231, 41.318608 ], [ -81.807279, 41.318715 ], [ -81.807335, 41.318826 ], [ -81.807348, 41.318869 ], [ -81.807343, 41.318899 ], [ -81.807319, 41.31894 ], [ -81.807175, 41.319112 ], [ -81.807086, 41.319238 ], [ -81.807012, 41.319324 ], [ -81.806924, 41.319416 ], [ -81.806801, 41.319563 ], [ -81.80675, 41.319628 ], [ -81.806732, 41.319665 ], [ -81.806729, 41.319706 ], [ -81.806739, 41.319762 ], [ -81.806764, 41.319887 ], [ -81.806788, 41.31994 ], [ -81.80682, 41.319993 ], [ -81.806904, 41.320121 ], [ -81.80695, 41.320188 ], [ -81.806974, 41.320237 ], [ -81.806979, 41.320279 ], [ -81.806982, 41.320346 ], [ -81.806989, 41.32044 ], [ -81.807014, 41.320533 ], [ -81.807049, 41.320584 ], [ -81.807104, 41.320621 ], [ -81.807194, 41.320673 ], [ -81.807324, 41.320739 ], [ -81.807376, 41.320774 ], [ -81.807393, 41.320808 ], [ -81.807402, 41.320856 ], [ -81.807419, 41.321105 ], [ -81.80745, 41.321358 ], [ -81.807449, 41.321401 ], [ -81.807441, 41.321461 ], [ -81.807428, 41.321503 ], [ -81.807402, 41.321554 ], [ -81.807331, 41.321648 ], [ -81.807285, 41.321706 ], [ -81.807262, 41.321757 ], [ -81.807255, 41.321805 ], [ -81.807265, 41.32186 ], [ -81.807286, 41.321921 ], [ -81.807368, 41.322064 ], [ -81.807443, 41.322175 ], [ -81.807502, 41.322245 ], [ -81.807571, 41.322306 ], [ -81.807664, 41.322368 ], [ -81.807742, 41.322435 ], [ -81.807808, 41.322504 ], [ -81.807937, 41.322653 ], [ -81.808129, 41.322861 ], [ -81.808209, 41.322945 ], [ -81.80829, 41.323018 ], [ -81.808398, 41.323103 ], [ -81.808553, 41.323206 ], [ -81.808704, 41.323298 ], [ -81.808873, 41.323395 ], [ -81.808992, 41.323459 ], [ -81.809092, 41.323505 ], [ -81.809217, 41.323553 ], [ -81.809338, 41.323591 ], [ -81.809452, 41.323618 ], [ -81.809562, 41.323638 ], [ -81.809698, 41.323656 ], [ -81.809836, 41.323673 ], [ -81.809895, 41.323687 ], [ -81.809943, 41.323706 ], [ -81.80998, 41.323739 ], [ -81.810026, 41.323806 ], [ -81.810079, 41.323858 ], [ -81.810139, 41.323893 ], [ -81.810302, 41.323974 ], [ -81.810388, 41.324011 ], [ -81.81045, 41.324024 ], [ -81.810536, 41.324031 ], [ -81.81063, 41.324028 ], [ -81.810753, 41.324012 ], [ -81.810894, 41.323982 ], [ -81.810967, 41.323971 ], [ -81.811042, 41.323968 ], [ -81.811089, 41.323971 ] ] } },
{ "type": "Feature", "properties": { "cls": "shared", "highway": "cycleway", "name": "Mill Stream Run All Purpose Trail" }, "geometry": { "type": "LineString", "coordinates": [ [ -81.811089, 41.323971 ], [ -81.811217, 41.324004 ], [ -81.811349, 41.324039 ] ] } },
{ "type": "Feature", "properties": { "cls": "shared", "highway": "cycleway", "name": "Mill Stream Run All Purpose Trail" }, "geometry": { "type": "LineString", "coordinates": [ [ -81.784601, 41.310401 ], [ -81.784523, 41.310366 ], [ -81.784455, 41.310321 ], [ -81.784387, 41.310258 ], [ -81.784317, 41.310169 ], [ -81.784248, 41.310067 ], [ -81.784209, 41.310002 ], [ -81.784163, 41.309947 ], [ -81.784108, 41.309902 ], [ -81.784034, 41.309863 ], [ -81.783978, 41.309838 ], [ -81.783925, 41.3098 ], [ -81.783888, 41.309757 ], [ -81.783857, 41.309701 ], [ -81.78384, 41.309641 ], [ -81.783805, 41.309574 ], [ -81.783705, 41.309453 ], [ -81.783557, 41.309272 ], [ -81.783474, 41.309183 ], [ -81.783374, 41.309086 ], [ -81.783308, 41.309001 ], [ -81.783251, 41.308873 ], [ -81.783145, 41.308671 ], [ -81.783017, 41.308455 ], [ -81.782923, 41.308284 ], [ -81.782879, 41.308176 ], [ -81.782856, 41.308122 ], [ -81.782796, 41.307994 ], [ -81.782686, 41.307793 ], [ -81.782561, 41.307528 ], [ -81.782472, 41.307325 ], [ -81.782426, 41.307193 ], [ -81.782367, 41.30699 ], [ -81.782311, 41.306786 ], [ -81.782269, 41.30666 ], [ -81.782217, 41.306526 ], [ -81.78211, 41.306367 ], [ -81.782015, 41.306227 ], [ -81.781917, 41.306106 ], [ -81.781816, 41.305997 ], [ -81.78166, 41.305848 ], [ -81.781515, 41.305718 ], [ -81.781394, 41.305624 ], [ -81.78129, 41.305555 ], [ -81.781066, 41.305426 ], [ -81.780675, 41.305207 ], [ -81.780494, 41.305094 ], [ -81.780376, 41.305036 ], [ -81.780255, 41.304988 ], [ -81.779996, 41.304904 ], [ -81.779662, 41.304808 ], [ -81.77931, 41.304711 ], [ -81.779138, 41.304671 ], [ -81.77906, 41.304659 ], [ -81.778987, 41.304661 ], [ -81.778888, 41.30467 ], [ -81.778755, 41.304682 ], [ -81.778621, 41.304687 ], [ -81.778503, 41.304679 ], [ -81.778394, 41.304665 ], [ -81.778297, 41.304639 ], [ -81.77818, 41.304598 ], [ -81.778063, 41.304553 ], [ -81.777976, 41.304527 ], [ -81.777811, 41.304493 ], [ -81.777452, 41.304425 ], [ -81.777204, 41.304373 ], [ -81.77706, 41.304332 ], [ -81.776935, 41.304295 ], [ -81.776823, 41.304263 ], [ -81.776691, 41.304233 ], [ -81.77658, 41.304211 ], [ -81.776471, 41.304195 ], [ -81.776354, 41.304183 ], [ -81.776226, 41.304171 ], [ -81.776133, 41.304157 ], [ -81.776025, 41.304135 ], [ -81.775903, 41.304104 ], [ -81.77581, 41.304078 ], [ -81.775714, 41.304048 ], [ -81.775606, 41.304011 ], [ -81.775515, 41.303983 ], [ -81.775435, 41.303963 ], [ -81.775273, 41.303931 ], [ -81.77505, 41.303878 ], [ -81.774737, 41.303799 ], [ -81.774662, 41.303783 ], [ -81.77461, 41.303776 ], [ -81.774543, 41.30377 ], [ -81.77443, 41.303769 ], [ -81.774376, 41.303767 ], [ -81.774336, 41.303759 ], [ -81.774292, 41.303747 ], [ -81.774118, 41.303687 ], [ -81.773841, 41.303599 ], [ -81.773558, 41.303498 ], [ -81.773269, 41.303386 ], [ -81.773115, 41.303324 ], [ -81.772997, 41.303269 ], [ -81.772886, 41.303209 ], [ -81.772685, 41.303092 ], [ -81.772508, 41.30298 ], [ -81.772409, 41.302914 ], [ -81.772331, 41.302857 ], [ -81.772229, 41.302784 ], [ -81.772078, 41.302667 ], [ -81.77197, 41.302596 ], [ -81.771896, 41.302562 ], [ -81.771787, 41.302535 ], [ -81.77162, 41.302506 ], [ -81.77153, 41.302485 ], [ -81.771431, 41.302457 ], [ -81.77134, 41.302425 ], [ -81.771274, 41.302405 ], [ -81.77112, 41.302367 ], [ -81.771043, 41.302355 ], [ -81.770971, 41.302355 ], [ -81.770866, 41.302359 ], [ -81.7708, 41.30236 ], [ -81.770746, 41.302351 ], [ -81.770653, 41.302326 ], [ -81.770559, 41.302293 ], [ -81.770479, 41.302274 ], [ -81.770394, 41.302266 ], [ -81.770276, 41.302264 ], [ -81.770173, 41.302267 ], [ -81.770061, 41.302281 ], [ -81.769951, 41.302304 ], [ -81.769834, 41.302341 ], [ -81.769741, 41.302372 ], [ -81.769648, 41.302409 ] ] } },
{ "type": "Feature", "properties": { "cls": "shared", "highway": "cycleway", "name": "Mill Stream Run All Purpose Trail" }, "geometry": { "type": "LineString", "coordinates": [ [ -81.78467, 41.310422 ], [ -81.784635, 41.310412 ], [ -81.784601, 41.310401 ] ] } },
{ "type": "Feature", "properties": { "cls": "shared", "highway": "cycleway", "name": "Mill Stream Run All Purpose Trail" }, "geometry": { "type": "LineString", "coordinates": [ [ -81.785228, 41.310698 ], [ -81.785205, 41.310692 ], [ -81.785158, 41.31067 ], [ -81.785103, 41.310637 ], [ -81.785004, 41.310573 ], [ -81.784918, 41.310527 ], [ -81.784819, 41.310479 ], [ -81.78474, 41.310447 ], [ -81.78467, 41.310422 ] ] } },
{ "type": "Feature", "properties": { "cls": "shared", "highway": "cycleway", "name": "Mill Stream Run All Purpose Trail" }, "geometry": { "type": "LineString", "coordinates": [ [ -81.785394, 41.310771 ], [ -81.78531, 41.31073 ], [ -81.785228, 41.310698 ] ] } },
{ "type": "Feature", "properties": { "cls": "shared", "highway": "cycleway", "name": null }, "geometry": { "type": "LineString", "coordinates": [ [ -81.793554, 41.311698 ], [ -81.79357, 41.311565 ] ] } },
{ "type": "Feature", "properties": { "cls": "shared", "highway": "cycleway", "name": "Mill Stream Run All Purpose Trail" }, "geometry": { "type": "LineString", "coordinates": [ [ -81.796276, 41.313182 ], [ -81.796263, 41.312956 ], [ -81.796253, 41.312903 ], [ -81.796231, 41.312857 ], [ -81.796198, 41.312817 ], [ -81.79614, 41.312785 ], [ -81.796057, 41.31275 ], [ -81.795991, 41.312716 ], [ -81.795929, 41.312677 ], [ -81.795878, 41.312636 ], [ -81.795824, 41.312571 ], [ -81.795713, 41.312417 ], [ -81.795543, 41.312191 ], [ -81.795467, 41.312102 ], [ -81.795338, 41.311975 ], [ -81.795229, 41.311891 ], [ -81.795125, 41.311823 ], [ -81.795047, 41.311773 ], [ -81.794992, 41.311742 ], [ -81.794915, 41.311722 ], [ -81.794751, 41.311695 ], [ -81.794485, 41.311664 ], [ -81.794171, 41.31164 ], [ -81.794106, 41.311636 ], [ -81.794052, 41.311643 ], [ -81.793969, 41.311674 ], [ -81.793894, 41.311693 ], [ -81.793822, 41.311701 ], [ -81.793711, 41.311703 ], [ -81.793554, 41.311698 ], [ -81.793073, 41.311679 ], [ -81.792897, 41.311669 ], [ -81.792761, 41.31165 ], [ -81.792615, 41.311629 ], [ -81.792526, 41.311628 ], [ -81.79241, 41.311627 ], [ -81.792295, 41.311613 ], [ -81.792147, 41.311579 ], [ -81.79201, 41.311529 ], [ -81.791873, 41.311469 ], [ -81.791789, 41.311435 ], [ -81.791663, 41.311408 ], [ -81.791438, 41.311377 ], [ -81.791035, 41.311319 ], [ -81.7907, 41.311267 ], [ -81.790343, 41.311219 ], [ -81.789991, 41.311178 ], [ -81.78983, 41.311162 ], [ -81.789743, 41.311159 ], [ -81.789678, 41.311166 ], [ -81.789554, 41.311201 ], [ -81.789418, 41.311235 ], [ -81.789345, 41.311246 ], [ -81.789252, 41.311251 ], [ -81.789141, 41.311242 ], [ -81.789049, 41.311224 ], [ -81.7889, 41.311188 ], [ -81.788816, 41.311173 ], [ -81.788749, 41.311171 ], [ -81.788623, 41.311178 ], [ -81.788496, 41.311178 ], [ -81.788384, 41.311175 ], [ -81.788281, 41.311165 ], [ -81.788156, 41.311158 ], [ -81.788029, 41.311154 ], [ -81.787871, 41.311158 ], [ -81.787653, 41.311163 ], [ -81.787455, 41.311163 ], [ -81.787214, 41.311158 ], [ -81.787033, 41.311151 ], [ -81.78693, 41.311143 ], [ -81.786843, 41.311131 ], [ -81.786737, 41.311102 ], [ -81.786614, 41.311068 ], [ -81.786526, 41.311052 ], [ -81.786402, 41.311039 ], [ -81.786273, 41.311022 ], [ -81.786101, 41.310992 ], [ -81.785944, 41.310958 ], [ -81.785786, 41.310919 ], [ -81.785603, 41.310866 ], [ -81.785485, 41.310819 ], [ -81.785394, 41.310771 ] ] } },
{ "type": "Feature", "properties": { "cls": "shared", "highway": "cycleway", "name": "Mill Stream Run All Purpose Trail" }, "geometry": { "type": "MultiLineString", "coordinates": [ [ [ -81.796271, 41.313404 ], [ -81.796276, 41.313292 ] ], [ [ -81.796276, 41.313238 ], [ -81.796276, 41.313182 ] ] ] } },
{ "type": "Feature", "properties": { "cls": "shared", "highway": "cycleway", "name": "Mill Stream Run All Purpose Trail" }, "geometry": { "type": "LineString", "coordinates": [ [ -81.804752, 41.318888 ], [ -81.804713, 41.318934 ], [ -81.804673, 41.319002 ], [ -81.804582, 41.319155 ], [ -81.804498, 41.319284 ], [ -81.804418, 41.319387 ], [ -81.804331, 41.319483 ], [ -81.804248, 41.31956 ], [ -81.804139, 41.319642 ], [ -81.804028, 41.319708 ], [ -81.803897, 41.319774 ], [ -81.803735, 41.319833 ], [ -81.803581, 41.319877 ], [ -81.803403, 41.31991 ], [ -81.803218, 41.319924 ], [ -81.803048, 41.319925 ], [ -81.802867, 41.319914 ], [ -81.802709, 41.319891 ], [ -81.802495, 41.319844 ], [ -81.80228, 41.319788 ], [ -81.802005, 41.319698 ], [ -81.801739, 41.319599 ], [ -81.801563, 41.31952 ], [ -81.801411, 41.319445 ], [ -81.801284, 41.319373 ], [ -81.80118, 41.319305 ], [ -81.801073, 41.319222 ], [ -81.800986, 41.319141 ], [ -81.800907, 41.319053 ], [ -81.800849, 41.318974 ], [ -81.800796, 41.318881 ], [ -81.800751, 41.318789 ], [ -81.800716, 41.318682 ], [ -81.800687, 41.318578 ], [ -81.800684, 41.318566 ], [ -81.800672, 41.318461 ], [ -81.800672, 41.318363 ], [ -81.800696, 41.318216 ], [ -81.800709, 41.318107 ], [ -81.800718, 41.318007 ], [ -81.80072, 41.317923 ], [ -81.800704, 41.31781 ], [ -81.800681, 41.317717 ], [ -81.800629, 41.317588 ], [ -81.800582, 41.3175 ], [ -81.8005, 41.317376 ], [ -81.800418, 41.31727 ], [ -81.800295, 41.317136 ], [ -81.800167, 41.317009 ], [ -81.800037, 41.316895 ], [ -81.799895, 41.316784 ], [ -81.79976, 41.316697 ], [ -81.799591, 41.316597 ], [ -81.799455, 41.316526 ], [ -81.799312, 41.316466 ], [ -81.799136, 41.316402 ], [ -81.798955, 41.31635 ], [ -81.798769, 41.316303 ], [ -81.798483, 41.316238 ], [ -81.798406, 41.316226 ], [ -81.798331, 41.316222 ], [ -81.79817, 41.31622 ], [ -81.797942, 41.316211 ], [ -81.797819, 41.316203 ], [ -81.79771, 41.316189 ], [ -81.797638, 41.316186 ], [ -81.797533, 41.316201 ], [ -81.797465, 41.316208 ], [ -81.797416, 41.316211 ], [ -81.797373, 41.316203 ], [ -81.797325, 41.316185 ], [ -81.797056, 41.31602 ], [ -81.796973, 41.315959 ], [ -81.796946, 41.315926 ], [ -81.796923, 41.315879 ], [ -81.796911, 41.31583 ], [ -81.796904, 41.315779 ], [ -81.796888, 41.315734 ], [ -81.796855, 41.315682 ], [ -81.796806, 41.315621 ], [ -81.796779, 41.315575 ], [ -81.796747, 41.315486 ], [ -81.796718, 41.315425 ], [ -81.79667, 41.315354 ], [ -81.796599, 41.315266 ], [ -81.796552, 41.315204 ], [ -81.796502, 41.315117 ], [ -81.796459, 41.315056 ], [ -81.796418, 41.31498 ], [ -81.796381, 41.314862 ], [ -81.796345, 41.314721 ], [ -81.796335, 41.314652 ], [ -81.796332, 41.314572 ], [ -81.796338, 41.314458 ], [ -81.796336, 41.314386 ], [ -81.796332, 41.314348 ], [ -81.796303, 41.314233 ], [ -81.796288, 41.314163 ], [ -81.79628, 41.314085 ], [ -81.796274, 41.313907 ], [ -81.79627, 41.313647 ], [ -81.796271, 41.313404 ] ] } },
{ "type": "Feature", "properties": { "cls": "shared", "highway": "cycleway", "name": "Mill Stream Run All Purpose Trail" }, "geometry": { "type": "MultiLineString", "coordinates": [ [ [ -81.811349, 41.324039 ], [ -81.811449, 41.324081 ], [ -81.811513, 41.324114 ], [ -81.811569, 41.324156 ], [ -81.81161, 41.324201 ], [ -81.811654, 41.324265 ], [ -81.8117, 41.324305 ], [ -81.81175, 41.324332 ], [ -81.811811, 41.324353 ], [ -81.811905, 41.324377 ], [ -81.812033, 41.324393 ], [ -81.812157, 41.324401 ], [ -81.812458, 41.324408 ], [ -81.812772, 41.324421 ], [ -81.812906, 41.324419 ], [ -81.813014, 41.324412 ], [ -81.81309, 41.324398 ], [ -81.813193, 41.324377 ], [ -81.813308, 41.324345 ], [ -81.813422, 41.324308 ], [ -81.813513, 41.324282 ], [ -81.813629, 41.324261 ], [ -81.813773, 41.324244 ], [ -81.813887, 41.324234 ], [ -81.814003, 41.324231 ], [ -81.814211, 41.324234 ], [ -81.814311, 41.324233 ], [ -81.814397, 41.324224 ], [ -81.814514, 41.324205 ], [ -81.814569, 41.324197 ] ], [ [ -81.814569, 41.324197 ], [ -81.814596, 41.324192 ], [ -81.81466, 41.32419 ], [ -81.814971, 41.324213 ], [ -81.8153, 41.324251 ], [ -81.815469, 41.324277 ], [ -81.815596, 41.324306 ], [ -81.815812, 41.324351 ], [ -81.816102, 41.324417 ], [ -81.816367, 41.324486 ], [ -81.816675, 41.324578 ], [ -81.8169, 41.324656 ], [ -81.817086, 41.324743 ], [ -81.817211, 41.324817 ], [ -81.817313, 41.324899 ], [ -81.81738, 41.324967 ], [ -81.817435, 41.325045 ], [ -81.817498, 41.325116 ], [ -81.817562, 41.325194 ], [ -81.817628, 41.325296 ], [ -81.817678, 41.325392 ], [ -81.817712, 41.325492 ], [ -81.817742, 41.325617 ], [ -81.817791, 41.325827 ], [ -81.817838, 41.32603 ], [ -81.817853, 41.326138 ], [ -81.817864, 41.326311 ], [ -81.817882, 41.326486 ], [ -81.817903, 41.326618 ], [ -81.817923, 41.326714 ], [ -81.817934, 41.326771 ], [ -81.817932, 41.32683 ], [ -81.817924, 41.326909 ], [ -81.81791, 41.327042 ], [ -81.817892, 41.327136 ], [ -81.817861, 41.32726 ], [ -81.817852, 41.327337 ], [ -81.817853, 41.327398 ], [ -81.817868, 41.327489 ], [ -81.817884, 41.327581 ], [ -81.817879, 41.327653 ], [ -81.817878, 41.327737 ], [ -81.817888, 41.327818 ], [ -81.817911, 41.327927 ], [ -81.81794, 41.328054 ], [ -81.817963, 41.328128 ], [ -81.818006, 41.32821 ], [ -81.818072, 41.328314 ], [ -81.818114, 41.32837 ], [ -81.818163, 41.328428 ], [ -81.818206, 41.32848 ], [ -81.818229, 41.328522 ], [ -81.81825, 41.328575 ], [ -81.818296, 41.328677 ], [ -81.81836, 41.328831 ], [ -81.818385, 41.328896 ], [ -81.818391, 41.328937 ], [ -81.818403, 41.328965 ], [ -81.818437, 41.328992 ], [ -81.818485, 41.329022 ], [ -81.818541, 41.329063 ], [ -81.818563, 41.329102 ], [ -81.818583, 41.329162 ], [ -81.818601, 41.329241 ], [ -81.818625, 41.329298 ], [ -81.8187, 41.329421 ], [ -81.818765, 41.329527 ], [ -81.818821, 41.329605 ], [ -81.818885, 41.329661 ], [ -81.818956, 41.329709 ], [ -81.819015, 41.329738 ], [ -81.81908, 41.329751 ], [ -81.819194, 41.329765 ], [ -81.8193, 41.329779 ], [ -81.81937, 41.329794 ], [ -81.819422, 41.329815 ], [ -81.819477, 41.329845 ], [ -81.819529, 41.32987 ], [ -81.819592, 41.329887 ], [ -81.819664, 41.329896 ], [ -81.819713, 41.329908 ], [ -81.819779, 41.329936 ], [ -81.819932, 41.330014 ], [ -81.820056, 41.330083 ], [ -81.820133, 41.330132 ], [ -81.8202, 41.330172 ], [ -81.820264, 41.330196 ], [ -81.820349, 41.330217 ], [ -81.820435, 41.330246 ], [ -81.820521, 41.330288 ], [ -81.820625, 41.330337 ], [ -81.820722, 41.330376 ], [ -81.820774, 41.330393 ], [ -81.820827, 41.330404 ], [ -81.82094, 41.33042 ], [ -81.821033, 41.330447 ], [ -81.821246, 41.33052 ], [ -81.821426, 41.330573 ], [ -81.821598, 41.330619 ], [ -81.821738, 41.330664 ], [ -81.821884, 41.330718 ], [ -81.822051, 41.330786 ], [ -81.822164, 41.330832 ], [ -81.822262, 41.330858 ], [ -81.822328, 41.330868 ], [ -81.822416, 41.330873 ], [ -81.822532, 41.330864 ], [ -81.822662, 41.330854 ], [ -81.822728, 41.330855 ], [ -81.822815, 41.330876 ], [ -81.822982, 41.330914 ], [ -81.823122, 41.330935 ], [ -81.823217, 41.330956 ], [ -81.823285, 41.330982 ], [ -81.823354, 41.331012 ], [ -81.82343, 41.331032 ], [ -81.823509, 41.331039 ], [ -81.823631, 41.331039 ], [ -81.823758, 41.331032 ], [ -81.823851, 41.331024 ], [ -81.823914, 41.331027 ], [ -81.823998, 41.331037 ], [ -81.824117, 41.331055 ], [ -81.824236, 41.331066 ], [ -81.824333, 41.331065 ], [ -81.824433, 41.331052 ], [ -81.824528, 41.331031 ], [ -81.824622, 41.330995 ], [ -81.824712, 41.330955 ], [ -81.824789, 41.330936 ], [ -81.824886, 41.330924 ], [ -81.825024, 41.33092 ], [ -81.825315, 41.330907 ], [ -81.825631, 41.330888 ], [ -81.825856, 41.330871 ], [ -81.825961, 41.330865 ], [ -81.826069, 41.330873 ], [ -81.826252, 41.330886 ], [ -81.826388, 41.330891 ], [ -81.826504, 41.330891 ], [ -81.826634, 41.330878 ], [ -81.82679, 41.330864 ], [ -81.826926, 41.330851 ], [ -81.827043, 41.330835 ], [ -81.827123, 41.330803 ], [ -81.827196, 41.330761 ], [ -81.827286, 41.330703 ], [ -81.827333, 41.330678 ], [ -81.827403, 41.330652 ], [ -81.827662, 41.330599 ], [ -81.827873, 41.330552 ], [ -81.828218, 41.330466 ], [ -81.828455, 41.330406 ], [ -81.828609, 41.330372 ], [ -81.828756, 41.330344 ], [ -81.828926, 41.330307 ], [ -81.82913, 41.330272 ], [ -81.829275, 41.33025 ], [ -81.82939, 41.330237 ], [ -81.829477, 41.330233 ], [ -81.829557, 41.330241 ], [ -81.829639, 41.330257 ], [ -81.829767, 41.330294 ], [ -81.829895, 41.330334 ], [ -81.830013, 41.330389 ], [ -81.830113, 41.330443 ], [ -81.830212, 41.330511 ], [ -81.830275, 41.330571 ], [ -81.830319, 41.330623 ], [ -81.830336, 41.330672 ], [ -81.830343, 41.330724 ], [ -81.830342, 41.330807 ], [ -81.830324, 41.330918 ], [ -81.830292, 41.331027 ], [ -81.830245, 41.331201 ], [ -81.830207, 41.331344 ], [ -81.830193, 41.331447 ], [ -81.830183, 41.331569 ], [ -81.830171, 41.331721 ], [ -81.830158, 41.331887 ], [ -81.830161, 41.332018 ], [ -81.83017, 41.332147 ], [ -81.830187, 41.332174 ], [ -81.830207, 41.332184 ], [ -81.83023, 41.332189 ], [ -81.830258, 41.332192 ] ] ] } },
{ "type": "Feature", "properties": { "cls": "shared", "highway": "cycleway", "name": null }, "geometry": { "type": "LineString", "coordinates": [ [ -81.834786, 41.332519 ], [ -81.834631, 41.332507 ], [ -81.83457, 41.33251 ], [ -81.834501, 41.332511 ], [ -81.834442, 41.332511 ], [ -81.834394, 41.332504 ], [ -81.834344, 41.332485 ], [ -81.834163, 41.33236 ], [ -81.834092, 41.332303 ], [ -81.83403, 41.332244 ], [ -81.833975, 41.332188 ], [ -81.833934, 41.332158 ], [ -81.833898, 41.332149 ], [ -81.833831, 41.332137 ], [ -81.833726, 41.332127 ], [ -81.833648, 41.33213 ], [ -81.833563, 41.33214 ] ] } },
{ "type": "Feature", "properties": { "cls": "shared", "highway": "cycleway", "name": "Bonnie Park Loop Trail" }, "geometry": { "type": "LineString", "coordinates": [ [ -81.833534, 41.332322 ], [ -81.833524, 41.332351 ], [ -81.833514, 41.33238 ] ] } },
{ "type": "Feature", "properties": { "cls": "shared", "highway": "cycleway", "name": "Bonnie Park Loop Trail" }, "geometry": { "type": "LineString", "coordinates": [ [ -81.833514, 41.33238 ], [ -81.833492, 41.332419 ], [ -81.833435, 41.332486 ], [ -81.833335, 41.332609 ], [ -81.833232, 41.332736 ], [ -81.833097, 41.332895 ], [ -81.833014, 41.332993 ], [ -81.832986, 41.333036 ], [ -81.832959, 41.333086 ], [ -81.832926, 41.333164 ], [ -81.832905, 41.333236 ], [ -81.832886, 41.333312 ], [ -81.832858, 41.333415 ], [ -81.83283, 41.333491 ], [ -81.832792, 41.333594 ], [ -81.832768, 41.333649 ], [ -81.832754, 41.333671 ], [ -81.832705, 41.333732 ], [ -81.832654, 41.333796 ], [ -81.832609, 41.333862 ], [ -81.832571, 41.333929 ], [ -81.832542, 41.334004 ], [ -81.832515, 41.334077 ], [ -81.832497, 41.334114 ], [ -81.832474, 41.334154 ], [ -81.83245, 41.334188 ], [ -81.83242, 41.334215 ], [ -81.832383, 41.334233 ], [ -81.832345, 41.334244 ] ] } },
{ "type": "Feature", "properties": { "cls": "shared", "highway": "cycleway", "name": null }, "geometry": { "type": "LineString", "coordinates": [ [ -81.833258, 41.333314 ], [ -81.83324, 41.333343 ], [ -81.833213, 41.333395 ], [ -81.833184, 41.333473 ], [ -81.833177, 41.333501 ], [ -81.833176, 41.333525 ] ] } },
{ "type": "Feature", "properties": { "cls": "shared", "highway": "cycleway", "name": null }, "geometry": { "type": "LineString", "coordinates": [ [ -81.833176, 41.333525 ], [ -81.833233, 41.333636 ], [ -81.833329, 41.333716 ], [ -81.833549, 41.333809 ], [ -81.833721, 41.333837 ], [ -81.83391, 41.333814 ], [ -81.834033, 41.333742 ], [ -81.834277, 41.333652 ], [ -81.834329, 41.33361 ], [ -81.834336, 41.333541 ], [ -81.834274, 41.333494 ], [ -81.834116, 41.333461 ], [ -81.834033, 41.333391 ], [ -81.833917, 41.333275 ], [ -81.833765, 41.333192 ], [ -81.833596, 41.333141 ] ] } },
{ "type": "Feature", "properties": { "cls": "shared", "highway": "cycleway", "name": null }, "geometry": { "type": "LineString", "coordinates": [ [ -81.833176, 41.333525 ], [ -81.833118, 41.333533 ], [ -81.833065, 41.333546 ], [ -81.832967, 41.333574 ], [ -81.832854, 41.333608 ], [ -81.832806, 41.333627 ], [ -81.832768, 41.333649 ] ] } },
{ "type": "Feature", "properties": { "cls": "shared", "highway": "cycleway", "name": "Mill Stream Run All Purpose Trail" }, "geometry": { "type": "LineString", "coordinates": [ [ -81.830258, 41.332192 ], [ -81.830308, 41.332193 ], [ -81.830381, 41.332196 ] ] } },
{ "type": "Feature", "properties": { "cls": "shared", "highway": "cycleway", "name": "Mill Stream Run All Purpose Trail" }, "geometry": { "type": "LineString", "coordinates": [ [ -81.830381, 41.332196 ], [ -81.830426, 41.332197 ], [ -81.830424, 41.332214 ] ] } },
{ "type": "Feature", "properties": { "cls": "shared", "highway": "cycleway", "name": "Bonnie Park Loop Trail" }, "geometry": { "type": "LineString", "coordinates": [ [ -81.830426, 41.332197 ], [ -81.830769, 41.3322 ], [ -81.831086, 41.332204 ], [ -81.831156, 41.332205 ], [ -81.831212, 41.3322 ], [ -81.831271, 41.332182 ], [ -81.831363, 41.332153 ], [ -81.831448, 41.332131 ], [ -81.831515, 41.332119 ], [ -81.831585, 41.332118 ], [ -81.831735, 41.332128 ], [ -81.831845, 41.332137 ], [ -81.831977, 41.332141 ], [ -81.832109, 41.332144 ], [ -81.832279, 41.332158 ], [ -81.832481, 41.332175 ], [ -81.832615, 41.33219 ], [ -81.83273, 41.332204 ], [ -81.832813, 41.332209 ], [ -81.832904, 41.332211 ], [ -81.833005, 41.332207 ], [ -81.833133, 41.332198 ], [ -81.833222, 41.332186 ], [ -81.833274, 41.332174 ], [ -81.833354, 41.332152 ], [ -81.833403, 41.332139 ], [ -81.833454, 41.332137 ], [ -81.833523, 41.33214 ], [ -81.833563, 41.33214 ], [ -81.833548, 41.332209 ], [ -81.833534, 41.332322 ] ] } },
{ "type": "Feature", "properties": { "cls": "shared", "highway": "cycleway", "name": "Mill Stream Run All Purpose Trail" }, "geometry": { "type": "LineString", "coordinates": [ [ -81.830424, 41.332214 ], [ -81.830421, 41.332277 ], [ -81.830418, 41.332323 ] ] } },
{ "type": "Feature", "properties": { "cls": "shared", "highway": "cycleway", "name": "Mill Stream Run All Purpose Trail" }, "geometry": { "type": "LineString", "coordinates": [ [ -81.830418, 41.332323 ], [ -81.83043, 41.332345 ], [ -81.830456, 41.332376 ], [ -81.830493, 41.332401 ], [ -81.830542, 41.332422 ], [ -81.830675, 41.332467 ], [ -81.830766, 41.332506 ], [ -81.83086, 41.332552 ], [ -81.830901, 41.33258 ], [ -81.830925, 41.332613 ], [ -81.830938, 41.332657 ], [ -81.830947, 41.332714 ], [ -81.830944, 41.332818 ], [ -81.83095, 41.33291 ], [ -81.830974, 41.333087 ], [ -81.831002, 41.333312 ], [ -81.831025, 41.333526 ], [ -81.831032, 41.333664 ], [ -81.831037, 41.333916 ], [ -81.831041, 41.334266 ], [ -81.831041, 41.334557 ], [ -81.831047, 41.334706 ], [ -81.831056, 41.334754 ], [ -81.831079, 41.334792 ], [ -81.831113, 41.334827 ], [ -81.831136, 41.334845 ], [ -81.831208, 41.33489 ], [ -81.831291, 41.334934 ], [ -81.831385, 41.334974 ], [ -81.831473, 41.335009 ], [ -81.831532, 41.335036 ], [ -81.831583, 41.335074 ], [ -81.831624, 41.335118 ], [ -81.831672, 41.335191 ], [ -81.831723, 41.33529 ], [ -81.831761, 41.335365 ], [ -81.831801, 41.335421 ], [ -81.831857, 41.335475 ], [ -81.831933, 41.335523 ], [ -81.832035, 41.335572 ], [ -81.832187, 41.335637 ], [ -81.832274, 41.335673 ], [ -81.832322, 41.335707 ], [ -81.832366, 41.335756 ], [ -81.832392, 41.335806 ], [ -81.832407, 41.335865 ], [ -81.832436, 41.335982 ], [ -81.832453, 41.336033 ], [ -81.832466, 41.336064 ], [ -81.832485, 41.336081 ], [ -81.832498, 41.33609 ] ] } },
{ "type": "Feature", "properties": { "cls": "shared", "highway": "cycleway", "name": "Bonnie Park Loop Trail" }, "geometry": { "type": "LineString", "coordinates": [ [ -81.832162, 41.334287 ], [ -81.83201, 41.334316 ], [ -81.831872, 41.334343 ], [ -81.831801, 41.334359 ], [ -81.83173, 41.334383 ], [ -81.831662, 41.334407 ], [ -81.831553, 41.334451 ], [ -81.831509, 41.334473 ], [ -81.831475, 41.3345 ], [ -81.831421, 41.334553 ], [ -81.831358, 41.334623 ], [ -81.831251, 41.334739 ], [ -81.831189, 41.334801 ], [ -81.831136, 41.334845 ] ] } },
{ "type": "Feature", "properties": { "cls": "shared", "highway": "cycleway", "name": "South Quarry Lane Connector" }, "geometry": { "type": "LineString", "coordinates": [ [ -81.858274, 41.353841 ], [ -81.858324, 41.353836 ] ] } },
{ "type": "Feature", "properties": { "cls": "shared", "highway": "cycleway", "name": "South Quarry Lane Connector" }, "geometry": { "type": "LineString", "coordinates": [ [ -81.854756, 41.354324 ], [ -81.854895, 41.354269 ], [ -81.855066, 41.354209 ], [ -81.855222, 41.354154 ], [ -81.855378, 41.354102 ], [ -81.855596, 41.35404 ], [ -81.85575, 41.354002 ], [ -81.855859, 41.353975 ], [ -81.855981, 41.353948 ], [ -81.856122, 41.35391 ], [ -81.856194, 41.353889 ], [ -81.856231, 41.353879 ], [ -81.856307, 41.353874 ], [ -81.856403, 41.353872 ], [ -81.856569, 41.353872 ], [ -81.856709, 41.353875 ], [ -81.856824, 41.35388 ], [ -81.856925, 41.353881 ], [ -81.857021, 41.353878 ], [ -81.857103, 41.353874 ], [ -81.857207, 41.353876 ], [ -81.857288, 41.35388 ], [ -81.857335, 41.353875 ], [ -81.857384, 41.353864 ], [ -81.857448, 41.353854 ], [ -81.857519, 41.35385 ], [ -81.857609, 41.353849 ], [ -81.85767, 41.353855 ], [ -81.857743, 41.353866 ], [ -81.857823, 41.353873 ], [ -81.85791, 41.353874 ], [ -81.857992, 41.353866 ], [ -81.858027, 41.353862 ], [ -81.858101, 41.353863 ], [ -81.858161, 41.35386 ], [ -81.858194, 41.353855 ], [ -81.858232, 41.353844 ], [ -81.858274, 41.353841 ] ] } },
{ "type": "Feature", "properties": { "cls": "shared", "highway": "cycleway", "name": "South Quarry Lane Connector" }, "geometry": { "type": "LineString", "coordinates": [ [ -81.854687, 41.354367 ], [ -81.854722, 41.354345 ], [ -81.854756, 41.354324 ] ] } },
{ "type": "Feature", "properties": { "cls": "shared", "highway": "cycleway", "name": "South Quarry Lane Connector" }, "geometry": { "type": "LineString", "coordinates": [ [ -81.854551, 41.354472 ], [ -81.854575, 41.354449 ], [ -81.854624, 41.354411 ], [ -81.854687, 41.354367 ] ] } },
{ "type": "Feature", "properties": { "cls": "shared", "highway": "cycleway", "name": "Mill Stream Run All Purpose Trail" }, "geometry": { "type": "LineString", "coordinates": [ [ -81.854551, 41.354472 ], [ -81.85469, 41.354564 ], [ -81.854838, 41.354638 ], [ -81.855065, 41.354745 ] ] } },
{ "type": "Feature", "properties": { "cls": "shared", "highway": "cycleway", "name": "Mill Stream Run All Purpose Trail" }, "geometry": { "type": "LineString", "coordinates": [ [ -81.855065, 41.354745 ], [ -81.855105, 41.354767 ], [ -81.85514, 41.354786 ] ] } },
{ "type": "Feature", "properties": { "cls": "shared", "highway": "cycleway", "name": "Mill Stream Run All Purpose Trail" }, "geometry": { "type": "LineString", "coordinates": [ [ -81.85514, 41.354786 ], [ -81.855252, 41.354847 ], [ -81.855372, 41.354892 ], [ -81.85547, 41.354931 ], [ -81.855547, 41.354976 ], [ -81.855667, 41.355067 ], [ -81.855754, 41.355157 ], [ -81.855783, 41.35521 ], [ -81.855807, 41.355291 ], [ -81.85582, 41.355364 ], [ -81.855839, 41.355419 ], [ -81.855877, 41.355461 ], [ -81.855956, 41.355531 ], [ -81.856153, 41.355683 ], [ -81.856301, 41.355804 ], [ -81.856426, 41.355919 ], [ -81.856522, 41.356034 ], [ -81.856608, 41.3562 ], [ -81.856679, 41.356358 ], [ -81.856732, 41.356559 ], [ -81.85676, 41.356704 ], [ -81.85677, 41.356819 ], [ -81.856764, 41.35696 ], [ -81.856773, 41.357058 ], [ -81.856803, 41.3572 ], [ -81.856833, 41.357411 ], [ -81.856874, 41.357705 ], [ -81.856915, 41.357929 ], [ -81.856961, 41.358083 ], [ -81.857016, 41.358228 ], [ -81.857062, 41.358346 ], [ -81.857108, 41.358453 ], [ -81.85725, 41.358695 ], [ -81.857332, 41.358828 ], [ -81.857401, 41.35891 ], [ -81.857509, 41.359054 ], [ -81.857557, 41.359166 ], [ -81.857578, 41.359242 ], [ -81.857593, 41.3593 ], [ -81.857653, 41.359453 ], [ -81.857682, 41.359611 ], [ -81.857694, 41.359749 ], [ -81.857694, 41.359961 ], [ -81.857672, 41.360164 ], [ -81.857642, 41.360334 ], [ -81.857653, 41.360429 ], [ -81.857671, 41.36054 ], [ -81.857661, 41.360611 ], [ -81.857627, 41.360692 ], [ -81.857576, 41.360765 ], [ -81.857465, 41.360866 ], [ -81.857391, 41.360926 ], [ -81.857339, 41.360968 ], [ -81.857265, 41.361036 ], [ -81.857223, 41.361092 ], [ -81.857173, 41.361221 ], [ -81.857116, 41.361347 ], [ -81.857085, 41.3614 ], [ -81.85701, 41.361468 ], [ -81.856829, 41.361624 ], [ -81.856599, 41.361834 ], [ -81.856553, 41.361885 ], [ -81.856529, 41.361956 ], [ -81.856495, 41.362074 ], [ -81.856473, 41.362142 ], [ -81.856439, 41.362194 ], [ -81.856382, 41.362246 ], [ -81.856365, 41.362291 ], [ -81.856356, 41.362346 ], [ -81.856342, 41.362411 ], [ -81.856324, 41.362446 ], [ -81.856281, 41.362486 ], [ -81.856241, 41.362527 ], [ -81.856184, 41.362623 ], [ -81.856146, 41.362716 ], [ -81.856096, 41.362854 ], [ -81.856058, 41.362987 ], [ -81.85605, 41.363058 ], [ -81.85606, 41.363169 ], [ -81.856066, 41.363205 ], [ -81.856068, 41.363226 ], [ -81.856075, 41.363248 ] ] } },
{ "type": "Feature", "properties": { "cls": "shared", "highway": "cycleway", "name": null }, "geometry": { "type": "LineString", "coordinates": [ [ -81.857391, 41.360926 ], [ -81.857441, 41.360945 ], [ -81.857494, 41.360969 ], [ -81.857546, 41.360986 ] ] } },
{ "type": "Feature", "properties": { "cls": "shared", "highway": "cycleway", "name": "Bonnie Park Loop Trail" }, "geometry": { "type": "LineString", "coordinates": [ [ -81.832345, 41.334244 ], [ -81.832162, 41.334287 ] ] } },
{ "type": "Feature", "properties": { "cls": "shared", "highway": "cycleway", "name": null }, "geometry": { "type": "LineString", "coordinates": [ [ -81.832466, 41.336064 ], [ -81.832393, 41.336079 ], [ -81.832343, 41.336087 ], [ -81.832302, 41.336104 ], [ -81.832276, 41.336128 ] ] } },
{ "type": "Feature", "properties": { "cls": "shared", "highway": "cycleway", "name": "Mill Stream Run All Purpose Trail" }, "geometry": { "type": "LineString", "coordinates": [ [ -81.832744, 41.33621 ], [ -81.832776, 41.336226 ] ] } },
{ "type": "Feature", "properties": { "cls": "shared", "highway": "cycleway", "name": null }, "geometry": { "type": "LineString", "coordinates": [ [ -81.84566, 41.336187 ], [ -81.845664, 41.336203 ], [ -81.845676, 41.336253 ] ] } },
{ "type": "Feature", "properties": { "cls": "shared", "highway": "cycleway", "name": "Whitney-Eastland Road Connector" }, "geometry": { "type": "LineString", "coordinates": [ [ -81.845759, 41.336459 ], [ -81.845811, 41.336451 ], [ -81.845873, 41.336452 ], [ -81.845927, 41.33646 ], [ -81.845983, 41.336477 ], [ -81.846062, 41.336512 ], [ -81.846186, 41.336565 ], [ -81.846252, 41.3366 ], [ -81.846317, 41.336644 ], [ -81.84637, 41.336683 ], [ -81.846426, 41.336714 ], [ -81.846484, 41.336739 ], [ -81.846558, 41.336767 ], [ -81.846682, 41.33681 ], [ -81.846753, 41.336832 ], [ -81.846805, 41.33684 ], [ -81.846859, 41.336842 ], [ -81.846977, 41.336835 ], [ -81.847065, 41.336834 ], [ -81.847153, 41.336839 ], [ -81.847231, 41.336851 ], [ -81.847348, 41.336873 ], [ -81.847443, 41.336899 ], [ -81.847576, 41.336941 ] ] } },
{ "type": "Feature", "properties": { "cls": "shared", "highway": "cycleway", "name": "Mill Stream Run All Purpose Trail" }, "geometry": { "type": "LineString", "coordinates": [ [ -81.832776, 41.336226 ], [ -81.832793, 41.336251 ], [ -81.832809, 41.336293 ], [ -81.832827, 41.336323 ], [ -81.832868, 41.336351 ], [ -81.832948, 41.336387 ], [ -81.832997, 41.336403 ], [ -81.833041, 41.336408 ], [ -81.833081, 41.336404 ], [ -81.833132, 41.336394 ], [ -81.833185, 41.336387 ], [ -81.833239, 41.336387 ], [ -81.833289, 41.336396 ], [ -81.833358, 41.336418 ], [ -81.833445, 41.336453 ], [ -81.833504, 41.336487 ], [ -81.833557, 41.336526 ], [ -81.833591, 41.336557 ], [ -81.833616, 41.336588 ], [ -81.833641, 41.336633 ], [ -81.833665, 41.336681 ], [ -81.833696, 41.336714 ], [ -81.833728, 41.336738 ], [ -81.833801, 41.336782 ], [ -81.833938, 41.336862 ], [ -81.834112, 41.336979 ], [ -81.834225, 41.33706 ], [ -81.834347, 41.337159 ], [ -81.83444, 41.337246 ], [ -81.834532, 41.337339 ], [ -81.834648, 41.337467 ], [ -81.83473, 41.33757 ], [ -81.83481, 41.337681 ], [ -81.834912, 41.337837 ], [ -81.83497, 41.337938 ], [ -81.835076, 41.338119 ], [ -81.835174, 41.338306 ], [ -81.835298, 41.338561 ], [ -81.835399, 41.338776 ], [ -81.835487, 41.338971 ], [ -81.835573, 41.339171 ], [ -81.83566, 41.339377 ], [ -81.83572, 41.33952 ], [ -81.835778, 41.339675 ], [ -81.835839, 41.339857 ], [ -81.835885, 41.34001 ], [ -81.835929, 41.340146 ], [ -81.83596, 41.340213 ], [ -81.83599, 41.340257 ], [ -81.836027, 41.34029 ], [ -81.836075, 41.340324 ], [ -81.836158, 41.340373 ], [ -81.83622, 41.340413 ], [ -81.836262, 41.340448 ], [ -81.836286, 41.340486 ], [ -81.836301, 41.340533 ], [ -81.836307, 41.340581 ], [ -81.836303, 41.340635 ], [ -81.836289, 41.34069 ], [ -81.836282, 41.340758 ], [ -81.836286, 41.340816 ], [ -81.836301, 41.340879 ], [ -81.836348, 41.341021 ], [ -81.83638, 41.341098 ], [ -81.836418, 41.341158 ], [ -81.836477, 41.341245 ], [ -81.836511, 41.341298 ], [ -81.836521, 41.341328 ], [ -81.836521, 41.341366 ], [ -81.836508, 41.34141 ], [ -81.836467, 41.341513 ], [ -81.836439, 41.34158 ], [ -81.836417, 41.341614 ], [ -81.836388, 41.341641 ], [ -81.836342, 41.341669 ], [ -81.836221, 41.341734 ], [ -81.836126, 41.341793 ], [ -81.836099, 41.341815 ], [ -81.836087, 41.341853 ], [ -81.836084, 41.341924 ], [ -81.836088, 41.341982 ], [ -81.836094, 41.342008 ] ] } },
{ "type": "Feature", "properties": { "cls": "shared", "highway": "cycleway", "name": "Whitney-Eastland Road Connector" }, "geometry": { "type": "MultiLineString", "coordinates": [ [ [ -81.845676, 41.336253 ], [ -81.845685, 41.336287 ], [ -81.845708, 41.336349 ], [ -81.845759, 41.336459 ], [ -81.845899, 41.336757 ], [ -81.845938, 41.336846 ], [ -81.845971, 41.336934 ], [ -81.845976, 41.336985 ], [ -81.845973, 41.337049 ], [ -81.845961, 41.337107 ], [ -81.845936, 41.337204 ], [ -81.84588, 41.337356 ], [ -81.84578, 41.337618 ], [ -81.845704, 41.337807 ], [ -81.845651, 41.337931 ], [ -81.845601, 41.338053 ], [ -81.845552, 41.338139 ], [ -81.845516, 41.3382 ], [ -81.845445, 41.338291 ], [ -81.845369, 41.338396 ], [ -81.845277, 41.338537 ], [ -81.845213, 41.338631 ], [ -81.845174, 41.33868 ], [ -81.845113, 41.33874 ], [ -81.845073, 41.338794 ], [ -81.84502, 41.338898 ], [ -81.84498, 41.338988 ], [ -81.84494, 41.339098 ], [ -81.844893, 41.339235 ], [ -81.84486, 41.339334 ], [ -81.844763, 41.33954 ], [ -81.84465, 41.339794 ], [ -81.844588, 41.339947 ], [ -81.844524, 41.340088 ], [ -81.844452, 41.340223 ], [ -81.844408, 41.340304 ], [ -81.844358, 41.340378 ], [ -81.844309, 41.340463 ], [ -81.844252, 41.340586 ], [ -81.844206, 41.340687 ], [ -81.844141, 41.340813 ], [ -81.844059, 41.34097 ], [ -81.844, 41.341086 ], [ -81.843938, 41.341213 ], [ -81.843918, 41.341263 ], [ -81.843903, 41.341312 ], [ -81.843894, 41.341358 ], [ -81.843883, 41.341405 ], [ -81.843872, 41.341441 ], [ -81.843854, 41.341477 ], [ -81.843815, 41.341538 ], [ -81.843776, 41.341609 ], [ -81.843748, 41.341676 ], [ -81.843726, 41.341734 ], [ -81.843707, 41.341774 ], [ -81.843644, 41.341889 ], [ -81.843642, 41.341894 ] ], [ [ -81.843086, 41.342784 ], [ -81.843053, 41.342831 ], [ -81.843027, 41.342861 ], [ -81.843007, 41.342876 ], [ -81.842981, 41.342883 ], [ -81.842947, 41.342884 ], [ -81.842786, 41.342876 ], [ -81.842558, 41.342864 ], [ -81.842366, 41.342854 ], [ -81.842273, 41.342849 ], [ -81.842156, 41.342838 ], [ -81.842076, 41.342835 ], [ -81.842013, 41.342839 ], [ -81.841941, 41.342853 ], [ -81.841865, 41.342867 ], [ -81.841786, 41.342877 ], [ -81.841697, 41.342881 ], [ -81.841594, 41.342881 ], [ -81.841507, 41.342879 ], [ -81.841393, 41.342873 ], [ -81.841265, 41.342872 ], [ -81.841024, 41.342874 ], [ -81.840981, 41.342872 ], [ -81.840938, 41.342862 ], [ -81.840887, 41.342843 ], [ -81.840831, 41.342828 ], [ -81.840782, 41.342825 ], [ -81.840754, 41.342826 ] ], [ [ -81.840115, 41.342854 ], [ -81.840086, 41.342861 ], [ -81.840031, 41.34287 ], [ -81.839975, 41.342871 ], [ -81.839882, 41.342866 ], [ -81.839795, 41.342865 ], [ -81.839588, 41.342868 ], [ -81.839416, 41.34287 ], [ -81.839327, 41.342875 ], [ -81.839206, 41.342882 ], [ -81.83904, 41.342884 ], [ -81.838908, 41.342887 ], [ -81.838762, 41.342884 ], [ -81.83865, 41.342877 ], [ -81.838495, 41.342861 ], [ -81.838418, 41.342855 ], [ -81.838269, 41.342854 ], [ -81.837597, 41.34287 ], [ -81.837226, 41.342879 ], [ -81.837007, 41.34289 ] ] ] } },
{ "type": "Feature", "properties": { "cls": "shared", "highway": "cycleway", "name": "Big Creek Bikeway" }, "geometry": { "type": "LineString", "coordinates": [ [ -81.833645, 41.341194 ], [ -81.833654, 41.3412 ], [ -81.833842, 41.341364 ], [ -81.834, 41.341487 ], [ -81.83411, 41.341563 ], [ -81.834263, 41.341627 ], [ -81.834356, 41.341664 ], [ -81.834484, 41.341698 ], [ -81.834611, 41.341716 ], [ -81.834654, 41.341721 ], [ -81.834725, 41.341728 ] ] } },
{ "type": "Feature", "properties": { "cls": "shared", "highway": "cycleway", "name": null }, "geometry": { "type": "LineString", "coordinates": [ [ -81.843872, 41.341441 ], [ -81.843739, 41.341405 ] ] } },
{ "type": "Feature", "properties": { "cls": "shared", "highway": "cycleway", "name": "Big Creek Bikeway" }, "geometry": { "type": "LineString", "coordinates": [ [ -81.834725, 41.341728 ], [ -81.834844, 41.341732 ], [ -81.834975, 41.341735 ], [ -81.835127, 41.341736 ], [ -81.835263, 41.341746 ], [ -81.835377, 41.341765 ], [ -81.835501, 41.341795 ], [ -81.835632, 41.341823 ], [ -81.835697, 41.341831 ], [ -81.835748, 41.341834 ], [ -81.835869, 41.341826 ], [ -81.835948, 41.341826 ] ] } },
{ "type": "Feature", "properties": { "cls": "shared", "highway": "cycleway", "name": "Big Creek Bikeway" }, "geometry": { "type": "LineString", "coordinates": [ [ -81.835948, 41.341826 ], [ -81.836038, 41.341819 ], [ -81.836099, 41.341815 ] ] } },
{ "type": "Feature", "properties": { "cls": "shared", "highway": "cycleway", "name": "Mill Stream Run All Purpose Trail" }, "geometry": { "type": "LineString", "coordinates": [ [ -81.835949, 41.342845 ], [ -81.835945, 41.342865 ], [ -81.835928, 41.342952 ] ] } },
{ "type": "Feature", "properties": { "cls": "shared", "highway": "cycleway", "name": "Whitney-Eastland Road Connector" }, "geometry": { "type": "LineString", "coordinates": [ [ -81.837007, 41.34289 ], [ -81.83667, 41.342903 ] ] } },
{ "type": "Feature", "properties": { "cls": "shared", "highway": "cycleway", "name": "Whitney-Eastland Road Connector" }, "geometry": { "type": "LineString", "coordinates": [ [ -81.83667, 41.342903 ], [ -81.836454, 41.342907 ], [ -81.836439, 41.342914 ], [ -81.836417, 41.342937 ], [ -81.836401, 41.342955 ], [ -81.836384, 41.342971 ], [ -81.836356, 41.342981 ], [ -81.83632, 41.342985 ], [ -81.836208, 41.342983 ], [ -81.836024, 41.342986 ], [ -81.835924, 41.342985 ] ] } },
{ "type": "Feature", "properties": { "cls": "shared", "highway": "cycleway", "name": "Mill Stream Run All Purpose Trail" }, "geometry": { "type": "MultiLineString", "coordinates": [ [ [ -81.835928, 41.342952 ], [ -81.835924, 41.342985 ], [ -81.835915, 41.343019 ], [ -81.835892, 41.343087 ], [ -81.835854, 41.34319 ], [ -81.835781, 41.343312 ], [ -81.835656, 41.343464 ], [ -81.835511, 41.343617 ], [ -81.83538, 41.343739 ], [ -81.835204, 41.343877 ], [ -81.835048, 41.343987 ], [ -81.834943, 41.344079 ], [ -81.834809, 41.344204 ], [ -81.834681, 41.344338 ], [ -81.834587, 41.34446 ], [ -81.834508, 41.344601 ], [ -81.834464, 41.344708 ], [ -81.834446, 41.344801 ], [ -81.834441, 41.344869 ], [ -81.834448, 41.344933 ], [ -81.834479, 41.344997 ], [ -81.834555, 41.345088 ], [ -81.834694, 41.345237 ], [ -81.834733, 41.345287 ], [ -81.834744, 41.34534 ], [ -81.834744, 41.345401 ], [ -81.834755, 41.345442 ], [ -81.834787, 41.345472 ], [ -81.834875, 41.345524 ], [ -81.834976, 41.345587 ], [ -81.835034, 41.345638 ], [ -81.835085, 41.345701 ], [ -81.835109, 41.34577 ], [ -81.835139, 41.345865 ], [ -81.835172, 41.345924 ], [ -81.835233, 41.345995 ], [ -81.835327, 41.346069 ], [ -81.835385, 41.346108 ], [ -81.835449, 41.346132 ], [ -81.835549, 41.346153 ], [ -81.835663, 41.34617 ], [ -81.835867, 41.346227 ], [ -81.836117, 41.346306 ], [ -81.836219, 41.346341 ], [ -81.836262, 41.346366 ], [ -81.836294, 41.346398 ], [ -81.836322, 41.346422 ], [ -81.836369, 41.346437 ], [ -81.836549, 41.346471 ], [ -81.836813, 41.346521 ], [ -81.837081, 41.346568 ], [ -81.837279, 41.346594 ], [ -81.837423, 41.346603 ], [ -81.837543, 41.346596 ], [ -81.837666, 41.346575 ], [ -81.837776, 41.346538 ], [ -81.837908, 41.346473 ], [ -81.838001, 41.346435 ], [ -81.838163, 41.346385 ], [ -81.838267, 41.346358 ], [ -81.838362, 41.346342 ], [ -81.838435, 41.346349 ], [ -81.838502, 41.34637 ], [ -81.838629, 41.346426 ], [ -81.838832, 41.346539 ], [ -81.839045, 41.346648 ], [ -81.839141, 41.346691 ], [ -81.839251, 41.346722 ], [ -81.83932, 41.346729 ], [ -81.839355, 41.346719 ], [ -81.839419, 41.34668 ], [ -81.839497, 41.346637 ], [ -81.839589, 41.346617 ], [ -81.839688, 41.346607 ], [ -81.839778, 41.346607 ], [ -81.839882, 41.346616 ], [ -81.840004, 41.34664 ], [ -81.840112, 41.34665 ], [ -81.840223, 41.346647 ], [ -81.840309, 41.346633 ], [ -81.840374, 41.346604 ], [ -81.840418, 41.346567 ], [ -81.840484, 41.346527 ], [ -81.840547, 41.346506 ], [ -81.840617, 41.346501 ], [ -81.840698, 41.346512 ], [ -81.840751, 41.346535 ], [ -81.840809, 41.346573 ], [ -81.840851, 41.346607 ], [ -81.840884, 41.346636 ], [ -81.840913, 41.346644 ], [ -81.840957, 41.346642 ], [ -81.841117, 41.346625 ], [ -81.841513, 41.346581 ], [ -81.841749, 41.346558 ], [ -81.841867, 41.346543 ], [ -81.841961, 41.346525 ] ], [ [ -81.842573, 41.346703 ], [ -81.842581, 41.346716 ], [ -81.842601, 41.34678 ], [ -81.842609, 41.346825 ], [ -81.842603, 41.346893 ], [ -81.842573, 41.347037 ], [ -81.842546, 41.347117 ], [ -81.842528, 41.347155 ], [ -81.842517, 41.3472 ], [ -81.842512, 41.347261 ], [ -81.842521, 41.347607 ], [ -81.842528, 41.347686 ], [ -81.842547, 41.34776 ], [ -81.84257, 41.347812 ], [ -81.842613, 41.347884 ], [ -81.842669, 41.347949 ], [ -81.842708, 41.34799 ], [ -81.842746, 41.348025 ], [ -81.84277, 41.348063 ], [ -81.842793, 41.348115 ], [ -81.842815, 41.348187 ], [ -81.842838, 41.348315 ], [ -81.842853, 41.348435 ], [ -81.842854, 41.348498 ], [ -81.84285, 41.348565 ], [ -81.842841, 41.348628 ], [ -81.842823, 41.348694 ], [ -81.842809, 41.348751 ], [ -81.842807, 41.348796 ], [ -81.84283, 41.348844 ], [ -81.842866, 41.348889 ], [ -81.842914, 41.348943 ], [ -81.842972, 41.348989 ], [ -81.843025, 41.349022 ], [ -81.843059, 41.349052 ], [ -81.843088, 41.349101 ], [ -81.843138, 41.349197 ], [ -81.84317, 41.349273 ], [ -81.843193, 41.349338 ], [ -81.843223, 41.349391 ], [ -81.84329, 41.349471 ], [ -81.843315, 41.349518 ], [ -81.843337, 41.349585 ], [ -81.843361, 41.349634 ], [ -81.843409, 41.349693 ], [ -81.843513, 41.349866 ], [ -81.843559, 41.349927 ], [ -81.843605, 41.349963 ], [ -81.843667, 41.350003 ], [ -81.843712, 41.350034 ], [ -81.843741, 41.350067 ], [ -81.843775, 41.350117 ], [ -81.843798, 41.350172 ], [ -81.843801, 41.350214 ], [ -81.843791, 41.350252 ], [ -81.843774, 41.350287 ], [ -81.843733, 41.350341 ], [ -81.843724, 41.350367 ], [ -81.843724, 41.350401 ], [ -81.843741, 41.350439 ], [ -81.843816, 41.35056 ], [ -81.84393, 41.350726 ], [ -81.843953, 41.350743 ], [ -81.843975, 41.35075 ], [ -81.844007, 41.350752 ], [ -81.844062, 41.350743 ], [ -81.844178, 41.350739 ], [ -81.844303, 41.350743 ], [ -81.844441, 41.350754 ], [ -81.844583, 41.350786 ], [ -81.844698, 41.350821 ], [ -81.844819, 41.350871 ], [ -81.844927, 41.35093 ], [ -81.845151, 41.351078 ], [ -81.845258, 41.351138 ], [ -81.845335, 41.351171 ], [ -81.845391, 41.351187 ], [ -81.84543, 41.351193 ], [ -81.845464, 41.351196 ], [ -81.845496, 41.351191 ] ] ] } },
{ "type": "Feature", "properties": { "cls": "shared", "highway": "cycleway", "name": "Mill Stream Run All Purpose Trail" }, "geometry": { "type": "LineString", "coordinates": [ [ -81.845496, 41.351191 ], [ -81.845802, 41.351111 ] ] } },
{ "type": "Feature", "properties": { "cls": "shared", "highway": "cycleway", "name": "Mill Stream Run All Purpose Trail" }, "geometry": { "type": "LineString", "coordinates": [ [ -81.845802, 41.351111 ], [ -81.845842, 41.351102 ], [ -81.845891, 41.3511 ], [ -81.845946, 41.35111 ], [ -81.846034, 41.35114 ], [ -81.846107, 41.351173 ], [ -81.846245, 41.351248 ], [ -81.846274, 41.351277 ], [ -81.846282, 41.351299 ] ] } },
{ "type": "Feature", "properties": { "cls": "shared", "highway": "cycleway", "name": "Mill Stream Run All Purpose Trail" }, "geometry": { "type": "LineString", "coordinates": [ [ -81.846282, 41.351299 ], [ -81.846292, 41.351339 ], [ -81.846302, 41.351378 ] ] } },
{ "type": "Feature", "properties": { "cls": "shared", "highway": "cycleway", "name": "Mill Stream Run All Purpose Trail" }, "geometry": { "type": "LineString", "coordinates": [ [ -81.846302, 41.351378 ], [ -81.846311, 41.351404 ], [ -81.84633, 41.35144 ], [ -81.846366, 41.351479 ], [ -81.846443, 41.351542 ], [ -81.846528, 41.351594 ], [ -81.846608, 41.351622 ], [ -81.846681, 41.351639 ], [ -81.846804, 41.351646 ], [ -81.846886, 41.351647 ], [ -81.846985, 41.351634 ], [ -81.847119, 41.351608 ], [ -81.84719, 41.351601 ], [ -81.847251, 41.351603 ], [ -81.8473, 41.351616 ], [ -81.847332, 41.351639 ], [ -81.847368, 41.351675 ], [ -81.847417, 41.351728 ], [ -81.847467, 41.351758 ], [ -81.847556, 41.35179 ], [ -81.847644, 41.351813 ], [ -81.84772, 41.351854 ], [ -81.847785, 41.351886 ], [ -81.847857, 41.351902 ], [ -81.847939, 41.351907 ], [ -81.848101, 41.351904 ], [ -81.848178, 41.351904 ], [ -81.848223, 41.351919 ], [ -81.848258, 41.351941 ], [ -81.848315, 41.352002 ], [ -81.848381, 41.352071 ], [ -81.848435, 41.352117 ], [ -81.848551, 41.352173 ], [ -81.848699, 41.35223 ], [ -81.848791, 41.352255 ], [ -81.848935, 41.352269 ], [ -81.84907, 41.352277 ], [ -81.849188, 41.352277 ], [ -81.849358, 41.352266 ], [ -81.849446, 41.352265 ], [ -81.849544, 41.352277 ], [ -81.84965, 41.352302 ], [ -81.849709, 41.352321 ], [ -81.849758, 41.352339 ], [ -81.849877, 41.352384 ], [ -81.849951, 41.352419 ], [ -81.850014, 41.352467 ], [ -81.850073, 41.352525 ], [ -81.850126, 41.352566 ], [ -81.850188, 41.352597 ], [ -81.850292, 41.352634 ], [ -81.850596, 41.352717 ], [ -81.850932, 41.352814 ], [ -81.851076, 41.352864 ], [ -81.851158, 41.352885 ], [ -81.851329, 41.352916 ], [ -81.851572, 41.352976 ], [ -81.851669, 41.353007 ], [ -81.85174, 41.353043 ], [ -81.851809, 41.353064 ], [ -81.851924, 41.353112 ], [ -81.85203, 41.35316 ], [ -81.852375, 41.353306 ], [ -81.852754, 41.353461 ], [ -81.853145, 41.353647 ], [ -81.853283, 41.353715 ], [ -81.853369, 41.353769 ], [ -81.853426, 41.353806 ], [ -81.853496, 41.353828 ], [ -81.853553, 41.35385 ], [ -81.85359, 41.353882 ], [ -81.85364, 41.353969 ], [ -81.853683, 41.354027 ], [ -81.853712, 41.35405 ], [ -81.853744, 41.354056 ], [ -81.85382, 41.354055 ], [ -81.85391, 41.354068 ], [ -81.85397, 41.354096 ], [ -81.854046, 41.354151 ], [ -81.854178, 41.354254 ], [ -81.854273, 41.354314 ], [ -81.854447, 41.354407 ], [ -81.854551, 41.354472 ] ] } },
{ "type": "Feature", "properties": { "cls": "shared", "highway": "cycleway", "name": null }, "geometry": { "type": "LineString", "coordinates": [ [ -81.857546, 41.360986 ], [ -81.857584, 41.361003 ], [ -81.857629, 41.361024 ] ] } },
{ "type": "Feature", "properties": { "cls": "shared", "highway": "cycleway", "name": null }, "geometry": { "type": "LineString", "coordinates": [ [ -81.857629, 41.361024 ], [ -81.857695, 41.361065 ], [ -81.857735, 41.36109 ], [ -81.857801, 41.361121 ], [ -81.85784, 41.361136 ], [ -81.857883, 41.361131 ], [ -81.857965, 41.3611 ], [ -81.858003, 41.361087 ], [ -81.858057, 41.361081 ] ] } },
{ "type": "Feature", "properties": { "cls": "shared", "highway": "cycleway", "name": null }, "geometry": { "type": "LineString", "coordinates": [ [ -81.858057, 41.361081 ], [ -81.858095, 41.361083 ], [ -81.858139, 41.361085 ] ] } },
{ "type": "Feature", "properties": { "cls": "shared", "highway": "cycleway", "name": null }, "geometry": { "type": "LineString", "coordinates": [ [ -81.858139, 41.361085 ], [ -81.858378, 41.361087 ], [ -81.858424, 41.361069 ], [ -81.858475, 41.361067 ], [ -81.858523, 41.361063 ], [ -81.858524, 41.361135 ], [ -81.858533, 41.361158 ], [ -81.858563, 41.361214 ], [ -81.858566, 41.361313 ], [ -81.858585, 41.361345 ], [ -81.858615, 41.361367 ], [ -81.858656, 41.361379 ], [ -81.858695, 41.36139 ], [ -81.858827, 41.361403 ], [ -81.858912, 41.361399 ], [ -81.859011, 41.361386 ], [ -81.859214, 41.361316 ], [ -81.859276, 41.361427 ], [ -81.859322, 41.361528 ], [ -81.859369, 41.361677 ], [ -81.859395, 41.361797 ], [ -81.859397, 41.361934 ], [ -81.859366, 41.362079 ], [ -81.859309, 41.362192 ], [ -81.859165, 41.362369 ], [ -81.85901, 41.362561 ], [ -81.858867, 41.362734 ], [ -81.858712, 41.362886 ], [ -81.858523, 41.363117 ], [ -81.858388, 41.363355 ], [ -81.858231, 41.363597 ], [ -81.858118, 41.363718 ], [ -81.858008, 41.363854 ], [ -81.857955, 41.363965 ], [ -81.857904, 41.364128 ], [ -81.857855, 41.364262 ], [ -81.857796, 41.364296 ], [ -81.857734, 41.364304 ] ] } },
{ "type": "Feature", "properties": { "cls": "shared", "highway": "cycleway", "name": "North Quarry Lane Connector" }, "geometry": { "type": "LineString", "coordinates": [ [ -81.85606, 41.363169 ], [ -81.85597, 41.363236 ], [ -81.855918, 41.363254 ], [ -81.855859, 41.363266 ], [ -81.855864, 41.363286 ], [ -81.855787, 41.363288 ] ] } },
{ "type": "Feature", "properties": { "cls": "shared", "highway": "footway", "name": null }, "geometry": { "type": "LineString", "coordinates": [ [ -81.854626, 41.363153 ], [ -81.854673, 41.363187 ], [ -81.854706, 41.363229 ], [ -81.854729, 41.363272 ], [ -81.854736, 41.363333 ] ] } },
{ "type": "Feature", "properties": { "cls": "shared", "highway": "cycleway", "name": "North Quarry Lane Connector" }, "geometry": { "type": "LineString", "coordinates": [ [ -81.855787, 41.363288 ], [ -81.855188, 41.363301 ] ] } },
{ "type": "Feature", "properties": { "cls": "shared", "highway": "cycleway", "name": "Mill Stream Run All Purpose Trail" }, "geometry": { "type": "LineString", "coordinates": [ [ -81.856075, 41.363248 ], [ -81.856077, 41.363321 ], [ -81.856078, 41.363371 ] ] } },
{ "type": "Feature", "properties": { "cls": "shared", "highway": "cycleway", "name": "North Quarry Lane Connector" }, "geometry": { "type": "LineString", "coordinates": [ [ -81.855188, 41.363301 ], [ -81.855132, 41.363291 ], [ -81.855021, 41.363282 ], [ -81.854941, 41.363285 ], [ -81.854864, 41.363298 ], [ -81.854768, 41.363325 ], [ -81.854736, 41.363333 ], [ -81.854647, 41.363367 ] ] } },
{ "type": "Feature", "properties": { "cls": "shared", "highway": "cycleway", "name": "North Quarry Lane Connector" }, "geometry": { "type": "LineString", "coordinates": [ [ -81.854647, 41.363367 ], [ -81.854595, 41.36339 ], [ -81.854538, 41.363414 ] ] } },
{ "type": "Feature", "properties": { "cls": "shared", "highway": "cycleway", "name": "North Quarry Lane Connector" }, "geometry": { "type": "LineString", "coordinates": [ [ -81.854538, 41.363414 ], [ -81.85451, 41.363426 ], [ -81.854446, 41.363467 ], [ -81.854382, 41.363518 ], [ -81.854328, 41.363572 ], [ -81.854265, 41.363657 ], [ -81.854195, 41.363762 ], [ -81.854188, 41.36378 ] ] } },
{ "type": "Feature", "properties": { "cls": "shared", "highway": "cycleway", "name": "North Quarry Lane Connector" }, "geometry": { "type": "LineString", "coordinates": [ [ -81.854188, 41.36378 ], [ -81.854162, 41.363865 ] ] } },
{ "type": "Feature", "properties": { "cls": "shared", "highway": "cycleway", "name": "North Quarry Lane Connector" }, "geometry": { "type": "LineString", "coordinates": [ [ -81.854162, 41.363865 ], [ -81.854159, 41.363882 ], [ -81.854154, 41.363965 ], [ -81.85415, 41.364061 ], [ -81.854181, 41.36419 ], [ -81.854249, 41.364325 ], [ -81.854326, 41.364427 ], [ -81.854509, 41.364644 ], [ -81.854522, 41.36466 ], [ -81.854609, 41.364792 ], [ -81.85464, 41.364883 ], [ -81.854641, 41.364987 ], [ -81.854597, 41.365137 ], [ -81.854507, 41.365282 ], [ -81.854419, 41.365353 ], [ -81.854315, 41.365378 ], [ -81.854101, 41.365414 ], [ -81.853987, 41.365417 ] ] } },
{ "type": "Feature", "properties": { "cls": "shared", "highway": "cycleway", "name": "Mill Stream Run All Purpose Trail" }, "geometry": { "type": "LineString", "coordinates": [ [ -81.856078, 41.363371 ], [ -81.856071, 41.363393 ], [ -81.856057, 41.363423 ], [ -81.856021, 41.363483 ], [ -81.855957, 41.36357 ], [ -81.855934, 41.363616 ], [ -81.855931, 41.363656 ], [ -81.855946, 41.363689 ], [ -81.855977, 41.363729 ], [ -81.856013, 41.363779 ], [ -81.856037, 41.363832 ], [ -81.856061, 41.363924 ], [ -81.856083, 41.363968 ], [ -81.856109, 41.364004 ], [ -81.856141, 41.364048 ], [ -81.856151, 41.364087 ], [ -81.856177, 41.364122 ], [ -81.856262, 41.364221 ], [ -81.856311, 41.364279 ], [ -81.856371, 41.364325 ], [ -81.856439, 41.36437 ], [ -81.856465, 41.364401 ], [ -81.856469, 41.364439 ], [ -81.856467, 41.364495 ], [ -81.856447, 41.364574 ], [ -81.856425, 41.364637 ], [ -81.856422, 41.364677 ], [ -81.856433, 41.36471 ], [ -81.856456, 41.364752 ], [ -81.856482, 41.364781 ], [ -81.85657, 41.364851 ], [ -81.856629, 41.364911 ], [ -81.85666, 41.364957 ], [ -81.856708, 41.365013 ], [ -81.85675, 41.365042 ], [ -81.856829, 41.36508 ], [ -81.856889, 41.36511 ], [ -81.856914, 41.365139 ], [ -81.856924, 41.365181 ], [ -81.856926, 41.365257 ], [ -81.856931, 41.365329 ], [ -81.856946, 41.365378 ], [ -81.856975, 41.365438 ], [ -81.856998, 41.365485 ], [ -81.857005, 41.365516 ], [ -81.856999, 41.365676 ], [ -81.856993, 41.3659 ], [ -81.856977, 41.366016 ] ] } },
{ "type": "Feature", "properties": { "cls": "shared", "highway": "footway", "name": null }, "geometry": { "type": "LineString", "coordinates": [ [ -81.853987, 41.365417 ], [ -81.853981, 41.365305 ] ] } },
{ "type": "Feature", "properties": { "cls": "shared", "highway": "cycleway", "name": null }, "geometry": { "type": "LineString", "coordinates": [ [ -81.857018, 41.365489 ], [ -81.856998, 41.365485 ] ] } },
{ "type": "Feature", "properties": { "cls": "shared", "highway": "cycleway", "name": null }, "geometry": { "type": "LineString", "coordinates": [ [ -81.857105, 41.365545 ], [ -81.857062, 41.365517 ], [ -81.857018, 41.365489 ] ] } },
{ "type": "Feature", "properties": { "cls": "shared", "highway": "cycleway", "name": null }, "geometry": { "type": "LineString", "coordinates": [ [ -81.857395, 41.366139 ], [ -81.857383, 41.366129 ], [ -81.857368, 41.366097 ], [ -81.857368, 41.366055 ], [ -81.857366, 41.366014 ], [ -81.857349, 41.365984 ], [ -81.857311, 41.365949 ], [ -81.857253, 41.365906 ], [ -81.857213, 41.365869 ], [ -81.857204, 41.365842 ], [ -81.857193, 41.365795 ], [ -81.857187, 41.365742 ], [ -81.857182, 41.365661 ], [ -81.857175, 41.365607 ], [ -81.857164, 41.365586 ], [ -81.857149, 41.365574 ], [ -81.857105, 41.365545 ] ] } },
{ "type": "Feature", "properties": { "cls": "shared", "highway": "cycleway", "name": "Mill Stream Run All Purpose Trail" }, "geometry": { "type": "MultiLineString", "coordinates": [ [ [ -81.856977, 41.366016 ], [ -81.856955, 41.366104 ], [ -81.85692, 41.366185 ], [ -81.856868, 41.366276 ], [ -81.856807, 41.366356 ], [ -81.856706, 41.366482 ], [ -81.856582, 41.366646 ], [ -81.856565, 41.366669 ] ], [ [ -81.856488, 41.366797 ], [ -81.856476, 41.366821 ], [ -81.856463, 41.366858 ], [ -81.856435, 41.367011 ], [ -81.856426, 41.36713 ], [ -81.856428, 41.367239 ] ], [ [ -81.856429, 41.36728 ], [ -81.856436, 41.367552 ], [ -81.856431, 41.367757 ], [ -81.856411, 41.367918 ] ], [ [ -81.856383, 41.368052 ], [ -81.856377, 41.368081 ], [ -81.856355, 41.368137 ], [ -81.856306, 41.368224 ], [ -81.856252, 41.368298 ] ] ] } },
{ "type": "Feature", "properties": { "cls": "shared", "highway": "cycleway", "name": "All Purpose Trail" }, "geometry": { "type": "LineString", "coordinates": [ [ -81.855707, 41.368054 ], [ -81.855704, 41.368102 ], [ -81.855703, 41.368186 ], [ -81.855704, 41.368226 ], [ -81.855709, 41.368382 ], [ -81.855705, 41.368444 ], [ -81.855693, 41.368482 ], [ -81.855654, 41.368531 ], [ -81.855547, 41.36864 ], [ -81.855376, 41.368795 ], [ -81.855309, 41.368856 ], [ -81.855207, 41.368955 ] ] } },
{ "type": "Feature", "properties": { "cls": "shared", "highway": "cycleway", "name": "All Purpose Trail" }, "geometry": { "type": "LineString", "coordinates": [ [ -81.85574, 41.369211 ], [ -81.855207, 41.368955 ], [ -81.854886, 41.368809 ], [ -81.854649, 41.368691 ], [ -81.854593, 41.36864 ], [ -81.854561, 41.368564 ], [ -81.854544, 41.368501 ], [ -81.854544, 41.3684 ], [ -81.854544, 41.368045 ] ] } },
{ "type": "Feature", "properties": { "cls": "shared", "highway": "cycleway", "name": "Mill Stream Run All Purpose Trail" }, "geometry": { "type": "LineString", "coordinates": [ [ -81.856252, 41.368298 ], [ -81.856178, 41.368442 ], [ -81.856094, 41.368586 ], [ -81.85604, 41.368657 ], [ -81.855967, 41.368742 ], [ -81.85593, 41.368813 ], [ -81.855919, 41.368889 ], [ -81.855918, 41.368996 ], [ -81.855889, 41.369064 ], [ -81.855831, 41.369136 ], [ -81.85574, 41.369211 ], [ -81.855851, 41.369337 ], [ -81.855977, 41.369465 ], [ -81.856068, 41.369571 ], [ -81.856164, 41.369708 ], [ -81.856241, 41.3698 ], [ -81.85632, 41.369868 ], [ -81.85641, 41.369921 ], [ -81.856567, 41.369988 ], [ -81.856796, 41.370074 ], [ -81.856959, 41.370124 ], [ -81.85709, 41.370158 ], [ -81.857174, 41.370162 ], [ -81.85726, 41.370147 ], [ -81.85733, 41.370122 ], [ -81.85744, 41.370091 ], [ -81.857544, 41.370086 ], [ -81.857651, 41.370093 ], [ -81.857755, 41.370133 ], [ -81.857852, 41.370198 ], [ -81.857971, 41.370249 ], [ -81.858075, 41.370269 ], [ -81.858208, 41.370276 ], [ -81.858362, 41.370265 ], [ -81.858501, 41.37024 ], [ -81.858779, 41.370173 ], [ -81.85898, 41.370138 ], [ -81.859134, 41.370132 ], [ -81.859353, 41.370149 ], [ -81.859561, 41.370181 ], [ -81.85973, 41.370233 ], [ -81.859821, 41.370269 ], [ -81.859963, 41.370333 ], [ -81.860089, 41.370418 ], [ -81.860213, 41.37052 ], [ -81.860427, 41.370714 ], [ -81.860575, 41.370854 ], [ -81.860694, 41.370967 ], [ -81.860793, 41.371057 ], [ -81.860868, 41.371136 ], [ -81.860979, 41.371236 ], [ -81.861072, 41.371319 ], [ -81.861146, 41.371371 ], [ -81.861224, 41.371422 ], [ -81.861327, 41.371517 ], [ -81.861402, 41.371592 ], [ -81.861457, 41.371626 ], [ -81.861578, 41.371666 ], [ -81.861732, 41.371705 ], [ -81.861767, 41.371724 ], [ -81.861791, 41.371737 ], [ -81.86184, 41.371784 ], [ -81.86189, 41.371865 ], [ -81.861953, 41.371956 ], [ -81.861987, 41.372014 ], [ -81.862052, 41.372088 ], [ -81.862114, 41.372126 ], [ -81.862204, 41.372177 ], [ -81.862285, 41.372225 ], [ -81.862337, 41.372271 ], [ -81.862382, 41.372329 ], [ -81.862427, 41.37241 ], [ -81.862492, 41.372506 ], [ -81.862564, 41.372601 ], [ -81.862608, 41.372654 ], [ -81.862628, 41.372681 ], [ -81.86263, 41.372705 ], [ -81.862621, 41.372727 ] ] } },
{ "type": "Feature", "properties": { "cls": "shared", "highway": "cycleway", "name": null }, "geometry": { "type": "LineString", "coordinates": [ [ -81.861767, 41.371724 ], [ -81.861754, 41.371694 ], [ -81.861706, 41.371632 ], [ -81.8616, 41.371507 ], [ -81.861485, 41.371367 ], [ -81.861423, 41.371283 ], [ -81.861369, 41.371232 ], [ -81.86133, 41.371199 ], [ -81.861094, 41.371014 ] ] } },
{ "type": "Feature", "properties": { "cls": "shared", "highway": "cycleway", "name": "Rocky River All Purpose Trail" }, "geometry": { "type": "LineString", "coordinates": [ [ -81.862621, 41.372727 ], [ -81.862623, 41.372734 ] ] } }
]
}
