{
"type": "FeatureCollection",
"name": "097-bristol-steele-creek-park",
"crs": { "type": "name", "properties": { "name": "urn:ogc:def:crs:OGC:1.3:CRS84" } },
"xy_coordinate_resolution": 1e-06,
"features": [
{ "type": "Feature", "properties": { "cls": "shared", "highway": "path", "name": null }, "geometry": { "type": "LineString", "coordinates": [ [ -82.249391, 36.545967 ], [ -82.249927, 36.545884 ], [ -82.250231, 36.545774 ], [ -82.250752, 36.545732 ], [ -82.251148, 36.545842 ], [ -82.251481, 36.546144 ], [ -82.25173, 36.546399 ], [ -82.252393, 36.546589 ], [ -82.252851, 36.54673 ], [ -82.253222, 36.546793 ], [ -82.253799, 36.546725 ], [ -82.254174, 36.546696 ], [ -82.254448, 36.54678 ], [ -82.25485, 36.546966 ], [ -82.255119, 36.547104 ], [ -82.255184, 36.547135 ] ] } },
{ "type": "Feature", "properties": { "cls": "shared", "highway": "path", "name": "Slagle Hollow Trail" }, "geometry": { "type": "LineString", "coordinates": [ [ -82.248261, 36.554367 ], [ -82.248322, 36.554121 ], [ -82.248427, 36.553776 ], [ -82.248494, 36.553392 ], [ -82.248394, 36.553147 ], [ -82.248316, 36.553003 ], [ -82.248305, 36.552857 ], [ -82.248375, 36.552716 ], [ -82.248404, 36.552394 ], [ -82.24851, 36.552094 ], [ -82.248644, 36.551781 ], [ -82.248816, 36.551339 ], [ -82.249227, 36.550933 ], [ -82.249938, 36.550507 ], [ -82.251069, 36.549859 ], [ -82.251416, 36.549459 ], [ -82.252118, 36.548944 ], [ -82.252764, 36.548486 ], [ -82.25336, 36.548277 ], [ -82.253875, 36.547909 ], [ -82.254651, 36.547423 ], [ -82.255184, 36.547135 ], [ -82.255378, 36.54703 ], [ -82.255866, 36.547028 ], [ -82.256109, 36.54703 ], [ -82.256483, 36.54695 ], [ -82.257078, 36.546579 ], [ -82.257534, 36.546249 ], [ -82.257837, 36.546221 ], [ -82.258049, 36.546074 ], [ -82.258154, 36.545718 ], [ -82.258379, 36.545493 ], [ -82.258911, 36.545102 ], [ -82.259602, 36.544797 ], [ -82.259853, 36.54459 ], [ -82.260067, 36.544374 ], [ -82.260406, 36.544052 ] ] } },
{ "type": "Feature", "properties": { "cls": "shared", "highway": "path", "name": "Carden Ridge Trail" }, "geometry": { "type": "MultiLineString", "coordinates": [ [ [ -82.26513, 36.545731 ], [ -82.265112, 36.545778 ], [ -82.265079, 36.545878 ], [ -82.265042, 36.546041 ], [ -82.26501, 36.546188 ], [ -82.265031, 36.546237 ] ], [ [ -82.26499, 36.546358 ], [ -82.264918, 36.546404 ], [ -82.264854, 36.546466 ], [ -82.264682, 36.5466 ], [ -82.264565, 36.546651 ], [ -82.264454, 36.546741 ], [ -82.264395, 36.546816 ], [ -82.264334, 36.546825 ], [ -82.264301, 36.546965 ], [ -82.264158, 36.547044 ], [ -82.26399, 36.54714 ], [ -82.263755, 36.547191 ], [ -82.263613, 36.547171 ], [ -82.263498, 36.547179 ], [ -82.263461, 36.547235 ], [ -82.263321, 36.547154 ], [ -82.263221, 36.547146 ], [ -82.263133, 36.54714 ], [ -82.262925, 36.547243 ], [ -82.262898, 36.547285 ], [ -82.262888, 36.547328 ], [ -82.262951, 36.547469 ], [ -82.262936, 36.54758 ], [ -82.262905, 36.54768 ], [ -82.2628, 36.547747 ], [ -82.26279, 36.5478 ], [ -82.262764, 36.547992 ], [ -82.26273, 36.548252 ], [ -82.262751, 36.548272 ], [ -82.262724, 36.548361 ], [ -82.262619, 36.548407 ], [ -82.262551, 36.548579 ], [ -82.262511, 36.548768 ], [ -82.262487, 36.548905 ], [ -82.262507, 36.548967 ], [ -82.26248, 36.549209 ], [ -82.262434, 36.549386 ], [ -82.262339, 36.549581 ], [ -82.26222, 36.549658 ], [ -82.262221, 36.549703 ], [ -82.262181, 36.549748 ], [ -82.262074, 36.549824 ], [ -82.262014, 36.549952 ], [ -82.261889, 36.550058 ], [ -82.26182, 36.550148 ], [ -82.261352, 36.550378 ], [ -82.261173, 36.550665 ], [ -82.261107, 36.550832 ], [ -82.261008, 36.550848 ], [ -82.260762, 36.550988 ], [ -82.260697, 36.551115 ], [ -82.260667, 36.551217 ], [ -82.260358, 36.551309 ], [ -82.260249, 36.551386 ], [ -82.26016, 36.551399 ], [ -82.260023, 36.551498 ], [ -82.259854, 36.551585 ], [ -82.259764, 36.551608 ], [ -82.259558, 36.551624 ], [ -82.259343, 36.551623 ], [ -82.259225, 36.55161 ], [ -82.259068, 36.551624 ], [ -82.258916, 36.551519 ], [ -82.258861, 36.551489 ], [ -82.258819, 36.55151 ], [ -82.258819, 36.551545 ], [ -82.258766, 36.551608 ], [ -82.25872, 36.551727 ], [ -82.258635, 36.551823 ], [ -82.258613, 36.552111 ], [ -82.258683, 36.55226 ], [ -82.258668, 36.552367 ], [ -82.258656, 36.552499 ], [ -82.258604, 36.552562 ], [ -82.258561, 36.55272 ], [ -82.258506, 36.552859 ], [ -82.258417, 36.553053 ], [ -82.258401, 36.553116 ], [ -82.258438, 36.553206 ], [ -82.258422, 36.553282 ], [ -82.258334, 36.55337 ], [ -82.258182, 36.55358 ], [ -82.258096, 36.553639 ], [ -82.258023, 36.553726 ], [ -82.258285, 36.553719 ], [ -82.258407, 36.553788 ], [ -82.258443, 36.553867 ], [ -82.258565, 36.553894 ], [ -82.25874, 36.554028 ], [ -82.25886, 36.554227 ], [ -82.258957, 36.554391 ], [ -82.259111, 36.55442 ], [ -82.259343, 36.554526 ], [ -82.259491, 36.554632 ], [ -82.25973, 36.554694 ], [ -82.259829, 36.554685 ], [ -82.259965, 36.55463 ], [ -82.260005, 36.554556 ], [ -82.260003, 36.554488 ], [ -82.260027, 36.554422 ], [ -82.260094, 36.554437 ], [ -82.260138, 36.554526 ], [ -82.260209, 36.554592 ], [ -82.260284, 36.55472 ], [ -82.260384, 36.554746 ], [ -82.260452, 36.554806 ] ] ] } },
{ "type": "Feature", "properties": { "cls": "shared", "highway": "path", "name": "South Ridge Trail" }, "geometry": { "type": "LineString", "coordinates": [ [ -82.225617, 36.560577 ], [ -82.225768, 36.560437 ], [ -82.225912, 36.560404 ], [ -82.225993, 36.560313 ], [ -82.22616, 36.560255 ], [ -82.226297, 36.56026 ], [ -82.226358, 36.560244 ], [ -82.226488, 36.560194 ], [ -82.226562, 36.560164 ], [ -82.226746, 36.560159 ], [ -82.226871, 36.560129 ], [ -82.226952, 36.560123 ], [ -82.227093, 36.560076 ], [ -82.227231, 36.560004 ], [ -82.227372, 36.559978 ], [ -82.227531, 36.559944 ], [ -82.227631, 36.55995 ], [ -82.227709, 36.559936 ], [ -82.227787, 36.559842 ], [ -82.2279, 36.559741 ], [ -82.227964, 36.559631 ], [ -82.227991, 36.559538 ], [ -82.228012, 36.559446 ], [ -82.228032, 36.55935 ], [ -82.22809, 36.559275 ], [ -82.228129, 36.559217 ], [ -82.228239, 36.559165 ], [ -82.228363, 36.559105 ], [ -82.22854, 36.559013 ], [ -82.228666, 36.55891 ], [ -82.228775, 36.558828 ], [ -82.22883, 36.558741 ], [ -82.228866, 36.558617 ], [ -82.228908, 36.55849 ], [ -82.228972, 36.558432 ], [ -82.229078, 36.558378 ], [ -82.229186, 36.558349 ], [ -82.229305, 36.55833 ], [ -82.229393, 36.558297 ], [ -82.229501, 36.558241 ], [ -82.229622, 36.558167 ], [ -82.229712, 36.558097 ], [ -82.229781, 36.557993 ], [ -82.229802, 36.557884 ], [ -82.229841, 36.557787 ], [ -82.229865, 36.557645 ], [ -82.229921, 36.55747 ], [ -82.229956, 36.55726 ], [ -82.229983, 36.557132 ], [ -82.230044, 36.557023 ], [ -82.23013, 36.556977 ], [ -82.230254, 36.556972 ], [ -82.230356, 36.556938 ], [ -82.230505, 36.556883 ], [ -82.230671, 36.556821 ], [ -82.230826, 36.55679 ], [ -82.231008, 36.556734 ], [ -82.231224, 36.556661 ], [ -82.231374, 36.556592 ], [ -82.231438, 36.556548 ], [ -82.231522, 36.556492 ], [ -82.231583, 36.556421 ], [ -82.231659, 36.556309 ], [ -82.231811, 36.556154 ], [ -82.231924, 36.556056 ], [ -82.232046, 36.556038 ], [ -82.232232, 36.556032 ], [ -82.232335, 36.556027 ], [ -82.232462, 36.555988 ], [ -82.232686, 36.555968 ], [ -82.232842, 36.556009 ], [ -82.232962, 36.555991 ], [ -82.233168, 36.556064 ], [ -82.233291, 36.556146 ], [ -82.233375, 36.556201 ], [ -82.233523, 36.556249 ], [ -82.233612, 36.556292 ], [ -82.233695, 36.556337 ], [ -82.233741, 36.556389 ], [ -82.233839, 36.556445 ], [ -82.23389, 36.556477 ], [ -82.233947, 36.556525 ], [ -82.234032, 36.556523 ], [ -82.234167, 36.55648 ], [ -82.234382, 36.556449 ], [ -82.234528, 36.556422 ], [ -82.234718, 36.55641 ], [ -82.234901, 36.556427 ], [ -82.235053, 36.556384 ], [ -82.235141, 36.556346 ], [ -82.235257, 36.556264 ], [ -82.235326, 36.556184 ], [ -82.235405, 36.556036 ], [ -82.235461, 36.555826 ], [ -82.235498, 36.555611 ], [ -82.235543, 36.555506 ], [ -82.235639, 36.555403 ], [ -82.235731, 36.5553 ], [ -82.235854, 36.555235 ], [ -82.235997, 36.555182 ], [ -82.236178, 36.55511 ], [ -82.236321, 36.555015 ], [ -82.236463, 36.554993 ], [ -82.236606, 36.555006 ], [ -82.236755, 36.555002 ], [ -82.236842, 36.55501 ], [ -82.236961, 36.554937 ], [ -82.237144, 36.554858 ], [ -82.237293, 36.554801 ], [ -82.237457, 36.554645 ], [ -82.237549, 36.554475 ], [ -82.237676, 36.554338 ], [ -82.237954, 36.554222 ], [ -82.23822, 36.554166 ], [ -82.238428, 36.554106 ], [ -82.238638, 36.553954 ], [ -82.238735, 36.553829 ], [ -82.23878, 36.553631 ], [ -82.23868, 36.55336 ], [ -82.238637, 36.55296 ], [ -82.238658, 36.552812 ], [ -82.238725, 36.552691 ], [ -82.238846, 36.55254 ], [ -82.238952, 36.552476 ], [ -82.239068, 36.552385 ], [ -82.23909, 36.552324 ], [ -82.2393, 36.552231 ], [ -82.239753, 36.5523 ], [ -82.239966, 36.552371 ], [ -82.240135, 36.55238 ], [ -82.240352, 36.552331 ], [ -82.240536, 36.5522 ], [ -82.240707, 36.552156 ], [ -82.240873, 36.552087 ], [ -82.241087, 36.55199 ], [ -82.241196, 36.551918 ], [ -82.241259, 36.55177 ], [ -82.241286, 36.551601 ], [ -82.241278, 36.551404 ], [ -82.241349, 36.551173 ], [ -82.24155, 36.550903 ], [ -82.241815, 36.550559 ], [ -82.241869, 36.550441 ], [ -82.241906, 36.550349 ], [ -82.242003, 36.550293 ], [ -82.242059, 36.55012 ], [ -82.242137, 36.550047 ], [ -82.242268, 36.549889 ], [ -82.242341, 36.549827 ], [ -82.242519, 36.549649 ], [ -82.242763, 36.549458 ], [ -82.243042, 36.54931 ], [ -82.243196, 36.549279 ], [ -82.243403, 36.549284 ], [ -82.243517, 36.549282 ], [ -82.243742, 36.54935 ], [ -82.244026, 36.549442 ], [ -82.244194, 36.549461 ], [ -82.244354, 36.549372 ], [ -82.244507, 36.549293 ], [ -82.244629, 36.549277 ], [ -82.244838, 36.549172 ], [ -82.244998, 36.549016 ], [ -82.245122, 36.548817 ], [ -82.245147, 36.548603 ], [ -82.245204, 36.548452 ], [ -82.24518, 36.548227 ], [ -82.245172, 36.548133 ], [ -82.245219, 36.548008 ], [ -82.24529, 36.547922 ], [ -82.245464, 36.547859 ], [ -82.245726, 36.547854 ], [ -82.245783, 36.547894 ], [ -82.245949, 36.54792 ], [ -82.24607, 36.547993 ], [ -82.24631, 36.548077 ], [ -82.246492, 36.548097 ], [ -82.246707, 36.548122 ], [ -82.246923, 36.548087 ], [ -82.247082, 36.547977 ], [ -82.247241, 36.547879 ], [ -82.247508, 36.547738 ], [ -82.247703, 36.547636 ], [ -82.247973, 36.547484 ], [ -82.248315, 36.547274 ], [ -82.248531, 36.547094 ], [ -82.248718, 36.546958 ], [ -82.248869, 36.546726 ], [ -82.249005, 36.546497 ], [ -82.249144, 36.546323 ], [ -82.249323, 36.546148 ], [ -82.249392, 36.545969 ], [ -82.249391, 36.545967 ], [ -82.249329, 36.545808 ], [ -82.249274, 36.545607 ], [ -82.249229, 36.545481 ], [ -82.249216, 36.545438 ] ] } },
{ "type": "Feature", "properties": { "cls": "shared", "highway": "path", "name": "North Ridge Trail" }, "geometry": { "type": "LineString", "coordinates": [ [ -82.252896, 36.559801 ], [ -82.252991, 36.559781 ], [ -82.253064, 36.559795 ], [ -82.253136, 36.559776 ], [ -82.253233, 36.559725 ], [ -82.253312, 36.559635 ], [ -82.253371, 36.559532 ], [ -82.253402, 36.559444 ], [ -82.253487, 36.559336 ], [ -82.253547, 36.559245 ], [ -82.25364, 36.559154 ], [ -82.25371, 36.559112 ], [ -82.253765, 36.559035 ], [ -82.253849, 36.55897 ], [ -82.254013, 36.558883 ], [ -82.254116, 36.558851 ], [ -82.254208, 36.558794 ], [ -82.254328, 36.558754 ], [ -82.25444, 36.558747 ], [ -82.25454, 36.558767 ], [ -82.254641, 36.558747 ], [ -82.254735, 36.558729 ], [ -82.254848, 36.55874 ], [ -82.254946, 36.558779 ], [ -82.255012, 36.558843 ], [ -82.255074, 36.558879 ], [ -82.255156, 36.558888 ], [ -82.255245, 36.558855 ], [ -82.255441, 36.558786 ], [ -82.255541, 36.558728 ], [ -82.255644, 36.558704 ], [ -82.255747, 36.558697 ], [ -82.255906, 36.558659 ], [ -82.25601, 36.558617 ], [ -82.256204, 36.558545 ], [ -82.256342, 36.558502 ], [ -82.256497, 36.558457 ], [ -82.256628, 36.558396 ], [ -82.256793, 36.558326 ], [ -82.256952, 36.558259 ], [ -82.257082, 36.558187 ], [ -82.257167, 36.558115 ], [ -82.25724, 36.558033 ], [ -82.257285, 36.557933 ], [ -82.25736, 36.557765 ], [ -82.257434, 36.557611 ], [ -82.257488, 36.55744 ], [ -82.257542, 36.557247 ], [ -82.257615, 36.557145 ], [ -82.257767, 36.557013 ], [ -82.257829, 36.556962 ], [ -82.257906, 36.556874 ], [ -82.25803, 36.556838 ], [ -82.258171, 36.556862 ], [ -82.258285, 36.556874 ], [ -82.258362, 36.556931 ], [ -82.258367, 36.557002 ], [ -82.25851, 36.55703 ], [ -82.258731, 36.557038 ], [ -82.258824, 36.557035 ], [ -82.258928, 36.556977 ], [ -82.259142, 36.556792 ], [ -82.259368, 36.55659 ], [ -82.259473, 36.556331 ], [ -82.259603, 36.556097 ], [ -82.259688, 36.555853 ], [ -82.25979, 36.555595 ], [ -82.260061, 36.555228 ], [ -82.260327, 36.554922 ], [ -82.260452, 36.554806 ], [ -82.260644, 36.554627 ], [ -82.260907, 36.554456 ], [ -82.260941, 36.554435 ] ] } },
{ "type": "Feature", "properties": { "cls": "shared", "highway": "path", "name": "Logging Road" }, "geometry": { "type": "LineString", "coordinates": [ [ -82.236842, 36.55501 ], [ -82.236953, 36.555052 ], [ -82.237052, 36.555056 ], [ -82.237184, 36.555145 ], [ -82.237409, 36.555165 ], [ -82.237549, 36.555263 ], [ -82.237707, 36.55536 ], [ -82.237837, 36.55539 ], [ -82.237962, 36.55541 ], [ -82.238108, 36.555453 ], [ -82.238247, 36.555524 ], [ -82.238333, 36.555599 ], [ -82.238416, 36.555644 ], [ -82.238525, 36.55567 ], [ -82.23867, 36.55575 ], [ -82.238818, 36.555761 ], [ -82.238986, 36.555818 ], [ -82.239112, 36.555809 ], [ -82.239306, 36.55582 ], [ -82.23945, 36.55586 ], [ -82.239592, 36.555886 ], [ -82.239772, 36.555907 ], [ -82.24001, 36.555919 ], [ -82.240201, 36.555922 ], [ -82.240353, 36.555897 ], [ -82.240493, 36.555871 ], [ -82.240619, 36.555815 ], [ -82.240745, 36.555755 ], [ -82.240858, 36.555657 ], [ -82.240919, 36.55558 ], [ -82.240944, 36.555494 ], [ -82.240982, 36.555411 ], [ -82.241086, 36.555286 ], [ -82.24121, 36.555215 ], [ -82.241285, 36.555204 ], [ -82.241398, 36.555147 ], [ -82.241536, 36.555141 ], [ -82.241805, 36.555142 ], [ -82.24204, 36.555151 ], [ -82.242215, 36.555114 ], [ -82.242364, 36.555085 ], [ -82.242494, 36.555044 ], [ -82.242623, 36.554978 ], [ -82.242702, 36.554917 ], [ -82.242753, 36.554794 ], [ -82.242817, 36.554721 ], [ -82.242929, 36.554678 ], [ -82.242968, 36.554576 ], [ -82.243014, 36.554478 ], [ -82.243079, 36.554407 ], [ -82.24317, 36.554379 ], [ -82.24325, 36.554246 ], [ -82.243311, 36.554162 ], [ -82.24345, 36.554172 ], [ -82.243517, 36.554202 ], [ -82.243627, 36.554129 ], [ -82.243766, 36.554063 ], [ -82.24388, 36.554006 ], [ -82.244009, 36.553999 ], [ -82.244148, 36.554005 ], [ -82.244302, 36.553899 ], [ -82.244424, 36.553818 ], [ -82.244574, 36.55374 ], [ -82.244712, 36.55368 ], [ -82.244834, 36.553677 ], [ -82.244952, 36.553688 ], [ -82.245054, 36.553689 ], [ -82.245143, 36.553625 ], [ -82.245241, 36.553529 ], [ -82.245317, 36.553412 ], [ -82.2454, 36.553324 ], [ -82.24555, 36.553159 ], [ -82.245734, 36.553078 ], [ -82.245884, 36.553047 ], [ -82.24602, 36.553034 ], [ -82.24614, 36.553053 ], [ -82.246244, 36.553061 ], [ -82.246415, 36.553172 ], [ -82.246539, 36.553195 ], [ -82.246741, 36.553325 ], [ -82.24687, 36.553395 ], [ -82.247021, 36.553491 ], [ -82.247134, 36.553552 ], [ -82.247332, 36.553558 ], [ -82.247456, 36.553553 ], [ -82.247585, 36.553499 ], [ -82.247677, 36.553461 ], [ -82.247801, 36.553482 ], [ -82.247877, 36.553575 ], [ -82.247907, 36.553694 ], [ -82.247909, 36.553761 ], [ -82.247873, 36.553936 ], [ -82.247776, 36.554081 ], [ -82.24775, 36.554205 ], [ -82.247811, 36.554298 ], [ -82.247877, 36.554328 ], [ -82.247936, 36.554355 ], [ -82.248181, 36.554352 ], [ -82.248261, 36.554367 ], [ -82.24839, 36.55439 ], [ -82.248441, 36.554399 ], [ -82.248603, 36.554428 ], [ -82.248821, 36.554513 ], [ -82.248993, 36.554691 ], [ -82.249112, 36.554789 ], [ -82.249216, 36.554822 ], [ -82.249341, 36.554898 ], [ -82.249425, 36.555006 ], [ -82.249431, 36.555101 ], [ -82.249342, 36.555236 ], [ -82.24934, 36.555411 ] ] } },
{ "type": "Feature", "properties": { "cls": "shared", "highway": "path", "name": "Tulip Tree Trail" }, "geometry": { "type": "LineString", "coordinates": [ [ -82.259829, 36.554685 ], [ -82.259855, 36.554735 ], [ -82.259813, 36.55483 ], [ -82.259698, 36.554888 ], [ -82.259647, 36.554994 ], [ -82.259507, 36.554988 ], [ -82.259379, 36.555036 ], [ -82.259329, 36.55516 ], [ -82.259216, 36.555216 ], [ -82.259144, 36.555285 ], [ -82.259006, 36.555329 ], [ -82.258919, 36.555419 ], [ -82.25887, 36.555609 ], [ -82.258644, 36.55572 ], [ -82.258508, 36.55575 ], [ -82.258389, 36.555793 ], [ -82.258247, 36.555789 ], [ -82.258015, 36.555722 ], [ -82.257858, 36.555644 ], [ -82.257723, 36.555626 ], [ -82.257619, 36.55556 ], [ -82.257473, 36.555557 ], [ -82.257379, 36.555633 ], [ -82.257112, 36.555675 ], [ -82.256875, 36.555736 ], [ -82.25672, 36.55576 ], [ -82.256598, 36.555735 ], [ -82.256423, 36.55565 ], [ -82.256303, 36.555567 ], [ -82.25618, 36.555535 ], [ -82.256061, 36.555435 ], [ -82.255698, 36.555293 ], [ -82.255579, 36.555302 ], [ -82.255407, 36.555267 ], [ -82.255138, 36.555166 ], [ -82.254882, 36.555178 ], [ -82.254548, 36.555123 ], [ -82.254338, 36.555072 ], [ -82.254224, 36.555111 ], [ -82.254104, 36.55509 ], [ -82.254014, 36.55519 ], [ -82.25363, 36.555178 ], [ -82.253372, 36.555244 ], [ -82.253239, 36.555318 ], [ -82.253031, 36.555382 ], [ -82.252899, 36.555397 ], [ -82.252788, 36.555356 ], [ -82.252661, 36.555282 ], [ -82.252368, 36.555217 ], [ -82.252115, 36.555189 ], [ -82.251849, 36.55527 ], [ -82.251588, 36.555258 ], [ -82.251377, 36.555163 ], [ -82.251124, 36.555198 ], [ -82.250731, 36.555115 ], [ -82.250544, 36.555146 ], [ -82.250345, 36.555172 ], [ -82.250018, 36.555097 ], [ -82.249721, 36.554991 ], [ -82.249613, 36.554993 ], [ -82.249464, 36.554998 ], [ -82.249425, 36.555006 ] ] } },
{ "type": "Feature", "properties": { "cls": "shared", "highway": "path", "name": "Logging Road" }, "geometry": { "type": "LineString", "coordinates": [ [ -82.250959, 36.560819 ], [ -82.250818, 36.560806 ], [ -82.250573, 36.560823 ], [ -82.250401, 36.560837 ], [ -82.250302, 36.560809 ], [ -82.250289, 36.560721 ], [ -82.250309, 36.56052 ], [ -82.250317, 36.560363 ], [ -82.250234, 36.560151 ], [ -82.250133, 36.559978 ], [ -82.249971, 36.559777 ], [ -82.249796, 36.55956 ], [ -82.249705, 36.559476 ], [ -82.249486, 36.559387 ], [ -82.249358, 36.559359 ], [ -82.249062, 36.559368 ], [ -82.248843, 36.55942 ], [ -82.248669, 36.55952 ], [ -82.248558, 36.559607 ], [ -82.248458, 36.559637 ], [ -82.248316, 36.559611 ] ] } },
{ "type": "Feature", "properties": { "cls": "shared", "highway": "path", "name": "North Ridge Trail" }, "geometry": { "type": "LineString", "coordinates": [ [ -82.250959, 36.560819 ], [ -82.251056, 36.560768 ], [ -82.25122, 36.560671 ], [ -82.251326, 36.560614 ], [ -82.251382, 36.560599 ], [ -82.251506, 36.560565 ], [ -82.251677, 36.560455 ], [ -82.251804, 36.560356 ], [ -82.251945, 36.560276 ], [ -82.252006, 36.560214 ], [ -82.252056, 36.560196 ], [ -82.252133, 36.560184 ], [ -82.252221, 36.560153 ], [ -82.252275, 36.560105 ], [ -82.252313, 36.560059 ], [ -82.252422, 36.560036 ], [ -82.252553, 36.559994 ], [ -82.252641, 36.559956 ], [ -82.252701, 36.559898 ], [ -82.252787, 36.559853 ], [ -82.252896, 36.559801 ] ] } },
{ "type": "Feature", "properties": { "cls": "shared", "highway": "path", "name": "Slagle Hollow Trail" }, "geometry": { "type": "LineString", "coordinates": [ [ -82.24934, 36.555411 ], [ -82.249319, 36.55566 ], [ -82.249248, 36.555826 ], [ -82.249155, 36.556147 ], [ -82.249056, 36.556598 ], [ -82.249002, 36.556791 ], [ -82.248986, 36.556954 ], [ -82.248974, 36.557196 ], [ -82.248989, 36.557285 ], [ -82.248868, 36.557419 ], [ -82.248868, 36.55755 ], [ -82.248842, 36.557722 ], [ -82.248912, 36.557814 ], [ -82.248932, 36.557935 ], [ -82.248979, 36.558149 ], [ -82.249013, 36.558332 ], [ -82.248988, 36.558494 ], [ -82.248991, 36.558623 ], [ -82.248972, 36.558742 ], [ -82.248849, 36.558882 ], [ -82.248748, 36.559045 ], [ -82.248644, 36.559147 ], [ -82.248502, 36.559244 ], [ -82.248415, 36.559358 ], [ -82.248377, 36.559445 ], [ -82.248326, 36.559569 ], [ -82.248316, 36.559611 ], [ -82.248256, 36.559815 ], [ -82.248182, 36.559992 ], [ -82.248062, 36.560195 ], [ -82.247855, 36.560458 ], [ -82.24763, 36.560674 ], [ -82.247206, 36.56101 ], [ -82.246623, 36.561467 ], [ -82.246191, 36.561779 ], [ -82.245763, 36.562047 ], [ -82.245481, 36.562249 ], [ -82.245316, 36.562402 ], [ -82.244954, 36.562562 ], [ -82.244639, 36.562616 ], [ -82.244399, 36.562654 ], [ -82.244083, 36.562665 ], [ -82.243734, 36.562669 ], [ -82.243402, 36.562698 ], [ -82.243112, 36.562763 ], [ -82.242869, 36.562876 ], [ -82.242701, 36.562982 ], [ -82.242587, 36.563153 ], [ -82.242569, 36.563297 ], [ -82.242572, 36.563401 ], [ -82.242559, 36.563492 ], [ -82.24249, 36.563656 ], [ -82.242368, 36.563781 ], [ -82.242273, 36.563891 ], [ -82.242192, 36.564046 ], [ -82.242047, 36.564184 ], [ -82.241915, 36.564282 ], [ -82.24184, 36.56441 ], [ -82.241772, 36.564559 ], [ -82.241774, 36.564674 ], [ -82.241727, 36.564722 ], [ -82.241569, 36.564729 ], [ -82.241415, 36.564749 ], [ -82.241083, 36.564845 ], [ -82.240663, 36.564975 ], [ -82.240385, 36.565065 ], [ -82.240166, 36.56524 ], [ -82.240001, 36.565452 ], [ -82.239886, 36.565648 ], [ -82.239793, 36.565859 ], [ -82.239774, 36.566004 ], [ -82.239745, 36.566116 ], [ -82.239698, 36.566183 ], [ -82.239566, 36.566185 ], [ -82.239463, 36.566149 ], [ -82.239287, 36.566117 ], [ -82.239117, 36.566143 ], [ -82.238985, 36.566215 ], [ -82.238916, 36.566223 ], [ -82.238881, 36.566144 ], [ -82.238838, 36.566012 ], [ -82.238705, 36.565875 ], [ -82.238583, 36.565773 ], [ -82.23857, 36.565698 ], [ -82.238627, 36.565643 ], [ -82.238725, 36.565625 ], [ -82.238882, 36.565617 ], [ -82.238966, 36.56558 ], [ -82.238974, 36.565502 ], [ -82.238912, 36.565445 ], [ -82.238735, 36.565416 ], [ -82.238571, 36.565411 ], [ -82.238411, 36.565392 ], [ -82.238255, 36.565391 ], [ -82.238054, 36.565396 ] ] } },
{ "type": "Feature", "properties": { "cls": "shared", "highway": "path", "name": "Cross Rdige Trail" }, "geometry": { "type": "LineString", "coordinates": [ [ -82.233947, 36.556525 ], [ -82.233876, 36.556589 ], [ -82.233863, 36.556657 ], [ -82.233842, 36.556699 ], [ -82.233807, 36.556732 ], [ -82.233752, 36.556798 ], [ -82.233665, 36.556999 ], [ -82.233629, 36.557074 ], [ -82.233585, 36.55715 ], [ -82.23353, 36.557237 ], [ -82.233441, 36.557326 ], [ -82.233381, 36.557384 ], [ -82.233345, 36.557465 ], [ -82.233315, 36.557567 ], [ -82.233274, 36.557658 ], [ -82.23322, 36.557755 ], [ -82.233161, 36.557828 ], [ -82.233089, 36.557899 ], [ -82.233002, 36.557981 ], [ -82.232934, 36.558082 ], [ -82.232893, 36.558173 ], [ -82.232872, 36.558282 ], [ -82.232866, 36.558361 ], [ -82.232883, 36.558439 ], [ -82.232914, 36.558493 ], [ -82.23295, 36.558578 ], [ -82.232939, 36.558684 ], [ -82.232965, 36.558765 ], [ -82.232991, 36.558834 ], [ -82.23306, 36.558913 ], [ -82.233149, 36.558995 ], [ -82.233183, 36.559057 ], [ -82.233274, 36.559221 ], [ -82.233358, 36.559321 ], [ -82.233456, 36.559396 ], [ -82.233571, 36.559462 ], [ -82.233678, 36.559535 ], [ -82.23377, 36.559586 ], [ -82.23388, 36.559603 ], [ -82.234026, 36.559627 ], [ -82.234148, 36.559673 ], [ -82.234313, 36.559698 ], [ -82.234551, 36.559711 ], [ -82.234798, 36.559724 ], [ -82.234936, 36.559729 ], [ -82.235023, 36.559767 ], [ -82.235128, 36.559826 ], [ -82.235234, 36.559894 ], [ -82.235344, 36.559972 ], [ -82.235448, 36.560025 ], [ -82.235584, 36.560074 ], [ -82.235758, 36.560148 ], [ -82.235858, 36.560232 ], [ -82.235939, 36.560314 ], [ -82.236017, 36.560429 ], [ -82.236059, 36.560545 ], [ -82.236186, 36.560655 ], [ -82.236314, 36.560856 ], [ -82.236419, 36.560985 ], [ -82.236535, 36.56114 ], [ -82.236594, 36.561213 ], [ -82.236613, 36.561264 ], [ -82.236588, 36.561346 ], [ -82.236594, 36.561434 ], [ -82.236584, 36.56161 ], [ -82.236571, 36.561683 ], [ -82.236521, 36.561819 ], [ -82.236457, 36.561984 ], [ -82.236438, 36.56216 ], [ -82.236437, 36.562381 ], [ -82.23643, 36.562658 ], [ -82.236402, 36.562812 ], [ -82.236352, 36.562982 ], [ -82.236309, 36.563073 ], [ -82.23627, 36.563201 ], [ -82.236265, 36.563344 ], [ -82.236277, 36.563453 ], [ -82.236297, 36.563557 ], [ -82.236351, 36.563644 ], [ -82.23642, 36.563734 ], [ -82.236466, 36.563793 ], [ -82.236509, 36.563877 ], [ -82.23655, 36.563932 ], [ -82.236566, 36.564009 ], [ -82.236574, 36.564094 ], [ -82.236575, 36.564182 ], [ -82.236573, 36.564234 ], [ -82.236615, 36.564278 ], [ -82.236672, 36.564325 ], [ -82.236806, 36.564444 ], [ -82.236907, 36.564522 ], [ -82.237054, 36.564608 ], [ -82.237186, 36.564706 ], [ -82.237275, 36.564794 ], [ -82.237359, 36.564851 ], [ -82.237456, 36.564889 ], [ -82.237562, 36.564915 ], [ -82.237633, 36.56496 ], [ -82.237711, 36.565023 ], [ -82.237863, 36.565125 ], [ -82.237938, 36.565209 ], [ -82.237974, 36.565273 ], [ -82.237996, 36.565355 ], [ -82.237988, 36.56553 ], [ -82.237972, 36.565589 ] ] } },
{ "type": "Feature", "properties": { "cls": "shared", "highway": "path", "name": "North Ridge Trail" }, "geometry": { "type": "LineString", "coordinates": [ [ -82.237974, 36.565273 ], [ -82.238033, 36.565333 ], [ -82.238054, 36.565396 ], [ -82.238064, 36.565481 ], [ -82.238061, 36.565514 ], [ -82.238051, 36.565612 ], [ -82.23806, 36.565791 ], [ -82.238123, 36.566045 ], [ -82.238157, 36.566161 ], [ -82.238154, 36.566308 ], [ -82.238194, 36.566475 ], [ -82.238254, 36.566613 ], [ -82.23833, 36.566728 ], [ -82.238438, 36.566815 ], [ -82.238527, 36.566884 ], [ -82.238631, 36.566974 ], [ -82.238727, 36.56704 ], [ -82.238831, 36.567081 ], [ -82.238929, 36.567123 ], [ -82.23903, 36.567206 ], [ -82.239118, 36.567263 ], [ -82.239232, 36.56731 ], [ -82.239306, 36.567323 ], [ -82.239344, 36.56731 ], [ -82.239416, 36.567252 ], [ -82.239505, 36.567191 ], [ -82.239583, 36.567099 ], [ -82.239682, 36.567004 ], [ -82.239815, 36.566886 ], [ -82.239982, 36.566791 ], [ -82.240112, 36.566726 ], [ -82.240323, 36.566669 ], [ -82.240544, 36.566651 ], [ -82.24078, 36.566688 ], [ -82.24094, 36.566731 ], [ -82.241111, 36.566812 ], [ -82.24123, 36.566844 ], [ -82.241395, 36.566843 ], [ -82.241485, 36.566813 ], [ -82.241617, 36.566717 ], [ -82.241726, 36.566632 ], [ -82.241861, 36.566474 ], [ -82.24193, 36.566353 ], [ -82.241999, 36.566246 ], [ -82.242091, 36.566165 ], [ -82.242108, 36.566091 ], [ -82.242135, 36.566009 ], [ -82.242226, 36.565916 ], [ -82.242387, 36.565827 ], [ -82.242568, 36.565763 ], [ -82.24269, 36.5657 ], [ -82.24276, 36.565647 ], [ -82.242787, 36.565557 ], [ -82.24282, 36.565459 ], [ -82.242899, 36.565313 ], [ -82.242955, 36.565231 ], [ -82.243074, 36.565149 ], [ -82.243159, 36.565091 ], [ -82.243327, 36.56499 ], [ -82.243503, 36.564927 ], [ -82.243664, 36.564871 ], [ -82.243757, 36.564823 ], [ -82.24388, 36.564713 ], [ -82.243955, 36.564598 ], [ -82.243983, 36.564492 ], [ -82.244039, 36.564366 ], [ -82.244114, 36.56424 ], [ -82.244191, 36.564177 ], [ -82.244323, 36.56407 ], [ -82.244443, 36.563999 ], [ -82.244625, 36.56394 ], [ -82.244789, 36.563905 ], [ -82.244909, 36.563907 ], [ -82.245039, 36.563909 ], [ -82.245171, 36.563902 ], [ -82.245379, 36.563859 ], [ -82.245485, 36.563813 ], [ -82.245531, 36.563772 ], [ -82.245595, 36.563717 ], [ -82.245687, 36.563677 ], [ -82.245785, 36.563677 ], [ -82.245826, 36.563645 ], [ -82.245847, 36.5636 ], [ -82.245895, 36.563552 ], [ -82.245972, 36.563486 ], [ -82.246063, 36.563433 ], [ -82.246131, 36.563373 ], [ -82.24616, 36.563334 ], [ -82.246184, 36.563222 ], [ -82.246232, 36.563136 ], [ -82.246294, 36.56305 ], [ -82.246353, 36.56295 ], [ -82.246506, 36.562805 ], [ -82.246621, 36.562745 ], [ -82.246796, 36.562693 ], [ -82.246901, 36.562674 ], [ -82.247069, 36.562686 ], [ -82.247248, 36.562667 ], [ -82.247417, 36.562666 ], [ -82.247661, 36.562647 ], [ -82.247776, 36.562619 ], [ -82.247891, 36.562585 ], [ -82.248022, 36.562581 ], [ -82.248116, 36.562543 ], [ -82.248198, 36.562491 ], [ -82.248304, 36.562433 ], [ -82.248395, 36.562381 ], [ -82.248524, 36.562363 ], [ -82.248608, 36.562337 ], [ -82.248661, 36.562268 ], [ -82.248709, 36.562189 ], [ -82.248795, 36.562133 ], [ -82.248867, 36.562076 ], [ -82.248919, 36.561992 ], [ -82.24898, 36.56192 ], [ -82.249042, 36.561848 ], [ -82.249142, 36.561782 ], [ -82.249267, 36.561708 ], [ -82.249324, 36.561654 ], [ -82.249442, 36.561598 ], [ -82.249505, 36.56157 ], [ -82.24957, 36.5615 ], [ -82.249643, 36.561447 ], [ -82.249721, 36.561418 ], [ -82.249868, 36.561417 ], [ -82.250001, 36.561413 ], [ -82.250093, 36.561377 ], [ -82.250176, 36.561322 ], [ -82.250245, 36.561236 ], [ -82.250314, 36.561183 ], [ -82.250372, 36.561145 ], [ -82.250503, 36.561118 ], [ -82.250573, 36.561103 ], [ -82.25064, 36.561045 ], [ -82.250699, 36.56104 ], [ -82.250775, 36.560986 ], [ -82.250831, 36.560906 ], [ -82.250906, 36.560847 ], [ -82.250959, 36.560819 ] ] } },
{ "type": "Feature", "properties": { "cls": "shared", "highway": "path", "name": "High Ridge Trail" }, "geometry": { "type": "LineString", "coordinates": [ [ -82.231788, 36.565608 ], [ -82.231839, 36.565592 ], [ -82.231922, 36.565565 ], [ -82.232012, 36.565517 ], [ -82.232127, 36.56545 ], [ -82.232229, 36.565369 ], [ -82.232341, 36.565288 ], [ -82.232457, 36.565207 ], [ -82.232582, 36.565104 ], [ -82.232698, 36.565017 ], [ -82.232747, 36.564983 ], [ -82.232801, 36.564961 ], [ -82.232863, 36.564917 ], [ -82.232962, 36.564837 ], [ -82.23303, 36.564794 ], [ -82.233078, 36.564782 ], [ -82.233143, 36.564746 ], [ -82.233233, 36.564677 ], [ -82.23331, 36.564645 ], [ -82.233389, 36.564607 ], [ -82.233538, 36.564526 ], [ -82.233615, 36.56448 ], [ -82.233682, 36.564437 ], [ -82.233749, 36.564409 ], [ -82.233805, 36.56439 ], [ -82.233867, 36.564373 ], [ -82.233931, 36.564338 ], [ -82.23403, 36.564276 ], [ -82.2341, 36.56425 ], [ -82.234183, 36.564244 ], [ -82.234242, 36.56423 ], [ -82.234324, 36.564186 ], [ -82.234573, 36.564084 ], [ -82.234689, 36.564037 ], [ -82.234776, 36.564002 ], [ -82.234822, 36.563962 ], [ -82.234885, 36.563901 ], [ -82.234926, 36.563881 ], [ -82.234999, 36.563878 ], [ -82.235073, 36.563878 ], [ -82.235144, 36.563861 ], [ -82.235299, 36.56382 ], [ -82.23545, 36.563804 ], [ -82.235511, 36.563814 ], [ -82.235588, 36.563854 ], [ -82.235636, 36.563865 ], [ -82.235668, 36.563874 ], [ -82.235716, 36.563872 ], [ -82.235825, 36.563858 ], [ -82.235946, 36.56384 ], [ -82.236063, 36.563823 ], [ -82.236126, 36.563828 ], [ -82.236252, 36.563849 ], [ -82.236287, 36.563861 ], [ -82.23633, 36.56388 ], [ -82.236369, 36.563879 ], [ -82.2364, 36.563871 ], [ -82.236456, 36.563867 ], [ -82.236509, 36.563877 ] ] } },
{ "type": "Feature", "properties": { "cls": "shared", "highway": "path", "name": "Hemlock Hollow trail" }, "geometry": { "type": "LineString", "coordinates": [ [ -82.237972, 36.565589 ], [ -82.237926, 36.565663 ], [ -82.237826, 36.565818 ], [ -82.237745, 36.566017 ], [ -82.237654, 36.566229 ], [ -82.237606, 36.566328 ], [ -82.237598, 36.566392 ], [ -82.237603, 36.566442 ], [ -82.237576, 36.566466 ], [ -82.23755, 36.566459 ], [ -82.237537, 36.566411 ], [ -82.237534, 36.566356 ], [ -82.237527, 36.566312 ], [ -82.237494, 36.566246 ], [ -82.237445, 36.566171 ], [ -82.237424, 36.566103 ], [ -82.237392, 36.566049 ], [ -82.237384, 36.56595 ], [ -82.237392, 36.565809 ], [ -82.237409, 36.565722 ], [ -82.237428, 36.565643 ], [ -82.237422, 36.565547 ], [ -82.237411, 36.565486 ], [ -82.237374, 36.56543 ], [ -82.237333, 36.565403 ], [ -82.23729, 36.565399 ], [ -82.237242, 36.565404 ], [ -82.237185, 36.565426 ], [ -82.237141, 36.565429 ], [ -82.237066, 36.565428 ], [ -82.236994, 36.565423 ], [ -82.236958, 36.565413 ], [ -82.236931, 36.565421 ], [ -82.236943, 36.565448 ], [ -82.236973, 36.565458 ], [ -82.237037, 36.565472 ], [ -82.237106, 36.565489 ], [ -82.237172, 36.565512 ], [ -82.237198, 36.565557 ], [ -82.23718, 36.565599 ], [ -82.237157, 36.565631 ], [ -82.237111, 36.565661 ], [ -82.237044, 36.565713 ], [ -82.23699, 36.565774 ], [ -82.236958, 36.56582 ], [ -82.236942, 36.565889 ], [ -82.236925, 36.565951 ], [ -82.236913, 36.566022 ], [ -82.236889, 36.566095 ], [ -82.236861, 36.566177 ], [ -82.23685, 36.566266 ], [ -82.236848, 36.566356 ], [ -82.236861, 36.566424 ], [ -82.236869, 36.566503 ], [ -82.236889, 36.566588 ], [ -82.236892, 36.566693 ], [ -82.236901, 36.566769 ], [ -82.236913, 36.566872 ], [ -82.236908, 36.566953 ], [ -82.236904, 36.567055 ], [ -82.236899, 36.567234 ], [ -82.236896, 36.567301 ], [ -82.236885, 36.567346 ], [ -82.236839, 36.567383 ], [ -82.236794, 36.567412 ], [ -82.236725, 36.567443 ], [ -82.236667, 36.567487 ], [ -82.236604, 36.567551 ], [ -82.236574, 36.567586 ], [ -82.236553, 36.567634 ], [ -82.236529, 36.567681 ], [ -82.236521, 36.567709 ], [ -82.23651, 36.567759 ], [ -82.236488, 36.567784 ], [ -82.236465, 36.5678 ], [ -82.236447, 36.567783 ], [ -82.236437, 36.567738 ], [ -82.236441, 36.567706 ], [ -82.236454, 36.567642 ], [ -82.236481, 36.567551 ], [ -82.23651, 36.567426 ], [ -82.236521, 36.56738 ], [ -82.236526, 36.567326 ], [ -82.236518, 36.567298 ], [ -82.236496, 36.567291 ], [ -82.236474, 36.567308 ], [ -82.236458, 36.567358 ], [ -82.236443, 36.567399 ], [ -82.236429, 36.567439 ], [ -82.236392, 36.567479 ], [ -82.236349, 36.567531 ], [ -82.236293, 36.567577 ], [ -82.236235, 36.567664 ], [ -82.236165, 36.567765 ], [ -82.236127, 36.567816 ], [ -82.236078, 36.567863 ], [ -82.236047, 36.567904 ], [ -82.236025, 36.567963 ], [ -82.235999, 36.568042 ], [ -82.235989, 36.568113 ], [ -82.235985, 36.568199 ], [ -82.236014, 36.568282 ], [ -82.236051, 36.568348 ], [ -82.236106, 36.568446 ], [ -82.236148, 36.568508 ], [ -82.236188, 36.568553 ], [ -82.236253, 36.568639 ], [ -82.236311, 36.568722 ], [ -82.236327, 36.568787 ], [ -82.236348, 36.568861 ], [ -82.236397, 36.568975 ], [ -82.236435, 36.569051 ], [ -82.23646, 36.569123 ], [ -82.236454, 36.569166 ], [ -82.236424, 36.569199 ], [ -82.236369, 36.569239 ] ] } },
{ "type": "Feature", "properties": { "cls": "shared", "highway": "path", "name": "Overlook Trail" }, "geometry": { "type": "LineString", "coordinates": [ [ -82.23378, 36.568821 ], [ -82.233753, 36.568932 ], [ -82.233758, 36.569122 ], [ -82.233771, 36.569285 ], [ -82.233824, 36.569402 ], [ -82.233933, 36.569491 ], [ -82.234039, 36.569617 ], [ -82.234075, 36.569676 ], [ -82.234015, 36.569793 ], [ -82.233991, 36.569889 ], [ -82.233889, 36.57001 ] ] } },
{ "type": "Feature", "properties": { "cls": "shared", "highway": "path", "name": "Hemlock Hollow Trail" }, "geometry": { "type": "LineString", "coordinates": [ [ -82.236316, 36.569284 ], [ -82.23631, 36.569387 ], [ -82.236289, 36.569453 ], [ -82.236238, 36.569547 ], [ -82.236131, 36.569735 ], [ -82.235923, 36.570073 ], [ -82.235719, 36.570359 ] ] } },
{ "type": "Feature", "properties": { "cls": "shared", "highway": "path", "name": "Hemlock Hollow Trail" }, "geometry": { "type": "LineString", "coordinates": [ [ -82.235719, 36.570359 ], [ -82.235649, 36.570475 ], [ -82.23525, 36.570768 ], [ -82.23511, 36.570871 ], [ -82.235035, 36.570921 ] ] } },
{ "type": "Feature", "properties": { "cls": "shared", "highway": "path", "name": "Paw Paw Ridge Trail" }, "geometry": { "type": "LineString", "coordinates": [ [ -82.232939, 36.558684 ], [ -82.232327, 36.558772 ], [ -82.231721, 36.558901 ], [ -82.231509, 36.559063 ], [ -82.231292, 36.559427 ], [ -82.231143, 36.559537 ], [ -82.230889, 36.559747 ], [ -82.230822, 36.559859 ], [ -82.230709, 36.559929 ], [ -82.230643, 36.559954 ], [ -82.230464, 36.560151 ], [ -82.230219, 36.560388 ], [ -82.229902, 36.560574 ], [ -82.229742, 36.560665 ], [ -82.229695, 36.560766 ], [ -82.229599, 36.560845 ], [ -82.229525, 36.560943 ], [ -82.229359, 36.561046 ], [ -82.22924, 36.561102 ], [ -82.229102, 36.561196 ], [ -82.22875, 36.561455 ], [ -82.228652, 36.561557 ], [ -82.22849, 36.561626 ], [ -82.228366, 36.561734 ], [ -82.228185, 36.561946 ], [ -82.228044, 36.562106 ], [ -82.227924, 36.562272 ], [ -82.227809, 36.562412 ], [ -82.227682, 36.562545 ] ] } },
{ "type": "Feature", "properties": { "cls": "shared", "highway": "cycleway", "name": "Lakeside Trail" }, "geometry": { "type": "LineString", "coordinates": [ [ -82.223524, 36.561966 ], [ -82.223491, 36.561927 ], [ -82.223473, 36.561871 ], [ -82.223474, 36.561794 ], [ -82.223486, 36.561737 ], [ -82.223522, 36.561669 ], [ -82.22358, 36.561583 ], [ -82.223598, 36.561532 ], [ -82.223594, 36.561452 ], [ -82.223559, 36.561367 ], [ -82.223522, 36.561315 ], [ -82.223472, 36.561264 ], [ -82.223397, 36.561203 ], [ -82.223287, 36.561132 ], [ -82.223103, 36.56102 ], [ -82.223053, 36.560993 ] ] } },
{ "type": "Feature", "properties": { "cls": "shared", "highway": "cycleway", "name": "Lakeside Trail" }, "geometry": { "type": "LineString", "coordinates": [ [ -82.223788, 36.562157 ], [ -82.223524, 36.561966 ] ] } },
{ "type": "Feature", "properties": { "cls": "shared", "highway": "cycleway", "name": "Lakeside Trail" }, "geometry": { "type": "LineString", "coordinates": [ [ -82.225182, 36.56751 ], [ -82.22532, 36.567329 ], [ -82.225504, 36.567104 ], [ -82.225854, 36.566691 ], [ -82.226067, 36.566455 ], [ -82.226191, 36.566336 ], [ -82.226309, 36.566216 ], [ -82.226463, 36.566081 ], [ -82.226608, 36.565954 ], [ -82.226704, 36.565882 ], [ -82.226848, 36.56575 ], [ -82.226942, 36.565649 ], [ -82.227009, 36.565568 ], [ -82.227052, 36.56549 ], [ -82.227076, 36.565392 ], [ -82.227074, 36.565292 ], [ -82.227059, 36.565192 ], [ -82.227007, 36.565105 ], [ -82.226927, 36.565008 ], [ -82.226846, 36.564946 ], [ -82.226733, 36.564779 ], [ -82.226545, 36.564561 ], [ -82.226493, 36.564509 ], [ -82.226355, 36.56439 ], [ -82.226256, 36.564321 ], [ -82.226018, 36.564193 ], [ -82.225931, 36.564142 ], [ -82.22586, 36.564062 ], [ -82.225811, 36.563996 ], [ -82.22578, 36.563916 ], [ -82.225767, 36.56375 ], [ -82.225755, 36.563661 ], [ -82.225747, 36.563623 ], [ -82.225715, 36.563532 ], [ -82.225662, 36.563377 ], [ -82.225634, 36.563311 ], [ -82.225582, 36.563221 ], [ -82.22546, 36.563091 ], [ -82.225311, 36.562922 ], [ -82.225165, 36.562811 ], [ -82.225005, 36.562691 ], [ -82.224908, 36.562633 ], [ -82.224751, 36.562546 ], [ -82.224508, 36.562421 ], [ -82.224314, 36.562335 ], [ -82.223857, 36.562181 ], [ -82.223788, 36.562157 ] ] } },
{ "type": "Feature", "properties": { "cls": "shared", "highway": "path", "name": "Lake Ridge Trail" }, "geometry": { "type": "MultiLineString", "coordinates": [ [ [ -82.223119, 36.560226 ], [ -82.22318, 36.560184 ], [ -82.223213, 36.560206 ], [ -82.223184, 36.560252 ], [ -82.223162, 36.560274 ] ], [ [ -82.223481, 36.560675 ], [ -82.223485, 36.560678 ], [ -82.223603, 36.560826 ], [ -82.223789, 36.560963 ], [ -82.223934, 36.561087 ], [ -82.224191, 36.561284 ], [ -82.22429, 36.561327 ], [ -82.224395, 36.561363 ], [ -82.224489, 36.561411 ], [ -82.224576, 36.561499 ], [ -82.22461, 36.561601 ], [ -82.224769, 36.561793 ], [ -82.224862, 36.561971 ], [ -82.224989, 36.562244 ], [ -82.225037, 36.562301 ], [ -82.225098, 36.562352 ], [ -82.225159, 36.562392 ], [ -82.225251, 36.562421 ], [ -82.225344, 36.562427 ], [ -82.22546, 36.562429 ], [ -82.225518, 36.562449 ], [ -82.225588, 36.562466 ], [ -82.225651, 36.562455 ], [ -82.225778, 36.562387 ], [ -82.225996, 36.562278 ], [ -82.2262, 36.562139 ], [ -82.226278, 36.562072 ], [ -82.226328, 36.562046 ], [ -82.226381, 36.56206 ], [ -82.226344, 36.562105 ], [ -82.226277, 36.562186 ], [ -82.226186, 36.562308 ], [ -82.22604, 36.562496 ], [ -82.225997, 36.56258 ], [ -82.22599, 36.562649 ], [ -82.226002, 36.562719 ], [ -82.226029, 36.562777 ], [ -82.226121, 36.562871 ], [ -82.22624, 36.562966 ], [ -82.226349, 36.563047 ], [ -82.226424, 36.563124 ], [ -82.226502, 36.563167 ], [ -82.226612, 36.563268 ], [ -82.226687, 36.563327 ], [ -82.226757, 36.563376 ], [ -82.226898, 36.563438 ], [ -82.226997, 36.563474 ], [ -82.227098, 36.563493 ], [ -82.227184, 36.563486 ], [ -82.227252, 36.563479 ], [ -82.227309, 36.563495 ], [ -82.22735, 36.563527 ], [ -82.227366, 36.563577 ], [ -82.227382, 36.563625 ], [ -82.22741, 36.563665 ], [ -82.227485, 36.563712 ], [ -82.227585, 36.563748 ], [ -82.227671, 36.563755 ], [ -82.227787, 36.563784 ], [ -82.227921, 36.563783 ], [ -82.228142, 36.563799 ], [ -82.228302, 36.563813 ], [ -82.22836, 36.563834 ], [ -82.228435, 36.563849 ], [ -82.228527, 36.563847 ], [ -82.228633, 36.563813 ], [ -82.228763, 36.563757 ], [ -82.228941, 36.56367 ], [ -82.229135, 36.563556 ], [ -82.229255, 36.563476 ], [ -82.2294, 36.563371 ], [ -82.229574, 36.563235 ], [ -82.229718, 36.563166 ], [ -82.229876, 36.563066 ], [ -82.230044, 36.562926 ], [ -82.230106, 36.562857 ], [ -82.230172, 36.562784 ], [ -82.230288, 36.562684 ], [ -82.230453, 36.56257 ], [ -82.230616, 36.562462 ], [ -82.230838, 36.562367 ], [ -82.230942, 36.562309 ], [ -82.231115, 36.562192 ], [ -82.231279, 36.562095 ], [ -82.231426, 36.562031 ], [ -82.231507, 36.562029 ], [ -82.231584, 36.561998 ], [ -82.231717, 36.561931 ], [ -82.231862, 36.561862 ], [ -82.231967, 36.561795 ], [ -82.232061, 36.561721 ], [ -82.232174, 36.561625 ], [ -82.232197, 36.561536 ], [ -82.232244, 36.561459 ], [ -82.232344, 36.561383 ], [ -82.232429, 36.5613 ], [ -82.232539, 36.561199 ], [ -82.232603, 36.561159 ], [ -82.232676, 36.561134 ], [ -82.232766, 36.561117 ], [ -82.232834, 36.561119 ], [ -82.232907, 36.56113 ], [ -82.232962, 36.561111 ], [ -82.233058, 36.561067 ], [ -82.233167, 36.561027 ], [ -82.23328, 36.560997 ], [ -82.233394, 36.560983 ], [ -82.233499, 36.560993 ], [ -82.233604, 36.561001 ], [ -82.233726, 36.561003 ], [ -82.233823, 36.561005 ], [ -82.23391, 36.560989 ], [ -82.233995, 36.56097 ], [ -82.234069, 36.560985 ], [ -82.234168, 36.561034 ], [ -82.234304, 36.561061 ], [ -82.234392, 36.561112 ], [ -82.234491, 36.561129 ], [ -82.234527, 36.561159 ], [ -82.234567, 36.561211 ], [ -82.2346, 36.561255 ], [ -82.234629, 36.561265 ], [ -82.234629, 36.561237 ], [ -82.234641, 36.561191 ], [ -82.234664, 36.561141 ], [ -82.234707, 36.561084 ], [ -82.234773, 36.561027 ], [ -82.234865, 36.560979 ], [ -82.234946, 36.56096 ], [ -82.235019, 36.560945 ], [ -82.235099, 36.560897 ], [ -82.235145, 36.5609 ], [ -82.235161, 36.560955 ], [ -82.235166, 36.561022 ], [ -82.235149, 36.561051 ], [ -82.23513, 36.56111 ], [ -82.235132, 36.561163 ], [ -82.235134, 36.561231 ], [ -82.235118, 36.561326 ], [ -82.235133, 36.561387 ], [ -82.235169, 36.561481 ], [ -82.235236, 36.561567 ], [ -82.235297, 36.561638 ], [ -82.235332, 36.561691 ], [ -82.235357, 36.56175 ], [ -82.235384, 36.561839 ], [ -82.235373, 36.561878 ], [ -82.235337, 36.5619 ], [ -82.235288, 36.561877 ], [ -82.235215, 36.561846 ], [ -82.235106, 36.561838 ], [ -82.235021, 36.561841 ], [ -82.234916, 36.561861 ], [ -82.234848, 36.561898 ], [ -82.234761, 36.561963 ], [ -82.234666, 36.562082 ], [ -82.234584, 36.562145 ], [ -82.23447, 36.562236 ], [ -82.234369, 36.5623 ], [ -82.234231, 36.562364 ], [ -82.234142, 36.56243 ], [ -82.234099, 36.562512 ], [ -82.234032, 36.562581 ], [ -82.233941, 36.562689 ], [ -82.233917, 36.562746 ], [ -82.233908, 36.562812 ], [ -82.233894, 36.562862 ], [ -82.233865, 36.562893 ], [ -82.233829, 36.562933 ], [ -82.233779, 36.562969 ], [ -82.233717, 36.562999 ], [ -82.233624, 36.563025 ], [ -82.233524, 36.563052 ], [ -82.233442, 36.563061 ], [ -82.233359, 36.563062 ], [ -82.233275, 36.563073 ], [ -82.233225, 36.563103 ], [ -82.233185, 36.563149 ], [ -82.233178, 36.5632 ], [ -82.233148, 36.563243 ], [ -82.233097, 36.563275 ], [ -82.233038, 36.563297 ], [ -82.232958, 36.563308 ], [ -82.232871, 36.563306 ], [ -82.23278, 36.56332 ], [ -82.232734, 36.56334 ], [ -82.23268, 36.563389 ], [ -82.232661, 36.563467 ], [ -82.232656, 36.563546 ], [ -82.232624, 36.56361 ], [ -82.232513, 36.563785 ], [ -82.232402, 36.563964 ], [ -82.232344, 36.564056 ], [ -82.232324, 36.564116 ], [ -82.232314, 36.56418 ], [ -82.23231, 36.564224 ], [ -82.232329, 36.564269 ], [ -82.232331, 36.564317 ], [ -82.232339, 36.56437 ], [ -82.232329, 36.564432 ], [ -82.23231, 36.564524 ], [ -82.232284, 36.564588 ], [ -82.232245, 36.564663 ], [ -82.232205, 36.564718 ], [ -82.232157, 36.564794 ], [ -82.232081, 36.564855 ], [ -82.232004, 36.564926 ], [ -82.231921, 36.564975 ], [ -82.231848, 36.565007 ], [ -82.231634, 36.565074 ], [ -82.231427, 36.565156 ], [ -82.231372, 36.565173 ], [ -82.231314, 36.565188 ], [ -82.231259, 36.565208 ], [ -82.231229, 36.565236 ], [ -82.231228, 36.565275 ], [ -82.23125, 36.565306 ], [ -82.231312, 36.565343 ], [ -82.23145, 36.565418 ], [ -82.231654, 36.565527 ], [ -82.231788, 36.565608 ], [ -82.231785, 36.565781 ], [ -82.231811, 36.565897 ], [ -82.231828, 36.565973 ], [ -82.231858, 36.566044 ], [ -82.231932, 36.56616 ], [ -82.232112, 36.566419 ], [ -82.232264, 36.566653 ], [ -82.232335, 36.566763 ], [ -82.232411, 36.566948 ], [ -82.232507, 36.567126 ], [ -82.232535, 36.5672 ], [ -82.232553, 36.567238 ], [ -82.232557, 36.567364 ], [ -82.232514, 36.567513 ], [ -82.232479, 36.567606 ], [ -82.232465, 36.567712 ], [ -82.23247, 36.567851 ], [ -82.232488, 36.567974 ], [ -82.232514, 36.568046 ], [ -82.232565, 36.56812 ], [ -82.232615, 36.568171 ], [ -82.232651, 36.568238 ], [ -82.232716, 36.568297 ], [ -82.232813, 36.568348 ], [ -82.232887, 36.568395 ], [ -82.232972, 36.568432 ], [ -82.233083, 36.568451 ], [ -82.23316, 36.568508 ], [ -82.233227, 36.568557 ], [ -82.23332, 36.568617 ], [ -82.233375, 36.568644 ], [ -82.233458, 36.56871 ], [ -82.233522, 36.568748 ], [ -82.233617, 36.568771 ], [ -82.233688, 36.568793 ], [ -82.23375, 36.568811 ], [ -82.23378, 36.568821 ], [ -82.233822, 36.568836 ], [ -82.233913, 36.568884 ], [ -82.233961, 36.568931 ], [ -82.234041, 36.568998 ], [ -82.234149, 36.569044 ], [ -82.234212, 36.569064 ], [ -82.234288, 36.569092 ], [ -82.234365, 36.569136 ], [ -82.234423, 36.569169 ], [ -82.234516, 36.569163 ], [ -82.234573, 36.569151 ], [ -82.234699, 36.569101 ], [ -82.234853, 36.569042 ], [ -82.234955, 36.569024 ], [ -82.235037, 36.569018 ], [ -82.235159, 36.569019 ], [ -82.235255, 36.569056 ], [ -82.235326, 36.569102 ], [ -82.235375, 36.56915 ], [ -82.235403, 36.569247 ], [ -82.235426, 36.569322 ], [ -82.235473, 36.56938 ], [ -82.235495, 36.569419 ], [ -82.23549, 36.569465 ], [ -82.235529, 36.569488 ], [ -82.235563, 36.569457 ], [ -82.235584, 36.569395 ], [ -82.235608, 36.569293 ], [ -82.235625, 36.569225 ], [ -82.235625, 36.569064 ], [ -82.23562, 36.568921 ], [ -82.235597, 36.568813 ], [ -82.235577, 36.568765 ], [ -82.235568, 36.568717 ], [ -82.235602, 36.568703 ], [ -82.23565, 36.568727 ], [ -82.235697, 36.568798 ], [ -82.235761, 36.568894 ], [ -82.235799, 36.568945 ], [ -82.235849, 36.569006 ], [ -82.235923, 36.569133 ], [ -82.23593, 36.569181 ], [ -82.235974, 36.569256 ], [ -82.236012, 36.569331 ], [ -82.236048, 36.569408 ], [ -82.236051, 36.569511 ], [ -82.235998, 36.569676 ], [ -82.235866, 36.569955 ], [ -82.235809, 36.57004 ], [ -82.235738, 36.570133 ], [ -82.235687, 36.570227 ], [ -82.235719, 36.570359 ] ] ] } },
{ "type": "Feature", "properties": { "cls": "shared", "highway": "path", "name": null }, "geometry": { "type": "MultiLineString", "coordinates": [ [ [ -82.226493, 36.564509 ], [ -82.226412, 36.564556 ], [ -82.226376, 36.564554 ], [ -82.226337, 36.564533 ], [ -82.226289, 36.564503 ], [ -82.226239, 36.564471 ], [ -82.226172, 36.564447 ], [ -82.226081, 36.564436 ], [ -82.226019, 36.564419 ], [ -82.225957, 36.564381 ], [ -82.225888, 36.564334 ], [ -82.225849, 36.564317 ], [ -82.225829, 36.564324 ], [ -82.225809, 36.56433 ], [ -82.225792, 36.564368 ], [ -82.225759, 36.564434 ], [ -82.225702, 36.564545 ], [ -82.22564, 36.56466 ], [ -82.22558, 36.564761 ], [ -82.225531, 36.564842 ], [ -82.225483, 36.564925 ], [ -82.225402, 36.565001 ], [ -82.225358, 36.565032 ], [ -82.225297, 36.565075 ], [ -82.225211, 36.565125 ], [ -82.225127, 36.565156 ], [ -82.225003, 36.565205 ], [ -82.224857, 36.565321 ], [ -82.224794, 36.565396 ], [ -82.224742, 36.56544 ], [ -82.224651, 36.565494 ], [ -82.224576, 36.565546 ], [ -82.224506, 36.565618 ], [ -82.224463, 36.565695 ], [ -82.224408, 36.56574 ], [ -82.224336, 36.565768 ], [ -82.224238, 36.565796 ], [ -82.224135, 36.565856 ], [ -82.22407, 36.565909 ], [ -82.223956, 36.565977 ], [ -82.223826, 36.566081 ], [ -82.223727, 36.566139 ], [ -82.223645, 36.566215 ], [ -82.223558, 36.566285 ], [ -82.223446, 36.566347 ], [ -82.223366, 36.566401 ], [ -82.22327, 36.566444 ], [ -82.22318, 36.566491 ], [ -82.223057, 36.566522 ], [ -82.222982, 36.566538 ], [ -82.222939, 36.566591 ], [ -82.222932, 36.56662 ], [ -82.222891, 36.566668 ], [ -82.222855, 36.566705 ], [ -82.222798, 36.566734 ], [ -82.222736, 36.566761 ], [ -82.22268, 36.566812 ], [ -82.222594, 36.566874 ], [ -82.222527, 36.566905 ], [ -82.222496, 36.566943 ], [ -82.222442, 36.566986 ], [ -82.222355, 36.567038 ], [ -82.222282, 36.567062 ], [ -82.22215, 36.56711 ], [ -82.222095, 36.567145 ], [ -82.222045, 36.567195 ], [ -82.222017, 36.567235 ], [ -82.222005, 36.567279 ], [ -82.221979, 36.567322 ], [ -82.221936, 36.567376 ], [ -82.221867, 36.567448 ], [ -82.221849, 36.567507 ], [ -82.221849, 36.56756 ], [ -82.221843, 36.567614 ], [ -82.221858, 36.567661 ], [ -82.221855, 36.567706 ], [ -82.221844, 36.567769 ], [ -82.221841, 36.56784 ], [ -82.221831, 36.567864 ], [ -82.22182, 36.567954 ], [ -82.221828, 36.567996 ], [ -82.221826, 36.568031 ], [ -82.221798, 36.568096 ], [ -82.221761, 36.568152 ], [ -82.221736, 36.568203 ], [ -82.221681, 36.568277 ], [ -82.221602, 36.568346 ], [ -82.221521, 36.568405 ], [ -82.22143, 36.568452 ], [ -82.221284, 36.568501 ], [ -82.221199, 36.568523 ], [ -82.221148, 36.56854 ], [ -82.221092, 36.568566 ], [ -82.220998, 36.568582 ], [ -82.220933, 36.568586 ], [ -82.22087, 36.568613 ], [ -82.220818, 36.568661 ], [ -82.22078, 36.568698 ], [ -82.220688, 36.568746 ], [ -82.220603, 36.568791 ], [ -82.220544, 36.568802 ], [ -82.220487, 36.568805 ], [ -82.220427, 36.568822 ], [ -82.220372, 36.568851 ], [ -82.22035, 36.568881 ], [ -82.220323, 36.568931 ], [ -82.220279, 36.568981 ], [ -82.220264, 36.569022 ], [ -82.22025, 36.56907 ], [ -82.220201, 36.569126 ], [ -82.22015, 36.569167 ], [ -82.220099, 36.569208 ], [ -82.220034, 36.56924 ], [ -82.219973, 36.569285 ], [ -82.219916, 36.56936 ], [ -82.219871, 36.569397 ], [ -82.219742, 36.569451 ], [ -82.219644, 36.569468 ], [ -82.219574, 36.569494 ], [ -82.219496, 36.569547 ], [ -82.219427, 36.569613 ], [ -82.219379, 36.569675 ], [ -82.21931, 36.569737 ], [ -82.219263, 36.569792 ], [ -82.219243, 36.569871 ], [ -82.21924, 36.569935 ], [ -82.219209, 36.569988 ], [ -82.219186, 36.570065 ], [ -82.219149, 36.570123 ], [ -82.219069, 36.570205 ], [ -82.219, 36.570315 ], [ -82.218975, 36.570409 ], [ -82.21896, 36.570506 ], [ -82.218967, 36.570624 ], [ -82.218949, 36.570698 ], [ -82.218941, 36.570785 ], [ -82.218914, 36.570868 ], [ -82.218903, 36.570992 ], [ -82.218891, 36.571043 ], [ -82.218852, 36.571108 ], [ -82.218819, 36.571184 ], [ -82.21879, 36.571259 ], [ -82.218763, 36.571341 ], [ -82.218676, 36.571449 ], [ -82.218613, 36.571518 ], [ -82.218526, 36.571599 ], [ -82.21846, 36.571625 ], [ -82.218312, 36.571723 ] ], [ [ -82.218312, 36.571723 ], [ -82.218214, 36.571806 ] ], [ [ -82.218214, 36.571806 ], [ -82.218052, 36.571931 ] ], [ [ -82.218052, 36.571931 ], [ -82.217918, 36.572028 ] ], [ [ -82.217918, 36.572028 ], [ -82.217849, 36.572083 ] ], [ [ -82.217849, 36.572083 ], [ -82.217806, 36.572196 ], [ -82.217748, 36.572282 ], [ -82.21771, 36.572359 ], [ -82.217715, 36.572462 ], [ -82.217714, 36.572528 ], [ -82.217708, 36.572635 ], [ -82.217719, 36.572737 ], [ -82.217731, 36.572829 ], [ -82.21774, 36.572917 ], [ -82.217764, 36.573064 ], [ -82.21779, 36.573199 ], [ -82.21781, 36.573264 ], [ -82.217837, 36.573306 ], [ -82.217867, 36.573365 ], [ -82.217875, 36.573426 ], [ -82.217875, 36.573488 ], [ -82.217865, 36.57353 ], [ -82.217845, 36.57358 ], [ -82.217818, 36.573646 ], [ -82.217774, 36.573695 ], [ -82.217721, 36.573781 ], [ -82.217686, 36.573816 ], [ -82.217631, 36.573852 ], [ -82.217569, 36.573877 ], [ -82.217512, 36.573897 ], [ -82.217453, 36.573943 ], [ -82.217412, 36.573987 ], [ -82.217371, 36.574025 ], [ -82.217328, 36.574087 ], [ -82.217295, 36.57417 ], [ -82.217249, 36.574238 ], [ -82.217209, 36.574292 ], [ -82.217177, 36.574358 ], [ -82.217133, 36.574417 ], [ -82.217078, 36.574467 ], [ -82.217028, 36.574489 ], [ -82.216979, 36.574528 ], [ -82.216924, 36.574587 ], [ -82.216849, 36.574654 ], [ -82.21679, 36.574723 ], [ -82.216707, 36.574788 ], [ -82.216615, 36.574849 ], [ -82.216557, 36.574935 ], [ -82.216478, 36.575076 ], [ -82.216411, 36.575211 ], [ -82.216337, 36.575321 ], [ -82.216286, 36.5754 ], [ -82.216213, 36.57548 ], [ -82.216159, 36.575594 ], [ -82.216077, 36.575686 ], [ -82.216001, 36.57575 ], [ -82.215894, 36.575852 ], [ -82.215805, 36.575947 ], [ -82.215784, 36.576012 ], [ -82.215756, 36.576113 ], [ -82.215738, 36.576181 ], [ -82.215732, 36.576269 ], [ -82.215735, 36.576312 ], [ -82.215763, 36.576358 ], [ -82.215794, 36.57642 ], [ -82.215835, 36.57646 ], [ -82.215889, 36.576503 ], [ -82.215958, 36.576545 ], [ -82.216018, 36.576618 ], [ -82.216161, 36.576741 ], [ -82.216222, 36.576789 ] ] ] } },
{ "type": "Feature", "properties": { "cls": "shared", "highway": "cycleway", "name": "Lakeside Trail" }, "geometry": { "type": "LineString", "coordinates": [ [ -82.225182, 36.56751 ], [ -82.225122, 36.567588 ], [ -82.225089, 36.567642 ], [ -82.225097, 36.567692 ], [ -82.225138, 36.567728 ], [ -82.225191, 36.567742 ], [ -82.225267, 36.567712 ], [ -82.225341, 36.567646 ], [ -82.225623, 36.567308 ], [ -82.22576, 36.567156 ], [ -82.226001, 36.566913 ], [ -82.226322, 36.566611 ], [ -82.226484, 36.566477 ], [ -82.226608, 36.566391 ], [ -82.226779, 36.5663 ], [ -82.226946, 36.566222 ], [ -82.227089, 36.566164 ], [ -82.227211, 36.566125 ], [ -82.227325, 36.566103 ], [ -82.227417, 36.5661 ], [ -82.227494, 36.566135 ], [ -82.227566, 36.566177 ], [ -82.227786, 36.566351 ], [ -82.227983, 36.566479 ], [ -82.228234, 36.566631 ], [ -82.228395, 36.566718 ], [ -82.228485, 36.566768 ], [ -82.228534, 36.56682 ], [ -82.228565, 36.566867 ], [ -82.228569, 36.566923 ], [ -82.228565, 36.566999 ], [ -82.22857, 36.567054 ], [ -82.228612, 36.567096 ], [ -82.22866, 36.567123 ], [ -82.228741, 36.56713 ], [ -82.228818, 36.567136 ], [ -82.228911, 36.56716 ], [ -82.22896, 36.567192 ], [ -82.228999, 36.567219 ], [ -82.22908, 36.567283 ], [ -82.229173, 36.567381 ], [ -82.229255, 36.56748 ], [ -82.229318, 36.56756 ], [ -82.229337, 36.567585 ], [ -82.229377, 36.567673 ], [ -82.229413, 36.567727 ], [ -82.229446, 36.567807 ], [ -82.229487, 36.567899 ], [ -82.229528, 36.567958 ], [ -82.229593, 36.568022 ], [ -82.229677, 36.568069 ], [ -82.229751, 36.568145 ], [ -82.229831, 36.56823 ], [ -82.229888, 36.568322 ], [ -82.229947, 36.568406 ], [ -82.229969, 36.568455 ], [ -82.229972, 36.568504 ], [ -82.229971, 36.568577 ], [ -82.22992, 36.568663 ], [ -82.229853, 36.568758 ], [ -82.229853, 36.568823 ], [ -82.229889, 36.568866 ], [ -82.229966, 36.568873 ], [ -82.230049, 36.568875 ], [ -82.230139, 36.568891 ], [ -82.230228, 36.568922 ], [ -82.230299, 36.568977 ], [ -82.230388, 36.569061 ], [ -82.23048, 36.569186 ], [ -82.230606, 36.569347 ], [ -82.230789, 36.569614 ], [ -82.230989, 36.569907 ], [ -82.231112, 36.570102 ], [ -82.231247, 36.570338 ], [ -82.231387, 36.570591 ], [ -82.231527, 36.57088 ], [ -82.231603, 36.571033 ], [ -82.231686, 36.571204 ], [ -82.231708, 36.571266 ], [ -82.231741, 36.571365 ], [ -82.231778, 36.571477 ], [ -82.231801, 36.57159 ], [ -82.231817, 36.571702 ], [ -82.231834, 36.571806 ], [ -82.231843, 36.571899 ], [ -82.23186, 36.571989 ], [ -82.231876, 36.572053 ], [ -82.231887, 36.57214 ], [ -82.231855, 36.57222 ], [ -82.231763, 36.572346 ], [ -82.231673, 36.57255 ], [ -82.231529, 36.572776 ], [ -82.231478, 36.572879 ], [ -82.231406, 36.573049 ], [ -82.231364, 36.573124 ], [ -82.231298, 36.573195 ], [ -82.231243, 36.573244 ], [ -82.231157, 36.573282 ], [ -82.231055, 36.573323 ], [ -82.230929, 36.573386 ], [ -82.2308, 36.573463 ], [ -82.230675, 36.57358 ], [ -82.230545, 36.57369 ], [ -82.230434, 36.573766 ], [ -82.230317, 36.573853 ], [ -82.230036, 36.574035 ], [ -82.229863, 36.574161 ], [ -82.229718, 36.574257 ], [ -82.229564, 36.574344 ], [ -82.229296, 36.574509 ], [ -82.229151, 36.574588 ], [ -82.228965, 36.574671 ], [ -82.228856, 36.574725 ], [ -82.228627, 36.574828 ], [ -82.22847, 36.574883 ], [ -82.228352, 36.574911 ], [ -82.228173, 36.574948 ], [ -82.22799, 36.574991 ], [ -82.227808, 36.575047 ], [ -82.227709, 36.575074 ], [ -82.227556, 36.575113 ], [ -82.227385, 36.575167 ], [ -82.227227, 36.575238 ], [ -82.227042, 36.575327 ], [ -82.226903, 36.575398 ], [ -82.226765, 36.575507 ], [ -82.22664, 36.575605 ], [ -82.226577, 36.575687 ], [ -82.226533, 36.575774 ], [ -82.226518, 36.575865 ], [ -82.226546, 36.575999 ], [ -82.226566, 36.576113 ], [ -82.226599, 36.576208 ], [ -82.226638, 36.576308 ], [ -82.226697, 36.57641 ], [ -82.226782, 36.576511 ], [ -82.226858, 36.576599 ], [ -82.226913, 36.576664 ], [ -82.226983, 36.576731 ], [ -82.22705, 36.576773 ], [ -82.227093, 36.576797 ], [ -82.227133, 36.576808 ], [ -82.227188, 36.576816 ], [ -82.227262, 36.576826 ], [ -82.22732, 36.576837 ], [ -82.227368, 36.576848 ], [ -82.227413, 36.576873 ], [ -82.227553, 36.577057 ] ] } },
{ "type": "Feature", "properties": { "cls": "shared", "highway": "path", "name": "Hickory Ridge" }, "geometry": { "type": "LineString", "coordinates": [ [ -82.220653, 36.576831 ], [ -82.220668, 36.576756 ], [ -82.22071, 36.576612 ], [ -82.220764, 36.576543 ], [ -82.220864, 36.576455 ], [ -82.220941, 36.576391 ], [ -82.221032, 36.576347 ], [ -82.221158, 36.576298 ], [ -82.221241, 36.576246 ], [ -82.221308, 36.576147 ], [ -82.221354, 36.576061 ], [ -82.221435, 36.575921 ], [ -82.221507, 36.57577 ], [ -82.221537, 36.575705 ], [ -82.2216, 36.575632 ], [ -82.221679, 36.575564 ], [ -82.221795, 36.575524 ], [ -82.221931, 36.575462 ], [ -82.222071, 36.575421 ], [ -82.222194, 36.575343 ], [ -82.222293, 36.575274 ], [ -82.222486, 36.575152 ], [ -82.22263, 36.575085 ], [ -82.222731, 36.575034 ], [ -82.222849, 36.574966 ], [ -82.222959, 36.57487 ], [ -82.223052, 36.574817 ], [ -82.223149, 36.574749 ], [ -82.223277, 36.574625 ], [ -82.223342, 36.574538 ], [ -82.2234, 36.574473 ], [ -82.223488, 36.574416 ], [ -82.223576, 36.574368 ], [ -82.223663, 36.574356 ], [ -82.223734, 36.574358 ], [ -82.223789, 36.574342 ], [ -82.223856, 36.574309 ], [ -82.223935, 36.574293 ], [ -82.224003, 36.574295 ], [ -82.224069, 36.574287 ], [ -82.224149, 36.574258 ], [ -82.224256, 36.574197 ], [ -82.224395, 36.57412 ], [ -82.224514, 36.574045 ], [ -82.22462, 36.574007 ], [ -82.224669, 36.573961 ], [ -82.224693, 36.573901 ], [ -82.224699, 36.573823 ], [ -82.224681, 36.573703 ], [ -82.224697, 36.573617 ], [ -82.224716, 36.57355 ], [ -82.224763, 36.573436 ], [ -82.224862, 36.573307 ], [ -82.225008, 36.573197 ], [ -82.225172, 36.573088 ], [ -82.225291, 36.572983 ], [ -82.225507, 36.572788 ], [ -82.225632, 36.57268 ], [ -82.225702, 36.572595 ], [ -82.225749, 36.572484 ], [ -82.225783, 36.572302 ], [ -82.225835, 36.57218 ], [ -82.225903, 36.572074 ], [ -82.225971, 36.571992 ], [ -82.226082, 36.571905 ], [ -82.226236, 36.571833 ], [ -82.226305, 36.57177 ], [ -82.22633, 36.571663 ], [ -82.226384, 36.571548 ], [ -82.22649, 36.571419 ], [ -82.226559, 36.571298 ], [ -82.226585, 36.571192 ], [ -82.22663, 36.571022 ], [ -82.226764, 36.570686 ], [ -82.226804, 36.570576 ], [ -82.22686, 36.570476 ], [ -82.226888, 36.570408 ], [ -82.226909, 36.570335 ], [ -82.226913, 36.570234 ], [ -82.226898, 36.570156 ], [ -82.22687, 36.570096 ], [ -82.226821, 36.570028 ], [ -82.226808, 36.569979 ], [ -82.226821, 36.5699 ], [ -82.226858, 36.569819 ], [ -82.226894, 36.569752 ], [ -82.226939, 36.569665 ], [ -82.226974, 36.569588 ], [ -82.227024, 36.569521 ], [ -82.227114, 36.569461 ], [ -82.227231, 36.569389 ], [ -82.22731, 36.569354 ], [ -82.227394, 36.569333 ], [ -82.227505, 36.569323 ], [ -82.227613, 36.569318 ], [ -82.227705, 36.569304 ], [ -82.227792, 36.569282 ], [ -82.227942, 36.569254 ], [ -82.228054, 36.569235 ], [ -82.228223, 36.569238 ], [ -82.228303, 36.56923 ], [ -82.228395, 36.569196 ], [ -82.228595, 36.569139 ], [ -82.228782, 36.569063 ], [ -82.2289, 36.56901 ], [ -82.229042, 36.568908 ], [ -82.22912, 36.568839 ], [ -82.229264, 36.568746 ], [ -82.229378, 36.568656 ], [ -82.229403, 36.568619 ], [ -82.229446, 36.568555 ], [ -82.229472, 36.568468 ], [ -82.229551, 36.568367 ], [ -82.229584, 36.568298 ], [ -82.229576, 36.568256 ], [ -82.229546, 36.568202 ], [ -82.229471, 36.568122 ], [ -82.229468, 36.568083 ], [ -82.229462, 36.568025 ], [ -82.229528, 36.567958 ] ] } },
{ "type": "Feature", "properties": { "cls": "shared", "highway": "cycleway", "name": "Lakeside Trail" }, "geometry": { "type": "LineString", "coordinates": [ [ -82.227413, 36.576873 ], [ -82.227485, 36.57691 ], [ -82.227537, 36.576919 ], [ -82.227612, 36.576916 ] ] } },
{ "type": "Feature", "properties": { "cls": "shared", "highway": "path", "name": "Rock Cut Trail" }, "geometry": { "type": "LineString", "coordinates": [ [ -82.220839, 36.577329 ], [ -82.220928, 36.577332 ], [ -82.221011, 36.577332 ], [ -82.221096, 36.577355 ], [ -82.22114, 36.577384 ], [ -82.221171, 36.577429 ], [ -82.221187, 36.577488 ], [ -82.221215, 36.577542 ], [ -82.221239, 36.577601 ], [ -82.221254, 36.577627 ], [ -82.221272, 36.577657 ], [ -82.221306, 36.577669 ], [ -82.221338, 36.577668 ], [ -82.221363, 36.57765 ], [ -82.221392, 36.577614 ], [ -82.221403, 36.577565 ], [ -82.221416, 36.577523 ], [ -82.221449, 36.57752 ], [ -82.221476, 36.577539 ], [ -82.2215, 36.577569 ], [ -82.221527, 36.577605 ], [ -82.221572, 36.577628 ], [ -82.22161, 36.577625 ], [ -82.221649, 36.577596 ], [ -82.221772, 36.577505 ], [ -82.222092, 36.577309 ], [ -82.22225, 36.577217 ], [ -82.222354, 36.57714 ], [ -82.2225, 36.57704 ], [ -82.222647, 36.576909 ], [ -82.222792, 36.57672 ], [ -82.222883, 36.576633 ], [ -82.222941, 36.576561 ], [ -82.223073, 36.576454 ], [ -82.223145, 36.576375 ], [ -82.223203, 36.576263 ], [ -82.223296, 36.576173 ], [ -82.223411, 36.576097 ], [ -82.223742, 36.575914 ], [ -82.223968, 36.575733 ], [ -82.224359, 36.575479 ], [ -82.224544, 36.575379 ], [ -82.224811, 36.575205 ], [ -82.225053, 36.575048 ], [ -82.225182, 36.574988 ], [ -82.22537, 36.574907 ], [ -82.225712, 36.574759 ], [ -82.225803, 36.574754 ], [ -82.225854, 36.574768 ], [ -82.225895, 36.574796 ], [ -82.225931, 36.574833 ], [ -82.225925, 36.574878 ], [ -82.225902, 36.574943 ], [ -82.225886, 36.575003 ], [ -82.225863, 36.575145 ], [ -82.225827, 36.575235 ], [ -82.225787, 36.575285 ], [ -82.225656, 36.575393 ], [ -82.225619, 36.575435 ], [ -82.225596, 36.57548 ], [ -82.225594, 36.575553 ], [ -82.2256, 36.575731 ], [ -82.225604, 36.575831 ], [ -82.225598, 36.575877 ], [ -82.225558, 36.575933 ], [ -82.225532, 36.576007 ], [ -82.225527, 36.576058 ], [ -82.225545, 36.576113 ], [ -82.225586, 36.576174 ], [ -82.22567, 36.576267 ], [ -82.225719, 36.576355 ], [ -82.225756, 36.576431 ], [ -82.225775, 36.576501 ], [ -82.225786, 36.576599 ], [ -82.225807, 36.576657 ], [ -82.225857, 36.576743 ], [ -82.225908, 36.57684 ], [ -82.225946, 36.576963 ], [ -82.225959, 36.577064 ], [ -82.225977, 36.577175 ], [ -82.225984, 36.577273 ], [ -82.226005, 36.577369 ], [ -82.22604, 36.577463 ], [ -82.226051, 36.577554 ], [ -82.226039, 36.577631 ], [ -82.226013, 36.57768 ], [ -82.225965, 36.577728 ], [ -82.225888, 36.577773 ], [ -82.225792, 36.577831 ], [ -82.225731, 36.577888 ], [ -82.225707, 36.57794 ], [ -82.225691, 36.577995 ], [ -82.225701, 36.578052 ], [ -82.225726, 36.578152 ], [ -82.225731, 36.578219 ], [ -82.225742, 36.578376 ], [ -82.225742, 36.578497 ], [ -82.225743, 36.578638 ], [ -82.225731, 36.578738 ], [ -82.225725, 36.578823 ], [ -82.225719, 36.578889 ], [ -82.225698, 36.578938 ], [ -82.22566, 36.578985 ], [ -82.225609, 36.579042 ], [ -82.225608, 36.579078 ], [ -82.225651, 36.579114 ] ] } },
{ "type": "Feature", "properties": { "cls": "shared", "highway": "path", "name": "Powerline Trail" }, "geometry": { "type": "LineString", "coordinates": [ [ -82.22117, 36.577754 ], [ -82.221116, 36.577685 ], [ -82.22105, 36.577615 ], [ -82.220934, 36.57754 ], [ -82.220878, 36.57749 ], [ -82.220839, 36.577329 ], [ -82.220804, 36.577253 ], [ -82.220766, 36.577176 ], [ -82.220743, 36.577073 ], [ -82.220722, 36.576969 ], [ -82.220695, 36.576888 ], [ -82.220653, 36.576831 ], [ -82.220594, 36.576789 ], [ -82.220511, 36.576755 ], [ -82.220411, 36.576687 ], [ -82.220279, 36.576601 ], [ -82.220157, 36.576532 ], [ -82.220056, 36.576472 ], [ -82.219948, 36.576425 ], [ -82.219824, 36.576379 ], [ -82.219658, 36.57636 ], [ -82.21951, 36.576353 ], [ -82.219297, 36.576356 ], [ -82.2191, 36.57637 ], [ -82.219011, 36.576388 ], [ -82.218844, 36.576448 ], [ -82.218677, 36.57651 ], [ -82.218611, 36.576526 ], [ -82.218548, 36.576524 ], [ -82.218466, 36.576498 ], [ -82.218388, 36.5765 ], [ -82.21832, 36.576515 ], [ -82.2182, 36.576582 ], [ -82.218089, 36.576639 ], [ -82.217983, 36.576672 ], [ -82.217808, 36.576713 ], [ -82.217613, 36.576751 ], [ -82.217296, 36.576772 ], [ -82.217073, 36.576797 ], [ -82.216991, 36.576814 ], [ -82.216875, 36.576814 ], [ -82.216744, 36.576805 ], [ -82.21663, 36.576822 ], [ -82.2165, 36.576815 ], [ -82.216381, 36.57682 ], [ -82.216222, 36.576789 ] ] } },
{ "type": "Feature", "properties": { "cls": "shared", "highway": "path", "name": "Sinks Way Trail" }, "geometry": { "type": "LineString", "coordinates": [ [ -82.221252, 36.57787 ], [ -82.22138, 36.57786 ], [ -82.221476, 36.577869 ], [ -82.221565, 36.577895 ], [ -82.221733, 36.577922 ], [ -82.221856, 36.577949 ], [ -82.222003, 36.577967 ], [ -82.222153, 36.577973 ], [ -82.222298, 36.577949 ], [ -82.222484, 36.577869 ], [ -82.222648, 36.577827 ], [ -82.222831, 36.577718 ], [ -82.222943, 36.577652 ], [ -82.223092, 36.577501 ], [ -82.223234, 36.577359 ], [ -82.223293, 36.577352 ], [ -82.223336, 36.577365 ], [ -82.22336, 36.577407 ], [ -82.223363, 36.57749 ], [ -82.223352, 36.577581 ], [ -82.223337, 36.577699 ], [ -82.223316, 36.577853 ], [ -82.223323, 36.57796 ], [ -82.223319, 36.578047 ], [ -82.223314, 36.57809 ], [ -82.223327, 36.578117 ], [ -82.223369, 36.578117 ], [ -82.223422, 36.578096 ], [ -82.223474, 36.578059 ], [ -82.223555, 36.57797 ], [ -82.223645, 36.577827 ], [ -82.223751, 36.577638 ], [ -82.223856, 36.577454 ], [ -82.223913, 36.577361 ], [ -82.224013, 36.577269 ], [ -82.224057, 36.577231 ], [ -82.224108, 36.577202 ], [ -82.224159, 36.577218 ], [ -82.224157, 36.577257 ], [ -82.224128, 36.57729 ], [ -82.224106, 36.577342 ], [ -82.224081, 36.577431 ], [ -82.224092, 36.577494 ], [ -82.224116, 36.577594 ], [ -82.224144, 36.577684 ], [ -82.224192, 36.577776 ], [ -82.224225, 36.577849 ], [ -82.224274, 36.577935 ], [ -82.224298, 36.57801 ], [ -82.224298, 36.578092 ], [ -82.224315, 36.578133 ], [ -82.224371, 36.578115 ], [ -82.224399, 36.578047 ], [ -82.224431, 36.577936 ], [ -82.224427, 36.577866 ], [ -82.224413, 36.577787 ], [ -82.224433, 36.577713 ], [ -82.224471, 36.577689 ], [ -82.224499, 36.577762 ], [ -82.224529, 36.577806 ], [ -82.224575, 36.577874 ], [ -82.224615, 36.577956 ], [ -82.224673, 36.578017 ], [ -82.224727, 36.578093 ], [ -82.224806, 36.578149 ], [ -82.2249, 36.578165 ], [ -82.225024, 36.578184 ], [ -82.225107, 36.578236 ], [ -82.225164, 36.578295 ], [ -82.225166, 36.578373 ], [ -82.225186, 36.578451 ], [ -82.225219, 36.57849 ], [ -82.225277, 36.578527 ], [ -82.225335, 36.578548 ], [ -82.225408, 36.57855 ], [ -82.225471, 36.578533 ], [ -82.225538, 36.5785 ], [ -82.2256, 36.578449 ], [ -82.225634, 36.578388 ], [ -82.225742, 36.578376 ] ] } },
{ "type": "Feature", "properties": { "cls": "shared", "highway": "path", "name": "Quarry Cave Trail" }, "geometry": { "type": "LineString", "coordinates": [ [ -82.223264, 36.581052 ], [ -82.223226, 36.581015 ], [ -82.223167, 36.580954 ], [ -82.223139, 36.580899 ], [ -82.223138, 36.580851 ], [ -82.223144, 36.580805 ], [ -82.223166, 36.580775 ], [ -82.223288, 36.580675 ], [ -82.223429, 36.58058 ], [ -82.223585, 36.580499 ], [ -82.223647, 36.580448 ], [ -82.223709, 36.580406 ], [ -82.223755, 36.580395 ], [ -82.223835, 36.580403 ], [ -82.223883, 36.580414 ], [ -82.223948, 36.580409 ], [ -82.223989, 36.580398 ], [ -82.22405, 36.580364 ], [ -82.224099, 36.580316 ], [ -82.224156, 36.580287 ], [ -82.224292, 36.580226 ], [ -82.224374, 36.580186 ], [ -82.224465, 36.58013 ], [ -82.224525, 36.580085 ], [ -82.224571, 36.580038 ], [ -82.224609, 36.579953 ], [ -82.224639, 36.579882 ], [ -82.224697, 36.579805 ], [ -82.224714, 36.579738 ], [ -82.224756, 36.579695 ], [ -82.224882, 36.579605 ], [ -82.225018, 36.579504 ], [ -82.225154, 36.579431 ], [ -82.225323, 36.579337 ], [ -82.225372, 36.579312 ], [ -82.225461, 36.579248 ], [ -82.225511, 36.579211 ], [ -82.225572, 36.579166 ], [ -82.225651, 36.579114 ], [ -82.22582, 36.579032 ], [ -82.22599, 36.578937 ], [ -82.226199, 36.578842 ], [ -82.226581, 36.578547 ], [ -82.226781, 36.578374 ], [ -82.226863, 36.578186 ], [ -82.226913, 36.577877 ], [ -82.227039, 36.577654 ], [ -82.227255, 36.577463 ], [ -82.227317, 36.577383 ], [ -82.227432, 36.577165 ], [ -82.227478, 36.577107 ], [ -82.227553, 36.577057 ] ] } },
{ "type": "Feature", "properties": { "cls": "shared", "highway": "path", "name": "East Ridge Trail" }, "geometry": { "type": "LineString", "coordinates": [ [ -82.216222, 36.576789 ], [ -82.216215, 36.576884 ], [ -82.216256, 36.576987 ], [ -82.216298, 36.57704 ], [ -82.216319, 36.577111 ], [ -82.21634, 36.577172 ], [ -82.216341, 36.577282 ], [ -82.216361, 36.577382 ], [ -82.216371, 36.577482 ], [ -82.216385, 36.577601 ], [ -82.216421, 36.57773 ], [ -82.216429, 36.577847 ], [ -82.216421, 36.577915 ], [ -82.216393, 36.577976 ], [ -82.216344, 36.578039 ], [ -82.216279, 36.57811 ], [ -82.216219, 36.57818 ], [ -82.216144, 36.578245 ], [ -82.216059, 36.578315 ], [ -82.215965, 36.57839 ], [ -82.215925, 36.578458 ], [ -82.215927, 36.57853 ], [ -82.215943, 36.578598 ], [ -82.215977, 36.578677 ], [ -82.216038, 36.578723 ], [ -82.216114, 36.578781 ], [ -82.216208, 36.57884 ], [ -82.216335, 36.578887 ], [ -82.216499, 36.578914 ], [ -82.216634, 36.578926 ], [ -82.21676, 36.578919 ], [ -82.216845, 36.578907 ], [ -82.216923, 36.578903 ], [ -82.216999, 36.578904 ], [ -82.217022, 36.578884 ], [ -82.217013, 36.578855 ], [ -82.216977, 36.578829 ], [ -82.216905, 36.578807 ], [ -82.216807, 36.578771 ], [ -82.216669, 36.578745 ], [ -82.216588, 36.578712 ], [ -82.21651, 36.578683 ], [ -82.216458, 36.578635 ], [ -82.216467, 36.578581 ], [ -82.216526, 36.57855 ], [ -82.216605, 36.57854 ], [ -82.216687, 36.578534 ], [ -82.216759, 36.57853 ], [ -82.216834, 36.578511 ], [ -82.216899, 36.578476 ], [ -82.216942, 36.578428 ], [ -82.216961, 36.578395 ], [ -82.216975, 36.578345 ], [ -82.216977, 36.578273 ], [ -82.216979, 36.578204 ], [ -82.217001, 36.578166 ], [ -82.217054, 36.578161 ], [ -82.217078, 36.57819 ], [ -82.217083, 36.578259 ], [ -82.217095, 36.578325 ], [ -82.217123, 36.578398 ], [ -82.217175, 36.578452 ], [ -82.217218, 36.578486 ], [ -82.217275, 36.578502 ], [ -82.217343, 36.578506 ], [ -82.217494, 36.578566 ], [ -82.217632, 36.578609 ], [ -82.217756, 36.578663 ], [ -82.217868, 36.578701 ], [ -82.217959, 36.578738 ], [ -82.21804, 36.578773 ], [ -82.218114, 36.578806 ], [ -82.218177, 36.578861 ], [ -82.218215, 36.578916 ], [ -82.218234, 36.578974 ], [ -82.218246, 36.579049 ], [ -82.21825, 36.579108 ], [ -82.218245, 36.579182 ], [ -82.218225, 36.579255 ], [ -82.218198, 36.579302 ], [ -82.218193, 36.579352 ], [ -82.218194, 36.579396 ], [ -82.218216, 36.579436 ], [ -82.218214, 36.579482 ], [ -82.218184, 36.579534 ], [ -82.218126, 36.579568 ], [ -82.218034, 36.579651 ], [ -82.21791, 36.579755 ], [ -82.217554, 36.579978 ], [ -82.217416, 36.580094 ], [ -82.217291, 36.580217 ], [ -82.217197, 36.580299 ], [ -82.217052, 36.580407 ], [ -82.216918, 36.580476 ], [ -82.216779, 36.580559 ], [ -82.216621, 36.580664 ], [ -82.216489, 36.580767 ], [ -82.216335, 36.580878 ], [ -82.216189, 36.580961 ], [ -82.215954, 36.581088 ], [ -82.215718, 36.581178 ], [ -82.215592, 36.581235 ], [ -82.215453, 36.581283 ], [ -82.215344, 36.581337 ], [ -82.215255, 36.581386 ], [ -82.215127, 36.58143 ], [ -82.215011, 36.581487 ], [ -82.214854, 36.581556 ], [ -82.214715, 36.581614 ], [ -82.214556, 36.58167 ], [ -82.214424, 36.581733 ], [ -82.214293, 36.581769 ], [ -82.214203, 36.581807 ], [ -82.214118, 36.581879 ], [ -82.214031, 36.581928 ], [ -82.213886, 36.582002 ], [ -82.213767, 36.582045 ], [ -82.213655, 36.582071 ], [ -82.213552, 36.582092 ], [ -82.21344, 36.582143 ], [ -82.213342, 36.582212 ], [ -82.213182, 36.582305 ], [ -82.21302, 36.582394 ], [ -82.212885, 36.582464 ], [ -82.212738, 36.58255 ], [ -82.212581, 36.582624 ], [ -82.212391, 36.582706 ], [ -82.2122, 36.582792 ], [ -82.211996, 36.582902 ], [ -82.211786, 36.583026 ], [ -82.211501, 36.583181 ], [ -82.21128, 36.583288 ], [ -82.21066, 36.5836 ], [ -82.210282, 36.58382 ], [ -82.210185, 36.583869 ], [ -82.210107, 36.583909 ], [ -82.209941, 36.584001 ], [ -82.209752, 36.584071 ], [ -82.209506, 36.584182 ], [ -82.209344, 36.58423 ], [ -82.20924, 36.584269 ], [ -82.209054, 36.584331 ], [ -82.208851, 36.584394 ], [ -82.208727, 36.584418 ], [ -82.208612, 36.584424 ], [ -82.20847, 36.584428 ], [ -82.208367, 36.584444 ], [ -82.208235, 36.584484 ], [ -82.208101, 36.584536 ], [ -82.208043, 36.584542 ], [ -82.207933, 36.584556 ], [ -82.207877, 36.584589 ], [ -82.207849, 36.584635 ], [ -82.207859, 36.584675 ], [ -82.207899, 36.584697 ], [ -82.207998, 36.584722 ], [ -82.208136, 36.584748 ], [ -82.208327, 36.584804 ], [ -82.208461, 36.58482 ], [ -82.208581, 36.584842 ], [ -82.208698, 36.584874 ], [ -82.208823, 36.584916 ], [ -82.208999, 36.584983 ], [ -82.20911, 36.585011 ], [ -82.209199, 36.585049 ], [ -82.209291, 36.585118 ], [ -82.209371, 36.585149 ], [ -82.209454, 36.585166 ], [ -82.209535, 36.585165 ], [ -82.209674, 36.585159 ], [ -82.209853, 36.58518 ], [ -82.210024, 36.585208 ], [ -82.210142, 36.585211 ], [ -82.210206, 36.585203 ], [ -82.210255, 36.585184 ], [ -82.210283, 36.585152 ], [ -82.210317, 36.585103 ], [ -82.210418, 36.585037 ], [ -82.210596, 36.584909 ], [ -82.210739, 36.584822 ], [ -82.210845, 36.584789 ], [ -82.210952, 36.584761 ], [ -82.211006, 36.584733 ], [ -82.211101, 36.584661 ], [ -82.211178, 36.584577 ], [ -82.211271, 36.584519 ], [ -82.211431, 36.58441 ], [ -82.211577, 36.584325 ], [ -82.211717, 36.584252 ], [ -82.21183, 36.584221 ], [ -82.211946, 36.584209 ], [ -82.212067, 36.584188 ], [ -82.212153, 36.584184 ], [ -82.212248, 36.584187 ], [ -82.21231, 36.584175 ], [ -82.212379, 36.584126 ], [ -82.2125, 36.584011 ], [ -82.212634, 36.583893 ], [ -82.212833, 36.583697 ], [ -82.2129, 36.583628 ], [ -82.212959, 36.583531 ], [ -82.213025, 36.583458 ], [ -82.213114, 36.583341 ], [ -82.213183, 36.583301 ], [ -82.213264, 36.583274 ], [ -82.213371, 36.583249 ], [ -82.213487, 36.583223 ], [ -82.213584, 36.583195 ], [ -82.21377, 36.58311 ], [ -82.213928, 36.583025 ], [ -82.214112, 36.582932 ], [ -82.214284, 36.582851 ], [ -82.214443, 36.582771 ], [ -82.214596, 36.582678 ], [ -82.214746, 36.582593 ], [ -82.214817, 36.582556 ], [ -82.21488, 36.582517 ], [ -82.214911, 36.582476 ], [ -82.214993, 36.582413 ], [ -82.215052, 36.582338 ], [ -82.215103, 36.582279 ], [ -82.215167, 36.58223 ], [ -82.215253, 36.582181 ], [ -82.215322, 36.582164 ], [ -82.215398, 36.582156 ], [ -82.215498, 36.582147 ], [ -82.215571, 36.582134 ], [ -82.215674, 36.582095 ], [ -82.215758, 36.582054 ], [ -82.215868, 36.581963 ], [ -82.215929, 36.581882 ], [ -82.215963, 36.581811 ], [ -82.216019, 36.581762 ], [ -82.216096, 36.581719 ], [ -82.216134, 36.581674 ], [ -82.216187, 36.581596 ], [ -82.216232, 36.581521 ], [ -82.216287, 36.581465 ], [ -82.216346, 36.581421 ], [ -82.216489, 36.581352 ], [ -82.216683, 36.581262 ], [ -82.216867, 36.581176 ], [ -82.217028, 36.581114 ], [ -82.21714, 36.581077 ], [ -82.217267, 36.580998 ], [ -82.217423, 36.580917 ], [ -82.217577, 36.580816 ], [ -82.217693, 36.580715 ], [ -82.217871, 36.580569 ], [ -82.218036, 36.58046 ], [ -82.218188, 36.580392 ], [ -82.218294, 36.58036 ], [ -82.218416, 36.58034 ], [ -82.218503, 36.580344 ], [ -82.218563, 36.580324 ], [ -82.218701, 36.580284 ], [ -82.218902, 36.580221 ], [ -82.219034, 36.580187 ], [ -82.219129, 36.580146 ], [ -82.219185, 36.580089 ], [ -82.219255, 36.579982 ], [ -82.219324, 36.579907 ], [ -82.219397, 36.579837 ], [ -82.219478, 36.579746 ], [ -82.219523, 36.579675 ], [ -82.21957, 36.579537 ], [ -82.219668, 36.579383 ], [ -82.219709, 36.579303 ], [ -82.219753, 36.579238 ], [ -82.219858, 36.579154 ], [ -82.21995, 36.57908 ], [ -82.220056, 36.579002 ], [ -82.220139, 36.578967 ], [ -82.220227, 36.578936 ], [ -82.22033, 36.57892 ], [ -82.220417, 36.578914 ], [ -82.220486, 36.578912 ], [ -82.220548, 36.578891 ], [ -82.220621, 36.57887 ], [ -82.220698, 36.578831 ], [ -82.220763, 36.578801 ], [ -82.220853, 36.578747 ], [ -82.22096, 36.578665 ], [ -82.221023, 36.578595 ], [ -82.221115, 36.578471 ], [ -82.22117, 36.578357 ], [ -82.221202, 36.578283 ], [ -82.22121, 36.578236 ], [ -82.221233, 36.578167 ], [ -82.221239, 36.578066 ], [ -82.221242, 36.577953 ], [ -82.221252, 36.57787 ], [ -82.221228, 36.577821 ], [ -82.22117, 36.577754 ], [ -82.221174, 36.577697 ], [ -82.221206, 36.577659 ], [ -82.221254, 36.577627 ] ] } }
]
}
