{
"type": "FeatureCollection",
"name": "099-saint-john-rockwood-park",
"crs": { "type": "name", "properties": { "name": "urn:ogc:def:crs:OGC:1.3:CRS84" } },
"xy_coordinate_resolution": 1e-06,
"features": [
{ "type": "Feature", "properties": { "cls": "shared", "highway": "path", "name": null }, "geometry": { "type": "LineString", "coordinates": [ [ -66.059303, 45.28788 ], [ -66.059451, 45.287883 ], [ -66.059584, 45.287886 ] ] } },
{ "type": "Feature", "properties": { "cls": "shared", "highway": "path", "name": null }, "geometry": { "type": "LineString", "coordinates": [ [ -66.059584, 45.287886 ], [ -66.059679, 45.287892 ], [ -66.05986, 45.287914 ], [ -66.059998, 45.287925 ], [ -66.060338, 45.287945 ], [ -66.060399, 45.287954 ], [ -66.060455, 45.287964 ], [ -66.060494, 45.287975 ], [ -66.060875, 45.288095 ], [ -66.060922, 45.288116 ], [ -66.060972, 45.288145 ], [ -66.061014, 45.288185 ], [ -66.061044, 45.288229 ], [ -66.061059, 45.288267 ], [ -66.061059, 45.288312 ], [ -66.061053, 45.288358 ], [ -66.061006, 45.288522 ], [ -66.061002, 45.288586 ], [ -66.061014, 45.288653 ] ] } },
{ "type": "Feature", "properties": { "cls": "shared", "highway": "path", "name": null }, "geometry": { "type": "LineString", "coordinates": [ [ -66.061014, 45.288653 ], [ -66.060883, 45.288717 ], [ -66.060812, 45.28877 ], [ -66.060756, 45.288817 ] ] } },
{ "type": "Feature", "properties": { "cls": "shared", "highway": "path", "name": null }, "geometry": { "type": "LineString", "coordinates": [ [ -66.061014, 45.288653 ], [ -66.061079, 45.288823 ], [ -66.061122, 45.288939 ], [ -66.06114, 45.288971 ], [ -66.061172, 45.289009 ], [ -66.061221, 45.289052 ], [ -66.061259, 45.289071 ], [ -66.061307, 45.289085 ], [ -66.061309, 45.289086 ] ] } },
{ "type": "Feature", "properties": { "cls": "shared", "highway": "path", "name": null }, "geometry": { "type": "LineString", "coordinates": [ [ -66.060756, 45.288817 ], [ -66.06073, 45.288867 ], [ -66.060666, 45.288999 ], [ -66.060599, 45.289128 ], [ -66.060595, 45.289279 ], [ -66.060514, 45.289458 ], [ -66.060543, 45.289665 ], [ -66.06053, 45.28971 ], [ -66.060513, 45.289736 ], [ -66.060456, 45.289766 ], [ -66.060355, 45.289831 ], [ -66.060202, 45.289986 ], [ -66.059927, 45.290228 ], [ -66.059815, 45.290393 ], [ -66.059655, 45.290657 ] ] } },
{ "type": "Feature", "properties": { "cls": "shared", "highway": "path", "name": null }, "geometry": { "type": "LineString", "coordinates": [ [ -66.059303, 45.28788 ], [ -66.059087, 45.287872 ], [ -66.058881, 45.28785 ], [ -66.05868, 45.287817 ], [ -66.058451, 45.287766 ], [ -66.058348, 45.287734 ], [ -66.058238, 45.287696 ], [ -66.058114, 45.287652 ], [ -66.057894, 45.287547 ], [ -66.057631, 45.287397 ], [ -66.057399, 45.287208 ], [ -66.057283, 45.287098 ] ] } },
{ "type": "Feature", "properties": { "cls": "shared", "highway": "path", "name": null }, "geometry": { "type": "LineString", "coordinates": [ [ -66.054291, 45.290717 ], [ -66.054395, 45.290747 ], [ -66.054445, 45.290694 ], [ -66.054556, 45.290585 ], [ -66.054699, 45.290493 ], [ -66.055014, 45.290327 ], [ -66.055371, 45.290136 ], [ -66.055705, 45.289947 ], [ -66.05578, 45.2899 ], [ -66.055917, 45.289805 ], [ -66.055948, 45.289774 ], [ -66.055989, 45.289722 ], [ -66.056032, 45.289689 ], [ -66.056302, 45.289477 ], [ -66.056363, 45.28943 ], [ -66.056433, 45.289375 ], [ -66.056631, 45.28922 ], [ -66.056742, 45.289185 ], [ -66.056849, 45.289116 ], [ -66.056878, 45.289077 ], [ -66.056894, 45.289064 ], [ -66.057577, 45.288582 ], [ -66.057643, 45.288511 ], [ -66.057717, 45.288447 ], [ -66.057789, 45.288401 ], [ -66.057868, 45.288357 ], [ -66.057985, 45.288314 ], [ -66.058022, 45.288302 ], [ -66.058049, 45.288286 ], [ -66.058062, 45.288264 ], [ -66.058077, 45.288214 ], [ -66.058123, 45.288162 ], [ -66.058239, 45.288052 ], [ -66.058329, 45.287938 ], [ -66.058451, 45.287766 ], [ -66.05847, 45.287727 ] ] } },
{ "type": "Feature", "properties": { "cls": "shared", "highway": "path", "name": null }, "geometry": { "type": "LineString", "coordinates": [ [ -66.057639, 45.292457 ], [ -66.05774, 45.292311 ], [ -66.057869, 45.292129 ], [ -66.057964, 45.292021 ], [ -66.058082, 45.291942 ], [ -66.058344, 45.291825 ], [ -66.058533, 45.291741 ], [ -66.058801, 45.291585 ], [ -66.05902, 45.291447 ], [ -66.059105, 45.291381 ], [ -66.059134, 45.291352 ], [ -66.059177, 45.291291 ], [ -66.059186, 45.291165 ], [ -66.059225, 45.290934 ], [ -66.059291, 45.290805 ], [ -66.059365, 45.290742 ], [ -66.059438, 45.290706 ], [ -66.059512, 45.290684 ], [ -66.059591, 45.290667 ], [ -66.059655, 45.290657 ] ] } },
{ "type": "Feature", "properties": { "cls": "shared", "highway": "path", "name": "Lily Lake Trail" }, "geometry": { "type": "LineString", "coordinates": [ [ -66.054263, 45.291307 ], [ -66.054405, 45.291306 ], [ -66.054457, 45.2913 ], [ -66.054531, 45.291288 ], [ -66.054615, 45.291268 ], [ -66.054702, 45.291249 ], [ -66.054781, 45.29124 ], [ -66.054888, 45.291241 ], [ -66.055023, 45.291257 ], [ -66.055144, 45.291276 ], [ -66.055371, 45.291319 ], [ -66.055519, 45.291372 ], [ -66.055666, 45.291448 ], [ -66.055771, 45.291511 ], [ -66.055815, 45.291553 ], [ -66.055853, 45.291602 ], [ -66.055875, 45.291646 ], [ -66.05589, 45.291694 ], [ -66.055903, 45.291759 ], [ -66.055942, 45.291982 ], [ -66.055986, 45.292116 ], [ -66.056069, 45.292346 ], [ -66.056114, 45.292441 ], [ -66.056144, 45.292496 ], [ -66.05619, 45.29257 ], [ -66.056243, 45.29262 ], [ -66.056292, 45.292653 ], [ -66.056341, 45.292676 ], [ -66.056404, 45.292694 ], [ -66.056469, 45.292703 ], [ -66.056631, 45.292712 ], [ -66.05681, 45.292712 ], [ -66.056919, 45.292698 ], [ -66.057097, 45.292668 ], [ -66.05721, 45.292642 ], [ -66.057342, 45.292602 ], [ -66.05746, 45.292549 ], [ -66.057639, 45.292457 ] ] } },
{ "type": "Feature", "properties": { "cls": "shared", "highway": "path", "name": "Trans Canada Trail" }, "geometry": { "type": "LineString", "coordinates": [ [ -66.044973, 45.307484 ], [ -66.045028, 45.307454 ], [ -66.04533, 45.307419 ], [ -66.045561, 45.307381 ], [ -66.045708, 45.307332 ], [ -66.045878, 45.307268 ], [ -66.045909, 45.307233 ], [ -66.045946, 45.307104 ], [ -66.045985, 45.306925 ], [ -66.046001, 45.306766 ], [ -66.046019, 45.30644 ], [ -66.046012, 45.306393 ], [ -66.045984, 45.306344 ], [ -66.045946, 45.3063 ], [ -66.045902, 45.306253 ] ] } },
{ "type": "Feature", "properties": { "cls": "shared", "highway": "path", "name": "Trans Canada Trail" }, "geometry": { "type": "LineString", "coordinates": [ [ -66.043768, 45.310764 ], [ -66.043812, 45.310721 ], [ -66.043889, 45.310679 ], [ -66.044233, 45.310611 ], [ -66.044316, 45.310573 ], [ -66.044374, 45.310518 ], [ -66.044404, 45.31045 ], [ -66.044466, 45.310288 ], [ -66.044464, 45.310139 ], [ -66.04445, 45.310017 ], [ -66.044285, 45.309546 ], [ -66.044284, 45.309152 ], [ -66.044359, 45.30872 ], [ -66.044359, 45.308597 ], [ -66.044376, 45.308518 ], [ -66.044529, 45.308375 ], [ -66.044665, 45.307995 ], [ -66.044726, 45.30789 ], [ -66.044938, 45.307698 ], [ -66.044962, 45.307625 ], [ -66.044972, 45.307536 ], [ -66.044973, 45.307484 ] ] } }
]
}
