{
"type": "FeatureCollection",
"name": "101-paris-bois-de-boulogne",
"crs": { "type": "name", "properties": { "name": "urn:ogc:def:crs:OGC:1.3:CRS84" } },
"xy_coordinate_resolution": 1e-06,
"features": [
{ "type": "Feature", "properties": { "cls": "separated", "highway": "cycleway", "name": "Allée des Fortifications" }, "geometry": { "type": "LineString", "coordinates": [ [ 2.257941, 48.848916 ], [ 2.257973, 48.849065 ], [ 2.258019, 48.849215 ], [ 2.2581, 48.849427 ], [ 2.258313, 48.849853 ], [ 2.258451, 48.8501 ], [ 2.260771, 48.853718 ], [ 2.262541, 48.856465 ], [ 2.262576, 48.856544 ], [ 2.262524, 48.856611 ], [ 2.262498, 48.856644 ] ] } },
{ "type": "Feature", "properties": { "cls": "shared", "highway": "path", "name": "Avenue de l'Hippodrome" }, "geometry": { "type": "LineString", "coordinates": [ [ 2.246957, 48.857991 ], [ 2.247181, 48.857954 ], [ 2.247514, 48.857906 ], [ 2.248358, 48.857812 ], [ 2.248835, 48.857781 ], [ 2.24961, 48.857763 ], [ 2.250146, 48.857766 ], [ 2.251295, 48.857821 ], [ 2.252763, 48.857902 ], [ 2.253944, 48.858027 ], [ 2.254586, 48.858081 ] ] } },
{ "type": "Feature", "properties": { "cls": "shared", "highway": "path", "name": "Avenue de l'Hippodrome" }, "geometry": { "type": "LineString", "coordinates": [ [ 2.254586, 48.858081 ], [ 2.254827, 48.858103 ] ] } },
{ "type": "Feature", "properties": { "cls": "separated", "highway": "cycleway", "name": "Anneau de Longchamp" }, "geometry": { "type": "LineString", "coordinates": [ [ 2.236866, 48.851925 ], [ 2.236823, 48.851805 ], [ 2.236776, 48.851684 ], [ 2.236724, 48.851621 ], [ 2.236655, 48.851572 ], [ 2.236589, 48.851533 ], [ 2.236334, 48.851444 ], [ 2.236212, 48.851413 ] ] } },
{ "type": "Feature", "properties": { "cls": "shared", "highway": "path", "name": "Avenue de l'Hippodrome" }, "geometry": { "type": "LineString", "coordinates": [ [ 2.238833, 48.861756 ], [ 2.239543, 48.861258 ], [ 2.240162, 48.860847 ], [ 2.240719, 48.860494 ], [ 2.240764, 48.86047 ], [ 2.241318, 48.860135 ], [ 2.242069, 48.859696 ], [ 2.242661, 48.859386 ], [ 2.243011, 48.859211 ], [ 2.243323, 48.859067 ], [ 2.243762, 48.858879 ], [ 2.24416, 48.858722 ], [ 2.244594, 48.858569 ], [ 2.244693, 48.858538 ], [ 2.244742, 48.858523 ] ] } },
{ "type": "Feature", "properties": { "cls": "shared", "highway": "path", "name": "Avenue de l'Hippodrome" }, "geometry": { "type": "LineString", "coordinates": [ [ 2.244845, 48.858662 ], [ 2.244791, 48.858678 ], [ 2.244265, 48.858854 ], [ 2.243853, 48.859018 ], [ 2.243461, 48.859188 ], [ 2.243113, 48.85935 ], [ 2.242752, 48.859528 ], [ 2.242163, 48.859844 ], [ 2.241498, 48.860233 ], [ 2.240914, 48.860581 ], [ 2.240459, 48.860867 ], [ 2.239577, 48.861449 ], [ 2.238906, 48.861931 ] ] } },
{ "type": "Feature", "properties": { "cls": "shared", "highway": "path", "name": "Avenue de l'Hippodrome" }, "geometry": { "type": "LineString", "coordinates": [ [ 2.238412, 48.862066 ], [ 2.23849, 48.862007 ], [ 2.238722, 48.861845 ], [ 2.238833, 48.861756 ] ] } },
{ "type": "Feature", "properties": { "cls": "shared", "highway": "path", "name": "Avenue de l'Hippodrome" }, "geometry": { "type": "LineString", "coordinates": [ [ 2.238906, 48.861931 ], [ 2.238807, 48.862007 ], [ 2.238561, 48.862203 ] ] } },
{ "type": "Feature", "properties": { "cls": "separated", "highway": "cycleway", "name": "Route de Sèvres à Neuilly" }, "geometry": { "type": "LineString", "coordinates": [ [ 2.238498, 48.862143 ], [ 2.23844, 48.862092 ], [ 2.238412, 48.862066 ] ] } },
{ "type": "Feature", "properties": { "cls": "separated", "highway": "cycleway", "name": "Avenue de l'Hippodrome" }, "geometry": { "type": "LineString", "coordinates": [ [ 2.238265, 48.862146 ], [ 2.238412, 48.862066 ] ] } },
{ "type": "Feature", "properties": { "cls": "separated", "highway": "cycleway", "name": "Route de Sèvres à Neuilly" }, "geometry": { "type": "LineString", "coordinates": [ [ 2.238022, 48.862457 ], [ 2.238026, 48.862294 ], [ 2.23802, 48.862212 ], [ 2.237987, 48.862059 ], [ 2.237932, 48.861822 ] ] } },
{ "type": "Feature", "properties": { "cls": "separated", "highway": "cycleway", "name": "Avenue de l'Hippodrome" }, "geometry": { "type": "LineString", "coordinates": [ [ 2.238223, 48.862173 ], [ 2.238259, 48.86215 ], [ 2.238265, 48.862146 ] ] } },
{ "type": "Feature", "properties": { "cls": "separated", "highway": "cycleway", "name": "Allée des Fortifications" }, "geometry": { "type": "LineString", "coordinates": [ [ 2.262498, 48.856644 ], [ 2.262495, 48.856655 ], [ 2.262502, 48.856669 ], [ 2.262547, 48.856747 ], [ 2.262588, 48.856827 ], [ 2.262627, 48.856947 ], [ 2.262651, 48.857065 ], [ 2.26267, 48.857182 ], [ 2.262701, 48.857285 ], [ 2.262737, 48.857369 ], [ 2.262788, 48.857472 ], [ 2.262855, 48.857576 ], [ 2.262928, 48.85769 ], [ 2.262958, 48.857737 ], [ 2.262975, 48.857763 ] ] } },
{ "type": "Feature", "properties": { "cls": "separated", "highway": "cycleway", "name": "Route des Lacs à Passy" }, "geometry": { "type": "LineString", "coordinates": [ [ 2.262975, 48.857763 ], [ 2.263031, 48.857747 ], [ 2.263055, 48.857741 ], [ 2.263072, 48.857722 ], [ 2.263096, 48.857698 ], [ 2.263374, 48.857619 ], [ 2.263389, 48.857603 ], [ 2.263395, 48.857596 ] ] } },
{ "type": "Feature", "properties": { "cls": "shared", "highway": "path", "name": null }, "geometry": { "type": "LineString", "coordinates": [ [ 2.262822, 48.857826 ], [ 2.262811, 48.85781 ] ] } },
{ "type": "Feature", "properties": { "cls": "shared", "highway": "cycleway", "name": "Route des Lacs à Passy" }, "geometry": { "type": "LineString", "coordinates": [ [ 2.262558, 48.857875 ], [ 2.26261, 48.857866 ], [ 2.262669, 48.857858 ], [ 2.262789, 48.857822 ], [ 2.262811, 48.85781 ], [ 2.262886, 48.857787 ], [ 2.262975, 48.857763 ] ] } },
{ "type": "Feature", "properties": { "cls": "separated", "highway": "cycleway", "name": "Allée des Fortifications" }, "geometry": { "type": "LineString", "coordinates": [ [ 2.262975, 48.857763 ], [ 2.262999, 48.857802 ], [ 2.26303, 48.857849 ], [ 2.263063, 48.857899 ] ] } },
{ "type": "Feature", "properties": { "cls": "separated", "highway": "cycleway", "name": "Route des Lacs à Passy" }, "geometry": { "type": "LineString", "coordinates": [ [ 2.263529, 48.857814 ], [ 2.263469, 48.857805 ], [ 2.263171, 48.857888 ], [ 2.263144, 48.857886 ], [ 2.263113, 48.857888 ], [ 2.26308, 48.857895 ] ] } },
{ "type": "Feature", "properties": { "cls": "shared", "highway": "path", "name": null }, "geometry": { "type": "LineString", "coordinates": [ [ 2.262882, 48.857912 ], [ 2.262869, 48.857893 ], [ 2.262838, 48.857848 ], [ 2.262822, 48.857826 ] ] } },
{ "type": "Feature", "properties": { "cls": "separated", "highway": "cycleway", "name": "Route des Lacs à Passy" }, "geometry": { "type": "LineString", "coordinates": [ [ 2.26308, 48.857895 ], [ 2.263063, 48.857899 ] ] } },
{ "type": "Feature", "properties": { "cls": "separated", "highway": "cycleway", "name": "Route des Lacs à Passy" }, "geometry": { "type": "LineString", "coordinates": [ [ 2.262433, 48.85792 ], [ 2.262496, 48.857902 ], [ 2.262542, 48.857879 ], [ 2.262558, 48.857875 ] ] } },
{ "type": "Feature", "properties": { "cls": "separated", "highway": "cycleway", "name": "Route des Lacs à Passy" }, "geometry": { "type": "LineString", "coordinates": [ [ 2.263063, 48.857899 ], [ 2.262968, 48.857926 ], [ 2.262928, 48.85793 ] ] } },
{ "type": "Feature", "properties": { "cls": "separated", "highway": "cycleway", "name": "Allée des Fortifications" }, "geometry": { "type": "LineString", "coordinates": [ [ 2.263063, 48.857899 ], [ 2.263076, 48.857917 ], [ 2.263085, 48.857931 ] ] } },
{ "type": "Feature", "properties": { "cls": "shared", "highway": "path", "name": "Route des Lacs à Passy" }, "geometry": { "type": "LineString", "coordinates": [ [ 2.258776, 48.858339 ], [ 2.258949, 48.85834 ], [ 2.259117, 48.858325 ], [ 2.259265, 48.858288 ], [ 2.259392, 48.858283 ], [ 2.259579, 48.85828 ], [ 2.259924, 48.858269 ], [ 2.260756, 48.858202 ], [ 2.260946, 48.858176 ], [ 2.261431, 48.858092 ], [ 2.261892, 48.858028 ], [ 2.262047, 48.858011 ], [ 2.262139, 48.857987 ], [ 2.262265, 48.857954 ], [ 2.262354, 48.857934 ] ] } },
{ "type": "Feature", "properties": { "cls": "shared", "highway": "path", "name": "Avenue de l'Hippodrome" }, "geometry": { "type": "LineString", "coordinates": [ [ 2.254827, 48.858103 ], [ 2.254851, 48.858106 ], [ 2.255137, 48.858142 ], [ 2.255553, 48.858193 ] ] } },
{ "type": "Feature", "properties": { "cls": "shared", "highway": "path", "name": "Avenue de l'Hippodrome" }, "geometry": { "type": "LineString", "coordinates": [ [ 2.255553, 48.858193 ], [ 2.255684, 48.85821 ], [ 2.255953, 48.858243 ] ] } },
{ "type": "Feature", "properties": { "cls": "shared", "highway": "path", "name": "Avenue de l'Hippodrome" }, "geometry": { "type": "LineString", "coordinates": [ [ 2.244912, 48.858472 ], [ 2.244995, 48.858446 ], [ 2.245335, 48.858348 ], [ 2.245673, 48.858258 ], [ 2.246242, 48.858131 ], [ 2.246802, 48.858017 ], [ 2.246957, 48.857991 ] ] } },
{ "type": "Feature", "properties": { "cls": "shared", "highway": "path", "name": "Avenue de l'Hippodrome" }, "geometry": { "type": "LineString", "coordinates": [ [ 2.256744, 48.858501 ], [ 2.256716, 48.858498 ], [ 2.255813, 48.858371 ], [ 2.255592, 48.858348 ], [ 2.255524, 48.858341 ], [ 2.255101, 48.858296 ], [ 2.25494, 48.858275 ], [ 2.254766, 48.858253 ], [ 2.252676, 48.858048 ], [ 2.252617, 48.858047 ], [ 2.252107, 48.857999 ], [ 2.250287, 48.857913 ], [ 2.249679, 48.857904 ], [ 2.24883, 48.85793 ], [ 2.247903, 48.858016 ], [ 2.247074, 48.858128 ], [ 2.24691, 48.858158 ], [ 2.246685, 48.858197 ], [ 2.246084, 48.858323 ], [ 2.245084, 48.858586 ], [ 2.245004, 48.858611 ] ] } },
{ "type": "Feature", "properties": { "cls": "shared", "highway": "path", "name": "Avenue de l'Hippodrome" }, "geometry": { "type": "LineString", "coordinates": [ [ 2.255953, 48.858243 ], [ 2.256546, 48.858319 ], [ 2.256744, 48.858345 ], [ 2.256784, 48.85835 ], [ 2.257045, 48.858378 ], [ 2.2574, 48.858408 ], [ 2.257574, 48.858419 ], [ 2.257742, 48.858422 ], [ 2.257938, 48.858418 ], [ 2.258121, 48.858388 ], [ 2.258284, 48.858362 ], [ 2.258446, 48.858347 ], [ 2.258588, 48.858337 ], [ 2.258724, 48.858338 ], [ 2.258776, 48.858339 ] ] } },
{ "type": "Feature", "properties": { "cls": "separated", "highway": "cycleway", "name": "Carrefour des Cascades" }, "geometry": { "type": "LineString", "coordinates": [ [ 2.258779, 48.858372 ], [ 2.258776, 48.858339 ] ] } },
{ "type": "Feature", "properties": { "cls": "separated", "highway": "cycleway", "name": "Carrefour des Cascades" }, "geometry": { "type": "LineString", "coordinates": [ [ 2.256784, 48.85835 ], [ 2.256774, 48.858377 ] ] } },
{ "type": "Feature", "properties": { "cls": "separated", "highway": "cycleway", "name": "Carrefour des Cascades" }, "geometry": { "type": "LineString", "coordinates": [ [ 2.258781, 48.858391 ], [ 2.258779, 48.858372 ] ] } },
{ "type": "Feature", "properties": { "cls": "separated", "highway": "cycleway", "name": "Route des Lacs à Passy" }, "geometry": { "type": "LineString", "coordinates": [ [ 2.261048, 48.8584 ], [ 2.260808, 48.858429 ] ] } },
{ "type": "Feature", "properties": { "cls": "separated", "highway": "cycleway", "name": "Carrefour des Cascades" }, "geometry": { "type": "LineString", "coordinates": [ [ 2.256774, 48.858377 ], [ 2.256766, 48.858404 ] ] } },
{ "type": "Feature", "properties": { "cls": "separated", "highway": "cycleway", "name": "Carrefour des Cascades" }, "geometry": { "type": "LineString", "coordinates": [ [ 2.258786, 48.858444 ], [ 2.258784, 48.858422 ], [ 2.258781, 48.858391 ] ] } },
{ "type": "Feature", "properties": { "cls": "separated", "highway": "cycleway", "name": "Route des Lacs à Passy" }, "geometry": { "type": "LineString", "coordinates": [ [ 2.260808, 48.858429 ], [ 2.26076, 48.858435 ], [ 2.260731, 48.858438 ] ] } },
{ "type": "Feature", "properties": { "cls": "separated", "highway": "cycleway", "name": "Route des Lacs à Passy" }, "geometry": { "type": "LineString", "coordinates": [ [ 2.260731, 48.858438 ], [ 2.260618, 48.85845 ] ] } },
{ "type": "Feature", "properties": { "cls": "separated", "highway": "cycleway", "name": "Carrefour des Cascades" }, "geometry": { "type": "LineString", "coordinates": [ [ 2.256766, 48.858404 ], [ 2.256758, 48.858435 ] ] } },
{ "type": "Feature", "properties": { "cls": "separated", "highway": "cycleway", "name": "Carrefour des Cascades" }, "geometry": { "type": "LineString", "coordinates": [ [ 2.258787, 48.858461 ], [ 2.258786, 48.858444 ] ] } },
{ "type": "Feature", "properties": { "cls": "shared", "highway": "path", "name": "Route des Lacs à Passy" }, "geometry": { "type": "LineString", "coordinates": [ [ 2.260618, 48.85845 ], [ 2.260144, 48.858476 ], [ 2.259962, 48.858486 ], [ 2.259539, 48.858483 ], [ 2.25933, 48.858498 ], [ 2.258931, 48.858496 ] ] } },
{ "type": "Feature", "properties": { "cls": "separated", "highway": "cycleway", "name": "Carrefour des Cascades" }, "geometry": { "type": "LineString", "coordinates": [ [ 2.256758, 48.858435 ], [ 2.256744, 48.858501 ] ] } },
{ "type": "Feature", "properties": { "cls": "separated", "highway": "cycleway", "name": "Carrefour des Cascades" }, "geometry": { "type": "LineString", "coordinates": [ [ 2.258792, 48.858505 ], [ 2.258787, 48.858461 ] ] } },
{ "type": "Feature", "properties": { "cls": "shared", "highway": "path", "name": "Avenue de l'Hippodrome" }, "geometry": { "type": "LineString", "coordinates": [ [ 2.258931, 48.858496 ], [ 2.258792, 48.858505 ] ] } },
{ "type": "Feature", "properties": { "cls": "shared", "highway": "path", "name": null }, "geometry": { "type": "LineString", "coordinates": [ [ 2.262897, 48.857933 ], [ 2.262882, 48.857912 ] ] } },
{ "type": "Feature", "properties": { "cls": "separated", "highway": "cycleway", "name": "Route des Lacs à Passy" }, "geometry": { "type": "LineString", "coordinates": [ [ 2.262354, 48.857934 ], [ 2.262433, 48.85792 ] ] } },
{ "type": "Feature", "properties": { "cls": "separated", "highway": "cycleway", "name": "Route des Lacs à Passy" }, "geometry": { "type": "LineString", "coordinates": [ [ 2.262928, 48.85793 ], [ 2.262897, 48.857933 ] ] } },
{ "type": "Feature", "properties": { "cls": "separated", "highway": "path", "name": "Route des Lacs à Passy" }, "geometry": { "type": "LineString", "coordinates": [ [ 2.262897, 48.857933 ], [ 2.262878, 48.857938 ], [ 2.262003, 48.858178 ] ] } },
{ "type": "Feature", "properties": { "cls": "separated", "highway": "path", "name": "Route des Lacs à Passy" }, "geometry": { "type": "LineString", "coordinates": [ [ 2.262003, 48.858178 ], [ 2.261961, 48.858188 ], [ 2.261922, 48.858199 ] ] } },
{ "type": "Feature", "properties": { "cls": "separated", "highway": "path", "name": "Route des Lacs à Passy" }, "geometry": { "type": "LineString", "coordinates": [ [ 2.261922, 48.858199 ], [ 2.261665, 48.858265 ], [ 2.261439, 48.858356 ], [ 2.261352, 48.858381 ], [ 2.261216, 48.858419 ], [ 2.261139, 48.858424 ] ] } },
{ "type": "Feature", "properties": { "cls": "separated", "highway": "cycleway", "name": "Route des Lacs à Passy" }, "geometry": { "type": "LineString", "coordinates": [ [ 2.261139, 48.858424 ], [ 2.261105, 48.85841 ], [ 2.261048, 48.8584 ] ] } },
{ "type": "Feature", "properties": { "cls": "separated", "highway": "cycleway", "name": "Route de Suresnes" }, "geometry": { "type": "LineString", "coordinates": [ [ 2.272373, 48.871291 ], [ 2.2724, 48.871304 ] ] } },
{ "type": "Feature", "properties": { "cls": "painted", "highway": "primary", "name": "Allée du Bord de l'Eau" }, "geometry": { "type": "LineString", "coordinates": [ [ 2.226337, 48.85315 ], [ 2.226275, 48.852978 ] ] } },
{ "type": "Feature", "properties": { "cls": "painted", "highway": "primary", "name": "Allée du Bord de l'Eau" }, "geometry": { "type": "LineString", "coordinates": [ [ 2.226337, 48.85315 ], [ 2.226337, 48.852965 ] ] } },
{ "type": "Feature", "properties": { "cls": "painted", "highway": "primary", "name": "Allée du Bord de l'Eau" }, "geometry": { "type": "LineString", "coordinates": [ [ 2.226339, 48.853178 ], [ 2.226337, 48.85315 ] ] } },
{ "type": "Feature", "properties": { "cls": "separated", "highway": "cycleway", "name": "Allée du Bord de l'Eau" }, "geometry": { "type": "LineString", "coordinates": [ [ 2.226254, 48.853245 ], [ 2.226339, 48.853178 ] ] } },
{ "type": "Feature", "properties": { "cls": "shared", "highway": "path", "name": null }, "geometry": { "type": "LineString", "coordinates": [ [ 2.226207, 48.853243 ], [ 2.22619, 48.853242 ] ] } },
{ "type": "Feature", "properties": { "cls": "shared", "highway": "path", "name": null }, "geometry": { "type": "LineString", "coordinates": [ [ 2.226254, 48.853245 ], [ 2.226207, 48.853243 ] ] } },
{ "type": "Feature", "properties": { "cls": "separated", "highway": "cycleway", "name": "Allée du Bord de l'Eau" }, "geometry": { "type": "LineString", "coordinates": [ [ 2.226248, 48.853272 ], [ 2.226254, 48.853245 ] ] } },
{ "type": "Feature", "properties": { "cls": "painted", "highway": "primary", "name": "Allée du Bord de l'Eau" }, "geometry": { "type": "LineString", "coordinates": [ [ 2.226362, 48.853397 ], [ 2.226353, 48.853308 ], [ 2.226349, 48.853272 ], [ 2.226345, 48.853242 ], [ 2.226339, 48.853178 ] ] } },
{ "type": "Feature", "properties": { "cls": "separated", "highway": "cycleway", "name": "Allée du Bord de l'Eau" }, "geometry": { "type": "LineString", "coordinates": [ [ 2.226248, 48.853272 ], [ 2.226349, 48.853272 ], [ 2.22643, 48.853269 ], [ 2.22649, 48.853322 ], [ 2.226564, 48.853397 ] ] } },
{ "type": "Feature", "properties": { "cls": "separated", "highway": "cycleway", "name": "Route des Tribunes" }, "geometry": { "type": "LineString", "coordinates": [ [ 2.228553, 48.856728 ], [ 2.228619, 48.857003 ], [ 2.228672, 48.857318 ] ] } },
{ "type": "Feature", "properties": { "cls": "sharrow", "highway": "service", "name": "Route des Tribunes" }, "geometry": { "type": "LineString", "coordinates": [ [ 2.23034, 48.852858 ], [ 2.229932, 48.853234 ], [ 2.229658, 48.853507 ], [ 2.229388, 48.853822 ], [ 2.229173, 48.854123 ], [ 2.22893, 48.854573 ], [ 2.228797, 48.85496 ], [ 2.228661, 48.855336 ], [ 2.228588, 48.855642 ], [ 2.228534, 48.855973 ], [ 2.228523, 48.856277 ], [ 2.22853, 48.856438 ], [ 2.228553, 48.856728 ] ] } },
{ "type": "Feature", "properties": { "cls": "separated", "highway": "cycleway", "name": "Route des Tribunes" }, "geometry": { "type": "LineString", "coordinates": [ [ 2.228672, 48.857318 ], [ 2.228742, 48.857593 ], [ 2.228911, 48.858124 ], [ 2.229044, 48.858474 ], [ 2.22922, 48.858909 ], [ 2.22957, 48.859757 ], [ 2.229743, 48.860238 ], [ 2.229876, 48.860658 ], [ 2.230003, 48.860968 ], [ 2.230142, 48.861218 ], [ 2.230219, 48.861376 ] ] } },
{ "type": "Feature", "properties": { "cls": "separated", "highway": "cycleway", "name": "Carrefour des Tribunes" }, "geometry": { "type": "LineString", "coordinates": [ [ 2.2301, 48.861435 ], [ 2.230008, 48.861502 ] ] } },
{ "type": "Feature", "properties": { "cls": "separated", "highway": "cycleway", "name": "Carrefour des Tribunes" }, "geometry": { "type": "LineString", "coordinates": [ [ 2.229861, 48.861449 ], [ 2.22994, 48.861473 ], [ 2.230008, 48.861502 ] ] } },
{ "type": "Feature", "properties": { "cls": "separated", "highway": "unclassified", "name": "Carrefour des Tribunes" }, "geometry": { "type": "LineString", "coordinates": [ [ 2.22906, 48.861642 ], [ 2.229212, 48.861604 ], [ 2.229501, 48.861538 ], [ 2.229708, 48.861482 ], [ 2.229861, 48.861449 ] ] } },
{ "type": "Feature", "properties": { "cls": "separated", "highway": "cycleway", "name": "Carrefour des Tribunes" }, "geometry": { "type": "LineString", "coordinates": [ [ 2.229212, 48.861604 ], [ 2.229012, 48.861575 ], [ 2.228863, 48.861609 ] ] } },
{ "type": "Feature", "properties": { "cls": "separated", "highway": "cycleway", "name": "Carrefour des Tribunes" }, "geometry": { "type": "LineString", "coordinates": [ [ 2.230219, 48.861376 ], [ 2.230541, 48.861963 ] ] } },
{ "type": "Feature", "properties": { "cls": "separated", "highway": "cycleway", "name": "Carrefour des Tribunes" }, "geometry": { "type": "LineString", "coordinates": [ [ 2.230008, 48.861502 ], [ 2.230055, 48.861538 ], [ 2.230085, 48.861572 ], [ 2.230252, 48.861895 ] ] } },
{ "type": "Feature", "properties": { "cls": "separated", "highway": "cycleway", "name": "Allée du Bord de l'Eau" }, "geometry": { "type": "LineString", "coordinates": [ [ 2.229219, 48.862243 ], [ 2.229133, 48.862101 ], [ 2.229019, 48.861902 ], [ 2.228863, 48.861609 ] ] } },
{ "type": "Feature", "properties": { "cls": "separated", "highway": "cycleway", "name": "Carrefour des Tribunes" }, "geometry": { "type": "LineString", "coordinates": [ [ 2.230252, 48.861895 ], [ 2.230244, 48.861976 ], [ 2.230259, 48.862002 ] ] } },
{ "type": "Feature", "properties": { "cls": "separated", "highway": "cycleway", "name": "Allée du Bord de l'Eau" }, "geometry": { "type": "LineString", "coordinates": [ [ 2.228863, 48.861609 ], [ 2.228806, 48.861508 ], [ 2.228752, 48.861412 ], [ 2.228511, 48.860972 ], [ 2.228086, 48.860214 ], [ 2.228041, 48.86012 ], [ 2.227582, 48.859223 ], [ 2.227285, 48.858552 ], [ 2.226968, 48.857836 ], [ 2.226638, 48.857059 ], [ 2.226594, 48.856956 ], [ 2.226445, 48.856552 ], [ 2.226315, 48.856052 ], [ 2.226212, 48.855617 ], [ 2.226181, 48.855309 ], [ 2.226149, 48.85488 ], [ 2.226165, 48.854471 ], [ 2.226168, 48.854218 ], [ 2.226216, 48.853942 ], [ 2.226247, 48.853709 ], [ 2.226247, 48.853575 ], [ 2.226245, 48.853304 ], [ 2.226248, 48.853272 ] ] } },
{ "type": "Feature", "properties": { "cls": "separated", "highway": "cycleway", "name": "Route de Sèvres à Neuilly" }, "geometry": { "type": "LineString", "coordinates": [ [ 2.238561, 48.862203 ], [ 2.238543, 48.862182 ], [ 2.238498, 48.862143 ] ] } },
{ "type": "Feature", "properties": { "cls": "separated", "highway": "cycleway", "name": "Avenue de l'Hippodrome" }, "geometry": { "type": "LineString", "coordinates": [ [ 2.238185, 48.862197 ], [ 2.238223, 48.862173 ] ] } },
{ "type": "Feature", "properties": { "cls": "separated", "highway": "cycleway", "name": "Avenue de l'Hippodrome" }, "geometry": { "type": "LineString", "coordinates": [ [ 2.23802, 48.862212 ], [ 2.238185, 48.862197 ] ] } },
{ "type": "Feature", "properties": { "cls": "separated", "highway": "cycleway", "name": "Route de Sèvres à Neuilly" }, "geometry": { "type": "LineString", "coordinates": [ [ 2.239175, 48.86315 ], [ 2.238719, 48.86241 ], [ 2.238561, 48.862203 ] ] } },
{ "type": "Feature", "properties": { "cls": "separated", "highway": "cycleway", "name": "Avenue de l'Hippodrome" }, "geometry": { "type": "LineString", "coordinates": [ [ 2.235762, 48.864025 ], [ 2.235858, 48.864002 ], [ 2.236058, 48.86394 ], [ 2.236092, 48.86393 ], [ 2.236572, 48.863792 ], [ 2.236719, 48.863742 ], [ 2.236854, 48.863687 ], [ 2.236968, 48.86363 ], [ 2.237146, 48.863505 ], [ 2.237269, 48.863408 ], [ 2.237521, 48.863143 ], [ 2.237967, 48.862583 ], [ 2.238022, 48.862457 ] ] } },
{ "type": "Feature", "properties": { "cls": "separated", "highway": "path", "name": "Carrefour de Longchamp" }, "geometry": { "type": "LineString", "coordinates": [ [ 2.239296, 48.863321 ], [ 2.239316, 48.863308 ] ] } },
{ "type": "Feature", "properties": { "cls": "separated", "highway": "path", "name": "Carrefour de Longchamp" }, "geometry": { "type": "LineString", "coordinates": [ [ 2.239201, 48.863383 ], [ 2.239258, 48.863346 ], [ 2.239296, 48.863321 ] ] } },
{ "type": "Feature", "properties": { "cls": "separated", "highway": "path", "name": "Carrefour de Longchamp" }, "geometry": { "type": "LineString", "coordinates": [ [ 2.239187, 48.863434 ], [ 2.239193, 48.863407 ], [ 2.239201, 48.863383 ] ] } },
{ "type": "Feature", "properties": { "cls": "separated", "highway": "path", "name": "Carrefour de Longchamp" }, "geometry": { "type": "LineString", "coordinates": [ [ 2.239168, 48.863519 ], [ 2.239178, 48.863475 ], [ 2.239187, 48.863434 ] ] } },
{ "type": "Feature", "properties": { "cls": "separated", "highway": "path", "name": "Carrefour de Longchamp" }, "geometry": { "type": "LineString", "coordinates": [ [ 2.239161, 48.863553 ], [ 2.239168, 48.863519 ] ] } },
{ "type": "Feature", "properties": { "cls": "separated", "highway": "cycleway", "name": "Route des Tribunes" }, "geometry": { "type": "LineString", "coordinates": [ [ 2.230259, 48.862002 ], [ 2.230282, 48.862045 ], [ 2.230314, 48.862074 ] ] } },
{ "type": "Feature", "properties": { "cls": "separated", "highway": "cycleway", "name": "Route des Tribunes" }, "geometry": { "type": "LineString", "coordinates": [ [ 2.230314, 48.862074 ], [ 2.230345, 48.862086 ], [ 2.230381, 48.862113 ], [ 2.230432, 48.862183 ] ] } },
{ "type": "Feature", "properties": { "cls": "separated", "highway": "cycleway", "name": "Carrefour des Tribunes" }, "geometry": { "type": "LineString", "coordinates": [ [ 2.229367, 48.862214 ], [ 2.229219, 48.862243 ] ] } },
{ "type": "Feature", "properties": { "cls": "separated", "highway": "cycleway", "name": "Allée du Bord de l'Eau" }, "geometry": { "type": "LineString", "coordinates": [ [ 2.229648, 48.862894 ], [ 2.229305, 48.862408 ], [ 2.229219, 48.862243 ] ] } },
{ "type": "Feature", "properties": { "cls": "separated", "highway": "cycleway", "name": "Route des Tribunes" }, "geometry": { "type": "LineString", "coordinates": [ [ 2.230432, 48.862183 ], [ 2.230643, 48.862482 ], [ 2.230891, 48.862738 ], [ 2.231084, 48.8629 ], [ 2.231299, 48.863078 ], [ 2.231538, 48.863249 ], [ 2.231747, 48.863375 ], [ 2.231991, 48.863512 ], [ 2.232425, 48.863723 ] ] } },
{ "type": "Feature", "properties": { "cls": "separated", "highway": "cycleway", "name": "Route des Tribunes" }, "geometry": { "type": "LineString", "coordinates": [ [ 2.230541, 48.861963 ], [ 2.23063, 48.862125 ], [ 2.23081, 48.862444 ], [ 2.230899, 48.862564 ], [ 2.231017, 48.862682 ], [ 2.231313, 48.862929 ], [ 2.231436, 48.863023 ], [ 2.231567, 48.863111 ], [ 2.231805, 48.863272 ], [ 2.232112, 48.863443 ], [ 2.232521, 48.863625 ], [ 2.232661, 48.863677 ], [ 2.232809, 48.863726 ], [ 2.233078, 48.863804 ], [ 2.23344, 48.863884 ], [ 2.233736, 48.86393 ], [ 2.23404, 48.863971 ], [ 2.23432, 48.864 ], [ 2.234703, 48.864031 ], [ 2.235018, 48.864047 ], [ 2.235337, 48.864054 ], [ 2.235549, 48.864047 ], [ 2.235762, 48.864025 ] ] } },
{ "type": "Feature", "properties": { "cls": "separated", "highway": "cycleway", "name": "Route des Moulins" }, "geometry": { "type": "LineString", "coordinates": [ [ 2.23344, 48.863884 ], [ 2.233429, 48.863924 ] ] } },
{ "type": "Feature", "properties": { "cls": "separated", "highway": "cycleway", "name": "Route des Moulins" }, "geometry": { "type": "LineString", "coordinates": [ [ 2.232425, 48.863723 ], [ 2.232706, 48.863859 ], [ 2.233022, 48.864035 ], [ 2.233367, 48.864263 ] ] } },
{ "type": "Feature", "properties": { "cls": "separated", "highway": "cycleway", "name": "Route des Moulins" }, "geometry": { "type": "LineString", "coordinates": [ [ 2.233403, 48.864257 ], [ 2.233436, 48.864237 ], [ 2.233444, 48.864232 ], [ 2.233455, 48.864225 ] ] } },
{ "type": "Feature", "properties": { "cls": "separated", "highway": "cycleway", "name": "Route des Moulins" }, "geometry": { "type": "LineString", "coordinates": [ [ 2.233367, 48.864263 ], [ 2.233403, 48.864257 ] ] } },
{ "type": "Feature", "properties": { "cls": "separated", "highway": "path", "name": "Carrefour de Longchamp" }, "geometry": { "type": "LineString", "coordinates": [ [ 2.239147, 48.86363 ], [ 2.239155, 48.863589 ], [ 2.239161, 48.863553 ] ] } },
{ "type": "Feature", "properties": { "cls": "separated", "highway": "path", "name": "Carrefour de Longchamp" }, "geometry": { "type": "LineString", "coordinates": [ [ 2.239143, 48.863658 ], [ 2.239147, 48.86363 ] ] } },
{ "type": "Feature", "properties": { "cls": "shared", "highway": "path", "name": "Carrefour de Longchamp" }, "geometry": { "type": "LineString", "coordinates": [ [ 2.239143, 48.863658 ], [ 2.239224, 48.863681 ], [ 2.239275, 48.863708 ], [ 2.239335, 48.863765 ], [ 2.239414, 48.86386 ], [ 2.239439, 48.863889 ] ] } },
{ "type": "Feature", "properties": { "cls": "separated", "highway": "cycleway", "name": "Carrefour de Longchamp" }, "geometry": { "type": "LineString", "coordinates": [ [ 2.239668, 48.863843 ], [ 2.239694, 48.863843 ], [ 2.239721, 48.863849 ] ] } },
{ "type": "Feature", "properties": { "cls": "separated", "highway": "cycleway", "name": "Carrefour de Longchamp" }, "geometry": { "type": "LineString", "coordinates": [ [ 2.23947, 48.863883 ], [ 2.239598, 48.863857 ], [ 2.239668, 48.863843 ] ] } },
{ "type": "Feature", "properties": { "cls": "separated", "highway": "cycleway", "name": "Carrefour de Longchamp" }, "geometry": { "type": "LineString", "coordinates": [ [ 2.239721, 48.863849 ], [ 2.239771, 48.863867 ], [ 2.239805, 48.86388 ] ] } },
{ "type": "Feature", "properties": { "cls": "separated", "highway": "cycleway", "name": "Carrefour de Longchamp" }, "geometry": { "type": "LineString", "coordinates": [ [ 2.239439, 48.863889 ], [ 2.23947, 48.863883 ] ] } },
{ "type": "Feature", "properties": { "cls": "shared", "highway": "path", "name": "Allée de Longchamp" }, "geometry": { "type": "LineString", "coordinates": [ [ 2.239805, 48.86388 ], [ 2.239825, 48.863885 ], [ 2.239887, 48.863901 ], [ 2.239911, 48.863904 ], [ 2.240069, 48.863898 ], [ 2.240095, 48.863901 ], [ 2.240145, 48.863917 ] ] } },
{ "type": "Feature", "properties": { "cls": "shared", "highway": "path", "name": "Allée de Longchamp" }, "geometry": { "type": "LineString", "coordinates": [ [ 2.240145, 48.863917 ], [ 2.240349, 48.863981 ] ] } },
{ "type": "Feature", "properties": { "cls": "separated", "highway": "cycleway", "name": "Carrefour de Norvège" }, "geometry": { "type": "LineString", "coordinates": [ [ 2.236115, 48.864028 ], [ 2.236058, 48.86394 ] ] } },
{ "type": "Feature", "properties": { "cls": "shared", "highway": "path", "name": "Carrefour de Norvège" }, "geometry": { "type": "LineString", "coordinates": [ [ 2.236041, 48.86442 ], [ 2.236245, 48.864317 ], [ 2.236396, 48.864277 ], [ 2.236581, 48.864158 ], [ 2.23672, 48.864089 ], [ 2.237197, 48.863927 ], [ 2.237694, 48.863799 ], [ 2.238063, 48.863736 ], [ 2.238336, 48.863689 ], [ 2.238735, 48.863644 ], [ 2.238894, 48.863637 ], [ 2.239046, 48.863645 ], [ 2.239143, 48.863658 ] ] } },
{ "type": "Feature", "properties": { "cls": "separated", "highway": "path", "name": "Allée de Longchamp" }, "geometry": { "type": "LineString", "coordinates": [ [ 2.241122, 48.864058 ], [ 2.241114, 48.864069 ] ] } },
{ "type": "Feature", "properties": { "cls": "shared", "highway": "path", "name": "Allée de Longchamp" }, "geometry": { "type": "LineString", "coordinates": [ [ 2.240904, 48.864175 ], [ 2.240349, 48.863981 ] ] } },
{ "type": "Feature", "properties": { "cls": "separated", "highway": "path", "name": "Allée de Longchamp" }, "geometry": { "type": "LineString", "coordinates": [ [ 2.241114, 48.864069 ], [ 2.241093, 48.864096 ], [ 2.241077, 48.864118 ] ] } },
{ "type": "Feature", "properties": { "cls": "shared", "highway": "path", "name": "Allée de Longchamp" }, "geometry": { "type": "LineString", "coordinates": [ [ 2.241077, 48.864118 ], [ 2.241072, 48.864125 ] ] } },
{ "type": "Feature", "properties": { "cls": "separated", "highway": "path", "name": "Allée de Longchamp" }, "geometry": { "type": "LineString", "coordinates": [ [ 2.241072, 48.864125 ], [ 2.241056, 48.864146 ], [ 2.241033, 48.864178 ] ] } },
{ "type": "Feature", "properties": { "cls": "shared", "highway": "path", "name": "Allée de Longchamp" }, "geometry": { "type": "LineString", "coordinates": [ [ 2.241018, 48.864198 ], [ 2.240976, 48.864198 ], [ 2.240904, 48.864175 ] ] } },
{ "type": "Feature", "properties": { "cls": "separated", "highway": "path", "name": "Allée de Longchamp" }, "geometry": { "type": "LineString", "coordinates": [ [ 2.241033, 48.864178 ], [ 2.241018, 48.864198 ] ] } },
{ "type": "Feature", "properties": { "cls": "shared", "highway": "path", "name": "Route de Suresnes" }, "geometry": { "type": "LineString", "coordinates": [ [ 2.234685, 48.865131 ], [ 2.234744, 48.865124 ], [ 2.234796, 48.865115 ], [ 2.234861, 48.865077 ], [ 2.234913, 48.86504 ], [ 2.234955, 48.864984 ], [ 2.235001, 48.864933 ], [ 2.23504, 48.864908 ], [ 2.235506, 48.864643 ], [ 2.236041, 48.86442 ] ] } },
{ "type": "Feature", "properties": { "cls": "separated", "highway": "cycleway", "name": "Route des Moulins" }, "geometry": { "type": "LineString", "coordinates": [ [ 2.234441, 48.864916 ], [ 2.234482, 48.864947 ], [ 2.234581, 48.865037 ], [ 2.234631, 48.86508 ], [ 2.234656, 48.865103 ], [ 2.234685, 48.865131 ] ] } },
{ "type": "Feature", "properties": { "cls": "separated", "highway": "cycleway", "name": "Route des Moulins" }, "geometry": { "type": "LineString", "coordinates": [ [ 2.233429, 48.863924 ], [ 2.233425, 48.863955 ], [ 2.233446, 48.864206 ], [ 2.233455, 48.864225 ], [ 2.233512, 48.864265 ], [ 2.233894, 48.86454 ], [ 2.234327, 48.864861 ], [ 2.234374, 48.864882 ], [ 2.234441, 48.864916 ] ] } },
{ "type": "Feature", "properties": { "cls": "separated", "highway": "unclassified", "name": "Route des Moulins" }, "geometry": { "type": "LineString", "coordinates": [ [ 2.234012, 48.864701 ], [ 2.233457, 48.864296 ], [ 2.233403, 48.864257 ] ] } },
{ "type": "Feature", "properties": { "cls": "shared", "highway": "path", "name": "Route de Suresnes" }, "geometry": { "type": "LineString", "coordinates": [ [ 2.231799, 48.866358 ], [ 2.232298, 48.866202 ], [ 2.232575, 48.866102 ], [ 2.232857, 48.86599 ], [ 2.233071, 48.865894 ], [ 2.233459, 48.865715 ], [ 2.234052, 48.865434 ], [ 2.234466, 48.865238 ], [ 2.234526, 48.865209 ] ] } },
{ "type": "Feature", "properties": { "cls": "shared", "highway": "path", "name": "Route de Suresnes" }, "geometry": { "type": "LineString", "coordinates": [ [ 2.231441, 48.866467 ], [ 2.231799, 48.866358 ] ] } },
{ "type": "Feature", "properties": { "cls": "separated", "highway": "path", "name": "Route de Suresnes" }, "geometry": { "type": "LineString", "coordinates": [ [ 2.230979, 48.866596 ], [ 2.231121, 48.866558 ], [ 2.231441, 48.866467 ] ] } },
{ "type": "Feature", "properties": { "cls": "separated", "highway": "path", "name": "Pont de Suresnes" }, "geometry": { "type": "LineString", "coordinates": [ [ 2.230641, 48.866687 ], [ 2.230979, 48.866596 ] ] } },
{ "type": "Feature", "properties": { "cls": "shared", "highway": "path", "name": "Chemin de Ceinture du Lac Inférieur" }, "geometry": { "type": "LineString", "coordinates": [ [ 2.26165, 48.861836 ], [ 2.261864, 48.861861 ], [ 2.261934, 48.861895 ], [ 2.261937, 48.861952 ] ] } },
{ "type": "Feature", "properties": { "cls": "shared", "highway": "path", "name": "Chemin de Ceinture du Lac Inférieur" }, "geometry": { "type": "LineString", "coordinates": [ [ 2.261762, 48.862033 ], [ 2.261708, 48.862016 ], [ 2.261653, 48.861964 ], [ 2.26165, 48.861836 ] ] } },
{ "type": "Feature", "properties": { "cls": "separated", "highway": "unclassified", "name": "Avenue de Saint-Cloud" }, "geometry": { "type": "LineString", "coordinates": [ [ 2.261983, 48.862004 ], [ 2.262057, 48.861997 ], [ 2.262609, 48.862167 ], [ 2.263303, 48.862345 ], [ 2.263389, 48.862366 ], [ 2.263717, 48.862444 ] ] } },
{ "type": "Feature", "properties": { "cls": "separated", "highway": "unclassified", "name": "Avenue de Saint-Cloud" }, "geometry": { "type": "LineString", "coordinates": [ [ 2.263717, 48.862444 ], [ 2.26412, 48.862482 ], [ 2.264169, 48.862486 ] ] } },
{ "type": "Feature", "properties": { "cls": "painted", "highway": "unclassified", "name": "Avenue de Saint-Cloud" }, "geometry": { "type": "LineString", "coordinates": [ [ 2.264169, 48.862486 ], [ 2.264374, 48.862511 ], [ 2.264606, 48.862545 ] ] } },
{ "type": "Feature", "properties": { "cls": "separated", "highway": "unclassified", "name": "Avenue de Saint-Cloud" }, "geometry": { "type": "LineString", "coordinates": [ [ 2.264231, 48.862595 ], [ 2.263717, 48.862444 ] ] } },
{ "type": "Feature", "properties": { "cls": "painted", "highway": "secondary", "name": "Avenue de Saint-Cloud" }, "geometry": { "type": "LineString", "coordinates": [ [ 2.264606, 48.862545 ], [ 2.265159, 48.862596 ], [ 2.265407, 48.862615 ] ] } },
{ "type": "Feature", "properties": { "cls": "painted", "highway": "unclassified", "name": "Avenue de Saint-Cloud" }, "geometry": { "type": "LineString", "coordinates": [ [ 2.264468, 48.862619 ], [ 2.264231, 48.862595 ] ] } },
{ "type": "Feature", "properties": { "cls": "painted", "highway": "secondary", "name": "Avenue de Saint-Cloud" }, "geometry": { "type": "LineString", "coordinates": [ [ 2.265407, 48.862615 ], [ 2.265556, 48.862628 ], [ 2.265704, 48.862637 ], [ 2.266232, 48.862679 ], [ 2.266264, 48.862682 ] ] } },
{ "type": "Feature", "properties": { "cls": "painted", "highway": "unclassified", "name": "Avenue de Saint-Cloud" }, "geometry": { "type": "LineString", "coordinates": [ [ 2.265253, 48.862685 ], [ 2.26468, 48.862637 ], [ 2.264468, 48.862619 ] ] } },
{ "type": "Feature", "properties": { "cls": "separated", "highway": "cycleway", "name": "Avenue de Saint-Cloud" }, "geometry": { "type": "LineString", "coordinates": [ [ 2.26569, 48.862692 ], [ 2.265617, 48.862695 ], [ 2.26556, 48.862703 ], [ 2.265469, 48.862715 ], [ 2.265253, 48.862685 ] ] } },
{ "type": "Feature", "properties": { "cls": "separated", "highway": "cycleway", "name": "Avenue de Saint-Cloud" }, "geometry": { "type": "LineString", "coordinates": [ [ 2.266267, 48.86274 ], [ 2.26569, 48.862692 ] ] } },
{ "type": "Feature", "properties": { "cls": "shared", "highway": "path", "name": "Avenue de l'Hippodrome" }, "geometry": { "type": "LineString", "coordinates": [ [ 2.258792, 48.858505 ], [ 2.25875, 48.858509 ], [ 2.258664, 48.858515 ], [ 2.258493, 48.85854 ], [ 2.258067, 48.858639 ] ] } },
{ "type": "Feature", "properties": { "cls": "shared", "highway": "path", "name": "Avenue de l'Hippodrome" }, "geometry": { "type": "LineString", "coordinates": [ [ 2.257315, 48.858637 ], [ 2.257233, 48.858594 ], [ 2.257123, 48.858563 ], [ 2.256744, 48.858501 ] ] } },
{ "type": "Feature", "properties": { "cls": "separated", "highway": "cycleway", "name": "Avenue de l'Hippodrome" }, "geometry": { "type": "LineString", "coordinates": [ [ 2.244742, 48.858523 ], [ 2.244828, 48.858497 ], [ 2.244912, 48.858472 ] ] } },
{ "type": "Feature", "properties": { "cls": "shared", "highway": "path", "name": "Avenue de l'Hippodrome" }, "geometry": { "type": "LineString", "coordinates": [ [ 2.25749, 48.858708 ], [ 2.257443, 48.858693 ], [ 2.257379, 48.858671 ], [ 2.257315, 48.858637 ] ] } },
{ "type": "Feature", "properties": { "cls": "shared", "highway": "path", "name": "Avenue de l'Hippodrome" }, "geometry": { "type": "LineString", "coordinates": [ [ 2.258067, 48.858639 ], [ 2.257821, 48.858721 ], [ 2.257711, 48.858735 ], [ 2.25763, 48.85873 ], [ 2.25749, 48.858708 ] ] } },
{ "type": "Feature", "properties": { "cls": "shared", "highway": "cycleway", "name": "Avenue de l'Hippodrome" }, "geometry": { "type": "LineString", "coordinates": [ [ 2.245004, 48.858611 ], [ 2.244924, 48.858637 ], [ 2.244845, 48.858662 ] ] } },
{ "type": "Feature", "properties": { "cls": "separated", "highway": "cycleway", "name": "Allée de Longchamp" }, "geometry": { "type": "LineString", "coordinates": [ [ 2.241122, 48.864058 ], [ 2.241157, 48.864048 ], [ 2.241186, 48.864046 ], [ 2.242457, 48.864506 ], [ 2.244894, 48.865383 ], [ 2.244988, 48.865415 ], [ 2.247491, 48.866316 ], [ 2.249269, 48.866959 ], [ 2.250391, 48.867363 ], [ 2.25043, 48.867372 ], [ 2.250485, 48.867371 ], [ 2.250529, 48.867343 ], [ 2.250543, 48.867332 ], [ 2.250566, 48.867332 ] ] } },
{ "type": "Feature", "properties": { "cls": "painted", "highway": "unclassified", "name": "Route du Pré Catelan" }, "geometry": { "type": "LineString", "coordinates": [ [ 2.255137, 48.866127 ], [ 2.255334, 48.866103 ], [ 2.255472, 48.866085 ], [ 2.255621, 48.866082 ], [ 2.256007, 48.866097 ], [ 2.256573, 48.866198 ], [ 2.256697, 48.866208 ], [ 2.256904, 48.866208 ], [ 2.257018, 48.866193 ], [ 2.257217, 48.866145 ], [ 2.257363, 48.866077 ], [ 2.257553, 48.866001 ], [ 2.257895, 48.865884 ], [ 2.258182, 48.865816 ], [ 2.258357, 48.865784 ], [ 2.258398, 48.865779 ], [ 2.258747, 48.865739 ], [ 2.258989, 48.865724 ], [ 2.259008, 48.865724 ], [ 2.259417, 48.865714 ], [ 2.259766, 48.865738 ], [ 2.259962, 48.865747 ], [ 2.260176, 48.865754 ], [ 2.260241, 48.865745 ], [ 2.260266, 48.865736 ] ] } },
{ "type": "Feature", "properties": { "cls": "separated", "highway": "cycleway", "name": "Route de la Longue Queue" }, "geometry": { "type": "LineString", "coordinates": [ [ 2.240904, 48.864175 ], [ 2.240892, 48.864229 ], [ 2.2409, 48.864293 ], [ 2.241064, 48.864404 ], [ 2.24115, 48.864463 ], [ 2.241345, 48.86461 ], [ 2.241649, 48.864756 ], [ 2.241914, 48.864849 ], [ 2.242134, 48.864912 ], [ 2.242302, 48.864976 ], [ 2.242434, 48.865053 ], [ 2.242596, 48.865148 ], [ 2.242787, 48.86527 ], [ 2.242917, 48.86535 ], [ 2.243304, 48.865618 ], [ 2.243456, 48.865716 ], [ 2.243606, 48.865795 ], [ 2.243833, 48.865877 ], [ 2.243999, 48.865922 ], [ 2.244485, 48.866037 ], [ 2.24495, 48.86618 ], [ 2.245366, 48.86635 ], [ 2.245692, 48.866524 ], [ 2.246043, 48.866761 ], [ 2.246228, 48.866922 ], [ 2.246424, 48.867114 ], [ 2.246606, 48.867323 ], [ 2.246801, 48.8676 ], [ 2.247005, 48.867868 ], [ 2.247174, 48.868046 ], [ 2.247393, 48.868217 ], [ 2.247954, 48.868588 ], [ 2.248145, 48.868697 ], [ 2.248162, 48.868706 ], [ 2.248308, 48.868781 ] ] } },
{ "type": "Feature", "properties": { "cls": "separated", "highway": "cycleway", "name": "Allée de Longchamp" }, "geometry": { "type": "LineString", "coordinates": [ [ 2.250566, 48.867332 ], [ 2.250672, 48.86733 ], [ 2.250777, 48.867336 ] ] } },
{ "type": "Feature", "properties": { "cls": "painted", "highway": "tertiary", "name": "Chemin de Ceinture du Lac Inférieur" }, "geometry": { "type": "LineString", "coordinates": [ [ 2.265432, 48.868303 ], [ 2.265504, 48.868229 ], [ 2.265604, 48.86811 ], [ 2.265666, 48.868012 ], [ 2.265679, 48.86795 ] ] } },
{ "type": "Feature", "properties": { "cls": "separated", "highway": "cycleway", "name": "Carrefour du Bout des Lacs" }, "geometry": { "type": "LineString", "coordinates": [ [ 2.265383, 48.86827 ], [ 2.265504, 48.868229 ] ] } },
{ "type": "Feature", "properties": { "cls": "separated", "highway": "cycleway", "name": "Carrefour du Bout des Lacs" }, "geometry": { "type": "LineString", "coordinates": [ [ 2.265253, 48.86841 ], [ 2.265312, 48.868334 ], [ 2.265383, 48.86827 ] ] } },
{ "type": "Feature", "properties": { "cls": "separated", "highway": "cycleway", "name": "Carrefour du Bout des Lacs" }, "geometry": { "type": "LineString", "coordinates": [ [ 2.265214, 48.868534 ], [ 2.265214, 48.8685 ], [ 2.265225, 48.868461 ], [ 2.265253, 48.86841 ] ] } },
{ "type": "Feature", "properties": { "cls": "separated", "highway": "cycleway", "name": "Carrefour du Bout des Lacs" }, "geometry": { "type": "LineString", "coordinates": [ [ 2.265435, 48.868543 ], [ 2.265303, 48.868539 ], [ 2.265214, 48.868534 ] ] } },
{ "type": "Feature", "properties": { "cls": "separated", "highway": "cycleway", "name": "Carrefour du Bout des Lacs" }, "geometry": { "type": "LineString", "coordinates": [ [ 2.265877, 48.868574 ], [ 2.265738, 48.868567 ], [ 2.265435, 48.868543 ] ] } },
{ "type": "Feature", "properties": { "cls": "separated", "highway": "cycleway", "name": "Allée de Longchamp" }, "geometry": { "type": "LineString", "coordinates": [ [ 2.264371, 48.872329 ], [ 2.264434, 48.872351 ], [ 2.264507, 48.872373 ] ] } },
{ "type": "Feature", "properties": { "cls": "shared", "highway": "path", "name": "Route de l'Étoile" }, "geometry": { "type": "LineString", "coordinates": [ [ 2.266435, 48.873352 ], [ 2.266609, 48.873311 ], [ 2.266786, 48.87327 ] ] } },
{ "type": "Feature", "properties": { "cls": "separated", "highway": "cycleway", "name": "Allée de Longchamp" }, "geometry": { "type": "LineString", "coordinates": [ [ 2.264507, 48.872373 ], [ 2.264518, 48.872376 ], [ 2.264555, 48.872385 ], [ 2.264582, 48.872395 ], [ 2.264625, 48.872426 ], [ 2.264717, 48.87251 ], [ 2.264754, 48.872534 ], [ 2.264801, 48.872556 ], [ 2.264906, 48.872592 ], [ 2.265111, 48.872667 ], [ 2.265559, 48.87283 ], [ 2.266463, 48.873156 ], [ 2.266786, 48.87327 ], [ 2.267776, 48.873628 ], [ 2.270437, 48.874586 ], [ 2.270688, 48.874677 ], [ 2.270784, 48.874712 ], [ 2.270864, 48.874739 ], [ 2.270909, 48.874751 ], [ 2.270946, 48.874756 ], [ 2.271007, 48.874757 ], [ 2.271038, 48.874761 ], [ 2.271073, 48.874771 ] ] } },
{ "type": "Feature", "properties": { "cls": "separated", "highway": "cycleway", "name": "Route de la Porte Dauphine à la Porte des Sablons" }, "geometry": { "type": "LineString", "coordinates": [ [ 2.27129, 48.874541 ], [ 2.271356, 48.874584 ], [ 2.271376, 48.874606 ], [ 2.271385, 48.874626 ] ] } },
{ "type": "Feature", "properties": { "cls": "shared", "highway": "path", "name": "Route de la Porte Dauphine à la Porte des Sablons" }, "geometry": { "type": "LineString", "coordinates": [ [ 2.271385, 48.874626 ], [ 2.271298, 48.874806 ], [ 2.271274, 48.874846 ] ] } },
{ "type": "Feature", "properties": { "cls": "shared", "highway": "path", "name": "Route des Lacs" }, "geometry": { "type": "LineString", "coordinates": [ [ 2.271007, 48.874757 ], [ 2.271, 48.874791 ], [ 2.270995, 48.874814 ], [ 2.270993, 48.874824 ] ] } },
{ "type": "Feature", "properties": { "cls": "separated", "highway": "cycleway", "name": null }, "geometry": { "type": "LineString", "coordinates": [ [ 2.271073, 48.874771 ], [ 2.271158, 48.874797 ], [ 2.271237, 48.874825 ] ] } },
{ "type": "Feature", "properties": { "cls": "shared", "highway": "path", "name": "Route des Lacs" }, "geometry": { "type": "LineString", "coordinates": [ [ 2.270993, 48.874824 ], [ 2.270977, 48.874888 ], [ 2.27096, 48.874948 ] ] } },
{ "type": "Feature", "properties": { "cls": "shared", "highway": "path", "name": null }, "geometry": { "type": "LineString", "coordinates": [ [ 2.27132, 48.874898 ], [ 2.271293, 48.874938 ] ] } },
{ "type": "Feature", "properties": { "cls": "shared", "highway": "path", "name": "Route des Lacs" }, "geometry": { "type": "LineString", "coordinates": [ [ 2.27096, 48.874948 ], [ 2.270953, 48.87498 ] ] } },
{ "type": "Feature", "properties": { "cls": "separated", "highway": "cycleway", "name": "Allée de Longchamp" }, "geometry": { "type": "LineString", "coordinates": [ [ 2.250777, 48.867336 ], [ 2.250832, 48.867339 ], [ 2.250913, 48.867457 ], [ 2.250957, 48.8675 ], [ 2.251028, 48.867542 ], [ 2.251091, 48.867579 ], [ 2.251226, 48.867659 ], [ 2.251358, 48.867711 ], [ 2.255005, 48.869027 ], [ 2.259438, 48.870616 ], [ 2.263085, 48.871937 ], [ 2.263553, 48.872104 ], [ 2.264058, 48.872286 ], [ 2.264103, 48.872298 ], [ 2.264148, 48.872303 ], [ 2.264234, 48.872301 ], [ 2.264292, 48.872308 ], [ 2.264371, 48.872329 ] ] } },
{ "type": "Feature", "properties": { "cls": "separated", "highway": "cycleway", "name": "Route de la Longue Queue" }, "geometry": { "type": "LineString", "coordinates": [ [ 2.248598, 48.868892 ], [ 2.248845, 48.868972 ], [ 2.248951, 48.869016 ], [ 2.249291, 48.869161 ], [ 2.249602, 48.869313 ], [ 2.250025, 48.86956 ], [ 2.25058, 48.869909 ], [ 2.250809, 48.870109 ], [ 2.251438, 48.870822 ], [ 2.251543, 48.870981 ], [ 2.25194, 48.87145 ], [ 2.252038, 48.871538 ], [ 2.25273, 48.872163 ], [ 2.252991, 48.872399 ], [ 2.253461, 48.872915 ], [ 2.253778, 48.873323 ], [ 2.254038, 48.873566 ], [ 2.254077, 48.873601 ] ] } },
{ "type": "Feature", "properties": { "cls": "separated", "highway": "cycleway", "name": "Route de la Longue Queue" }, "geometry": { "type": "LineString", "coordinates": [ [ 2.254077, 48.873601 ], [ 2.254154, 48.873691 ] ] } },
{ "type": "Feature", "properties": { "cls": "separated", "highway": "cycleway", "name": "Pont de Puteaux" }, "geometry": { "type": "LineString", "coordinates": [ [ 2.246593, 48.875993 ], [ 2.246512, 48.876025 ], [ 2.246487, 48.876033 ] ] } },
{ "type": "Feature", "properties": { "cls": "separated", "highway": "cycleway", "name": "Pont de Puteaux" }, "geometry": { "type": "LineString", "coordinates": [ [ 2.246487, 48.876033 ], [ 2.246458, 48.876043 ], [ 2.246404, 48.876062 ], [ 2.24635, 48.876081 ] ] } },
{ "type": "Feature", "properties": { "cls": "separated", "highway": "cycleway", "name": "Pont de Puteaux" }, "geometry": { "type": "LineString", "coordinates": [ [ 2.24635, 48.876081 ], [ 2.246233, 48.876121 ] ] } },
{ "type": "Feature", "properties": { "cls": "separated", "highway": "cycleway", "name": "Pont de Puteaux" }, "geometry": { "type": "LineString", "coordinates": [ [ 2.246233, 48.876121 ], [ 2.246149, 48.87615 ], [ 2.246114, 48.876162 ] ] } },
{ "type": "Feature", "properties": { "cls": "painted", "highway": "unclassified", "name": "Route de l'Étoile" }, "geometry": { "type": "LineString", "coordinates": [ [ 2.264133, 48.873845 ], [ 2.264011, 48.873866 ], [ 2.262329, 48.874108 ], [ 2.26122, 48.87428 ], [ 2.261107, 48.874298 ], [ 2.260355, 48.874444 ], [ 2.259613, 48.874604 ], [ 2.25956, 48.874613 ], [ 2.259553, 48.874616 ], [ 2.259047, 48.874717 ], [ 2.258488, 48.87483 ], [ 2.258371, 48.874853 ], [ 2.258345, 48.874857 ], [ 2.258295, 48.874872 ], [ 2.258254, 48.874891 ], [ 2.25823, 48.874916 ], [ 2.258213, 48.874952 ], [ 2.258183, 48.875015 ] ] } },
{ "type": "Feature", "properties": { "cls": "separated", "highway": "cycleway", "name": "Route de Suresnes" }, "geometry": { "type": "LineString", "coordinates": [ [ 2.234526, 48.865209 ], [ 2.234598, 48.865174 ], [ 2.234685, 48.865131 ] ] } },
{ "type": "Feature", "properties": { "cls": "separated", "highway": "cycleway", "name": "Allée de Longchamp" }, "geometry": { "type": "LineString", "coordinates": [ [ 2.271237, 48.874825 ], [ 2.271274, 48.874846 ], [ 2.271295, 48.874873 ], [ 2.27132, 48.874898 ], [ 2.271337, 48.874909 ], [ 2.271384, 48.874927 ], [ 2.274112, 48.87591 ], [ 2.27488, 48.876187 ], [ 2.274984, 48.876226 ], [ 2.275282, 48.876334 ], [ 2.275365, 48.876364 ] ] } },
{ "type": "Feature", "properties": { "cls": "separated", "highway": "cycleway", "name": null }, "geometry": { "type": "LineString", "coordinates": [ [ 2.275343, 48.876396 ], [ 2.275365, 48.876364 ] ] } },
{ "type": "Feature", "properties": { "cls": "shared", "highway": "path", "name": "Route de la Porte des Sablons à la Porte Maillot" }, "geometry": { "type": "LineString", "coordinates": [ [ 2.278067, 48.877076 ], [ 2.278791, 48.877195 ] ] } },
{ "type": "Feature", "properties": { "cls": "shared", "highway": "path", "name": "Route de la Porte des Sablons à la Porte Maillot" }, "geometry": { "type": "LineString", "coordinates": [ [ 2.278791, 48.877195 ], [ 2.278797, 48.877151 ], [ 2.278853, 48.877116 ], [ 2.278853, 48.877116 ] ] } },
{ "type": "Feature", "properties": { "cls": "separated", "highway": "cycleway", "name": null }, "geometry": { "type": "LineString", "coordinates": [ [ 2.2753, 48.876449 ], [ 2.275315, 48.876435 ], [ 2.275343, 48.876396 ] ] } },
{ "type": "Feature", "properties": { "cls": "separated", "highway": "cycleway", "name": null }, "geometry": { "type": "LineString", "coordinates": [ [ 2.275244, 48.876478 ], [ 2.275274, 48.876466 ], [ 2.2753, 48.876449 ] ] } },
{ "type": "Feature", "properties": { "cls": "separated", "highway": "cycleway", "name": null }, "geometry": { "type": "LineString", "coordinates": [ [ 2.275197, 48.876495 ], [ 2.275244, 48.876478 ] ] } },
{ "type": "Feature", "properties": { "cls": "separated", "highway": "cycleway", "name": null }, "geometry": { "type": "LineString", "coordinates": [ [ 2.275153, 48.876512 ], [ 2.275197, 48.876495 ] ] } },
{ "type": "Feature", "properties": { "cls": "separated", "highway": "cycleway", "name": null }, "geometry": { "type": "LineString", "coordinates": [ [ 2.275106, 48.876528 ], [ 2.275153, 48.876512 ] ] } },
{ "type": "Feature", "properties": { "cls": "shared", "highway": "path", "name": "Route de la Porte des Sablons à la Porte Maillot" }, "geometry": { "type": "LineString", "coordinates": [ [ 2.275365, 48.876364 ], [ 2.275414, 48.876381 ], [ 2.276576, 48.8768 ] ] } },
{ "type": "Feature", "properties": { "cls": "separated", "highway": "cycleway", "name": null }, "geometry": { "type": "LineString", "coordinates": [ [ 2.275072, 48.876703 ], [ 2.275105, 48.876677 ], [ 2.275133, 48.876639 ], [ 2.275142, 48.876591 ], [ 2.275125, 48.876554 ], [ 2.275106, 48.876528 ] ] } },
{ "type": "Feature", "properties": { "cls": "separated", "highway": "cycleway", "name": null }, "geometry": { "type": "LineString", "coordinates": [ [ 2.274998, 48.876803 ], [ 2.275006, 48.876742 ], [ 2.275013, 48.876719 ], [ 2.275072, 48.876703 ] ] } },
{ "type": "Feature", "properties": { "cls": "shared", "highway": "path", "name": "Route de la Porte des Sablons à la Porte Maillot" }, "geometry": { "type": "LineString", "coordinates": [ [ 2.276576, 48.8768 ], [ 2.276596, 48.876806 ] ] } },
{ "type": "Feature", "properties": { "cls": "shared", "highway": "path", "name": "Route de la Porte des Sablons à la Porte Maillot" }, "geometry": { "type": "LineString", "coordinates": [ [ 2.276596, 48.876806 ], [ 2.276657, 48.876826 ], [ 2.276706, 48.876841 ] ] } },
{ "type": "Feature", "properties": { "cls": "shared", "highway": "path", "name": null }, "geometry": { "type": "LineString", "coordinates": [ [ 2.278858, 48.877214 ], [ 2.278851, 48.87721 ], [ 2.278844, 48.877206 ], [ 2.278836, 48.877203 ], [ 2.278827, 48.8772 ], [ 2.278818, 48.877198 ], [ 2.278791, 48.877195 ] ] } },
{ "type": "Feature", "properties": { "cls": "separated", "highway": "cycleway", "name": null }, "geometry": { "type": "LineString", "coordinates": [ [ 2.27887, 48.87723 ], [ 2.278869, 48.877228 ], [ 2.278868, 48.877224 ], [ 2.278865, 48.877221 ], [ 2.278862, 48.877218 ], [ 2.278858, 48.877214 ] ] } },
{ "type": "Feature", "properties": { "cls": "separated", "highway": "cycleway", "name": "Route de la Porte des Sablons à la Porte Maillot" }, "geometry": { "type": "LineString", "coordinates": [ [ 2.278828, 48.877354 ], [ 2.278603, 48.87732 ], [ 2.278542, 48.87731 ] ] } },
{ "type": "Feature", "properties": { "cls": "shared", "highway": "path", "name": "Allée de Longchamp" }, "geometry": { "type": "LineString", "coordinates": [ [ 2.270999, 48.874995 ], [ 2.270953, 48.87498 ] ] } },
{ "type": "Feature", "properties": { "cls": "shared", "highway": "path", "name": null }, "geometry": { "type": "LineString", "coordinates": [ [ 2.271293, 48.874938 ], [ 2.271257, 48.87499 ], [ 2.271228, 48.875052 ] ] } },
{ "type": "Feature", "properties": { "cls": "shared", "highway": "path", "name": "Allée de Longchamp" }, "geometry": { "type": "LineString", "coordinates": [ [ 2.271158, 48.875056 ], [ 2.271071, 48.875023 ], [ 2.270999, 48.874995 ] ] } },
{ "type": "Feature", "properties": { "cls": "shared", "highway": "path", "name": null }, "geometry": { "type": "LineString", "coordinates": [ [ 2.271228, 48.875052 ], [ 2.271216, 48.875078 ] ] } },
{ "type": "Feature", "properties": { "cls": "shared", "highway": "path", "name": "Allée de Longchamp" }, "geometry": { "type": "LineString", "coordinates": [ [ 2.271216, 48.875078 ], [ 2.271158, 48.875056 ] ] } },
{ "type": "Feature", "properties": { "cls": "separated", "highway": "cycleway", "name": null }, "geometry": { "type": "LineString", "coordinates": [ [ 2.270828, 48.874935 ], [ 2.270786, 48.87501 ], [ 2.270768, 48.875086 ], [ 2.270744, 48.875183 ], [ 2.270724, 48.875233 ] ] } },
{ "type": "Feature", "properties": { "cls": "separated", "highway": "cycleway", "name": null }, "geometry": { "type": "LineString", "coordinates": [ [ 2.270724, 48.875233 ], [ 2.270568, 48.875634 ], [ 2.270474, 48.876011 ], [ 2.270327, 48.876566 ], [ 2.270263, 48.87673 ], [ 2.270167, 48.876933 ], [ 2.27004, 48.877142 ], [ 2.269996, 48.877266 ] ] } },
{ "type": "Feature", "properties": { "cls": "separated", "highway": "cycleway", "name": null }, "geometry": { "type": "LineString", "coordinates": [ [ 2.27678, 48.876908 ], [ 2.276807, 48.876865 ] ] } },
{ "type": "Feature", "properties": { "cls": "shared", "highway": "path", "name": "Route de la Porte des Sablons à la Porte Maillot" }, "geometry": { "type": "LineString", "coordinates": [ [ 2.276706, 48.876841 ], [ 2.276756, 48.876856 ], [ 2.276807, 48.876865 ], [ 2.277224, 48.876932 ], [ 2.277784, 48.877027 ], [ 2.278067, 48.877076 ] ] } },
{ "type": "Feature", "properties": { "cls": "separated", "highway": "cycleway", "name": null }, "geometry": { "type": "LineString", "coordinates": [ [ 2.276743, 48.877016 ], [ 2.276751, 48.876992 ], [ 2.276772, 48.876931 ], [ 2.27678, 48.876908 ] ] } },
{ "type": "Feature", "properties": { "cls": "separated", "highway": "cycleway", "name": null }, "geometry": { "type": "LineString", "coordinates": [ [ 2.276766, 48.877083 ], [ 2.276748, 48.877046 ], [ 2.276743, 48.877016 ] ] } }
]
}
