{
"type": "FeatureCollection",
"name": "102-berkeley-tilden-regional-park",
"crs": { "type": "name", "properties": { "name": "urn:ogc:def:crs:OGC:1.3:CRS84" } },
"xy_coordinate_resolution": 1e-06,
"features": [
{ "type": "Feature", "properties": { "cls": "sharrow", "highway": "tertiary", "name": "Wildcat Canyon Road" }, "geometry": { "type": "LineString", "coordinates": [ [ -122.248517, 37.892989 ], [ -122.248402, 37.892984 ], [ -122.248298, 37.892986 ], [ -122.248101, 37.893013 ], [ -122.247963, 37.893051 ], [ -122.247707, 37.893122 ], [ -122.247364, 37.893205 ], [ -122.246996, 37.893277 ], [ -122.24683, 37.893302 ], [ -122.246665, 37.89331 ], [ -122.246317, 37.893302 ], [ -122.245911, 37.893274 ], [ -122.24584, 37.893267 ] ] } },
{ "type": "Feature", "properties": { "cls": "shared", "highway": "path", "name": "Lower Big Springs Trail" }, "geometry": { "type": "LineString", "coordinates": [ [ -122.244838, 37.902214 ], [ -122.244647, 37.901789 ], [ -122.244565, 37.901619 ], [ -122.244496, 37.901513 ], [ -122.244384, 37.901371 ], [ -122.244184, 37.901186 ], [ -122.244088, 37.901084 ], [ -122.24402, 37.900984 ], [ -122.243966, 37.90084 ], [ -122.243916, 37.900655 ], [ -122.24388, 37.900564 ], [ -122.243752, 37.900387 ], [ -122.243583, 37.90019 ], [ -122.243459, 37.900045 ], [ -122.243274, 37.899829 ], [ -122.243085, 37.89966 ], [ -122.243043, 37.899611 ], [ -122.243023, 37.899557 ], [ -122.242935, 37.899521 ], [ -122.242866, 37.899486 ], [ -122.242787, 37.899433 ], [ -122.242601, 37.899278 ], [ -122.242448, 37.899151 ], [ -122.242086, 37.898783 ], [ -122.242012, 37.898629 ], [ -122.241937, 37.898471 ], [ -122.241902, 37.898382 ], [ -122.241886, 37.898315 ], [ -122.241868, 37.898115 ], [ -122.241854, 37.898066 ], [ -122.241821, 37.898013 ], [ -122.241776, 37.897965 ], [ -122.241717, 37.897932 ], [ -122.241551, 37.89785 ], [ -122.241502, 37.897824 ], [ -122.241388, 37.89773 ], [ -122.241179, 37.897591 ], [ -122.241041, 37.89749 ], [ -122.240938, 37.897404 ], [ -122.240857, 37.89736 ], [ -122.240786, 37.897339 ], [ -122.240694, 37.897317 ], [ -122.240578, 37.897276 ], [ -122.24042, 37.897178 ], [ -122.240234, 37.897053 ], [ -122.240183, 37.896998 ], [ -122.240086, 37.896838 ], [ -122.240027, 37.896746 ], [ -122.239955, 37.896693 ], [ -122.239796, 37.896612 ], [ -122.239748, 37.896578 ], [ -122.239689, 37.896519 ], [ -122.239658, 37.896437 ], [ -122.239664, 37.896383 ], [ -122.239677, 37.896301 ], [ -122.239678, 37.896237 ], [ -122.239672, 37.896175 ], [ -122.239597, 37.895841 ], [ -122.239587, 37.895772 ], [ -122.23958, 37.895695 ], [ -122.239572, 37.895642 ], [ -122.239546, 37.895579 ], [ -122.239462, 37.895505 ], [ -122.239294, 37.895376 ], [ -122.239183, 37.895133 ], [ -122.238906, 37.894789 ], [ -122.238887, 37.894749 ], [ -122.238883, 37.89472 ], [ -122.238892, 37.894684 ], [ -122.238958, 37.894524 ], [ -122.238973, 37.894468 ], [ -122.238976, 37.894402 ], [ -122.238915, 37.893884 ], [ -122.238887, 37.893767 ], [ -122.238855, 37.893687 ], [ -122.238816, 37.893617 ], [ -122.238793, 37.89356 ], [ -122.23879, 37.893488 ], [ -122.238856, 37.893143 ], [ -122.238878, 37.893056 ], [ -122.238925, 37.892868 ], [ -122.238927, 37.892804 ], [ -122.238918, 37.892745 ], [ -122.238891, 37.892677 ], [ -122.23884, 37.892617 ], [ -122.238541, 37.892474 ], [ -122.238371, 37.892357 ], [ -122.238352, 37.892084 ], [ -122.23839, 37.891863 ], [ -122.23836, 37.891789 ], [ -122.238234, 37.891605 ], [ -122.238112, 37.891433 ], [ -122.238042, 37.891324 ], [ -122.237881, 37.891068 ], [ -122.237766, 37.890885 ], [ -122.237708, 37.890816 ], [ -122.237649, 37.890762 ], [ -122.237574, 37.890713 ], [ -122.23751, 37.890683 ], [ -122.237456, 37.890659 ], [ -122.237376, 37.890617 ], [ -122.237339, 37.890587 ], [ -122.237239, 37.890532 ], [ -122.237116, 37.890469 ], [ -122.236836, 37.890371 ] ] } },
{ "type": "Feature", "properties": { "cls": "shared", "highway": "cycleway", "name": "Nimitz Way" }, "geometry": { "type": "MultiLineString", "coordinates": [ [ [ -122.253058, 37.911811 ], [ -122.253085, 37.911777 ], [ -122.253118, 37.911686 ], [ -122.253109, 37.911608 ], [ -122.253078, 37.911547 ], [ -122.253021, 37.911494 ], [ -122.252941, 37.91146 ], [ -122.252099, 37.911335 ], [ -122.252024, 37.91132 ], [ -122.251669, 37.911224 ], [ -122.25157, 37.911215 ], [ -122.25148, 37.911219 ], [ -122.251276, 37.911241 ], [ -122.251182, 37.91124 ], [ -122.251095, 37.91122 ], [ -122.250996, 37.911174 ], [ -122.250915, 37.911122 ], [ -122.250787, 37.911075 ], [ -122.250655, 37.911054 ], [ -122.250506, 37.911054 ], [ -122.250365, 37.911073 ], [ -122.250118, 37.911135 ], [ -122.249973, 37.911161 ], [ -122.249882, 37.911179 ], [ -122.249812, 37.911177 ], [ -122.249691, 37.911154 ], [ -122.249649, 37.911131 ], [ -122.249584, 37.911086 ], [ -122.249535, 37.91103 ], [ -122.249516, 37.91098 ], [ -122.249512, 37.910941 ], [ -122.249523, 37.910778 ], [ -122.249524, 37.910655 ], [ -122.249506, 37.910493 ], [ -122.249464, 37.910381 ], [ -122.249399, 37.910275 ], [ -122.249324, 37.910172 ], [ -122.249155, 37.909983 ], [ -122.249069, 37.909911 ], [ -122.248975, 37.909868 ], [ -122.248885, 37.909848 ], [ -122.24877, 37.90984 ], [ -122.248568, 37.909849 ], [ -122.248456, 37.909827 ], [ -122.248365, 37.909786 ], [ -122.248292, 37.909723 ], [ -122.24822, 37.909624 ], [ -122.24809, 37.909372 ], [ -122.248045, 37.909303 ], [ -122.247975, 37.909232 ], [ -122.247761, 37.909041 ], [ -122.247697, 37.90897 ], [ -122.247657, 37.908907 ], [ -122.247627, 37.908839 ], [ -122.247609, 37.908768 ], [ -122.247606, 37.908686 ], [ -122.247689, 37.908149 ], [ -122.247693, 37.908052 ], [ -122.247685, 37.90795 ], [ -122.247611, 37.907625 ], [ -122.247481, 37.907057 ], [ -122.247477, 37.906921 ], [ -122.247472, 37.906788 ], [ -122.247476, 37.906619 ], [ -122.247511, 37.906354 ], [ -122.24756, 37.906164 ], [ -122.24773, 37.905868 ], [ -122.24776, 37.905797 ], [ -122.247766, 37.905735 ], [ -122.247752, 37.90568 ], [ -122.247719, 37.90563 ], [ -122.24766, 37.905598 ], [ -122.247587, 37.905564 ], [ -122.24739, 37.90552 ], [ -122.246954, 37.905422 ], [ -122.246824, 37.905378 ], [ -122.246662, 37.905286 ], [ -122.246566, 37.905186 ], [ -122.246508, 37.905124 ], [ -122.246267, 37.904864 ], [ -122.246172, 37.904796 ], [ -122.246083, 37.904753 ], [ -122.245973, 37.904727 ], [ -122.245846, 37.904713 ], [ -122.245714, 37.904714 ], [ -122.245543, 37.904737 ], [ -122.245377, 37.904787 ], [ -122.245123, 37.904863 ] ], [ [ -122.245123, 37.904863 ], [ -122.245046, 37.904877 ] ], [ [ -122.245046, 37.904877 ], [ -122.244953, 37.904879 ] ] ] } },
{ "type": "Feature", "properties": { "cls": "sharrow", "highway": "tertiary", "name": "Wildcat Canyon Road" }, "geometry": { "type": "LineString", "coordinates": [ [ -122.242379, 37.892957 ], [ -122.242271, 37.893099 ], [ -122.242215, 37.893229 ], [ -122.2422, 37.893312 ], [ -122.242198, 37.893375 ], [ -122.242215, 37.893457 ], [ -122.242238, 37.893501 ], [ -122.24237, 37.893663 ], [ -122.242407, 37.89376 ], [ -122.242396, 37.893844 ], [ -122.242346, 37.893944 ], [ -122.242336, 37.894026 ], [ -122.242352, 37.894085 ], [ -122.242378, 37.894123 ], [ -122.242421, 37.894171 ], [ -122.242469, 37.894217 ], [ -122.242782, 37.894477 ], [ -122.243023, 37.894695 ], [ -122.243123, 37.894786 ], [ -122.243255, 37.894898 ], [ -122.243492, 37.895099 ], [ -122.24364, 37.89524 ], [ -122.243727, 37.895358 ], [ -122.243756, 37.895427 ], [ -122.24378, 37.895537 ], [ -122.243814, 37.89569 ], [ -122.243829, 37.895757 ], [ -122.243968, 37.896067 ], [ -122.24399, 37.89612 ], [ -122.24411, 37.896421 ], [ -122.244139, 37.896492 ], [ -122.244171, 37.896559 ], [ -122.244219, 37.896613 ], [ -122.244283, 37.896649 ], [ -122.244362, 37.896679 ], [ -122.244644, 37.896739 ], [ -122.244759, 37.89678 ], [ -122.244865, 37.896845 ], [ -122.244985, 37.89698 ], [ -122.245063, 37.897027 ], [ -122.245183, 37.897041 ], [ -122.245337, 37.897037 ], [ -122.245653, 37.897005 ], [ -122.245815, 37.896988 ], [ -122.245926, 37.89699 ], [ -122.246046, 37.897011 ], [ -122.246166, 37.897062 ], [ -122.246262, 37.897137 ], [ -122.246331, 37.897238 ], [ -122.246387, 37.89736 ], [ -122.246439, 37.897479 ], [ -122.246508, 37.897592 ], [ -122.246615, 37.897717 ], [ -122.246703, 37.897801 ], [ -122.246846, 37.897938 ], [ -122.24699, 37.898076 ], [ -122.247016, 37.898102 ], [ -122.24712, 37.898204 ], [ -122.247639, 37.898713 ], [ -122.247691, 37.898778 ], [ -122.247735, 37.89886 ], [ -122.24775, 37.898948 ], [ -122.247752, 37.899042 ], [ -122.247735, 37.899245 ], [ -122.247746, 37.899418 ], [ -122.247767, 37.899491 ], [ -122.247815, 37.899561 ], [ -122.247941, 37.899645 ], [ -122.248079, 37.899706 ], [ -122.248217, 37.899736 ], [ -122.248355, 37.899744 ], [ -122.248517, 37.899729 ], [ -122.249207, 37.899599 ], [ -122.249356, 37.899585 ], [ -122.24949, 37.899603 ], [ -122.249611, 37.899647 ], [ -122.249684, 37.899697 ], [ -122.24977, 37.89978 ], [ -122.25023, 37.900471 ], [ -122.25027, 37.900532 ], [ -122.250309, 37.900638 ], [ -122.250309, 37.900719 ], [ -122.250288, 37.90079 ], [ -122.250246, 37.900862 ], [ -122.250207, 37.900905 ], [ -122.250144, 37.900976 ], [ -122.250077, 37.90103 ], [ -122.250064, 37.901039 ], [ -122.250046, 37.901053 ], [ -122.249734, 37.901255 ], [ -122.248814, 37.901736 ], [ -122.248301, 37.902047 ], [ -122.247722, 37.902464 ] ] } },
{ "type": "Feature", "properties": { "cls": "sharrow", "highway": "tertiary", "name": "Wildcat Canyon Road" }, "geometry": { "type": "MultiLineString", "coordinates": [ [ [ -122.247722, 37.902464 ], [ -122.247319, 37.902796 ], [ -122.246586, 37.903315 ], [ -122.246112, 37.903651 ], [ -122.245651, 37.903991 ], [ -122.24535, 37.904249 ], [ -122.245057, 37.904482 ], [ -122.244927, 37.904578 ] ], [ [ -122.244927, 37.904578 ], [ -122.244841, 37.904642 ] ], [ [ -122.244841, 37.904642 ], [ -122.244621, 37.904778 ] ] ] } },
{ "type": "Feature", "properties": { "cls": "shared", "highway": "cycleway", "name": "Nimitz Way" }, "geometry": { "type": "MultiLineString", "coordinates": [ [ [ -122.244953, 37.904879 ], [ -122.244903, 37.904879 ], [ -122.244827, 37.904882 ] ], [ [ -122.24471, 37.904859 ], [ -122.244621, 37.904778 ] ] ] } },
{ "type": "Feature", "properties": { "cls": "sharrow", "highway": "tertiary", "name": "Wildcat Canyon Road" }, "geometry": { "type": "Point", "coordinates": [ -122.244621, 37.904778 ] } }
]
}
