{
"type": "FeatureCollection",
"name": "103-bydgoszcz-myslecinek",
"crs": { "type": "name", "properties": { "name": "urn:ogc:def:crs:OGC:1.3:CRS84" } },
"xy_coordinate_resolution": 1e-06,
"features": [
{ "type": "Feature", "properties": { "cls": "separated", "highway": "cycleway", "name": null }, "geometry": { "type": "LineString", "coordinates": [ [ 18.027144, 53.149594 ], [ 18.027058, 53.149632 ], [ 18.026911, 53.149705 ], [ 18.026835, 53.149752 ] ] } },
{ "type": "Feature", "properties": { "cls": "separated", "highway": "cycleway", "name": null }, "geometry": { "type": "LineString", "coordinates": [ [ 18.027152, 53.149781 ], [ 18.027085, 53.149748 ] ] } },
{ "type": "Feature", "properties": { "cls": "separated", "highway": "cycleway", "name": null }, "geometry": { "type": "LineString", "coordinates": [ [ 18.027199, 53.149787 ], [ 18.027152, 53.149781 ] ] } },
{ "type": "Feature", "properties": { "cls": "shared", "highway": "pedestrian", "name": "Hipiczna" }, "geometry": { "type": "LineString", "coordinates": [ [ 18.02224, 53.150207 ], [ 18.022259, 53.150247 ], [ 18.022312, 53.150387 ], [ 18.022485, 53.151017 ], [ 18.022535, 53.151199 ] ] } },
{ "type": "Feature", "properties": { "cls": "shared", "highway": "pedestrian", "name": "Hipiczna" }, "geometry": { "type": "LineString", "coordinates": [ [ 18.022535, 53.151199 ], [ 18.022835, 53.152351 ], [ 18.022917, 53.152621 ], [ 18.022947, 53.152708 ], [ 18.0231, 53.153075 ], [ 18.023127, 53.15314 ], [ 18.023276, 53.153496 ], [ 18.023361, 53.153713 ], [ 18.023437, 53.153934 ], [ 18.023525, 53.15419 ], [ 18.023539, 53.15423 ], [ 18.023608, 53.154483 ], [ 18.023675, 53.154751 ], [ 18.023726, 53.15505 ], [ 18.023756, 53.155338 ], [ 18.023827, 53.15588 ], [ 18.023836, 53.155961 ], [ 18.023868, 53.156187 ], [ 18.023905, 53.156414 ], [ 18.023932, 53.156563 ], [ 18.023964, 53.156713 ], [ 18.023993, 53.156837 ], [ 18.024048, 53.15695 ], [ 18.024068, 53.157035 ], [ 18.024178, 53.15734 ], [ 18.024381, 53.157882 ], [ 18.02454, 53.158294 ], [ 18.024688, 53.158695 ], [ 18.024729, 53.158832 ] ] } },
{ "type": "Feature", "properties": { "cls": "separated", "highway": "cycleway", "name": null }, "geometry": { "type": "LineString", "coordinates": [ [ 18.02224, 53.150207 ], [ 18.022235, 53.15025 ], [ 18.022282, 53.150433 ], [ 18.022356, 53.150693 ], [ 18.022448, 53.151018 ], [ 18.022546, 53.151385 ], [ 18.022578, 53.151512 ], [ 18.022666, 53.151817 ], [ 18.022719, 53.152012 ], [ 18.022809, 53.152369 ], [ 18.022877, 53.152586 ], [ 18.02292, 53.152713 ], [ 18.022975, 53.152871 ], [ 18.023067, 53.15308 ], [ 18.023096, 53.153148 ], [ 18.023219, 53.153447 ], [ 18.02331, 53.153735 ], [ 18.023433, 53.154059 ], [ 18.023544, 53.154408 ], [ 18.023604, 53.154643 ], [ 18.023679, 53.154931 ], [ 18.023705, 53.155142 ], [ 18.023727, 53.155381 ], [ 18.023754, 53.155631 ], [ 18.023788, 53.155885 ], [ 18.023801, 53.155966 ], [ 18.023777, 53.156025 ], [ 18.023802, 53.156163 ], [ 18.023841, 53.156363 ], [ 18.023869, 53.156536 ], [ 18.0239, 53.156717 ], [ 18.024014, 53.156982 ], [ 18.02404, 53.15705 ], [ 18.024086, 53.157197 ], [ 18.024157, 53.157381 ], [ 18.024222, 53.157558 ], [ 18.024314, 53.157792 ], [ 18.024348, 53.157886 ], [ 18.02445, 53.158149 ], [ 18.024548, 53.158404 ], [ 18.024629, 53.158644 ], [ 18.024697, 53.158829 ], [ 18.024774, 53.159112 ], [ 18.024788, 53.15916 ], [ 18.024835, 53.159319 ], [ 18.024919, 53.159661 ], [ 18.024936, 53.159753 ], [ 18.024983, 53.159943 ], [ 18.025037, 53.160197 ], [ 18.025112, 53.160547 ], [ 18.025131, 53.160633 ], [ 18.025173, 53.160826 ], [ 18.025208, 53.160983 ], [ 18.025313, 53.161417 ], [ 18.025389, 53.161663 ], [ 18.025419, 53.161765 ] ] } },
{ "type": "Feature", "properties": { "cls": "separated", "highway": "cycleway", "name": null }, "geometry": { "type": "LineString", "coordinates": [ [ 18.024055, 53.156292 ], [ 18.024069, 53.156296 ], [ 18.02408, 53.156302 ], [ 18.024088, 53.156309 ], [ 18.024091, 53.156318 ], [ 18.02409, 53.156326 ], [ 18.024084, 53.156335 ], [ 18.024074, 53.156342 ], [ 18.024062, 53.156346 ], [ 18.024048, 53.156348 ], [ 18.024033, 53.156347 ], [ 18.024019, 53.156344 ], [ 18.024008, 53.156338 ], [ 18.024, 53.156331 ], [ 18.023997, 53.156322 ], [ 18.023998, 53.156313 ], [ 18.024004, 53.156305 ], [ 18.024013, 53.156298 ], [ 18.024026, 53.156294 ], [ 18.024041, 53.156292 ], [ 18.024055, 53.156292 ] ] } },
{ "type": "Feature", "properties": { "cls": "separated", "highway": "cycleway", "name": null }, "geometry": { "type": "LineString", "coordinates": [ [ 18.02409, 53.156326 ], [ 18.024105, 53.156326 ], [ 18.02412, 53.156329 ], [ 18.024133, 53.156335 ], [ 18.024142, 53.156343 ], [ 18.024146, 53.156352 ], [ 18.024145, 53.156361 ], [ 18.024139, 53.15637 ], [ 18.024128, 53.156377 ] ] } },
{ "type": "Feature", "properties": { "cls": "separated", "highway": "cycleway", "name": null }, "geometry": { "type": "LineString", "coordinates": [ [ 18.024128, 53.156377 ], [ 18.024115, 53.156381 ], [ 18.024101, 53.156382 ], [ 18.024086, 53.156381 ], [ 18.024073, 53.156378 ], [ 18.024062, 53.156372 ], [ 18.024054, 53.156365 ], [ 18.024049, 53.156357 ], [ 18.024048, 53.156348 ] ] } },
{ "type": "Feature", "properties": { "cls": "separated", "highway": "cycleway", "name": null }, "geometry": { "type": "LineString", "coordinates": [ [ 18.024196, 53.156557 ], [ 18.024194, 53.156546 ], [ 18.024175, 53.15647 ], [ 18.024168, 53.156436 ], [ 18.024161, 53.156406 ], [ 18.024157, 53.156396 ], [ 18.024149, 53.156389 ], [ 18.024128, 53.156377 ] ] } },
{ "type": "Feature", "properties": { "cls": "separated", "highway": "cycleway", "name": null }, "geometry": { "type": "LineString", "coordinates": [ [ 18.024239, 53.156578 ], [ 18.024254, 53.156576 ], [ 18.024347, 53.156571 ], [ 18.024389, 53.156574 ], [ 18.024429, 53.156586 ] ] } },
{ "type": "Feature", "properties": { "cls": "separated", "highway": "cycleway", "name": null }, "geometry": { "type": "LineString", "coordinates": [ [ 18.02421, 53.156558 ], [ 18.024223, 53.156562 ], [ 18.024233, 53.156568 ], [ 18.024239, 53.156578 ], [ 18.024237, 53.156589 ], [ 18.024228, 53.156597 ], [ 18.024218, 53.156602 ], [ 18.024206, 53.156604 ], [ 18.024192, 53.156604 ], [ 18.024179, 53.156601 ], [ 18.024171, 53.156597 ], [ 18.024165, 53.156591 ], [ 18.024162, 53.156585 ], [ 18.024162, 53.156576 ], [ 18.024166, 53.156569 ], [ 18.024175, 53.156563 ], [ 18.024182, 53.15656 ], [ 18.024196, 53.156557 ], [ 18.02421, 53.156558 ] ] } },
{ "type": "Feature", "properties": { "cls": "separated", "highway": "cycleway", "name": null }, "geometry": { "type": "LineString", "coordinates": [ [ 18.024162, 53.156585 ], [ 18.02411, 53.156587 ], [ 18.024028, 53.156594 ] ] } },
{ "type": "Feature", "properties": { "cls": "shared", "highway": "cycleway", "name": null }, "geometry": { "type": "LineString", "coordinates": [ [ 18.0274, 53.150138 ], [ 18.027408, 53.15016 ], [ 18.027417, 53.150173 ], [ 18.027442, 53.150186 ], [ 18.0275, 53.150206 ], [ 18.027597, 53.15024 ], [ 18.027636, 53.150259 ], [ 18.027678, 53.150285 ], [ 18.028195, 53.150859 ], [ 18.028392, 53.151066 ], [ 18.028769, 53.151396 ], [ 18.029199, 53.151789 ], [ 18.029401, 53.152001 ], [ 18.029793, 53.152377 ], [ 18.031091, 53.153671 ], [ 18.031513, 53.154143 ], [ 18.031951, 53.154507 ], [ 18.032586, 53.155116 ], [ 18.033013, 53.155561 ], [ 18.033777, 53.156325 ], [ 18.034444, 53.156979 ], [ 18.034546, 53.157084 ], [ 18.035637, 53.158213 ], [ 18.035994, 53.158472 ], [ 18.036589, 53.15907 ], [ 18.036787, 53.159367 ], [ 18.036897, 53.159486 ], [ 18.037421, 53.159787 ], [ 18.037599, 53.159936 ], [ 18.037619, 53.159956 ] ] } },
{ "type": "Feature", "properties": { "cls": "shared", "highway": "cycleway", "name": null }, "geometry": { "type": "LineString", "coordinates": [ [ 18.038856, 53.161157 ], [ 18.038819, 53.161091 ], [ 18.038776, 53.16102 ], [ 18.038729, 53.160957 ], [ 18.038636, 53.160866 ], [ 18.03852, 53.160749 ], [ 18.038404, 53.160639 ], [ 18.038154, 53.160413 ], [ 18.037933, 53.160213 ], [ 18.037619, 53.159956 ] ] } },
{ "type": "Feature", "properties": { "cls": "separated", "highway": "cycleway", "name": null }, "geometry": { "type": "LineString", "coordinates": [ [ 18.038856, 53.161157 ], [ 18.038909, 53.161153 ], [ 18.039006, 53.161142 ], [ 18.039056, 53.161118 ], [ 18.039095, 53.161083 ], [ 18.039115, 53.161049 ], [ 18.039136, 53.161026 ], [ 18.039177, 53.161011 ] ] } },
{ "type": "Feature", "properties": { "cls": "shared", "highway": "cycleway", "name": null }, "geometry": { "type": "LineString", "coordinates": [ [ 18.038878, 53.161302 ], [ 18.038873, 53.161201 ], [ 18.038864, 53.161179 ], [ 18.038856, 53.161157 ] ] } },
{ "type": "Feature", "properties": { "cls": "separated", "highway": "cycleway", "name": null }, "geometry": { "type": "LineString", "coordinates": [ [ 18.02847, 53.162344 ], [ 18.028649, 53.16228 ], [ 18.028798, 53.162176 ], [ 18.028926, 53.162077 ], [ 18.029015, 53.161936 ], [ 18.029099, 53.161852 ], [ 18.029134, 53.161817 ], [ 18.029341, 53.161647 ], [ 18.029818, 53.161408 ], [ 18.029823, 53.161386 ] ] } },
{ "type": "Feature", "properties": { "cls": "shared", "highway": "cycleway", "name": null }, "geometry": { "type": "LineString", "coordinates": [ [ 18.027429, 53.149899 ], [ 18.027431, 53.149901 ], [ 18.027431, 53.149922 ], [ 18.027401, 53.149992 ], [ 18.027401, 53.150032 ] ] } },
{ "type": "Feature", "properties": { "cls": "separated", "highway": "cycleway", "name": null }, "geometry": { "type": "LineString", "coordinates": [ [ 18.027606, 53.14992 ], [ 18.027401, 53.149992 ] ] } },
{ "type": "Feature", "properties": { "cls": "shared", "highway": "cycleway", "name": null }, "geometry": { "type": "LineString", "coordinates": [ [ 18.027401, 53.150032 ], [ 18.02738, 53.150051 ], [ 18.027383, 53.15008 ], [ 18.0274, 53.150138 ] ] } },
{ "type": "Feature", "properties": { "cls": "separated", "highway": "cycleway", "name": null }, "geometry": { "type": "LineString", "coordinates": [ [ 18.02847, 53.162344 ], [ 18.028433, 53.162347 ], [ 18.028227, 53.162373 ], [ 18.026864, 53.162531 ], [ 18.025988, 53.162633 ], [ 18.025844, 53.162653 ], [ 18.025768, 53.162653 ], [ 18.025654, 53.162675 ] ] } },
{ "type": "Feature", "properties": { "cls": "separated", "highway": "cycleway", "name": "Hipiczna" }, "geometry": { "type": "LineString", "coordinates": [ [ 18.025419, 53.161765 ], [ 18.02544, 53.161847 ], [ 18.025487, 53.162003 ], [ 18.025519, 53.162142 ], [ 18.025593, 53.162441 ], [ 18.025654, 53.162675 ], [ 18.025752, 53.163017 ], [ 18.025899, 53.163655 ], [ 18.025897, 53.163744 ], [ 18.025887, 53.163835 ], [ 18.025852, 53.163956 ], [ 18.025833, 53.164015 ], [ 18.025796, 53.164101 ], [ 18.02571, 53.164233 ], [ 18.025626, 53.164361 ], [ 18.025466, 53.164616 ], [ 18.025381, 53.164752 ], [ 18.025295, 53.164922 ], [ 18.025193, 53.165092 ], [ 18.025116, 53.165208 ], [ 18.025077, 53.165301 ], [ 18.025063, 53.165348 ], [ 18.025066, 53.165429 ], [ 18.025088, 53.165495 ], [ 18.025146, 53.165647 ], [ 18.025217, 53.165819 ], [ 18.025259, 53.165928 ], [ 18.025308, 53.166064 ], [ 18.02536, 53.166216 ], [ 18.025366, 53.16623 ] ] } },
{ "type": "Feature", "properties": { "cls": "shared", "highway": "pedestrian", "name": "Hipiczna" }, "geometry": { "type": "LineString", "coordinates": [ [ 18.025399, 53.166216 ], [ 18.025467, 53.166394 ] ] } },
{ "type": "Feature", "properties": { "cls": "separated", "highway": "cycleway", "name": "Hipiczna" }, "geometry": { "type": "LineString", "coordinates": [ [ 18.025366, 53.16623 ], [ 18.025428, 53.166401 ] ] } },
{ "type": "Feature", "properties": { "cls": "shared", "highway": "pedestrian", "name": "Hipiczna" }, "geometry": { "type": "LineString", "coordinates": [ [ 18.025467, 53.166394 ], [ 18.025547, 53.166586 ], [ 18.025656, 53.166843 ], [ 18.02576, 53.16707 ], [ 18.025841, 53.167231 ], [ 18.025867, 53.167281 ], [ 18.025967, 53.167485 ] ] } },
{ "type": "Feature", "properties": { "cls": "separated", "highway": "cycleway", "name": "Hipiczna" }, "geometry": { "type": "LineString", "coordinates": [ [ 18.025428, 53.166401 ], [ 18.025464, 53.166489 ], [ 18.025515, 53.166603 ], [ 18.025543, 53.166666 ], [ 18.025616, 53.166845 ], [ 18.025696, 53.167017 ], [ 18.025801, 53.167227 ], [ 18.025825, 53.167275 ], [ 18.025945, 53.167487 ] ] } },
{ "type": "Feature", "properties": { "cls": "shared", "highway": "pedestrian", "name": "Hipiczna" }, "geometry": { "type": "LineString", "coordinates": [ [ 18.025967, 53.167485 ], [ 18.02617, 53.167777 ] ] } },
{ "type": "Feature", "properties": { "cls": "separated", "highway": "cycleway", "name": null }, "geometry": { "type": "LineString", "coordinates": [ [ 18.024638, 53.15666 ], [ 18.024653, 53.156643 ], [ 18.024704, 53.156588 ], [ 18.024738, 53.156551 ] ] } },
{ "type": "Feature", "properties": { "cls": "separated", "highway": "cycleway", "name": null }, "geometry": { "type": "LineString", "coordinates": [ [ 18.025352, 53.156812 ], [ 18.025348, 53.156794 ], [ 18.02534, 53.156777 ], [ 18.025302, 53.156757 ], [ 18.025238, 53.156734 ], [ 18.025192, 53.156716 ], [ 18.025066, 53.156672 ], [ 18.02503, 53.156671 ], [ 18.024995, 53.156667 ], [ 18.024925, 53.156648 ], [ 18.024871, 53.156618 ], [ 18.024846, 53.156599 ], [ 18.024825, 53.156582 ], [ 18.024738, 53.156551 ], [ 18.024625, 53.156507 ], [ 18.024532, 53.156474 ], [ 18.024495, 53.156459 ], [ 18.024469, 53.156449 ], [ 18.024441, 53.156441 ], [ 18.024415, 53.156435 ], [ 18.024385, 53.156431 ], [ 18.024342, 53.156426 ], [ 18.024296, 53.156427 ], [ 18.024222, 53.156431 ], [ 18.024168, 53.156436 ], [ 18.024114, 53.156441 ], [ 18.024048, 53.156447 ], [ 18.024021, 53.156452 ], [ 18.024006, 53.156461 ], [ 18.024003, 53.156471 ], [ 18.024002, 53.15648 ], [ 18.024007, 53.156502 ], [ 18.024028, 53.156594 ] ] } },
{ "type": "Feature", "properties": { "cls": "separated", "highway": "cycleway", "name": null }, "geometry": { "type": "LineString", "coordinates": [ [ 18.024055, 53.156706 ], [ 18.024075, 53.156704 ], [ 18.024225, 53.156692 ], [ 18.024268, 53.156689 ], [ 18.024315, 53.156684 ], [ 18.024353, 53.156682 ], [ 18.02438, 53.156676 ], [ 18.024414, 53.15666 ], [ 18.024437, 53.156642 ], [ 18.02445, 53.156629 ], [ 18.024477, 53.156602 ] ] } },
{ "type": "Feature", "properties": { "cls": "separated", "highway": "cycleway", "name": null }, "geometry": { "type": "LineString", "coordinates": [ [ 18.024028, 53.156594 ], [ 18.024055, 53.156706 ] ] } },
{ "type": "Feature", "properties": { "cls": "separated", "highway": "cycleway", "name": null }, "geometry": { "type": "LineString", "coordinates": [ [ 18.024755, 53.156703 ], [ 18.024779, 53.156674 ], [ 18.024793, 53.156664 ], [ 18.024809, 53.156661 ], [ 18.024848, 53.156666 ], [ 18.024894, 53.156684 ], [ 18.024953, 53.156709 ], [ 18.024988, 53.15673 ], [ 18.025026, 53.156753 ], [ 18.025068, 53.156769 ], [ 18.025125, 53.156776 ], [ 18.025189, 53.156781 ], [ 18.02522, 53.156753 ], [ 18.025238, 53.156734 ] ] } },
{ "type": "Feature", "properties": { "cls": "separated", "highway": "cycleway", "name": null }, "geometry": { "type": "LineString", "coordinates": [ [ 18.024055, 53.156706 ], [ 18.024072, 53.156781 ], [ 18.02408, 53.156794 ], [ 18.02409, 53.156799 ], [ 18.024101, 53.156803 ], [ 18.024127, 53.156804 ], [ 18.024205, 53.156798 ], [ 18.024223, 53.156793 ], [ 18.024235, 53.156787 ], [ 18.02424, 53.156779 ], [ 18.024242, 53.156772 ], [ 18.024225, 53.156692 ], [ 18.024217, 53.156653 ], [ 18.024213, 53.156638 ], [ 18.02421, 53.156622 ], [ 18.024206, 53.156604 ] ] } },
{ "type": "Feature", "properties": { "cls": "separated", "highway": "cycleway", "name": null }, "geometry": { "type": "LineString", "coordinates": [ [ 18.024429, 53.156586 ], [ 18.024477, 53.156602 ], [ 18.024529, 53.156618 ], [ 18.024638, 53.15666 ], [ 18.024755, 53.156703 ], [ 18.024862, 53.156742 ], [ 18.024909, 53.156761 ], [ 18.024941, 53.156782 ], [ 18.025008, 53.156831 ], [ 18.025053, 53.156851 ], [ 18.025116, 53.156866 ], [ 18.02518, 53.156867 ], [ 18.025207, 53.156865 ], [ 18.025263, 53.156861 ], [ 18.025308, 53.156851 ], [ 18.025338, 53.156836 ], [ 18.025352, 53.156812 ] ] } },
{ "type": "Feature", "properties": { "cls": "separated", "highway": "cycleway", "name": null }, "geometry": { "type": "LineString", "coordinates": [ [ 18.025189, 53.156781 ], [ 18.025203, 53.156849 ], [ 18.025207, 53.156865 ] ] } },
{ "type": "Feature", "properties": { "cls": "shared", "highway": "pedestrian", "name": "Hipiczna" }, "geometry": { "type": "LineString", "coordinates": [ [ 18.024729, 53.158832 ], [ 18.024818, 53.159157 ], [ 18.024936, 53.15958 ], [ 18.02516, 53.160563 ], [ 18.025258, 53.161016 ], [ 18.025377, 53.161489 ], [ 18.025553, 53.16212 ] ] } },
{ "type": "Feature", "properties": { "cls": "shared", "highway": "pedestrian", "name": null }, "geometry": { "type": "LineString", "coordinates": [ [ 18.036878, 53.163086 ], [ 18.037317, 53.162941 ], [ 18.037381, 53.162919 ], [ 18.037839, 53.162754 ], [ 18.038023, 53.1627 ], [ 18.038458, 53.162572 ], [ 18.039172, 53.162363 ], [ 18.039479, 53.162305 ] ] } },
{ "type": "Feature", "properties": { "cls": "shared", "highway": "pedestrian", "name": null }, "geometry": { "type": "LineString", "coordinates": [ [ 18.035046, 53.163625 ], [ 18.036604, 53.163167 ], [ 18.036878, 53.163086 ] ] } },
{ "type": "Feature", "properties": { "cls": "shared", "highway": "pedestrian", "name": null }, "geometry": { "type": "LineString", "coordinates": [ [ 18.035046, 53.163625 ], [ 18.034917, 53.163663 ], [ 18.03436, 53.163806 ], [ 18.034091, 53.163874 ], [ 18.033331, 53.164068 ], [ 18.032667, 53.164235 ], [ 18.03205, 53.164392 ], [ 18.031756, 53.164466 ], [ 18.031401, 53.164553 ], [ 18.031017, 53.164647 ], [ 18.030817, 53.164688 ], [ 18.030752, 53.164694 ], [ 18.030673, 53.164685 ], [ 18.030576, 53.164651 ], [ 18.030497, 53.164614 ], [ 18.03042, 53.164566 ], [ 18.03032, 53.164488 ], [ 18.030281, 53.164443 ], [ 18.030223, 53.164374 ], [ 18.030142, 53.164249 ], [ 18.030083, 53.164111 ], [ 18.030047, 53.164014 ], [ 18.030008, 53.163871 ], [ 18.029973, 53.163761 ], [ 18.029949, 53.163728 ], [ 18.029931, 53.163703 ], [ 18.029851, 53.163619 ], [ 18.029691, 53.163465 ], [ 18.029602, 53.163382 ], [ 18.029457, 53.163256 ], [ 18.029247, 53.163033 ], [ 18.029029, 53.162826 ], [ 18.028806, 53.162623 ], [ 18.028674, 53.162492 ], [ 18.028579, 53.162427 ], [ 18.02847, 53.162344 ], [ 18.028446, 53.162323 ] ] } },
{ "type": "Feature", "properties": { "cls": "separated", "highway": "cycleway", "name": null }, "geometry": { "type": "LineString", "coordinates": [ [ 18.035991, 53.165525 ], [ 18.036016, 53.165505 ], [ 18.036049, 53.165479 ], [ 18.035905, 53.165211 ], [ 18.035743, 53.164915 ], [ 18.035472, 53.164492 ], [ 18.035318, 53.164242 ], [ 18.035226, 53.164039 ], [ 18.035137, 53.163842 ], [ 18.035046, 53.163625 ] ] } },
{ "type": "Feature", "properties": { "cls": "separated", "highway": "cycleway", "name": null }, "geometry": { "type": "LineString", "coordinates": [ [ 18.036188, 53.166022 ], [ 18.03623, 53.166025 ], [ 18.036279, 53.166029 ], [ 18.036438, 53.16612 ], [ 18.036612, 53.166235 ], [ 18.036798, 53.166384 ], [ 18.036876, 53.166455 ], [ 18.036937, 53.166516 ], [ 18.036994, 53.166626 ], [ 18.037227, 53.167261 ], [ 18.037203, 53.16727 ], [ 18.03714, 53.167271 ] ] } },
{ "type": "Feature", "properties": { "cls": "separated", "highway": "cycleway", "name": null }, "geometry": { "type": "LineString", "coordinates": [ [ 18.034918, 53.166794 ], [ 18.034844, 53.166785 ], [ 18.034719, 53.166777 ], [ 18.034589, 53.166774 ], [ 18.034368, 53.166784 ], [ 18.034247, 53.166796 ], [ 18.034071, 53.166813 ], [ 18.033841, 53.166838 ], [ 18.033499, 53.166882 ], [ 18.033191, 53.166939 ], [ 18.033021, 53.166974 ], [ 18.032903, 53.167005 ], [ 18.032584, 53.167085 ], [ 18.032537, 53.167096 ], [ 18.032424, 53.167125 ], [ 18.032324, 53.167145 ], [ 18.032171, 53.167168 ], [ 18.032036, 53.16718 ], [ 18.031929, 53.167179 ], [ 18.031831, 53.167175 ], [ 18.031704, 53.167167 ], [ 18.031541, 53.167156 ], [ 18.0314, 53.167145 ], [ 18.031325, 53.167139 ], [ 18.031214, 53.167134 ], [ 18.031083, 53.167144 ], [ 18.030829, 53.167173 ], [ 18.030504, 53.167221 ], [ 18.030147, 53.167289 ], [ 18.030122, 53.167294 ], [ 18.029757, 53.167369 ], [ 18.029448, 53.167426 ], [ 18.029229, 53.167446 ], [ 18.029049, 53.167451 ], [ 18.028815, 53.167435 ], [ 18.028415, 53.167406 ], [ 18.028173, 53.167407 ], [ 18.027984, 53.167419 ], [ 18.027776, 53.16745 ], [ 18.027575, 53.167488 ], [ 18.027375, 53.167541 ], [ 18.027131, 53.167619 ], [ 18.026967, 53.16766 ], [ 18.026763, 53.167693 ], [ 18.026464, 53.167729 ], [ 18.02617, 53.167777 ] ] } },
{ "type": "Feature", "properties": { "cls": "painted", "highway": "residential", "name": "Hipiczna" }, "geometry": { "type": "LineString", "coordinates": [ [ 18.02617, 53.167777 ], [ 18.026276, 53.167897 ], [ 18.026686, 53.168275 ], [ 18.026775, 53.168352 ], [ 18.027425, 53.168912 ], [ 18.027878, 53.169317 ] ] } },
{ "type": "Feature", "properties": { "cls": "separated", "highway": "cycleway", "name": null }, "geometry": { "type": "LineString", "coordinates": [ [ 18.04795, 53.174375 ], [ 18.047934, 53.174365 ], [ 18.04793, 53.174337 ], [ 18.047982, 53.174294 ] ] } }
]
}
