{
"type": "FeatureCollection",
"name": "104-los-angeles-sepulveda-basin-recreation-area",
"crs": { "type": "name", "properties": { "name": "urn:ogc:def:crs:OGC:1.3:CRS84" } },
"xy_coordinate_resolution": 1e-06,
"features": [
{ "type": "Feature", "properties": { "cls": "shared", "highway": "cycleway", "name": null }, "geometry": { "type": "LineString", "coordinates": [ [ -118.505212, 34.172359 ], [ -118.50521, 34.173075 ] ] } },
{ "type": "Feature", "properties": { "cls": "shared", "highway": "cycleway", "name": null }, "geometry": { "type": "LineString", "coordinates": [ [ -118.50521, 34.173075 ], [ -118.505238, 34.173095 ], [ -118.505246, 34.173112 ], [ -118.505248, 34.17396 ], [ -118.505239, 34.173987 ], [ -118.505212, 34.17402 ] ] } },
{ "type": "Feature", "properties": { "cls": "shared", "highway": "cycleway", "name": null }, "geometry": { "type": "LineString", "coordinates": [ [ -118.505212, 34.17402 ], [ -118.505188, 34.17402 ], [ -118.504948, 34.17395 ], [ -118.504878, 34.173936 ], [ -118.504822, 34.173956 ], [ -118.504721, 34.173972 ], [ -118.504599, 34.173979 ], [ -118.50351, 34.173974 ], [ -118.503359, 34.17399 ], [ -118.50254, 34.173988 ], [ -118.502035, 34.173987 ], [ -118.501709, 34.173979 ], [ -118.501465, 34.17398 ] ] } },
{ "type": "Feature", "properties": { "cls": "shared", "highway": "cycleway", "name": null }, "geometry": { "type": "LineString", "coordinates": [ [ -118.501945, 34.179288 ], [ -118.501932, 34.179224 ], [ -118.501926, 34.179203 ], [ -118.501876, 34.179122 ], [ -118.501866, 34.179088 ], [ -118.501865, 34.17841 ], [ -118.501857, 34.178379 ], [ -118.501841, 34.178352 ], [ -118.501811, 34.178333 ], [ -118.50177, 34.178324 ], [ -118.501621, 34.178322 ], [ -118.501577, 34.178311 ], [ -118.501544, 34.178298 ], [ -118.501516, 34.178276 ], [ -118.501484, 34.178235 ], [ -118.501433, 34.178117 ], [ -118.501422, 34.178074 ], [ -118.50142, 34.178032 ], [ -118.501429, 34.17799 ], [ -118.501473, 34.177884 ], [ -118.501485, 34.177842 ], [ -118.501488, 34.177803 ], [ -118.501483, 34.177755 ], [ -118.501468, 34.177713 ], [ -118.501415, 34.17761 ], [ -118.501402, 34.17756 ], [ -118.5014, 34.177512 ], [ -118.501407, 34.17747 ], [ -118.50145, 34.177366 ], [ -118.501456, 34.177315 ], [ -118.501447, 34.177271 ], [ -118.501409, 34.177167 ], [ -118.501403, 34.177135 ], [ -118.501402, 34.176517 ], [ -118.501414, 34.176466 ], [ -118.501446, 34.176404 ], [ -118.501468, 34.176361 ], [ -118.501473, 34.176335 ], [ -118.501471, 34.176251 ], [ -118.501464, 34.176222 ], [ -118.501442, 34.176174 ], [ -118.501437, 34.176149 ], [ -118.501437, 34.174207 ], [ -118.501441, 34.174181 ], [ -118.501458, 34.174131 ], [ -118.501465, 34.174087 ], [ -118.501467, 34.174012 ], [ -118.501465, 34.17398 ], [ -118.501455, 34.173929 ], [ -118.501441, 34.173893 ], [ -118.501383, 34.173791 ], [ -118.501371, 34.173737 ], [ -118.501369, 34.17368 ], [ -118.501382, 34.173624 ], [ -118.501387, 34.173578 ], [ -118.501381, 34.173534 ], [ -118.501372, 34.173475 ], [ -118.501373, 34.173254 ], [ -118.501363, 34.173196 ], [ -118.501336, 34.173111 ], [ -118.501301, 34.17301 ], [ -118.501299, 34.172986 ], [ -118.501295, 34.172382 ], [ -118.501289, 34.172369 ] ] } },
{ "type": "Feature", "properties": { "cls": "shared", "highway": "footway", "name": null }, "geometry": { "type": "LineString", "coordinates": [ [ -118.505211, 34.175829 ], [ -118.505276, 34.175842 ], [ -118.505342, 34.17588 ], [ -118.505376, 34.175909 ], [ -118.505407, 34.175947 ], [ -118.505436, 34.176032 ], [ -118.505457, 34.17614 ], [ -118.50546, 34.176223 ], [ -118.505463, 34.176301 ], [ -118.505485, 34.176301 ] ] } },
{ "type": "Feature", "properties": { "cls": "shared", "highway": "cycleway", "name": null }, "geometry": { "type": "LineString", "coordinates": [ [ -118.501446, 34.176404 ], [ -118.50153, 34.176515 ], [ -118.501544, 34.176519 ], [ -118.50522, 34.176509 ] ] } },
{ "type": "Feature", "properties": { "cls": "shared", "highway": "footway", "name": null }, "geometry": { "type": "LineString", "coordinates": [ [ -118.505463, 34.176301 ], [ -118.505461, 34.176373 ], [ -118.505456, 34.176514 ], [ -118.505438, 34.176588 ], [ -118.505415, 34.176644 ], [ -118.505375, 34.176698 ], [ -118.505319, 34.176743 ], [ -118.505283, 34.176759 ], [ -118.505218, 34.176762 ] ] } },
{ "type": "Feature", "properties": { "cls": "shared", "highway": "cycleway", "name": null }, "geometry": { "type": "LineString", "coordinates": [ [ -118.505212, 34.17402 ], [ -118.505211, 34.175829 ], [ -118.505212, 34.175859 ], [ -118.505215, 34.176066 ], [ -118.505216, 34.176121 ], [ -118.50522, 34.176509 ], [ -118.505218, 34.176762 ], [ -118.505219, 34.179279 ], [ -118.50522, 34.179443 ] ] } },
{ "type": "Feature", "properties": { "cls": "shared", "highway": "cycleway", "name": null }, "geometry": { "type": "LineString", "coordinates": [ [ -118.501681, 34.179315 ], [ -118.501467, 34.179316 ], [ -118.501425, 34.179328 ], [ -118.501406, 34.179356 ], [ -118.501402, 34.179419 ], [ -118.50138, 34.179469 ], [ -118.501376, 34.179539 ] ] } },
{ "type": "Feature", "properties": { "cls": "shared", "highway": "cycleway", "name": "Metro G Line Bikeway" }, "geometry": { "type": "LineString", "coordinates": [ [ -118.501681, 34.179315 ], [ -118.501686, 34.179485 ], [ -118.50171, 34.179596 ], [ -118.501721, 34.179608 ], [ -118.502081, 34.179748 ], [ -118.502269, 34.179808 ], [ -118.5023, 34.179823 ], [ -118.502318, 34.179843 ], [ -118.50232, 34.179867 ], [ -118.502308, 34.179887 ], [ -118.502284, 34.179897 ], [ -118.502257, 34.179895 ], [ -118.501404, 34.179653 ], [ -118.500947, 34.179472 ], [ -118.500341, 34.179146 ], [ -118.500323, 34.179126 ], [ -118.500324, 34.179104 ], [ -118.500337, 34.179083 ], [ -118.500366, 34.179075 ], [ -118.5004, 34.179078 ], [ -118.500692, 34.179205 ], [ -118.500735, 34.179206 ], [ -118.500821, 34.17918 ], [ -118.500868, 34.179179 ], [ -118.500913, 34.179206 ], [ -118.500951, 34.179245 ], [ -118.500994, 34.179349 ], [ -118.501003, 34.179394 ] ] } },
{ "type": "Feature", "properties": { "cls": "shared", "highway": "cycleway", "name": "Metro G Line Bikeway" }, "geometry": { "type": "LineString", "coordinates": [ [ -118.505506, 34.180341 ], [ -118.505437, 34.180339 ], [ -118.505384, 34.180331 ], [ -118.505331, 34.180312 ], [ -118.505274, 34.180274 ], [ -118.505238, 34.180226 ], [ -118.505221, 34.180188 ], [ -118.505213, 34.180142 ], [ -118.505218, 34.179767 ], [ -118.50522, 34.179443 ], [ -118.505165, 34.179375 ], [ -118.505089, 34.179322 ], [ -118.504948, 34.179274 ], [ -118.503618, 34.179274 ], [ -118.502676, 34.179279 ], [ -118.502274, 34.179282 ], [ -118.502006, 34.179283 ], [ -118.501945, 34.179288 ], [ -118.501897, 34.179305 ], [ -118.501858, 34.179314 ], [ -118.501681, 34.179315 ] ] } },
{ "type": "Feature", "properties": { "cls": "shared", "highway": "cycleway", "name": null }, "geometry": { "type": "LineString", "coordinates": [ [ -118.501376, 34.179539 ], [ -118.501378, 34.180329 ] ] } },
{ "type": "Feature", "properties": { "cls": "shared", "highway": "cycleway", "name": "Metro G Line Bikeway" }, "geometry": { "type": "LineString", "coordinates": [ [ -118.509367, 34.180267 ], [ -118.509311, 34.180264 ] ] } },
{ "type": "Feature", "properties": { "cls": "shared", "highway": "cycleway", "name": "Metro G Line Bikeway" }, "geometry": { "type": "LineString", "coordinates": [ [ -118.514884, 34.180215 ], [ -118.514457, 34.180215 ], [ -118.514295, 34.180244 ], [ -118.514003, 34.180247 ], [ -118.512587, 34.180247 ], [ -118.510767, 34.180254 ], [ -118.510597, 34.180241 ], [ -118.510127, 34.18024 ], [ -118.509961, 34.180254 ], [ -118.50953, 34.180257 ], [ -118.509443, 34.180265 ], [ -118.509367, 34.180267 ] ] } },
{ "type": "Feature", "properties": { "cls": "shared", "highway": "cycleway", "name": "Metro G Line Bikeway" }, "geometry": { "type": "LineString", "coordinates": [ [ -118.509311, 34.180264 ], [ -118.509278, 34.180264 ], [ -118.50919, 34.180272 ], [ -118.50909, 34.18029 ], [ -118.509059, 34.180292 ], [ -118.508234, 34.180295 ], [ -118.507266, 34.180298 ], [ -118.507238, 34.180301 ], [ -118.507118, 34.180317 ], [ -118.507005, 34.180335 ], [ -118.506955, 34.180339 ], [ -118.505506, 34.180341 ] ] } },
{ "type": "Feature", "properties": { "cls": "shared", "highway": "cycleway", "name": "Metro G Line Bikeway" }, "geometry": { "type": "LineString", "coordinates": [ [ -118.515821, 34.18024 ], [ -118.515548, 34.180241 ], [ -118.515508, 34.180238 ], [ -118.515332, 34.180217 ], [ -118.515301, 34.180215 ], [ -118.514919, 34.180215 ], [ -118.514884, 34.180215 ] ] } },
{ "type": "Feature", "properties": { "cls": "separated", "highway": "cycleway", "name": null }, "geometry": { "type": "LineString", "coordinates": [ [ -118.509002, 34.181732 ], [ -118.508973, 34.181779 ] ] } },
{ "type": "Feature", "properties": { "cls": "separated", "highway": "cycleway", "name": null }, "geometry": { "type": "LineString", "coordinates": [ [ -118.508815, 34.182168 ], [ -118.508759, 34.182149 ], [ -118.508339, 34.181981 ], [ -118.508242, 34.181942 ], [ -118.508189, 34.181912 ], [ -118.508139, 34.181865 ], [ -118.508101, 34.181788 ], [ -118.508095, 34.181719 ], [ -118.50812, 34.181643 ], [ -118.508161, 34.181588 ], [ -118.508218, 34.181544 ], [ -118.508296, 34.181517 ], [ -118.508381, 34.181511 ], [ -118.508488, 34.18153 ], [ -118.50859, 34.18157 ], [ -118.509002, 34.181732 ], [ -118.509061, 34.18176 ], [ -118.509115, 34.181805 ], [ -118.509156, 34.181869 ], [ -118.509179, 34.181951 ], [ -118.509164, 34.182034 ], [ -118.509125, 34.182087 ], [ -118.50906, 34.182141 ], [ -118.508973, 34.182172 ], [ -118.508886, 34.182177 ], [ -118.508815, 34.182168 ] ] } },
{ "type": "Feature", "properties": { "cls": "separated", "highway": "cycleway", "name": null }, "geometry": { "type": "LineString", "coordinates": [ [ -118.509085, 34.181907 ], [ -118.509064, 34.181856 ], [ -118.509026, 34.181812 ], [ -118.508973, 34.181779 ], [ -118.508908, 34.181761 ], [ -118.508839, 34.181762 ], [ -118.508774, 34.18178 ], [ -118.508719, 34.181814 ], [ -118.50868, 34.181861 ], [ -118.508661, 34.181915 ], [ -118.508664, 34.181971 ], [ -118.508687, 34.182023 ], [ -118.50873, 34.182067 ], [ -118.508786, 34.182098 ], [ -118.50885, 34.182112 ], [ -118.508915, 34.18211 ], [ -118.508977, 34.182091 ], [ -118.509029, 34.182058 ], [ -118.509066, 34.182013 ], [ -118.509085, 34.181962 ], [ -118.509085, 34.181907 ] ] } },
{ "type": "Feature", "properties": { "cls": "separated", "highway": "cycleway", "name": null }, "geometry": { "type": "LineString", "coordinates": [ [ -118.508786, 34.182098 ], [ -118.508759, 34.182149 ] ] } },
{ "type": "Feature", "properties": { "cls": "shared", "highway": "cycleway", "name": null }, "geometry": { "type": "LineString", "coordinates": [ [ -118.501408, 34.18453 ], [ -118.501408, 34.184497 ], [ -118.501408, 34.183727 ], [ -118.501408, 34.183657 ], [ -118.501408, 34.182593 ], [ -118.501406, 34.18168 ], [ -118.501403, 34.180525 ], [ -118.501401, 34.180466 ], [ -118.50139, 34.180414 ], [ -118.501379, 34.180363 ], [ -118.501378, 34.180329 ] ] } },
{ "type": "Feature", "properties": { "cls": "shared", "highway": "cycleway", "name": "Metro G Line Bikeway" }, "geometry": { "type": "LineString", "coordinates": [ [ -118.518338, 34.185576 ], [ -118.518335, 34.185578 ], [ -118.51832, 34.1856 ], [ -118.518316, 34.185619 ], [ -118.518312, 34.186457 ], [ -118.518309, 34.186463 ] ] } },
{ "type": "Feature", "properties": { "cls": "shared", "highway": "cycleway", "name": "Metro G Line Bikeway" }, "geometry": { "type": "LineString", "coordinates": [ [ -118.509812, 34.186483 ], [ -118.50978, 34.186476 ], [ -118.509538, 34.186475 ], [ -118.509502, 34.186469 ], [ -118.509411, 34.186443 ], [ -118.509377, 34.186439 ], [ -118.509041, 34.18644 ], [ -118.509007, 34.186443 ], [ -118.508885, 34.186467 ], [ -118.50885, 34.18647 ], [ -118.507916, 34.186471 ], [ -118.507876, 34.186466 ], [ -118.507766, 34.186446 ], [ -118.507741, 34.186444 ], [ -118.50711, 34.186446 ], [ -118.507061, 34.18645 ], [ -118.506908, 34.186471 ], [ -118.506867, 34.186474 ], [ -118.505494, 34.186471 ], [ -118.505477, 34.186473 ] ] } },
{ "type": "Feature", "properties": { "cls": "shared", "highway": "cycleway", "name": "Metro G Line Bikeway" }, "geometry": { "type": "LineString", "coordinates": [ [ -118.511269, 34.186436 ], [ -118.511138, 34.186433 ], [ -118.511097, 34.186439 ], [ -118.510958, 34.186472 ], [ -118.5109, 34.186476 ], [ -118.510052, 34.186483 ], [ -118.509986, 34.186483 ] ] } },
{ "type": "Feature", "properties": { "cls": "shared", "highway": "cycleway", "name": "Metro G Line Bikeway" }, "geometry": { "type": "LineString", "coordinates": [ [ -118.51202, 34.186459 ], [ -118.511922, 34.186459 ], [ -118.511796, 34.186436 ], [ -118.511269, 34.186436 ] ] } },
{ "type": "Feature", "properties": { "cls": "shared", "highway": "cycleway", "name": "Metro G Line Bikeway" }, "geometry": { "type": "LineString", "coordinates": [ [ -118.509986, 34.186483 ], [ -118.509883, 34.186483 ], [ -118.509812, 34.186483 ] ] } },
{ "type": "Feature", "properties": { "cls": "shared", "highway": "cycleway", "name": "Metro G Line Bikeway" }, "geometry": { "type": "LineString", "coordinates": [ [ -118.512778, 34.186456 ], [ -118.51202, 34.186459 ] ] } },
{ "type": "Feature", "properties": { "cls": "shared", "highway": "cycleway", "name": "Metro G Line Bikeway" }, "geometry": { "type": "LineString", "coordinates": [ [ -118.514231, 34.186486 ], [ -118.514146, 34.186486 ], [ -118.513966, 34.186448 ], [ -118.51383, 34.186434 ], [ -118.513622, 34.186436 ], [ -118.513447, 34.186462 ], [ -118.512778, 34.186456 ] ] } },
{ "type": "Feature", "properties": { "cls": "shared", "highway": "cycleway", "name": "Metro G Line Bikeway" }, "geometry": { "type": "LineString", "coordinates": [ [ -118.518309, 34.186463 ], [ -118.518299, 34.186465 ], [ -118.517456, 34.186459 ], [ -118.517256, 34.186435 ], [ -118.516618, 34.18644 ], [ -118.516449, 34.186466 ], [ -118.51571, 34.186465 ], [ -118.515548, 34.186441 ], [ -118.514402, 34.186441 ], [ -118.514231, 34.186486 ] ] } },
{ "type": "Feature", "properties": { "cls": "shared", "highway": "cycleway", "name": null }, "geometry": { "type": "LineString", "coordinates": [ [ -118.497868, 34.170481 ], [ -118.49777, 34.170389 ], [ -118.497675, 34.170293 ] ] } },
{ "type": "Feature", "properties": { "cls": "shared", "highway": "cycleway", "name": null }, "geometry": { "type": "LineString", "coordinates": [ [ -118.498727, 34.171941 ], [ -118.4987, 34.171902 ], [ -118.498671, 34.171845 ], [ -118.498562, 34.171712 ], [ -118.498515, 34.171638 ], [ -118.498445, 34.171515 ], [ -118.498233, 34.17101 ], [ -118.498218, 34.170978 ], [ -118.498197, 34.170945 ], [ -118.498032, 34.170716 ], [ -118.497868, 34.170481 ] ] } },
{ "type": "Feature", "properties": { "cls": "shared", "highway": "cycleway", "name": null }, "geometry": { "type": "LineString", "coordinates": [ [ -118.498727, 34.171941 ], [ -118.49876, 34.171972 ], [ -118.498949, 34.172093 ], [ -118.499031, 34.172158 ] ] } },
{ "type": "Feature", "properties": { "cls": "shared", "highway": "cycleway", "name": null }, "geometry": { "type": "LineString", "coordinates": [ [ -118.499031, 34.172158 ], [ -118.499069, 34.17219 ], [ -118.499105, 34.172219 ] ] } },
{ "type": "Feature", "properties": { "cls": "shared", "highway": "footway", "name": null }, "geometry": { "type": "MultiLineString", "coordinates": [ [ [ -118.500744, 34.172473 ], [ -118.500784, 34.172415 ], [ -118.500816, 34.172383 ], [ -118.500835, 34.172373 ] ], [ [ -118.500961, 34.172395 ], [ -118.500962, 34.172397 ], [ -118.500961, 34.172532 ], [ -118.500956, 34.172539 ], [ -118.500868, 34.172568 ] ] ] } },
{ "type": "Feature", "properties": { "cls": "shared", "highway": "cycleway", "name": null }, "geometry": { "type": "LineString", "coordinates": [ [ -118.500337, 34.179083 ], [ -118.50029, 34.179037 ], [ -118.500048, 34.178923 ], [ -118.498639, 34.178345 ], [ -118.495809, 34.177247 ], [ -118.494558, 34.176756 ], [ -118.493813, 34.176447 ], [ -118.493054, 34.176159 ], [ -118.492329, 34.175904 ], [ -118.491168, 34.175391 ], [ -118.489688, 34.174827 ], [ -118.48924, 34.17466 ], [ -118.487263, 34.173932 ], [ -118.487068, 34.173874 ], [ -118.486731, 34.17373 ], [ -118.486524, 34.173669 ], [ -118.486264, 34.173533 ], [ -118.485968, 34.173434 ], [ -118.485637, 34.173298 ], [ -118.484144, 34.172716 ], [ -118.483422, 34.172445 ], [ -118.482114, 34.1719 ], [ -118.482061, 34.171863 ], [ -118.482014, 34.171787 ] ] } },
{ "type": "Feature", "properties": { "cls": "shared", "highway": "cycleway", "name": null }, "geometry": { "type": "LineString", "coordinates": [ [ -118.499105, 34.172219 ], [ -118.499149, 34.172226 ], [ -118.499236, 34.172238 ], [ -118.499274, 34.17225 ], [ -118.499301, 34.172266 ], [ -118.49944, 34.172379 ], [ -118.499481, 34.172403 ], [ -118.499522, 34.17242 ], [ -118.499581, 34.172434 ], [ -118.499763, 34.172458 ], [ -118.49992, 34.172473 ], [ -118.500034, 34.172477 ], [ -118.500667, 34.172459 ], [ -118.500703, 34.172463 ], [ -118.500744, 34.172473 ], [ -118.500799, 34.172504 ], [ -118.50084, 34.172538 ], [ -118.500868, 34.172568 ], [ -118.500885, 34.172606 ], [ -118.500897, 34.17265 ], [ -118.5009, 34.172694 ], [ -118.500893, 34.172731 ], [ -118.500839, 34.172892 ], [ -118.500834, 34.172932 ], [ -118.500837, 34.172977 ], [ -118.500852, 34.173047 ], [ -118.500854, 34.173085 ], [ -118.50085, 34.173121 ], [ -118.500798, 34.173306 ], [ -118.500787, 34.173376 ], [ -118.500788, 34.173509 ], [ -118.50081, 34.173635 ], [ -118.500963, 34.174117 ], [ -118.500979, 34.174228 ], [ -118.500968, 34.176752 ], [ -118.500952, 34.176947 ], [ -118.500926, 34.177097 ], [ -118.50092, 34.177148 ], [ -118.500895, 34.178939 ], [ -118.50088, 34.179085 ], [ -118.500868, 34.179179 ] ] } },
{ "type": "Feature", "properties": { "cls": "shared", "highway": "cycleway", "name": null }, "geometry": { "type": "LineString", "coordinates": [ [ -118.493267, 34.17803 ], [ -118.493179, 34.178081 ] ] } },
{ "type": "Feature", "properties": { "cls": "shared", "highway": "cycleway", "name": null }, "geometry": { "type": "LineString", "coordinates": [ [ -118.497557, 34.180471 ], [ -118.497456, 34.180466 ], [ -118.497393, 34.180447 ], [ -118.497343, 34.180428 ], [ -118.497312, 34.180411 ], [ -118.497282, 34.180389 ], [ -118.497249, 34.180359 ], [ -118.497144, 34.180222 ], [ -118.497132, 34.180201 ], [ -118.497124, 34.18018 ], [ -118.497118, 34.180153 ], [ -118.497118, 34.180126 ], [ -118.497121, 34.180102 ], [ -118.497128, 34.18008 ], [ -118.497469, 34.17952 ], [ -118.497502, 34.179426 ], [ -118.497518, 34.179322 ], [ -118.497521, 34.179235 ], [ -118.497508, 34.179161 ], [ -118.497473, 34.179078 ], [ -118.497398, 34.178961 ], [ -118.497311, 34.178862 ], [ -118.497236, 34.178799 ], [ -118.49716, 34.178761 ], [ -118.496607, 34.178586 ], [ -118.496522, 34.178569 ], [ -118.496437, 34.178561 ], [ -118.496368, 34.178557 ], [ -118.496314, 34.178547 ], [ -118.496226, 34.178518 ], [ -118.496159, 34.178504 ], [ -118.496042, 34.178492 ], [ -118.495966, 34.17848 ], [ -118.495906, 34.178466 ], [ -118.495799, 34.178431 ], [ -118.495358, 34.178263 ], [ -118.495293, 34.17823 ], [ -118.495251, 34.1782 ], [ -118.495099, 34.178064 ], [ -118.495042, 34.17803 ], [ -118.494968, 34.178001 ], [ -118.49486, 34.177971 ], [ -118.494786, 34.177944 ], [ -118.494618, 34.177876 ], [ -118.494365, 34.177783 ], [ -118.494165, 34.177718 ], [ -118.49409, 34.177699 ], [ -118.493999, 34.177691 ], [ -118.493945, 34.177696 ], [ -118.493864, 34.177712 ], [ -118.49378, 34.17774 ], [ -118.493654, 34.17779 ], [ -118.493528, 34.177851 ], [ -118.493457, 34.177899 ], [ -118.493354, 34.17798 ], [ -118.493267, 34.17803 ] ] } },
{ "type": "Feature", "properties": { "cls": "shared", "highway": "cycleway", "name": null }, "geometry": { "type": "LineString", "coordinates": [ [ -118.497675, 34.170293 ], [ -118.497559, 34.170138 ], [ -118.497332, 34.169824 ], [ -118.497295, 34.169796 ], [ -118.497211, 34.169754 ], [ -118.497056, 34.169689 ], [ -118.496947, 34.169628 ], [ -118.496845, 34.169531 ], [ -118.496726, 34.16945 ], [ -118.496641, 34.169346 ], [ -118.496499, 34.169231 ], [ -118.496392, 34.169159 ], [ -118.496326, 34.169098 ], [ -118.496255, 34.169016 ], [ -118.496223, 34.168988 ], [ -118.496022, 34.168849 ], [ -118.4959, 34.16879 ], [ -118.495821, 34.16876 ], [ -118.495796, 34.168747 ], [ -118.495576, 34.168604 ], [ -118.495242, 34.16841 ], [ -118.495226, 34.168393 ], [ -118.495216, 34.168372 ], [ -118.495215, 34.168344 ], [ -118.495286, 34.168245 ], [ -118.495344, 34.168155 ], [ -118.495352, 34.168127 ], [ -118.49535, 34.16809 ], [ -118.495339, 34.168045 ], [ -118.495303, 34.168004 ], [ -118.495212, 34.167948 ], [ -118.494906, 34.167809 ], [ -118.494428, 34.167629 ], [ -118.494099, 34.167527 ], [ -118.493701, 34.167422 ], [ -118.493362, 34.167352 ], [ -118.492818, 34.167272 ], [ -118.49251, 34.167247 ], [ -118.492202, 34.167232 ], [ -118.491662, 34.167238 ], [ -118.4912, 34.16727 ], [ -118.490966, 34.167297 ], [ -118.49075, 34.167325 ], [ -118.490298, 34.167414 ], [ -118.490043, 34.16748 ], [ -118.489683, 34.16758 ], [ -118.489071, 34.167749 ], [ -118.487987, 34.168073 ], [ -118.4871, 34.168332 ], [ -118.48654, 34.168487 ], [ -118.485804, 34.168666 ], [ -118.485293, 34.168774 ], [ -118.484592, 34.168911 ], [ -118.483372, 34.169294 ], [ -118.4826, 34.169448 ], [ -118.481285, 34.169779 ], [ -118.48084, 34.169915 ], [ -118.480319, 34.170106 ], [ -118.479799, 34.170322 ], [ -118.479469, 34.170512 ], [ -118.479311, 34.170584 ], [ -118.479196, 34.170627 ], [ -118.479083, 34.170643 ], [ -118.478945, 34.170642 ], [ -118.47882, 34.170626 ], [ -118.478696, 34.170589 ], [ -118.478681, 34.170588 ], [ -118.478651, 34.170595 ] ] } },
{ "type": "Feature", "properties": { "cls": "shared", "highway": "cycleway", "name": null }, "geometry": { "type": "LineString", "coordinates": [ [ -118.478651, 34.170595 ], [ -118.478018, 34.17088 ], [ -118.47761, 34.171068 ], [ -118.477599, 34.171084 ] ] } },
{ "type": "Feature", "properties": { "cls": "shared", "highway": "cycleway", "name": null }, "geometry": { "type": "LineString", "coordinates": [ [ -118.482014, 34.171787 ], [ -118.48141, 34.17153 ], [ -118.480151, 34.171011 ], [ -118.479749, 34.170836 ], [ -118.479296, 34.170667 ], [ -118.479196, 34.170627 ] ] } },
{ "type": "Feature", "properties": { "cls": "shared", "highway": "cycleway", "name": null }, "geometry": { "type": "LineString", "coordinates": [ [ -118.47556, 34.171879 ], [ -118.475642, 34.171854 ], [ -118.475826, 34.171798 ], [ -118.475928, 34.17177 ], [ -118.475958, 34.171762 ] ] } },
{ "type": "Feature", "properties": { "cls": "shared", "highway": "cycleway", "name": null }, "geometry": { "type": "LineString", "coordinates": [ [ -118.475958, 34.171762 ], [ -118.475985, 34.171786 ], [ -118.476118, 34.171921 ] ] } },
{ "type": "Feature", "properties": { "cls": "shared", "highway": "cycleway", "name": null }, "geometry": { "type": "LineString", "coordinates": [ [ -118.47556, 34.171879 ], [ -118.475496, 34.17191 ], [ -118.475473, 34.171921 ], [ -118.475138, 34.172005 ], [ -118.474775, 34.17208 ], [ -118.474394, 34.172152 ], [ -118.473969, 34.172214 ], [ -118.473652, 34.172255 ], [ -118.473309, 34.172287 ], [ -118.472642, 34.172338 ], [ -118.472603, 34.172336 ], [ -118.472324, 34.172282 ], [ -118.472303, 34.172279 ], [ -118.472272, 34.172279 ] ] } },
{ "type": "Feature", "properties": { "cls": "shared", "highway": "cycleway", "name": null }, "geometry": { "type": "LineString", "coordinates": [ [ -118.472272, 34.172279 ], [ -118.47208, 34.172281 ] ] } },
{ "type": "Feature", "properties": { "cls": "shared", "highway": "cycleway", "name": null }, "geometry": { "type": "LineString", "coordinates": [ [ -118.47208, 34.172281 ], [ -118.471858, 34.172285 ], [ -118.471813, 34.172343 ], [ -118.471718, 34.172414 ], [ -118.471661, 34.172431 ], [ -118.470765, 34.172434 ] ] } },
{ "type": "Feature", "properties": { "cls": "shared", "highway": "cycleway", "name": null }, "geometry": { "type": "LineString", "coordinates": [ [ -118.483171, 34.180241 ], [ -118.482936, 34.179975 ], [ -118.482779, 34.179839 ], [ -118.482315, 34.179305 ], [ -118.482218, 34.179229 ], [ -118.481434, 34.178915 ], [ -118.481327, 34.17885 ], [ -118.481032, 34.178518 ], [ -118.480856, 34.178319 ], [ -118.480702, 34.178227 ], [ -118.480317, 34.178045 ], [ -118.479888, 34.17776 ], [ -118.479394, 34.17753 ], [ -118.479178, 34.177395 ], [ -118.479032, 34.177247 ], [ -118.478827, 34.176971 ], [ -118.478685, 34.17685 ], [ -118.478217, 34.176535 ], [ -118.478107, 34.176435 ], [ -118.47795, 34.176252 ], [ -118.477867, 34.176122 ], [ -118.477856, 34.17606 ], [ -118.477892, 34.175795 ], [ -118.477891, 34.175697 ], [ -118.477859, 34.175598 ], [ -118.47781, 34.175519 ], [ -118.477548, 34.175211 ], [ -118.477432, 34.175075 ], [ -118.477406, 34.175033 ], [ -118.477196, 34.174511 ], [ -118.476229, 34.17224 ], [ -118.476138, 34.172012 ], [ -118.476118, 34.171921 ], [ -118.477265, 34.171576 ], [ -118.477346, 34.171542 ], [ -118.477405, 34.171507 ], [ -118.477476, 34.171451 ], [ -118.477517, 34.171404 ], [ -118.477563, 34.171336 ], [ -118.477587, 34.171278 ], [ -118.4776, 34.171238 ], [ -118.477606, 34.17119 ], [ -118.477605, 34.171143 ], [ -118.477601, 34.171109 ], [ -118.477599, 34.171084 ] ] } },
{ "type": "Feature", "properties": { "cls": "shared", "highway": "cycleway", "name": null }, "geometry": { "type": "LineString", "coordinates": [ [ -118.468389, 34.172365 ], [ -118.468386, 34.172406 ], [ -118.468379, 34.172495 ], [ -118.468373, 34.173969 ], [ -118.468381, 34.174355 ], [ -118.468394, 34.174546 ], [ -118.468406, 34.174704 ], [ -118.468436, 34.17498 ], [ -118.468502, 34.175329 ], [ -118.468562, 34.175608 ], [ -118.468635, 34.175906 ], [ -118.468736, 34.176218 ], [ -118.468798, 34.176423 ], [ -118.469004, 34.176941 ], [ -118.469151, 34.17728 ], [ -118.469397, 34.177743 ], [ -118.469765, 34.178352 ], [ -118.470133, 34.178868 ], [ -118.470489, 34.179373 ], [ -118.473765, 34.184014 ], [ -118.474517, 34.18514 ], [ -118.47458, 34.185266 ], [ -118.474609, 34.185339 ], [ -118.474624, 34.185414 ], [ -118.474631, 34.185503 ], [ -118.47463, 34.185673 ] ] } },
{ "type": "Feature", "properties": { "cls": "shared", "highway": "cycleway", "name": "Metro G Line Bikeway" }, "geometry": { "type": "LineString", "coordinates": [ [ -118.501003, 34.179394 ], [ -118.501001, 34.180183 ] ] } },
{ "type": "Feature", "properties": { "cls": "shared", "highway": "cycleway", "name": null }, "geometry": { "type": "LineString", "coordinates": [ [ -118.500186, 34.179947 ], [ -118.499671, 34.179784 ], [ -118.499558, 34.179764 ], [ -118.499447, 34.179761 ], [ -118.499348, 34.179777 ], [ -118.499238, 34.179813 ], [ -118.498722, 34.18003 ], [ -118.498467, 34.180155 ], [ -118.498314, 34.180249 ], [ -118.498316, 34.180322 ], [ -118.498331, 34.180384 ] ] } },
{ "type": "Feature", "properties": { "cls": "shared", "highway": "cycleway", "name": null }, "geometry": { "type": "LineString", "coordinates": [ [ -118.498314, 34.180249 ], [ -118.498222, 34.180311 ], [ -118.49815, 34.180381 ] ] } },
{ "type": "Feature", "properties": { "cls": "shared", "highway": "cycleway", "name": null }, "geometry": { "type": "LineString", "coordinates": [ [ -118.500985, 34.180287 ], [ -118.500888, 34.180216 ], [ -118.50084, 34.180186 ], [ -118.500394, 34.180008 ], [ -118.500186, 34.179947 ], [ -118.500203, 34.179912 ], [ -118.500218, 34.179898 ], [ -118.50024, 34.17989 ], [ -118.50027, 34.17989 ], [ -118.500953, 34.180063 ], [ -118.501443, 34.180256 ], [ -118.50224, 34.180693 ], [ -118.502252, 34.180711 ], [ -118.502252, 34.180731 ], [ -118.502241, 34.180747 ], [ -118.502211, 34.180758 ], [ -118.502179, 34.180758 ], [ -118.501444, 34.180471 ], [ -118.501401, 34.180466 ] ] } },
{ "type": "Feature", "properties": { "cls": "shared", "highway": "cycleway", "name": null }, "geometry": { "type": "LineString", "coordinates": [ [ -118.497932, 34.180472 ], [ -118.497557, 34.180471 ] ] } },
{ "type": "Feature", "properties": { "cls": "shared", "highway": "cycleway", "name": null }, "geometry": { "type": "LineString", "coordinates": [ [ -118.499859, 34.181346 ], [ -118.499867, 34.181164 ], [ -118.499854, 34.181097 ], [ -118.499825, 34.181053 ], [ -118.499776, 34.181017 ], [ -118.499719, 34.181002 ], [ -118.499645, 34.181012 ], [ -118.499574, 34.181017 ], [ -118.499485, 34.181012 ], [ -118.499349, 34.180984 ], [ -118.499207, 34.18093 ], [ -118.499094, 34.18086 ], [ -118.498701, 34.180534 ], [ -118.498598, 34.180472 ], [ -118.498485, 34.180427 ], [ -118.498331, 34.180384 ], [ -118.498239, 34.180374 ], [ -118.49815, 34.180381 ], [ -118.498073, 34.180473 ], [ -118.497932, 34.180472 ] ] } },
{ "type": "Feature", "properties": { "cls": "shared", "highway": "cycleway", "name": "Metro G Line Bikeway" }, "geometry": { "type": "LineString", "coordinates": [ [ -118.501001, 34.180183 ], [ -118.500985, 34.180287 ], [ -118.500985, 34.180388 ], [ -118.500982, 34.181074 ], [ -118.500961, 34.181226 ], [ -118.500954, 34.181448 ], [ -118.500967, 34.181659 ] ] } },
{ "type": "Feature", "properties": { "cls": "shared", "highway": "cycleway", "name": null }, "geometry": { "type": "LineString", "coordinates": [ [ -118.499852, 34.181429 ], [ -118.499855, 34.181389 ], [ -118.499859, 34.181346 ] ] } },
{ "type": "Feature", "properties": { "cls": "shared", "highway": "cycleway", "name": null }, "geometry": { "type": "LineString", "coordinates": [ [ -118.493179, 34.178081 ], [ -118.493058, 34.178132 ], [ -118.493008, 34.178156 ], [ -118.492962, 34.178195 ], [ -118.49292, 34.178245 ], [ -118.492883, 34.178314 ], [ -118.49286, 34.178361 ], [ -118.49283, 34.178451 ], [ -118.492806, 34.178557 ], [ -118.492797, 34.178642 ], [ -118.492807, 34.17931 ], [ -118.492842, 34.17959 ], [ -118.492861, 34.179817 ], [ -118.492867, 34.180194 ], [ -118.492852, 34.180512 ], [ -118.492835, 34.180655 ], [ -118.492781, 34.180954 ], [ -118.492773, 34.181042 ], [ -118.492771, 34.18156 ], [ -118.492771, 34.181657 ], [ -118.492788, 34.182401 ], [ -118.492799, 34.18251 ], [ -118.492817, 34.182569 ], [ -118.49295, 34.182843 ], [ -118.493009, 34.182989 ], [ -118.493042, 34.183143 ], [ -118.493042, 34.18325 ], [ -118.492995, 34.183564 ], [ -118.492968, 34.183874 ], [ -118.49297, 34.183908 ], [ -118.492974, 34.183947 ], [ -118.493006, 34.18405 ], [ -118.493133, 34.184315 ], [ -118.493151, 34.184366 ], [ -118.493157, 34.184408 ], [ -118.493166, 34.184618 ], [ -118.493166, 34.184767 ], [ -118.493159, 34.184865 ], [ -118.493149, 34.184911 ], [ -118.49313, 34.184954 ], [ -118.493099, 34.184998 ], [ -118.493043, 34.185043 ], [ -118.492964, 34.185078 ], [ -118.492919, 34.185106 ], [ -118.492818, 34.18518 ], [ -118.492788, 34.185191 ], [ -118.492768, 34.185195 ] ] } },
{ "type": "Feature", "properties": { "cls": "shared", "highway": "cycleway", "name": null }, "geometry": { "type": "LineString", "coordinates": [ [ -118.492771, 34.181657 ], [ -118.492782, 34.181657 ] ] } },
{ "type": "Feature", "properties": { "cls": "shared", "highway": "cycleway", "name": null }, "geometry": { "type": "LineString", "coordinates": [ [ -118.483653, 34.180912 ], [ -118.483621, 34.180844 ], [ -118.483474, 34.180602 ], [ -118.483171, 34.180241 ] ] } },
{ "type": "Feature", "properties": { "cls": "shared", "highway": "cycleway", "name": null }, "geometry": { "type": "LineString", "coordinates": [ [ -118.483694, 34.180997 ], [ -118.483673, 34.180952 ], [ -118.483653, 34.180912 ] ] } },
{ "type": "Feature", "properties": { "cls": "shared", "highway": "cycleway", "name": null }, "geometry": { "type": "LineString", "coordinates": [ [ -118.483853, 34.184687 ], [ -118.483855, 34.184658 ], [ -118.483843, 34.183825 ], [ -118.483856, 34.182783 ], [ -118.483851, 34.181708 ], [ -118.483845, 34.181563 ], [ -118.483817, 34.181393 ], [ -118.483762, 34.181179 ], [ -118.483694, 34.180997 ] ] } },
{ "type": "Feature", "properties": { "cls": "shared", "highway": "cycleway", "name": null }, "geometry": { "type": "LineString", "coordinates": [ [ -118.483832, 34.184772 ], [ -118.483841, 34.184735 ], [ -118.483853, 34.184687 ] ] } },
{ "type": "Feature", "properties": { "cls": "shared", "highway": "cycleway", "name": null }, "geometry": { "type": "LineString", "coordinates": [ [ -118.483831, 34.185148 ], [ -118.483831, 34.185143 ], [ -118.483832, 34.184942 ], [ -118.483832, 34.184772 ] ] } },
{ "type": "Feature", "properties": { "cls": "shared", "highway": "cycleway", "name": null }, "geometry": { "type": "LineString", "coordinates": [ [ -118.492782, 34.181657 ], [ -118.492831, 34.181659 ], [ -118.49288, 34.181661 ] ] } },
{ "type": "Feature", "properties": { "cls": "shared", "highway": "cycleway", "name": null }, "geometry": { "type": "LineString", "coordinates": [ [ -118.49288, 34.181661 ], [ -118.492994, 34.181672 ], [ -118.49312, 34.18169 ], [ -118.493246, 34.181714 ], [ -118.493385, 34.181753 ], [ -118.493479, 34.181791 ], [ -118.493578, 34.181863 ] ] } },
{ "type": "Feature", "properties": { "cls": "shared", "highway": "cycleway", "name": "Metro G Line Bikeway" }, "geometry": { "type": "LineString", "coordinates": [ [ -118.500967, 34.181659 ], [ -118.500979, 34.181768 ], [ -118.500986, 34.181832 ] ] } },
{ "type": "Feature", "properties": { "cls": "shared", "highway": "cycleway", "name": null }, "geometry": { "type": "LineString", "coordinates": [ [ -118.500937, 34.184268 ], [ -118.500912, 34.184163 ], [ -118.500888, 34.184077 ], [ -118.50085, 34.183995 ], [ -118.500807, 34.183933 ], [ -118.500756, 34.18388 ], [ -118.500703, 34.183836 ], [ -118.500649, 34.1838 ], [ -118.500431, 34.183686 ], [ -118.500416, 34.183676 ], [ -118.500401, 34.183665 ], [ -118.500372, 34.183631 ], [ -118.500352, 34.18359 ], [ -118.500329, 34.183498 ], [ -118.500311, 34.183456 ], [ -118.500042, 34.183046 ], [ -118.499967, 34.182951 ], [ -118.49993, 34.182896 ], [ -118.499917, 34.182853 ], [ -118.499914, 34.182811 ], [ -118.499918, 34.182773 ], [ -118.499981, 34.182615 ], [ -118.500003, 34.182544 ], [ -118.50001, 34.182506 ], [ -118.50001, 34.18247 ], [ -118.500003, 34.18238 ], [ -118.500003, 34.182338 ], [ -118.500011, 34.182297 ], [ -118.500058, 34.182175 ], [ -118.500068, 34.182126 ], [ -118.500069, 34.182075 ], [ -118.500047, 34.181916 ], [ -118.500038, 34.181771 ], [ -118.500025, 34.181712 ], [ -118.500009, 34.181675 ], [ -118.499978, 34.181637 ], [ -118.499894, 34.18157 ], [ -118.49987, 34.181536 ], [ -118.499858, 34.181502 ], [ -118.499852, 34.181429 ] ] } },
{ "type": "Feature", "properties": { "cls": "shared", "highway": "cycleway", "name": "Metro G Line Bikeway" }, "geometry": { "type": "LineString", "coordinates": [ [ -118.500986, 34.181832 ], [ -118.500964, 34.181897 ], [ -118.500957, 34.181933 ], [ -118.500952, 34.18411 ], [ -118.500937, 34.184268 ], [ -118.500944, 34.184482 ] ] } },
{ "type": "Feature", "properties": { "cls": "shared", "highway": "cycleway", "name": "Metro G Line Bikeway" }, "geometry": { "type": "LineString", "coordinates": [ [ -118.500944, 34.184482 ], [ -118.500943, 34.184532 ] ] } },
{ "type": "Feature", "properties": { "cls": "shared", "highway": "cycleway", "name": "Hayvenhurst Avenue connector" }, "geometry": { "type": "LineString", "coordinates": [ [ -118.492914, 34.185249 ], [ -118.492913, 34.185291 ], [ -118.492913, 34.185304 ], [ -118.492914, 34.185883 ], [ -118.492963, 34.185968 ], [ -118.492985, 34.186034 ], [ -118.492959, 34.186057 ], [ -118.492929, 34.186067 ], [ -118.492393, 34.186071 ], [ -118.492385, 34.186079 ], [ -118.492385, 34.186178 ], [ -118.492385, 34.186191 ], [ -118.492385, 34.186194 ], [ -118.492385, 34.186197 ] ] } },
{ "type": "Feature", "properties": { "cls": "shared", "highway": "cycleway", "name": null }, "geometry": { "type": "LineString", "coordinates": [ [ -118.483832, 34.184942 ], [ -118.484066, 34.184943 ], [ -118.484109, 34.184943 ], [ -118.484171, 34.184953 ], [ -118.484321, 34.185019 ], [ -118.484376, 34.185037 ], [ -118.48442, 34.185043 ], [ -118.484496, 34.185044 ], [ -118.485417, 34.185029 ], [ -118.485562, 34.185027 ], [ -118.485605, 34.185021 ], [ -118.485867, 34.184936 ], [ -118.486048, 34.184886 ], [ -118.486128, 34.184869 ], [ -118.486195, 34.184865 ], [ -118.487642, 34.184862 ], [ -118.48773, 34.184869 ], [ -118.490116, 34.18516 ], [ -118.490203, 34.185166 ], [ -118.49115, 34.185175 ], [ -118.491281, 34.185181 ], [ -118.491648, 34.185182 ], [ -118.492331, 34.185181 ], [ -118.492391, 34.185194 ], [ -118.492768, 34.185195 ] ] } },
{ "type": "Feature", "properties": { "cls": "shared", "highway": "cycleway", "name": null }, "geometry": { "type": "LineString", "coordinates": [ [ -118.483833, 34.185221 ], [ -118.483831, 34.185178 ], [ -118.483831, 34.185148 ] ] } },
{ "type": "Feature", "properties": { "cls": "shared", "highway": "cycleway", "name": null }, "geometry": { "type": "LineString", "coordinates": [ [ -118.483834, 34.185576 ], [ -118.483833, 34.185221 ] ] } },
{ "type": "Feature", "properties": { "cls": "shared", "highway": "cycleway", "name": "Metro G Line Bikeway" }, "geometry": { "type": "LineString", "coordinates": [ [ -118.474368, 34.185857 ], [ -118.474294, 34.185824 ] ] } },
{ "type": "Feature", "properties": { "cls": "shared", "highway": "cycleway", "name": null }, "geometry": { "type": "LineString", "coordinates": [ [ -118.483833, 34.185655 ], [ -118.483833, 34.185617 ], [ -118.483834, 34.185576 ] ] } },
{ "type": "Feature", "properties": { "cls": "shared", "highway": "cycleway", "name": "Metro G Line Bikeway" }, "geometry": { "type": "LineString", "coordinates": [ [ -118.474986, 34.186097 ], [ -118.474901, 34.186065 ], [ -118.474645, 34.18598 ], [ -118.474368, 34.185857 ] ] } },
{ "type": "Feature", "properties": { "cls": "shared", "highway": "cycleway", "name": null }, "geometry": { "type": "LineString", "coordinates": [ [ -118.483835, 34.186205 ], [ -118.483833, 34.185655 ] ] } },
{ "type": "Feature", "properties": { "cls": "shared", "highway": "cycleway", "name": "Metro G Line Bikeway" }, "geometry": { "type": "LineString", "coordinates": [ [ -118.475125, 34.186145 ], [ -118.475067, 34.186125 ], [ -118.474986, 34.186097 ] ] } },
{ "type": "Feature", "properties": { "cls": "shared", "highway": "cycleway", "name": "Metro G Line Bikeway" }, "geometry": { "type": "LineString", "coordinates": [ [ -118.477367, 34.186499 ], [ -118.477331, 34.186493 ], [ -118.477217, 34.18643 ], [ -118.477185, 34.186421 ], [ -118.477029, 34.186417 ], [ -118.476931, 34.186415 ], [ -118.476725, 34.186395 ], [ -118.476585, 34.186406 ], [ -118.47649, 34.186409 ], [ -118.476153, 34.186379 ], [ -118.475947, 34.186356 ], [ -118.475695, 34.186321 ], [ -118.475436, 34.186268 ], [ -118.475207, 34.186207 ], [ -118.475194, 34.186202 ], [ -118.475169, 34.186185 ], [ -118.475125, 34.186145 ] ] } },
{ "type": "Feature", "properties": { "cls": "shared", "highway": "cycleway", "name": null }, "geometry": { "type": "LineString", "coordinates": [ [ -118.483838, 34.186323 ], [ -118.483836, 34.186257 ], [ -118.483835, 34.186205 ] ] } },
{ "type": "Feature", "properties": { "cls": "shared", "highway": "cycleway", "name": "Hayvenhurst Avenue connector" }, "geometry": { "type": "LineString", "coordinates": [ [ -118.492385, 34.186197 ], [ -118.492385, 34.186237 ], [ -118.492384, 34.186271 ] ] } },
{ "type": "Feature", "properties": { "cls": "shared", "highway": "cycleway", "name": "Hayvenhurst Avenue connector" }, "geometry": { "type": "LineString", "coordinates": [ [ -118.492478, 34.186508 ], [ -118.492423, 34.186508 ], [ -118.492403, 34.186501 ], [ -118.492385, 34.186413 ], [ -118.492384, 34.186289 ], [ -118.492384, 34.186278 ], [ -118.492384, 34.186274 ], [ -118.492384, 34.186271 ] ] } },
{ "type": "Feature", "properties": { "cls": "shared", "highway": "cycleway", "name": "Metro G Line Bikeway" }, "geometry": { "type": "LineString", "coordinates": [ [ -118.49787, 34.18644 ], [ -118.49769, 34.18644 ] ] } },
{ "type": "Feature", "properties": { "cls": "shared", "highway": "cycleway", "name": "Metro G Line Bikeway" }, "geometry": { "type": "LineString", "coordinates": [ [ -118.498582, 34.18649 ], [ -118.498423, 34.186488 ], [ -118.498334, 34.186482 ], [ -118.497972, 34.186441 ], [ -118.49787, 34.18644 ] ] } },
{ "type": "Feature", "properties": { "cls": "shared", "highway": "cycleway", "name": "Metro G Line Bikeway" }, "geometry": { "type": "LineString", "coordinates": [ [ -118.480051, 34.186393 ], [ -118.479997, 34.186392 ], [ -118.479942, 34.186392 ] ] } },
{ "type": "Feature", "properties": { "cls": "shared", "highway": "cycleway", "name": null }, "geometry": { "type": "LineString", "coordinates": [ [ -118.483928, 34.186437 ], [ -118.483859, 34.186396 ], [ -118.483846, 34.186376 ], [ -118.483838, 34.186323 ] ] } },
{ "type": "Feature", "properties": { "cls": "shared", "highway": "cycleway", "name": "Metro G Line Bikeway" }, "geometry": { "type": "LineString", "coordinates": [ [ -118.479942, 34.186392 ], [ -118.479798, 34.186395 ], [ -118.479758, 34.186399 ], [ -118.479463, 34.186479 ], [ -118.479432, 34.186482 ], [ -118.479398, 34.186479 ], [ -118.479143, 34.186408 ], [ -118.479099, 34.186408 ], [ -118.479028, 34.186418 ], [ -118.478808, 34.186471 ], [ -118.478758, 34.186475 ], [ -118.478714, 34.186474 ], [ -118.478542, 34.186423 ], [ -118.478434, 34.186414 ], [ -118.478152, 34.186415 ], [ -118.478003, 34.186431 ], [ -118.477902, 34.186433 ], [ -118.477708, 34.186417 ], [ -118.477667, 34.186418 ], [ -118.477627, 34.186432 ], [ -118.477564, 34.186475 ], [ -118.477544, 34.186493 ] ] } },
{ "type": "Feature", "properties": { "cls": "shared", "highway": "cycleway", "name": "Metro G Line Bikeway" }, "geometry": { "type": "LineString", "coordinates": [ [ -118.477544, 34.186493 ], [ -118.477436, 34.186497 ], [ -118.477367, 34.186499 ] ] } },
{ "type": "Feature", "properties": { "cls": "shared", "highway": "cycleway", "name": "Metro G Line Bikeway" }, "geometry": { "type": "LineString", "coordinates": [ [ -118.483441, 34.186475 ], [ -118.483389, 34.186449 ], [ -118.483305, 34.18643 ], [ -118.48316, 34.186421 ], [ -118.483062, 34.186425 ], [ -118.482761, 34.186447 ], [ -118.482547, 34.186484 ], [ -118.48245, 34.186488 ], [ -118.480641, 34.186486 ], [ -118.480583, 34.186479 ], [ -118.48028, 34.186402 ], [ -118.480216, 34.186395 ], [ -118.480051, 34.186393 ] ] } },
{ "type": "Feature", "properties": { "cls": "shared", "highway": "cycleway", "name": "Metro G Line Bikeway" }, "geometry": { "type": "LineString", "coordinates": [ [ -118.49769, 34.18644 ], [ -118.497469, 34.186422 ], [ -118.497244, 34.186417 ], [ -118.496864, 34.186407 ], [ -118.496769, 34.186418 ], [ -118.496594, 34.186462 ], [ -118.496533, 34.186465 ], [ -118.496185, 34.186437 ], [ -118.496039, 34.186433 ], [ -118.49574, 34.186453 ], [ -118.495662, 34.186452 ], [ -118.495388, 34.186416 ], [ -118.495297, 34.186415 ], [ -118.494756, 34.186444 ], [ -118.494578, 34.186452 ], [ -118.494465, 34.186453 ], [ -118.493659, 34.186399 ], [ -118.493541, 34.186393 ], [ -118.493423, 34.186401 ], [ -118.493104, 34.186448 ], [ -118.492989, 34.186447 ], [ -118.492825, 34.186419 ], [ -118.49276, 34.186413 ], [ -118.492385, 34.186413 ], [ -118.492122, 34.186412 ], [ -118.492075, 34.186417 ], [ -118.49197, 34.186439 ], [ -118.491939, 34.186444 ], [ -118.491803, 34.186446 ], [ -118.49177, 34.186447 ], [ -118.491593, 34.186469 ], [ -118.491528, 34.186469 ], [ -118.49115, 34.186394 ], [ -118.491059, 34.186393 ], [ -118.490862, 34.186457 ], [ -118.490803, 34.186466 ], [ -118.490661, 34.186467 ], [ -118.490324, 34.186438 ], [ -118.490225, 34.186437 ], [ -118.490077, 34.186443 ], [ -118.489863, 34.18646 ], [ -118.489702, 34.186461 ], [ -118.489589, 34.18645 ], [ -118.489445, 34.186415 ], [ -118.489331, 34.186406 ], [ -118.489202, 34.186412 ], [ -118.488979, 34.186459 ], [ -118.488914, 34.186462 ], [ -118.488842, 34.186456 ], [ -118.488634, 34.186417 ], [ -118.488492, 34.186414 ], [ -118.488402, 34.186421 ], [ -118.487611, 34.186468 ], [ -118.487495, 34.186469 ], [ -118.487399, 34.186463 ], [ -118.487255, 34.186446 ], [ -118.487194, 34.186446 ], [ -118.487126, 34.186453 ], [ -118.486956, 34.186479 ], [ -118.486819, 34.186488 ], [ -118.486684, 34.186487 ], [ -118.486563, 34.186476 ], [ -118.486495, 34.186468 ], [ -118.48622, 34.186416 ], [ -118.486128, 34.186411 ], [ -118.486056, 34.186419 ], [ -118.485908, 34.186464 ], [ -118.485846, 34.186471 ], [ -118.485794, 34.186465 ], [ -118.485605, 34.186409 ], [ -118.485524, 34.186405 ], [ -118.485451, 34.186412 ], [ -118.485304, 34.186463 ], [ -118.485234, 34.186472 ], [ -118.485156, 34.186469 ], [ -118.48504, 34.186454 ], [ -118.484955, 34.186447 ], [ -118.484617, 34.186439 ], [ -118.484549, 34.186434 ], [ -118.484358, 34.186404 ], [ -118.4843, 34.186398 ], [ -118.484215, 34.186401 ], [ -118.484172, 34.186407 ], [ -118.484096, 34.186427 ], [ -118.484053, 34.186435 ], [ -118.483928, 34.186437 ], [ -118.483907, 34.186449 ], [ -118.483851, 34.186489 ] ] } }
]
}
