{
"type": "FeatureCollection",
"name": "106-cologne-auerer-grungurtel",
"crs": { "type": "name", "properties": { "name": "urn:ogc:def:crs:OGC:1.3:CRS84" } },
"xy_coordinate_resolution": 1e-06,
"features": [
{ "type": "Feature", "properties": { "cls": "shared", "highway": "path", "name": null }, "geometry": { "type": "LineString", "coordinates": [ [ 6.945211, 50.89277 ], [ 6.946312, 50.891902 ], [ 6.946367, 50.891853 ], [ 6.946381, 50.89184 ] ] } },
{ "type": "Feature", "properties": { "cls": "shared", "highway": "path", "name": null }, "geometry": { "type": "LineString", "coordinates": [ [ 6.943686, 50.893773 ], [ 6.94374, 50.893751 ], [ 6.943854, 50.893693 ], [ 6.944, 50.893599 ] ] } },
{ "type": "Feature", "properties": { "cls": "shared", "highway": "path", "name": null }, "geometry": { "type": "LineString", "coordinates": [ [ 6.943371, 50.893735 ], [ 6.943453, 50.893735 ], [ 6.943518, 50.893745 ], [ 6.943582, 50.893766 ], [ 6.943611, 50.893772 ] ] } },
{ "type": "Feature", "properties": { "cls": "shared", "highway": "path", "name": null }, "geometry": { "type": "LineString", "coordinates": [ [ 6.943611, 50.893772 ], [ 6.943686, 50.893773 ] ] } },
{ "type": "Feature", "properties": { "cls": "shared", "highway": "path", "name": null }, "geometry": { "type": "LineString", "coordinates": [ [ 6.951549, 50.888936 ], [ 6.951112, 50.889079 ], [ 6.950822, 50.889188 ] ] } },
{ "type": "Feature", "properties": { "cls": "shared", "highway": "path", "name": null }, "geometry": { "type": "LineString", "coordinates": [ [ 6.950822, 50.889188 ], [ 6.9506, 50.88919 ], [ 6.950149, 50.889291 ], [ 6.94979, 50.889367 ], [ 6.949303, 50.889481 ], [ 6.949093, 50.889542 ], [ 6.949032, 50.889557 ], [ 6.948899, 50.889588 ], [ 6.948042, 50.88978 ], [ 6.947202, 50.889996 ], [ 6.94693, 50.890053 ], [ 6.945857, 50.890309 ], [ 6.945378, 50.890423 ] ] } },
{ "type": "Feature", "properties": { "cls": "shared", "highway": "path", "name": null }, "geometry": { "type": "LineString", "coordinates": [ [ 6.946497, 50.891747 ], [ 6.946503, 50.891742 ], [ 6.947756, 50.890776 ], [ 6.947932, 50.890659 ], [ 6.948925, 50.89 ], [ 6.949364, 50.889783 ], [ 6.949751, 50.889591 ], [ 6.94999, 50.88948 ], [ 6.950822, 50.889188 ] ] } },
{ "type": "Feature", "properties": { "cls": "shared", "highway": "footway", "name": null }, "geometry": { "type": "LineString", "coordinates": [ [ 6.952589, 50.891522 ], [ 6.952519, 50.891526 ], [ 6.952402, 50.891619 ], [ 6.952286, 50.891671 ], [ 6.952021, 50.891768 ], [ 6.951889, 50.891832 ], [ 6.951783, 50.892003 ], [ 6.951687, 50.892164 ], [ 6.951186, 50.892211 ], [ 6.948468, 50.892467 ], [ 6.948205, 50.892495 ], [ 6.947318, 50.892587 ] ] } },
{ "type": "Feature", "properties": { "cls": "shared", "highway": "path", "name": null }, "geometry": { "type": "LineString", "coordinates": [ [ 6.952836, 50.892844 ], [ 6.952137, 50.892911 ], [ 6.950916, 50.893022 ], [ 6.949278, 50.893186 ], [ 6.947987, 50.893311 ] ] } },
{ "type": "Feature", "properties": { "cls": "shared", "highway": "path", "name": null }, "geometry": { "type": "LineString", "coordinates": [ [ 6.947523, 50.893376 ], [ 6.947306, 50.893398 ], [ 6.946525, 50.893479 ], [ 6.945657, 50.893545 ], [ 6.945578, 50.893547 ], [ 6.945502, 50.893532 ], [ 6.945404, 50.893491 ], [ 6.945245, 50.893416 ], [ 6.945195, 50.893403 ], [ 6.945064, 50.893406 ], [ 6.944278, 50.893456 ], [ 6.944216, 50.893468 ], [ 6.94415, 50.893496 ], [ 6.944035, 50.893579 ], [ 6.944, 50.893599 ] ] } },
{ "type": "Feature", "properties": { "cls": "shared", "highway": "path", "name": null }, "geometry": { "type": "LineString", "coordinates": [ [ 6.952073, 50.888855 ], [ 6.952805, 50.888684 ], [ 6.952958, 50.888648 ], [ 6.954377, 50.888314 ], [ 6.95573, 50.887996 ], [ 6.955767, 50.887989 ], [ 6.957579, 50.887647 ], [ 6.957776, 50.887601 ], [ 6.957884, 50.887576 ], [ 6.958954, 50.887362 ] ] } },
{ "type": "Feature", "properties": { "cls": "shared", "highway": "path", "name": null }, "geometry": { "type": "LineString", "coordinates": [ [ 6.961274, 50.892389 ], [ 6.958374, 50.892541 ], [ 6.955532, 50.892697 ], [ 6.954159, 50.892775 ] ] } },
{ "type": "Feature", "properties": { "cls": "shared", "highway": "path", "name": null }, "geometry": { "type": "LineString", "coordinates": [ [ 6.967245, 50.890391 ], [ 6.967087, 50.890389 ], [ 6.966937, 50.890357 ], [ 6.966792, 50.890274 ], [ 6.966396, 50.889978 ], [ 6.966067, 50.889763 ], [ 6.96598, 50.889738 ] ] } },
{ "type": "Feature", "properties": { "cls": "shared", "highway": "path", "name": null }, "geometry": { "type": "LineString", "coordinates": [ [ 6.965413, 50.892679 ], [ 6.96539, 50.892432 ] ] } },
{ "type": "Feature", "properties": { "cls": "shared", "highway": "path", "name": null }, "geometry": { "type": "LineString", "coordinates": [ [ 6.965413, 50.892689 ], [ 6.965413, 50.892679 ] ] } },
{ "type": "Feature", "properties": { "cls": "shared", "highway": "path", "name": null }, "geometry": { "type": "LineString", "coordinates": [ [ 6.974913, 50.893705 ], [ 6.974595, 50.893482 ], [ 6.974339, 50.893327 ], [ 6.974033, 50.893155 ], [ 6.973618, 50.892965 ], [ 6.973219, 50.892828 ], [ 6.972717, 50.892688 ], [ 6.972233, 50.892585 ], [ 6.971765, 50.892518 ], [ 6.971309, 50.892474 ], [ 6.971276, 50.892501 ] ] } },
{ "type": "Feature", "properties": { "cls": "shared", "highway": "path", "name": null }, "geometry": { "type": "LineString", "coordinates": [ [ 6.976702, 50.892769 ], [ 6.9766, 50.892829 ], [ 6.976452, 50.892912 ], [ 6.976306, 50.892998 ], [ 6.975925, 50.893216 ], [ 6.975551, 50.89342 ], [ 6.975276, 50.893596 ], [ 6.975141, 50.893665 ], [ 6.975113, 50.89368 ] ] } },
{ "type": "Feature", "properties": { "cls": "shared", "highway": "path", "name": null }, "geometry": { "type": "LineString", "coordinates": [ [ 6.976394, 50.894605 ], [ 6.976449, 50.894605 ] ] } },
{ "type": "Feature", "properties": { "cls": "shared", "highway": "path", "name": null }, "geometry": { "type": "MultiLineString", "coordinates": [ [ [ 6.976394, 50.894605 ], [ 6.976392, 50.894619 ] ], [ [ 6.97669, 50.894852 ], [ 6.976705, 50.894856 ], [ 6.97674, 50.894885 ], [ 6.976761, 50.894932 ] ] ] } },
{ "type": "Feature", "properties": { "cls": "separated", "highway": "cycleway", "name": null }, "geometry": { "type": "LineString", "coordinates": [ [ 6.976761, 50.894932 ], [ 6.976797, 50.894991 ], [ 6.977353, 50.89539 ] ] } },
{ "type": "Feature", "properties": { "cls": "separated", "highway": "cycleway", "name": null }, "geometry": { "type": "LineString", "coordinates": [ [ 6.977353, 50.89539 ], [ 6.978199, 50.896005 ], [ 6.978637, 50.896319 ], [ 6.979145, 50.89667 ], [ 6.979619, 50.89701 ], [ 6.980106, 50.897362 ], [ 6.980571, 50.897693 ], [ 6.980668, 50.897757 ], [ 6.980764, 50.897796 ] ] } },
{ "type": "Feature", "properties": { "cls": "shared", "highway": "path", "name": null }, "geometry": { "type": "LineString", "coordinates": [ [ 6.958954, 50.887362 ], [ 6.959324, 50.887479 ] ] } },
{ "type": "Feature", "properties": { "cls": "shared", "highway": "path", "name": null }, "geometry": { "type": "LineString", "coordinates": [ [ 6.959324, 50.887479 ], [ 6.960385, 50.887863 ], [ 6.960621, 50.887948 ], [ 6.961114, 50.888127 ], [ 6.962536, 50.88866 ] ] } },
{ "type": "Feature", "properties": { "cls": "shared", "highway": "path", "name": null }, "geometry": { "type": "LineString", "coordinates": [ [ 6.96598, 50.889738 ], [ 6.965909, 50.88972 ], [ 6.965819, 50.889662 ], [ 6.965422, 50.889447 ], [ 6.96429, 50.889169 ], [ 6.964213, 50.889174 ], [ 6.963687, 50.88946 ] ] } },
{ "type": "Feature", "properties": { "cls": "shared", "highway": "path", "name": null }, "geometry": { "type": "LineString", "coordinates": [ [ 6.962536, 50.88866 ], [ 6.961623, 50.890371 ], [ 6.961603, 50.890419 ] ] } },
{ "type": "Feature", "properties": { "cls": "shared", "highway": "path", "name": null }, "geometry": { "type": "LineString", "coordinates": [ [ 6.963687, 50.88946 ], [ 6.961603, 50.890419 ] ] } },
{ "type": "Feature", "properties": { "cls": "shared", "highway": "path", "name": null }, "geometry": { "type": "LineString", "coordinates": [ [ 6.961603, 50.890419 ], [ 6.961257, 50.891621 ], [ 6.961243, 50.891988 ], [ 6.961245, 50.892032 ], [ 6.961249, 50.892124 ], [ 6.961271, 50.892303 ], [ 6.961274, 50.892389 ] ] } },
{ "type": "Feature", "properties": { "cls": "shared", "highway": "path", "name": null }, "geometry": { "type": "LineString", "coordinates": [ [ 6.96539, 50.892432 ], [ 6.965333, 50.892412 ], [ 6.965315, 50.892404 ], [ 6.965227, 50.892381 ], [ 6.96493, 50.892319 ], [ 6.964476, 50.892272 ], [ 6.964306, 50.892269 ], [ 6.964141, 50.892271 ], [ 6.963855, 50.892279 ], [ 6.962822, 50.89231 ], [ 6.961892, 50.892362 ], [ 6.961274, 50.892389 ] ] } },
{ "type": "Feature", "properties": { "cls": "shared", "highway": "path", "name": null }, "geometry": { "type": "MultiLineString", "coordinates": [ [ [ 6.980764, 50.897796 ], [ 6.980966, 50.897913 ] ], [ [ 6.981138, 50.898031 ], [ 6.981145, 50.898062 ] ] ] } },
{ "type": "Feature", "properties": { "cls": "shared", "highway": "path", "name": null }, "geometry": { "type": "LineString", "coordinates": [ [ 6.981145, 50.898062 ], [ 6.981218, 50.898121 ], [ 6.981302, 50.898157 ], [ 6.981553, 50.898268 ], [ 6.981734, 50.898355 ], [ 6.9819, 50.898463 ], [ 6.981993, 50.898535 ], [ 6.982059, 50.898642 ], [ 6.982101, 50.89871 ], [ 6.982141, 50.898743 ], [ 6.98223, 50.898776 ], [ 6.982283, 50.898785 ], [ 6.982334, 50.898791 ], [ 6.982413, 50.898808 ], [ 6.982513, 50.898843 ], [ 6.982608, 50.898894 ] ] } },
{ "type": "Feature", "properties": { "cls": "shared", "highway": "path", "name": null }, "geometry": { "type": "LineString", "coordinates": [ [ 6.982608, 50.898894 ], [ 6.983139, 50.899196 ], [ 6.983418, 50.899335 ], [ 6.983891, 50.899563 ], [ 6.984146, 50.89969 ] ] } },
{ "type": "Feature", "properties": { "cls": "shared", "highway": "path", "name": null }, "geometry": { "type": "LineString", "coordinates": [ [ 6.984146, 50.89969 ], [ 6.984249, 50.899761 ], [ 6.984319, 50.899818 ], [ 6.984381, 50.899873 ], [ 6.984426, 50.89993 ], [ 6.984463, 50.899984 ], [ 6.984485, 50.900026 ], [ 6.984503, 50.900085 ], [ 6.984523, 50.900189 ] ] } },
{ "type": "Feature", "properties": { "cls": "separated", "highway": "cycleway", "name": null }, "geometry": { "type": "LineString", "coordinates": [ [ 6.975039, 50.893635 ], [ 6.975113, 50.89368 ] ] } },
{ "type": "Feature", "properties": { "cls": "separated", "highway": "cycleway", "name": null }, "geometry": { "type": "LineString", "coordinates": [ [ 6.974972, 50.893774 ], [ 6.974976, 50.893766 ], [ 6.975113, 50.89368 ] ] } },
{ "type": "Feature", "properties": { "cls": "shared", "highway": "path", "name": null }, "geometry": { "type": "LineString", "coordinates": [ [ 6.920519, 50.899326 ], [ 6.920213, 50.899551 ] ] } },
{ "type": "Feature", "properties": { "cls": "shared", "highway": "path", "name": null }, "geometry": { "type": "LineString", "coordinates": [ [ 6.920953, 50.899659 ], [ 6.920213, 50.899551 ] ] } },
{ "type": "Feature", "properties": { "cls": "shared", "highway": "path", "name": null }, "geometry": { "type": "LineString", "coordinates": [ [ 6.928911, 50.895319 ], [ 6.928855, 50.89533 ] ] } },
{ "type": "Feature", "properties": { "cls": "shared", "highway": "path", "name": null }, "geometry": { "type": "LineString", "coordinates": [ [ 6.928855, 50.89533 ], [ 6.928362, 50.895436 ], [ 6.928096, 50.895493 ] ] } },
{ "type": "Feature", "properties": { "cls": "shared", "highway": "path", "name": null }, "geometry": { "type": "LineString", "coordinates": [ [ 6.928096, 50.895493 ], [ 6.927721, 50.895593 ], [ 6.927624, 50.895615 ], [ 6.927601, 50.895621 ] ] } },
{ "type": "Feature", "properties": { "cls": "shared", "highway": "path", "name": null }, "geometry": { "type": "LineString", "coordinates": [ [ 6.943691, 50.893581 ], [ 6.943491, 50.893635 ], [ 6.943288, 50.89369 ], [ 6.942006, 50.89381 ], [ 6.938911, 50.894087 ], [ 6.938817, 50.894095 ], [ 6.935589, 50.894376 ], [ 6.934505, 50.894466 ], [ 6.933122, 50.894608 ], [ 6.931134, 50.894897 ], [ 6.930329, 50.895048 ], [ 6.928911, 50.895319 ] ] } },
{ "type": "Feature", "properties": { "cls": "shared", "highway": "path", "name": null }, "geometry": { "type": "LineString", "coordinates": [ [ 6.928855, 50.89533 ], [ 6.928981, 50.895352 ], [ 6.929033, 50.895342 ], [ 6.929744, 50.895206 ], [ 6.931155, 50.894955 ], [ 6.932944, 50.894696 ], [ 6.934517, 50.894505 ], [ 6.938919, 50.894122 ], [ 6.943371, 50.893735 ] ] } },
{ "type": "Feature", "properties": { "cls": "shared", "highway": "path", "name": null }, "geometry": { "type": "LineString", "coordinates": [ [ 6.920213, 50.899551 ], [ 6.919778, 50.899886 ], [ 6.919252, 50.900278 ], [ 6.919045, 50.900456 ], [ 6.918821, 50.900649 ], [ 6.918605, 50.90086 ], [ 6.918436, 50.90106 ], [ 6.918288, 50.901313 ], [ 6.91816, 50.901551 ], [ 6.918013, 50.901772 ], [ 6.917529, 50.902231 ], [ 6.917497, 50.902261 ], [ 6.917035, 50.902697 ], [ 6.916866, 50.902807 ], [ 6.916563, 50.903005 ] ] } },
{ "type": "Feature", "properties": { "cls": "separated", "highway": "tertiary", "name": "Gleueler Straße" }, "geometry": { "type": "LineString", "coordinates": [ [ 6.88909, 50.910708 ], [ 6.888482, 50.910488 ], [ 6.888402, 50.910462 ], [ 6.888162, 50.910383 ], [ 6.887918, 50.910316 ], [ 6.887727, 50.910274 ], [ 6.887551, 50.910245 ], [ 6.887393, 50.910225 ], [ 6.887282, 50.910226 ], [ 6.887153, 50.910238 ], [ 6.887044, 50.910257 ] ] } },
{ "type": "Feature", "properties": { "cls": "shared", "highway": "path", "name": null }, "geometry": { "type": "LineString", "coordinates": [ [ 6.915131, 50.904007 ], [ 6.914607, 50.903512 ], [ 6.914348, 50.903308 ], [ 6.91403, 50.90302 ], [ 6.913555, 50.902564 ], [ 6.913249, 50.902271 ], [ 6.912923, 50.901961 ], [ 6.912345, 50.901405 ], [ 6.911651, 50.900762 ], [ 6.911417, 50.900556 ], [ 6.911149, 50.9003 ], [ 6.911033, 50.900191 ] ] } },
{ "type": "Feature", "properties": { "cls": "shared", "highway": "path", "name": null }, "geometry": { "type": "LineString", "coordinates": [ [ 6.911353, 50.90008 ], [ 6.911653, 50.900378 ], [ 6.912012, 50.90073 ], [ 6.912762, 50.901438 ], [ 6.912966, 50.901636 ], [ 6.913451, 50.902102 ], [ 6.914544, 50.903147 ], [ 6.914927, 50.903515 ], [ 6.91511, 50.903729 ] ] } },
{ "type": "Feature", "properties": { "cls": "shared", "highway": "path", "name": null }, "geometry": { "type": "LineString", "coordinates": [ [ 6.908713, 50.899052 ], [ 6.908756, 50.899115 ], [ 6.908796, 50.899191 ], [ 6.909029, 50.899415 ], [ 6.909881, 50.900226 ], [ 6.910041, 50.90037 ], [ 6.910717, 50.90097 ], [ 6.911553, 50.901737 ], [ 6.9116, 50.90178 ], [ 6.912281, 50.902412 ], [ 6.91233, 50.902458 ], [ 6.912936, 50.902976 ], [ 6.913419, 50.903331 ], [ 6.914822, 50.904356 ] ] } },
{ "type": "Feature", "properties": { "cls": "shared", "highway": "path", "name": null }, "geometry": { "type": "LineString", "coordinates": [ [ 6.916235, 50.903223 ], [ 6.91604, 50.903302 ], [ 6.915872, 50.903392 ], [ 6.915738, 50.903475 ], [ 6.915575, 50.903607 ], [ 6.915509, 50.903669 ], [ 6.915456, 50.903739 ], [ 6.915414, 50.903845 ], [ 6.915428, 50.903909 ], [ 6.915455, 50.903959 ] ] } },
{ "type": "Feature", "properties": { "cls": "shared", "highway": "path", "name": null }, "geometry": { "type": "LineString", "coordinates": [ [ 6.91511, 50.903729 ], [ 6.915296, 50.903905 ] ] } },
{ "type": "Feature", "properties": { "cls": "shared", "highway": "path", "name": null }, "geometry": { "type": "LineString", "coordinates": [ [ 6.907273, 50.903199 ], [ 6.909636, 50.904733 ] ] } },
{ "type": "Feature", "properties": { "cls": "shared", "highway": "path", "name": null }, "geometry": { "type": "LineString", "coordinates": [ [ 6.909353, 50.905089 ], [ 6.908862, 50.90475 ], [ 6.908348, 50.904418 ], [ 6.907298, 50.903745 ], [ 6.906442, 50.903202 ], [ 6.906185, 50.903022 ] ] } },
{ "type": "Feature", "properties": { "cls": "shared", "highway": "path", "name": null }, "geometry": { "type": "LineString", "coordinates": [ [ 6.909636, 50.904733 ], [ 6.909831, 50.904858 ], [ 6.909942, 50.904913 ] ] } },
{ "type": "Feature", "properties": { "cls": "shared", "highway": "path", "name": null }, "geometry": { "type": "LineString", "coordinates": [ [ 6.909942, 50.904913 ], [ 6.909929, 50.905075 ] ] } },
{ "type": "Feature", "properties": { "cls": "shared", "highway": "path", "name": null }, "geometry": { "type": "LineString", "coordinates": [ [ 6.909929, 50.905075 ], [ 6.909937, 50.905153 ] ] } },
{ "type": "Feature", "properties": { "cls": "shared", "highway": "path", "name": null }, "geometry": { "type": "LineString", "coordinates": [ [ 6.909579, 50.90524 ], [ 6.909444, 50.905164 ], [ 6.909353, 50.905089 ] ] } },
{ "type": "Feature", "properties": { "cls": "separated", "highway": "cycleway", "name": null }, "geometry": { "type": "LineString", "coordinates": [ [ 6.911976, 50.906217 ], [ 6.912402, 50.905982 ], [ 6.912776, 50.905742 ], [ 6.913232, 50.905433 ], [ 6.91385, 50.90496 ], [ 6.914475, 50.904453 ], [ 6.914601, 50.904371 ] ] } },
{ "type": "Feature", "properties": { "cls": "shared", "highway": "path", "name": null }, "geometry": { "type": "LineString", "coordinates": [ [ 6.909641, 50.905281 ], [ 6.909579, 50.90524 ] ] } },
{ "type": "Feature", "properties": { "cls": "shared", "highway": "path", "name": null }, "geometry": { "type": "LineString", "coordinates": [ [ 6.911909, 50.906259 ], [ 6.911881, 50.90624 ], [ 6.911235, 50.905861 ], [ 6.910893, 50.905706 ], [ 6.91033, 50.905452 ], [ 6.910059, 50.90531 ], [ 6.910003, 50.905276 ], [ 6.909882, 50.905192 ] ] } },
{ "type": "Feature", "properties": { "cls": "shared", "highway": "path", "name": null }, "geometry": { "type": "LineString", "coordinates": [ [ 6.911765, 50.90632 ], [ 6.911387, 50.906094 ], [ 6.911046, 50.90591 ], [ 6.910447, 50.905633 ], [ 6.910007, 50.905465 ], [ 6.909641, 50.905281 ] ] } },
{ "type": "Feature", "properties": { "cls": "separated", "highway": "path", "name": null }, "geometry": { "type": "LineString", "coordinates": [ [ 6.903949, 50.901213 ], [ 6.904279, 50.901472 ], [ 6.904451, 50.901626 ], [ 6.905086, 50.902162 ], [ 6.905822, 50.902645 ] ] } },
{ "type": "Feature", "properties": { "cls": "separated", "highway": "path", "name": null }, "geometry": { "type": "LineString", "coordinates": [ [ 6.906185, 50.903022 ], [ 6.905718, 50.902702 ], [ 6.905687, 50.902681 ], [ 6.905311, 50.902448 ], [ 6.904952, 50.902202 ], [ 6.904735, 50.902031 ], [ 6.904328, 50.901683 ], [ 6.904264, 50.901625 ], [ 6.904042, 50.901442 ], [ 6.90382, 50.901272 ] ] } },
{ "type": "Feature", "properties": { "cls": "separated", "highway": "path", "name": null }, "geometry": { "type": "LineString", "coordinates": [ [ 6.905822, 50.902645 ], [ 6.906325, 50.902949 ], [ 6.906525, 50.903086 ], [ 6.906585, 50.903108 ] ] } },
{ "type": "Feature", "properties": { "cls": "shared", "highway": "path", "name": null }, "geometry": { "type": "LineString", "coordinates": [ [ 6.906585, 50.903108 ], [ 6.906698, 50.903119 ], [ 6.907184, 50.903183 ], [ 6.907273, 50.903199 ] ] } },
{ "type": "Feature", "properties": { "cls": "shared", "highway": "path", "name": null }, "geometry": { "type": "LineString", "coordinates": [ [ 6.890395, 50.911374 ], [ 6.89096, 50.911758 ] ] } },
{ "type": "Feature", "properties": { "cls": "shared", "highway": "path", "name": null }, "geometry": { "type": "LineString", "coordinates": [ [ 6.89096, 50.911758 ], [ 6.891026, 50.911796 ] ] } },
{ "type": "Feature", "properties": { "cls": "separated", "highway": "cycleway", "name": null }, "geometry": { "type": "LineString", "coordinates": [ [ 6.89572, 50.914287 ], [ 6.896297, 50.913967 ], [ 6.896874, 50.913687 ], [ 6.89799, 50.913139 ], [ 6.899932, 50.912197 ], [ 6.901196, 50.911581 ], [ 6.903486, 50.9104 ], [ 6.903806, 50.910236 ], [ 6.904187, 50.910046 ], [ 6.904712, 50.909788 ] ] } },
{ "type": "Feature", "properties": { "cls": "shared", "highway": "path", "name": null }, "geometry": { "type": "LineString", "coordinates": [ [ 6.891026, 50.911796 ], [ 6.891258, 50.911954 ], [ 6.891581, 50.912146 ], [ 6.89215, 50.91248 ] ] } },
{ "type": "Feature", "properties": { "cls": "separated", "highway": "cycleway", "name": null }, "geometry": { "type": "LineString", "coordinates": [ [ 6.911932, 50.906245 ], [ 6.911976, 50.906217 ] ] } },
{ "type": "Feature", "properties": { "cls": "separated", "highway": "cycleway", "name": null }, "geometry": { "type": "LineString", "coordinates": [ [ 6.911909, 50.906259 ], [ 6.911924, 50.90625 ], [ 6.911932, 50.906245 ] ] } },
{ "type": "Feature", "properties": { "cls": "separated", "highway": "cycleway", "name": null }, "geometry": { "type": "LineString", "coordinates": [ [ 6.911812, 50.906353 ], [ 6.911863, 50.906296 ], [ 6.911909, 50.906259 ] ] } },
{ "type": "Feature", "properties": { "cls": "shared", "highway": "path", "name": null }, "geometry": { "type": "LineString", "coordinates": [ [ 6.911812, 50.906353 ], [ 6.911765, 50.90632 ] ] } },
{ "type": "Feature", "properties": { "cls": "shared", "highway": "path", "name": null }, "geometry": { "type": "LineString", "coordinates": [ [ 6.911963, 50.90629 ], [ 6.911909, 50.906259 ] ] } },
{ "type": "Feature", "properties": { "cls": "shared", "highway": "path", "name": null }, "geometry": { "type": "LineString", "coordinates": [ [ 6.911846, 50.906375 ], [ 6.911812, 50.906353 ] ] } },
{ "type": "Feature", "properties": { "cls": "separated", "highway": "cycleway", "name": null }, "geometry": { "type": "LineString", "coordinates": [ [ 6.904712, 50.909788 ], [ 6.904918, 50.909731 ], [ 6.905017, 50.909728 ], [ 6.905201, 50.909725 ], [ 6.90522, 50.909724 ], [ 6.905273, 50.90972 ], [ 6.905316, 50.909717 ], [ 6.905327, 50.909716 ], [ 6.905499, 50.909702 ], [ 6.905574, 50.909685 ], [ 6.905645, 50.909647 ], [ 6.905667, 50.909634 ], [ 6.905754, 50.909525 ], [ 6.905799, 50.909404 ], [ 6.906002, 50.909169 ], [ 6.90615, 50.909107 ], [ 6.907044, 50.908612 ], [ 6.907961, 50.908115 ], [ 6.908455, 50.90784 ], [ 6.909421, 50.907443 ], [ 6.910182, 50.907184 ], [ 6.911786, 50.90637 ], [ 6.911812, 50.906353 ] ] } },
{ "type": "Feature", "properties": { "cls": "shared", "highway": "path", "name": null }, "geometry": { "type": "LineString", "coordinates": [ [ 6.89215, 50.91248 ], [ 6.892163, 50.912475 ], [ 6.892257, 50.912426 ], [ 6.892303, 50.912417 ], [ 6.892364, 50.912419 ] ] } },
{ "type": "Feature", "properties": { "cls": "shared", "highway": "path", "name": null }, "geometry": { "type": "LineString", "coordinates": [ [ 6.894228, 50.913387 ], [ 6.893737, 50.913086 ], [ 6.893266, 50.912821 ], [ 6.892865, 50.912615 ], [ 6.89242, 50.912433 ], [ 6.892364, 50.912419 ] ] } },
{ "type": "Feature", "properties": { "cls": "shared", "highway": "path", "name": null }, "geometry": { "type": "LineString", "coordinates": [ [ 6.89572, 50.914287 ], [ 6.89566, 50.914222 ], [ 6.895414, 50.914081 ], [ 6.894726, 50.913674 ], [ 6.894228, 50.913387 ] ] } },
{ "type": "Feature", "properties": { "cls": "separated", "highway": "path", "name": null }, "geometry": { "type": "LineString", "coordinates": [ [ 6.895307, 50.914548 ], [ 6.895317, 50.914537 ], [ 6.895338, 50.914517 ], [ 6.895377, 50.914482 ], [ 6.895433, 50.91445 ], [ 6.895459, 50.914435 ], [ 6.895568, 50.914374 ], [ 6.89572, 50.914287 ] ] } },
{ "type": "Feature", "properties": { "cls": "shared", "highway": "path", "name": null }, "geometry": { "type": "LineString", "coordinates": [ [ 6.895836, 50.914564 ], [ 6.895837, 50.914552 ], [ 6.895717, 50.914323 ], [ 6.89572, 50.914287 ] ] } },
{ "type": "Feature", "properties": { "cls": "shared", "highway": "path", "name": null }, "geometry": { "type": "LineString", "coordinates": [ [ 6.895568, 50.914374 ], [ 6.895808, 50.914558 ], [ 6.895833, 50.914566 ] ] } },
{ "type": "Feature", "properties": { "cls": "separated", "highway": "path", "name": null }, "geometry": { "type": "LineString", "coordinates": [ [ 6.895558, 50.914703 ], [ 6.895494, 50.914674 ], [ 6.895307, 50.914548 ] ] } },
{ "type": "Feature", "properties": { "cls": "separated", "highway": "tertiary", "name": "Gleueler Straße" }, "geometry": { "type": "LineString", "coordinates": [ [ 6.890256, 50.91135 ], [ 6.89012, 50.911257 ], [ 6.889824, 50.911056 ], [ 6.889435, 50.91086 ], [ 6.889358, 50.91082 ], [ 6.88909, 50.910708 ] ] } },
{ "type": "Feature", "properties": { "cls": "shared", "highway": "path", "name": null }, "geometry": { "type": "LineString", "coordinates": [ [ 6.890314, 50.911319 ], [ 6.890256, 50.91135 ] ] } },
{ "type": "Feature", "properties": { "cls": "shared", "highway": "path", "name": null }, "geometry": { "type": "LineString", "coordinates": [ [ 6.890314, 50.911319 ], [ 6.890395, 50.911374 ] ] } },
{ "type": "Feature", "properties": { "cls": "shared", "highway": "path", "name": null }, "geometry": { "type": "LineString", "coordinates": [ [ 6.883492, 50.912678 ], [ 6.883529, 50.912637 ], [ 6.883963, 50.912151 ], [ 6.88469, 50.911439 ], [ 6.884863, 50.911281 ], [ 6.885215, 50.91095 ], [ 6.885598, 50.910656 ], [ 6.886115, 50.910278 ], [ 6.886498, 50.91 ], [ 6.886614, 50.909959 ] ] } },
{ "type": "Feature", "properties": { "cls": "shared", "highway": "path", "name": null }, "geometry": { "type": "LineString", "coordinates": [ [ 6.88045, 50.911865 ], [ 6.880606, 50.91192 ] ] } },
{ "type": "Feature", "properties": { "cls": "shared", "highway": "path", "name": null }, "geometry": { "type": "LineString", "coordinates": [ [ 6.880606, 50.91192 ], [ 6.880795, 50.911984 ], [ 6.881091, 50.912076 ], [ 6.881334, 50.912148 ], [ 6.881555, 50.912203 ], [ 6.8818, 50.912261 ], [ 6.882399, 50.912393 ], [ 6.883064, 50.912541 ], [ 6.88342, 50.912617 ], [ 6.883529, 50.912637 ] ] } },
{ "type": "Feature", "properties": { "cls": "separated", "highway": "cycleway", "name": null }, "geometry": { "type": "LineString", "coordinates": [ [ 6.890867, 50.920351 ], [ 6.890877, 50.920316 ], [ 6.890883, 50.920284 ], [ 6.89089, 50.92026 ], [ 6.890988, 50.91992 ], [ 6.891042, 50.919771 ], [ 6.891123, 50.919559 ], [ 6.89124, 50.919224 ], [ 6.891445, 50.91873 ], [ 6.891671, 50.91824 ], [ 6.891867, 50.917845 ], [ 6.892058, 50.917536 ], [ 6.892212, 50.917301 ], [ 6.892319, 50.91716 ], [ 6.892551, 50.916872 ], [ 6.892918, 50.916462 ], [ 6.893366, 50.916022 ], [ 6.893711, 50.915711 ], [ 6.893734, 50.915692 ], [ 6.893762, 50.91567 ], [ 6.893809, 50.915631 ], [ 6.893841, 50.915606 ], [ 6.893915, 50.915547 ], [ 6.894919, 50.914803 ], [ 6.895054, 50.914715 ], [ 6.89521, 50.91462 ], [ 6.895307, 50.914548 ] ] } },
{ "type": "Feature", "properties": { "cls": "separated", "highway": "cycleway", "name": null }, "geometry": { "type": "LineString", "coordinates": [ [ 6.890428, 50.923363 ], [ 6.890364, 50.923017 ], [ 6.890376, 50.922719 ], [ 6.890446, 50.922334 ], [ 6.890546, 50.921827 ], [ 6.89066, 50.921314 ], [ 6.890781, 50.920752 ], [ 6.890854, 50.920409 ], [ 6.890859, 50.920388 ], [ 6.890867, 50.920351 ] ] } },
{ "type": "Feature", "properties": { "cls": "separated", "highway": "path", "name": null }, "geometry": { "type": "LineString", "coordinates": [ [ 6.890466, 50.923493 ], [ 6.890443, 50.923443 ], [ 6.890428, 50.923363 ] ] } },
{ "type": "Feature", "properties": { "cls": "shared", "highway": "path", "name": null }, "geometry": { "type": "LineString", "coordinates": [ [ 6.880253, 50.924564 ], [ 6.880257, 50.924548 ], [ 6.880362, 50.9242 ], [ 6.880434, 50.924084 ], [ 6.880531, 50.92404 ], [ 6.880986, 50.923921 ], [ 6.881262, 50.923795 ], [ 6.881444, 50.923696 ], [ 6.881516, 50.923632 ], [ 6.881562, 50.923544 ] ] } },
{ "type": "Feature", "properties": { "cls": "shared", "highway": "path", "name": null }, "geometry": { "type": "LineString", "coordinates": [ [ 6.875885, 50.924278 ], [ 6.875924, 50.924285 ] ] } },
{ "type": "Feature", "properties": { "cls": "separated", "highway": "path", "name": null }, "geometry": { "type": "Point", "coordinates": [ 6.889744, 50.924709 ] } },
{ "type": "Feature", "properties": { "cls": "separated", "highway": "path", "name": null }, "geometry": { "type": "LineString", "coordinates": [ [ 6.890085, 50.92504 ], [ 6.890112, 50.924999 ] ] } },
{ "type": "Feature", "properties": { "cls": "shared", "highway": "path", "name": null }, "geometry": { "type": "LineString", "coordinates": [ [ 6.875989, 50.924267 ], [ 6.875976, 50.924269 ], [ 6.875924, 50.924285 ] ] } },
{ "type": "Feature", "properties": { "cls": "shared", "highway": "path", "name": null }, "geometry": { "type": "Point", "coordinates": [ 6.889744, 50.924709 ] } },
{ "type": "Feature", "properties": { "cls": "separated", "highway": "cycleway", "name": null }, "geometry": { "type": "LineString", "coordinates": [ [ 6.876335, 50.926323 ], [ 6.876307, 50.926269 ], [ 6.876024, 50.92609 ], [ 6.87584, 50.925934 ], [ 6.87575, 50.925814 ], [ 6.875739, 50.925721 ], [ 6.875807, 50.925324 ], [ 6.875869, 50.924942 ], [ 6.875899, 50.924869 ], [ 6.875934, 50.924808 ], [ 6.875975, 50.924767 ], [ 6.876044, 50.924714 ], [ 6.876152, 50.924664 ], [ 6.876237, 50.924638 ], [ 6.876335, 50.924618 ], [ 6.876449, 50.924606 ] ] } },
{ "type": "Feature", "properties": { "cls": "separated", "highway": "cycleway", "name": null }, "geometry": { "type": "LineString", "coordinates": [ [ 6.888577, 50.928039 ], [ 6.888646, 50.927886 ], [ 6.888795, 50.927572 ], [ 6.888934, 50.927289 ], [ 6.889063, 50.927023 ], [ 6.889157, 50.92683 ], [ 6.889244, 50.926646 ], [ 6.889449, 50.926082 ], [ 6.889557, 50.925783 ], [ 6.889662, 50.925484 ], [ 6.88969, 50.925394 ], [ 6.889725, 50.925329 ], [ 6.8898, 50.925274 ], [ 6.890008, 50.925122 ], [ 6.890076, 50.925071 ], [ 6.890085, 50.92504 ] ] } },
{ "type": "Feature", "properties": { "cls": "separated", "highway": "cycleway", "name": null }, "geometry": { "type": "LineString", "coordinates": [ [ 6.887287, 50.931244 ], [ 6.887332, 50.931076 ], [ 6.887362, 50.930849 ], [ 6.887409, 50.930454 ], [ 6.88754, 50.930168 ], [ 6.887909, 50.929392 ], [ 6.888006, 50.929156 ], [ 6.888021, 50.929128 ], [ 6.88813, 50.928876 ], [ 6.888251, 50.928629 ], [ 6.888288, 50.928577 ], [ 6.888369, 50.928463 ], [ 6.888463, 50.928293 ], [ 6.888578, 50.92809 ], [ 6.888577, 50.928039 ] ] } },
{ "type": "Feature", "properties": { "cls": "shared", "highway": "path", "name": null }, "geometry": { "type": "LineString", "coordinates": [ [ 6.886464, 50.933413 ], [ 6.886516, 50.933038 ], [ 6.886573, 50.932754 ], [ 6.886646, 50.932551 ], [ 6.886762, 50.932344 ], [ 6.886938, 50.932058 ], [ 6.887099, 50.931722 ], [ 6.887239, 50.93142 ], [ 6.887287, 50.931244 ] ] } },
{ "type": "Feature", "properties": { "cls": "shared", "highway": "path", "name": null }, "geometry": { "type": "LineString", "coordinates": [ [ 6.886192, 50.933924 ], [ 6.886192, 50.933923 ], [ 6.886327, 50.933686 ], [ 6.886464, 50.933413 ] ] } }
]
}
