{
"type": "FeatureCollection",
"name": "107-belgrade-ada-ciganlija",
"crs": { "type": "name", "properties": { "name": "urn:ogc:def:crs:OGC:1.3:CRS84" } },
"xy_coordinate_resolution": 1e-06,
"features": [
{ "type": "Feature", "properties": { "cls": "painted", "highway": "unclassified", "name": null }, "geometry": { "type": "LineString", "coordinates": [ [ 20.372325, 44.778201 ], [ 20.372316, 44.778172 ], [ 20.37231, 44.778139 ], [ 20.372312, 44.778106 ], [ 20.372322, 44.778071 ], [ 20.372335, 44.778047 ], [ 20.372352, 44.778025 ], [ 20.372383, 44.778 ], [ 20.372444, 44.777936 ], [ 20.372504, 44.777885 ], [ 20.372692, 44.777746 ], [ 20.372724, 44.777716 ] ] } },
{ "type": "Feature", "properties": { "cls": "separated", "highway": "cycleway", "name": null }, "geometry": { "type": "LineString", "coordinates": [ [ 20.401182, 44.788512 ], [ 20.400628, 44.788483 ], [ 20.399335, 44.788415 ], [ 20.399251, 44.788417 ], [ 20.399208, 44.788422 ], [ 20.399179, 44.788428 ], [ 20.399141, 44.78844 ], [ 20.399092, 44.788454 ], [ 20.399058, 44.788461 ], [ 20.399022, 44.788464 ], [ 20.398976, 44.788464 ], [ 20.398928, 44.78846 ], [ 20.398882, 44.788456 ], [ 20.398814, 44.788452 ], [ 20.398622, 44.788444 ], [ 20.398399, 44.788432 ], [ 20.398212, 44.788424 ], [ 20.398153, 44.78842 ], [ 20.398115, 44.788413 ], [ 20.398078, 44.7884 ], [ 20.398047, 44.788382 ], [ 20.398022, 44.788369 ], [ 20.397997, 44.788362 ], [ 20.397966, 44.788358 ], [ 20.397606, 44.788343 ], [ 20.397379, 44.788322 ], [ 20.397353, 44.788323 ], [ 20.397325, 44.788326 ], [ 20.397295, 44.788332 ], [ 20.397255, 44.788341 ], [ 20.397223, 44.788344 ], [ 20.397169, 44.788344 ], [ 20.397011, 44.788336 ], [ 20.396813, 44.788319 ], [ 20.396672, 44.788309 ], [ 20.396485, 44.788298 ], [ 20.396151, 44.788276 ], [ 20.396025, 44.788262 ], [ 20.395781, 44.788235 ], [ 20.39572, 44.788227 ], [ 20.395663, 44.788213 ], [ 20.39561, 44.788196 ], [ 20.395557, 44.788184 ], [ 20.395464, 44.788169 ], [ 20.395262, 44.788144 ], [ 20.395072, 44.78812 ], [ 20.394893, 44.788097 ], [ 20.394609, 44.788057 ], [ 20.394403, 44.788028 ], [ 20.394254, 44.788005 ], [ 20.393812, 44.787931 ], [ 20.393365, 44.787847 ], [ 20.392893, 44.787744 ], [ 20.392428, 44.787638 ], [ 20.392279, 44.7876 ], [ 20.391307, 44.787356 ], [ 20.390959, 44.787274 ], [ 20.390816, 44.78724 ], [ 20.390248, 44.787057 ], [ 20.389958, 44.786936 ], [ 20.38981, 44.786879 ], [ 20.38965, 44.786817 ], [ 20.389019, 44.786581 ], [ 20.388598, 44.786414 ], [ 20.387701, 44.785998 ], [ 20.387166, 44.785723 ], [ 20.387022, 44.785606 ], [ 20.386452, 44.785286 ], [ 20.385645, 44.784821 ], [ 20.385009, 44.784466 ], [ 20.384631, 44.784254 ], [ 20.382715, 44.783247 ], [ 20.382408, 44.783098 ], [ 20.382309, 44.783053 ], [ 20.382102, 44.782965 ], [ 20.381868, 44.78286 ], [ 20.38165, 44.782762 ], [ 20.381355, 44.782634 ], [ 20.38113, 44.782542 ], [ 20.380854, 44.782439 ], [ 20.379809, 44.78208 ], [ 20.37968, 44.782038 ], [ 20.379452, 44.781962 ], [ 20.379279, 44.781919 ], [ 20.379123, 44.781884 ], [ 20.378972, 44.781854 ], [ 20.378728, 44.781807 ], [ 20.378374, 44.781737 ], [ 20.378143, 44.781691 ], [ 20.377762, 44.781611 ], [ 20.377666, 44.781595 ], [ 20.377589, 44.781583 ], [ 20.377561, 44.781581 ], [ 20.37754, 44.781581 ], [ 20.377519, 44.781584 ], [ 20.377495, 44.781587 ], [ 20.377476, 44.781586 ], [ 20.377454, 44.781584 ], [ 20.377419, 44.781577 ], [ 20.377349, 44.781564 ], [ 20.377226, 44.781537 ], [ 20.377199, 44.781529 ], [ 20.377178, 44.781518 ], [ 20.377142, 44.781496 ], [ 20.377116, 44.781482 ], [ 20.377083, 44.78147 ], [ 20.376966, 44.781436 ], [ 20.376876, 44.781409 ], [ 20.376742, 44.781367 ], [ 20.376554, 44.781301 ], [ 20.376418, 44.781256 ], [ 20.37627, 44.781201 ], [ 20.376114, 44.781135 ], [ 20.376002, 44.781086 ], [ 20.375864, 44.781026 ], [ 20.375709, 44.780955 ], [ 20.375553, 44.780876 ], [ 20.37541, 44.780798 ], [ 20.375081, 44.780593 ], [ 20.374957, 44.780513 ], [ 20.374856, 44.780443 ], [ 20.374729, 44.780344 ], [ 20.374544, 44.780193 ], [ 20.374385, 44.780047 ], [ 20.374157, 44.779808 ], [ 20.37394, 44.779578 ], [ 20.373742, 44.779387 ], [ 20.373624, 44.779274 ], [ 20.373422, 44.779115 ], [ 20.37329, 44.779004 ], [ 20.372881, 44.778658 ], [ 20.372795, 44.778588 ], [ 20.37274, 44.77855 ], [ 20.372636, 44.778485 ], [ 20.372493, 44.778392 ], [ 20.372422, 44.778342 ], [ 20.372357, 44.778294 ], [ 20.372336, 44.778272 ], [ 20.372318, 44.778253 ], [ 20.372325, 44.778201 ] ] } },
{ "type": "Feature", "properties": { "cls": "separated", "highway": "cycleway", "name": null }, "geometry": { "type": "LineString", "coordinates": [ [ 20.401936, 44.788661 ], [ 20.401863, 44.788657 ], [ 20.401799, 44.788646 ], [ 20.401697, 44.788623 ], [ 20.401573, 44.788596 ], [ 20.401462, 44.788564 ], [ 20.401352, 44.788536 ], [ 20.401262, 44.78852 ], [ 20.401182, 44.788512 ] ] } },
{ "type": "Feature", "properties": { "cls": "separated", "highway": "cycleway", "name": null }, "geometry": { "type": "LineString", "coordinates": [ [ 20.401936, 44.788661 ], [ 20.40201, 44.788652 ], [ 20.402086, 44.788633 ], [ 20.402154, 44.78862 ], [ 20.402194, 44.788617 ], [ 20.402239, 44.788622 ], [ 20.40228, 44.788641 ], [ 20.402338, 44.788695 ], [ 20.402396, 44.78874 ], [ 20.402464, 44.788775 ], [ 20.403233, 44.789044 ], [ 20.403243, 44.789046 ], [ 20.403254, 44.789047 ], [ 20.40327, 44.789049 ], [ 20.403289, 44.789051 ], [ 20.403311, 44.789053 ], [ 20.403336, 44.789054 ], [ 20.403362, 44.789054 ], [ 20.40339, 44.789053 ], [ 20.403419, 44.789051 ], [ 20.403448, 44.789046 ], [ 20.403477, 44.78904 ], [ 20.403505, 44.789032 ], [ 20.403533, 44.789021 ], [ 20.403559, 44.789007 ], [ 20.403673, 44.788952 ], [ 20.403792, 44.788901 ], [ 20.403915, 44.788857 ], [ 20.403946, 44.788841 ], [ 20.403981, 44.78883 ], [ 20.404017, 44.788825 ], [ 20.404052, 44.788825 ], [ 20.40409, 44.78883 ], [ 20.404308, 44.788869 ], [ 20.404566, 44.78892 ], [ 20.40465, 44.78894 ], [ 20.404771, 44.788978 ], [ 20.404854, 44.789004 ], [ 20.40494, 44.789028 ], [ 20.405007, 44.78904 ], [ 20.405137, 44.789059 ], [ 20.40524, 44.789075 ], [ 20.405279, 44.78908 ], [ 20.405316, 44.789089 ], [ 20.40536, 44.789106 ], [ 20.405399, 44.789129 ], [ 20.405432, 44.789157 ], [ 20.405519, 44.789272 ], [ 20.405597, 44.789388 ], [ 20.405623, 44.789419 ], [ 20.405655, 44.789443 ], [ 20.405675, 44.789451 ], [ 20.405716, 44.78947 ], [ 20.405818, 44.78952 ], [ 20.405892, 44.789542 ], [ 20.406288, 44.78963 ], [ 20.406497, 44.789676 ], [ 20.40728, 44.789792 ], [ 20.40791, 44.789957 ], [ 20.408355, 44.790074 ], [ 20.408418, 44.790086 ], [ 20.408489, 44.790091 ], [ 20.408593, 44.790094 ], [ 20.408668, 44.790098 ], [ 20.408814, 44.790092 ], [ 20.409062, 44.790123 ], [ 20.409107, 44.790129 ], [ 20.409185, 44.790127 ], [ 20.409257, 44.790122 ], [ 20.409303, 44.790119 ], [ 20.409342, 44.790122 ], [ 20.409385, 44.79013 ], [ 20.409668, 44.79021 ], [ 20.409717, 44.790221 ], [ 20.409775, 44.790228 ], [ 20.40983, 44.790231 ], [ 20.409902, 44.790233 ], [ 20.409952, 44.790235 ], [ 20.409999, 44.79024 ], [ 20.410052, 44.79025 ], [ 20.410369, 44.790308 ], [ 20.410746, 44.790377 ], [ 20.41081, 44.79039 ], [ 20.410853, 44.790397 ], [ 20.410899, 44.790402 ], [ 20.410952, 44.790404 ], [ 20.411007, 44.790402 ], [ 20.411064, 44.790395 ], [ 20.411144, 44.790377 ], [ 20.411206, 44.790363 ], [ 20.411241, 44.790355 ], [ 20.411284, 44.790353 ], [ 20.411405, 44.790359 ], [ 20.412326, 44.790434 ], [ 20.41243, 44.790443 ] ] } },
{ "type": "Feature", "properties": { "cls": "separated", "highway": "cycleway", "name": null }, "geometry": { "type": "LineString", "coordinates": [ [ 20.41243, 44.790443 ], [ 20.412435, 44.79058 ], [ 20.412419, 44.790617 ], [ 20.412395, 44.790642 ], [ 20.412356, 44.790675 ], [ 20.412261, 44.790742 ], [ 20.412141, 44.790829 ], [ 20.411621, 44.791172 ], [ 20.411303, 44.791409 ], [ 20.411172, 44.791507 ], [ 20.411015, 44.79163 ], [ 20.410954, 44.791712 ], [ 20.4109, 44.791783 ], [ 20.410845, 44.791826 ], [ 20.410787, 44.791863 ], [ 20.410709, 44.791906 ], [ 20.410613, 44.791958 ], [ 20.410439, 44.792055 ], [ 20.410278, 44.792129 ], [ 20.410227, 44.792156 ], [ 20.410204, 44.792184 ], [ 20.41015, 44.792274 ], [ 20.410126, 44.792307 ], [ 20.410082, 44.792347 ], [ 20.409944, 44.792447 ], [ 20.409642, 44.792669 ], [ 20.409397, 44.792844 ], [ 20.409314, 44.792933 ], [ 20.408347, 44.793304 ], [ 20.40816, 44.793308 ], [ 20.408058, 44.79338 ], [ 20.407953, 44.793394 ], [ 20.407322, 44.793323 ], [ 20.407216, 44.79338 ] ] } },
{ "type": "Feature", "properties": { "cls": "separated", "highway": "cycleway", "name": null }, "geometry": { "type": "LineString", "coordinates": [ [ 20.407322, 44.793323 ], [ 20.407192, 44.79331 ], [ 20.407073, 44.793257 ], [ 20.406356, 44.792703 ] ] } },
{ "type": "Feature", "properties": { "cls": "separated", "highway": "cycleway", "name": null }, "geometry": { "type": "LineString", "coordinates": [ [ 20.407059, 44.793466 ], [ 20.407111, 44.79336 ], [ 20.407073, 44.793257 ] ] } },
{ "type": "Feature", "properties": { "cls": "shared", "highway": "cycleway", "name": null }, "geometry": { "type": "LineString", "coordinates": [ [ 20.407216, 44.79338 ], [ 20.407059, 44.793466 ], [ 20.406991, 44.793512 ], [ 20.40683, 44.793611 ], [ 20.406736, 44.793665 ], [ 20.406391, 44.793868 ] ] } },
{ "type": "Feature", "properties": { "cls": "separated", "highway": "cycleway", "name": null }, "geometry": { "type": "LineString", "coordinates": [ [ 20.414129, 44.789686 ], [ 20.414316, 44.789549 ], [ 20.414395, 44.789491 ], [ 20.41442, 44.789465 ], [ 20.414441, 44.789434 ], [ 20.414439, 44.789404 ], [ 20.414422, 44.78935 ], [ 20.414416, 44.789306 ], [ 20.414433, 44.789279 ], [ 20.414458, 44.789256 ], [ 20.414516, 44.789222 ], [ 20.41457, 44.789194 ], [ 20.414625, 44.789169 ], [ 20.414752, 44.789124 ], [ 20.415064, 44.789019 ], [ 20.41515, 44.788972 ], [ 20.415222, 44.788927 ], [ 20.415292, 44.788875 ], [ 20.415352, 44.788823 ], [ 20.415404, 44.788768 ], [ 20.415451, 44.78871 ], [ 20.41549, 44.788645 ], [ 20.415498, 44.788627 ] ] } },
{ "type": "Feature", "properties": { "cls": "separated", "highway": "cycleway", "name": null }, "geometry": { "type": "LineString", "coordinates": [ [ 20.416172, 44.788911 ], [ 20.416167, 44.788922 ], [ 20.41616, 44.788944 ], [ 20.416156, 44.788968 ], [ 20.416155, 44.788999 ], [ 20.416156, 44.789026 ], [ 20.416105, 44.789527 ], [ 20.4161, 44.78956 ], [ 20.416094, 44.789579 ], [ 20.416081, 44.789597 ], [ 20.416069, 44.789609 ], [ 20.416056, 44.789618 ] ] } },
{ "type": "Feature", "properties": { "cls": "separated", "highway": "cycleway", "name": null }, "geometry": { "type": "LineString", "coordinates": [ [ 20.416343, 44.788983 ], [ 20.416342, 44.788987 ], [ 20.416334, 44.789014 ], [ 20.41633, 44.789054 ], [ 20.416329, 44.789117 ], [ 20.416323, 44.789188 ], [ 20.416307, 44.789363 ], [ 20.416302, 44.789428 ], [ 20.416296, 44.789446 ], [ 20.416283, 44.78949 ], [ 20.41626, 44.789541 ], [ 20.416213, 44.789632 ], [ 20.416192, 44.78967 ] ] } },
{ "type": "Feature", "properties": { "cls": "separated", "highway": "cycleway", "name": null }, "geometry": { "type": "LineString", "coordinates": [ [ 20.416056, 44.789618 ], [ 20.41612, 44.789684 ], [ 20.416146, 44.789693 ], [ 20.416172, 44.789691 ], [ 20.416192, 44.78967 ] ] } },
{ "type": "Feature", "properties": { "cls": "separated", "highway": "cycleway", "name": null }, "geometry": { "type": "LineString", "coordinates": [ [ 20.416056, 44.789618 ], [ 20.416028, 44.789626 ], [ 20.415993, 44.789629 ], [ 20.415951, 44.789628 ], [ 20.415926, 44.789626 ], [ 20.415867, 44.789616 ], [ 20.415807, 44.789607 ], [ 20.415772, 44.789604 ], [ 20.415733, 44.789601 ], [ 20.415316, 44.789605 ], [ 20.415287, 44.789605 ], [ 20.415261, 44.789606 ], [ 20.415234, 44.78961 ], [ 20.415199, 44.789617 ], [ 20.41514, 44.789628 ], [ 20.415033, 44.789645 ], [ 20.414644, 44.789707 ], [ 20.414579, 44.789714 ], [ 20.414526, 44.789716 ], [ 20.414474, 44.789717 ], [ 20.414379, 44.78971 ], [ 20.414129, 44.789686 ] ] } },
{ "type": "Feature", "properties": { "cls": "separated", "highway": "cycleway", "name": null }, "geometry": { "type": "LineString", "coordinates": [ [ 20.416192, 44.78967 ], [ 20.416169, 44.789714 ], [ 20.416176, 44.789746 ] ] } },
{ "type": "Feature", "properties": { "cls": "separated", "highway": "cycleway", "name": null }, "geometry": { "type": "LineString", "coordinates": [ [ 20.41243, 44.790443 ], [ 20.412599, 44.790454 ], [ 20.412672, 44.790455 ], [ 20.41274, 44.790454 ], [ 20.412792, 44.790445 ], [ 20.412841, 44.790424 ], [ 20.413332, 44.79019 ], [ 20.413498, 44.790101 ], [ 20.41361, 44.790039 ], [ 20.413728, 44.78997 ], [ 20.413802, 44.789923 ], [ 20.41389, 44.789864 ], [ 20.414129, 44.789686 ] ] } },
{ "type": "Feature", "properties": { "cls": "shared", "highway": "footway", "name": null }, "geometry": { "type": "LineString", "coordinates": [ [ 20.40625, 44.793826 ], [ 20.406198, 44.793947 ] ] } },
{ "type": "Feature", "properties": { "cls": "separated", "highway": "cycleway", "name": null }, "geometry": { "type": "LineString", "coordinates": [ [ 20.426136, 44.794543 ], [ 20.426056, 44.794943 ], [ 20.425993, 44.795258 ] ] } }
]
}
