{
"type": "FeatureCollection",
"name": "108-portland-smith-and-bybee-wetlands-natural-area",
"crs": { "type": "name", "properties": { "name": "urn:ogc:def:crs:OGC:1.3:CRS84" } },
"xy_coordinate_resolution": 1e-06,
"features": [
{ "type": "Feature", "properties": { "cls": "shared", "highway": "path", "name": "Marine Drive Trail Access" }, "geometry": { "type": "LineString", "coordinates": [ [ -122.710844, 45.608014 ], [ -122.710688, 45.607928 ], [ -122.71064, 45.607896 ], [ -122.710618, 45.607865 ], [ -122.710625, 45.607847 ] ] } },
{ "type": "Feature", "properties": { "cls": "shared", "highway": "path", "name": "Marine Drive Trail" }, "geometry": { "type": "LineString", "coordinates": [ [ -122.712525, 45.611849 ], [ -122.711529, 45.610697 ], [ -122.711096, 45.610194 ], [ -122.710909, 45.609837 ], [ -122.710838, 45.60959 ], [ -122.710807, 45.609307 ], [ -122.710816, 45.609128 ], [ -122.710857, 45.60896 ], [ -122.710923, 45.608753 ], [ -122.711045, 45.608422 ], [ -122.711072, 45.608334 ], [ -122.711078, 45.60826 ], [ -122.711061, 45.608176 ], [ -122.710984, 45.608091 ], [ -122.710919, 45.608053 ], [ -122.710844, 45.608014 ] ] } },
{ "type": "Feature", "properties": { "cls": "shared", "highway": "path", "name": "Interlakes Trail" }, "geometry": { "type": "LineString", "coordinates": [ [ -122.71324, 45.612621 ], [ -122.713311, 45.61266 ], [ -122.713374, 45.612711 ], [ -122.713435, 45.61276 ], [ -122.713477, 45.612771 ], [ -122.713494, 45.612747 ], [ -122.713511, 45.612701 ], [ -122.71353, 45.612655 ], [ -122.713557, 45.612638 ], [ -122.713602, 45.612657 ], [ -122.713695, 45.612685 ], [ -122.713792, 45.612676 ], [ -122.713898, 45.612629 ], [ -122.713962, 45.612597 ] ] } },
{ "type": "Feature", "properties": { "cls": "shared", "highway": "path", "name": "Marine Drive Trail" }, "geometry": { "type": "MultiLineString", "coordinates": [ [ [ -122.722699, 45.618129 ], [ -122.722482, 45.618052 ], [ -122.722394, 45.618019 ] ], [ [ -122.716477, 45.615711 ], [ -122.71646, 45.615702 ], [ -122.716211, 45.615565 ], [ -122.716008, 45.615435 ], [ -122.715756, 45.615253 ], [ -122.715527, 45.615055 ], [ -122.715234, 45.614768 ], [ -122.714578, 45.614106 ], [ -122.71324, 45.612621 ], [ -122.712756, 45.612079 ], [ -122.712607, 45.611942 ], [ -122.712525, 45.611849 ] ] ] } },
{ "type": "Feature", "properties": { "cls": "shared", "highway": "footway", "name": null }, "geometry": { "type": "LineString", "coordinates": [ [ -122.722749, 45.618142 ], [ -122.722726, 45.618169 ] ] } },
{ "type": "Feature", "properties": { "cls": "shared", "highway": "path", "name": "Marine Drive Trail" }, "geometry": { "type": "LineString", "coordinates": [ [ -122.723983, 45.618736 ], [ -122.723975, 45.61872 ], [ -122.723926, 45.61863 ], [ -122.723889, 45.618586 ], [ -122.723855, 45.618562 ], [ -122.723752, 45.618506 ], [ -122.72363, 45.618415 ], [ -122.723517, 45.618307 ], [ -122.723468, 45.618288 ], [ -122.723196, 45.618237 ], [ -122.72292, 45.618185 ], [ -122.722749, 45.618142 ], [ -122.722699, 45.618129 ] ] } },
{ "type": "Feature", "properties": { "cls": "shared", "highway": "path", "name": "Rivergate Trail" }, "geometry": { "type": "MultiLineString", "coordinates": [ [ [ -122.759649, 45.635125 ], [ -122.759679, 45.635094 ], [ -122.759777, 45.635025 ], [ -122.759857, 45.634967 ], [ -122.759897, 45.634896 ], [ -122.759911, 45.634841 ], [ -122.759902, 45.634798 ], [ -122.759847, 45.634694 ], [ -122.759811, 45.634656 ], [ -122.759607, 45.634467 ], [ -122.759488, 45.634356 ], [ -122.759385, 45.634176 ], [ -122.759261, 45.634033 ], [ -122.759171, 45.633879 ], [ -122.759033, 45.633553 ], [ -122.758997, 45.633423 ], [ -122.758945, 45.6333 ], [ -122.7589, 45.633214 ], [ -122.758812, 45.633088 ], [ -122.75868, 45.632948 ] ], [ [ -122.758578, 45.632721 ], [ -122.758578, 45.632709 ], [ -122.758606, 45.632432 ], [ -122.758627, 45.632295 ], [ -122.758659, 45.632214 ], [ -122.758724, 45.632084 ], [ -122.758739, 45.632025 ], [ -122.758753, 45.631942 ], [ -122.758741, 45.631833 ], [ -122.758683, 45.631555 ], [ -122.75867, 45.63146 ], [ -122.758668, 45.631354 ], [ -122.758694, 45.631216 ], [ -122.758801, 45.630884 ], [ -122.75901, 45.630223 ], [ -122.759128, 45.629861 ], [ -122.759273, 45.62954 ], [ -122.759451, 45.629158 ], [ -122.759608, 45.62882 ], [ -122.759806, 45.628426 ], [ -122.760025, 45.628124 ], [ -122.760124, 45.627966 ], [ -122.760164, 45.627872 ], [ -122.760186, 45.627775 ], [ -122.760185, 45.627641 ], [ -122.760182, 45.627547 ], [ -122.760154, 45.627222 ], [ -122.760142, 45.627138 ], [ -122.760157, 45.627021 ], [ -122.76019, 45.626911 ], [ -122.760238, 45.62682 ], [ -122.760324, 45.626649 ], [ -122.760344, 45.626585 ], [ -122.760347, 45.626519 ], [ -122.760325, 45.626198 ], [ -122.760294, 45.62596 ], [ -122.760231, 45.625677 ], [ -122.760218, 45.625555 ], [ -122.760194, 45.625459 ], [ -122.760155, 45.625385 ], [ -122.759935, 45.624884 ], [ -122.759831, 45.624732 ], [ -122.759774, 45.624669 ], [ -122.759697, 45.624552 ], [ -122.75966, 45.624466 ], [ -122.759576, 45.624274 ], [ -122.75953, 45.624183 ], [ -122.75943, 45.624055 ], [ -122.759313, 45.623956 ], [ -122.759136, 45.623785 ], [ -122.759066, 45.623699 ], [ -122.758954, 45.623553 ], [ -122.758838, 45.62336 ], [ -122.758772, 45.623217 ], [ -122.7587, 45.623003 ], [ -122.758624, 45.622786 ], [ -122.758568, 45.622653 ], [ -122.75851, 45.622475 ], [ -122.758473, 45.622327 ], [ -122.758458, 45.622194 ], [ -122.758465, 45.621942 ], [ -122.758477, 45.62162 ], [ -122.758478, 45.621518 ], [ -122.758467, 45.621455 ], [ -122.758446, 45.621398 ], [ -122.758402, 45.621324 ], [ -122.758298, 45.621221 ], [ -122.758221, 45.621181 ], [ -122.758171, 45.621147 ], [ -122.758158, 45.621097 ], [ -122.758161, 45.62104 ] ] ] } },
{ "type": "Feature", "properties": { "cls": "shared", "highway": "path", "name": "Rivergate Trail" }, "geometry": { "type": "LineString", "coordinates": [ [ -122.762641, 45.638869 ], [ -122.762608, 45.638825 ], [ -122.76257, 45.638793 ], [ -122.762516, 45.638757 ], [ -122.762466, 45.638739 ], [ -122.762384, 45.638725 ], [ -122.762289, 45.638725 ], [ -122.762145, 45.638743 ], [ -122.762115, 45.638744 ] ] } }
]
}
