{
"type": "FeatureCollection",
"name": "110-vancouver-pacific-spirit-regional-park",
"crs": { "type": "name", "properties": { "name": "urn:ogc:def:crs:OGC:1.3:CRS84" } },
"xy_coordinate_resolution": 1e-06,
"features": [
{ "type": "Feature", "properties": { "cls": "painted", "highway": "primary", "name": "Southwest Marine Drive" }, "geometry": { "type": "LineString", "coordinates": [ [ -123.229566, 49.242552 ], [ -123.228849, 49.242208 ], [ -123.22783, 49.241754 ], [ -123.227282, 49.24154 ] ] } },
{ "type": "Feature", "properties": { "cls": "painted", "highway": "primary", "name": "Southwest Marine Drive" }, "geometry": { "type": "LineString", "coordinates": [ [ -123.227312, 49.241749 ], [ -123.227739, 49.241924 ], [ -123.22803, 49.242045 ], [ -123.22845, 49.242232 ], [ -123.229347, 49.242658 ], [ -123.229838, 49.242905 ], [ -123.230498, 49.243265 ], [ -123.231475, 49.243816 ] ] } },
{ "type": "Feature", "properties": { "cls": "painted", "highway": "primary", "name": "Southwest Marine Drive" }, "geometry": { "type": "LineString", "coordinates": [ [ -123.232871, 49.244352 ], [ -123.23119, 49.243418 ], [ -123.229566, 49.242552 ] ] } },
{ "type": "Feature", "properties": { "cls": "painted", "highway": "primary", "name": "Southwest Marine Drive" }, "geometry": { "type": "LineString", "coordinates": [ [ -123.231475, 49.243816 ], [ -123.231934, 49.244089 ] ] } },
{ "type": "Feature", "properties": { "cls": "painted", "highway": "primary", "name": "Southwest Marine Drive" }, "geometry": { "type": "LineString", "coordinates": [ [ -123.231934, 49.244089 ], [ -123.232003, 49.244127 ], [ -123.233219, 49.244792 ] ] } },
{ "type": "Feature", "properties": { "cls": "painted", "highway": "primary", "name": "Southwest Marine Drive" }, "geometry": { "type": "LineString", "coordinates": [ [ -123.233818, 49.244897 ], [ -123.233716, 49.244838 ], [ -123.232871, 49.244352 ] ] } },
{ "type": "Feature", "properties": { "cls": "painted", "highway": "primary", "name": "Southwest Marine Drive" }, "geometry": { "type": "LineString", "coordinates": [ [ -123.233219, 49.244792 ], [ -123.233502, 49.244949 ], [ -123.233541, 49.244971 ], [ -123.233641, 49.245026 ] ] } },
{ "type": "Feature", "properties": { "cls": "sharrow", "highway": "tertiary", "name": "Wesbrook Mall" }, "geometry": { "type": "LineString", "coordinates": [ [ -123.233818, 49.244897 ], [ -123.233641, 49.245026 ] ] } },
{ "type": "Feature", "properties": { "cls": "sharrow", "highway": "tertiary", "name": "Wesbrook Mall" }, "geometry": { "type": "LineString", "coordinates": [ [ -123.233641, 49.245026 ], [ -123.233571, 49.245071 ], [ -123.23353, 49.245097 ], [ -123.233441, 49.245154 ] ] } },
{ "type": "Feature", "properties": { "cls": "painted", "highway": "primary", "name": "Southwest Marine Drive" }, "geometry": { "type": "LineString", "coordinates": [ [ -123.233641, 49.245026 ], [ -123.234346, 49.245411 ] ] } },
{ "type": "Feature", "properties": { "cls": "sharrow", "highway": "tertiary", "name": "Wesbrook Mall" }, "geometry": { "type": "LineString", "coordinates": [ [ -123.233441, 49.245154 ], [ -123.23338, 49.245205 ], [ -123.233365, 49.245221 ], [ -123.233341, 49.245248 ] ] } },
{ "type": "Feature", "properties": { "cls": "painted", "highway": "primary", "name": "Southwest Marine Drive" }, "geometry": { "type": "LineString", "coordinates": [ [ -123.235108, 49.245632 ], [ -123.23393, 49.244961 ], [ -123.233818, 49.244897 ] ] } },
{ "type": "Feature", "properties": { "cls": "painted", "highway": "primary", "name": "Southwest Marine Drive" }, "geometry": { "type": "LineString", "coordinates": [ [ -123.234346, 49.245411 ], [ -123.234594, 49.245548 ] ] } },
{ "type": "Feature", "properties": { "cls": "painted", "highway": "primary", "name": "Southwest Marine Drive" }, "geometry": { "type": "LineString", "coordinates": [ [ -123.234594, 49.245548 ], [ -123.234893, 49.245708 ], [ -123.235447, 49.245985 ], [ -123.236005, 49.246256 ], [ -123.236214, 49.246348 ], [ -123.236809, 49.246616 ], [ -123.23738, 49.246888 ], [ -123.237891, 49.247151 ], [ -123.238145, 49.247291 ] ] } },
{ "type": "Feature", "properties": { "cls": "painted", "highway": "primary", "name": "Southwest Marine Drive" }, "geometry": { "type": "LineString", "coordinates": [ [ -123.238145, 49.247291 ], [ -123.238551, 49.247513 ] ] } },
{ "type": "Feature", "properties": { "cls": "painted", "highway": "primary", "name": "Southwest Marine Drive" }, "geometry": { "type": "LineString", "coordinates": [ [ -123.238551, 49.247513 ], [ -123.238875, 49.247693 ] ] } },
{ "type": "Feature", "properties": { "cls": "painted", "highway": "primary", "name": "Southwest Marine Drive" }, "geometry": { "type": "LineString", "coordinates": [ [ -123.239036, 49.247562 ], [ -123.2387, 49.247376 ], [ -123.237478, 49.246725 ], [ -123.236026, 49.246051 ], [ -123.235108, 49.245632 ] ] } },
{ "type": "Feature", "properties": { "cls": "shared", "highway": "path", "name": "Aims" }, "geometry": { "type": "LineString", "coordinates": [ [ -123.228193, 49.249676 ], [ -123.228199, 49.24981 ], [ -123.228288, 49.250035 ], [ -123.228394, 49.250207 ], [ -123.228497, 49.250372 ], [ -123.22856, 49.250596 ], [ -123.228585, 49.250697 ], [ -123.228671, 49.250868 ], [ -123.228763, 49.250997 ], [ -123.228839, 49.251167 ], [ -123.228876, 49.251452 ], [ -123.228863, 49.251608 ] ] } },
{ "type": "Feature", "properties": { "cls": "shared", "highway": "cycleway", "name": null }, "geometry": { "type": "LineString", "coordinates": [ [ -123.23148, 49.25774 ], [ -123.231127, 49.257854 ] ] } },
{ "type": "Feature", "properties": { "cls": "shared", "highway": "cycleway", "name": null }, "geometry": { "type": "LineString", "coordinates": [ [ -123.231127, 49.257854 ], [ -123.230844, 49.257933 ], [ -123.230673, 49.257974 ], [ -123.230516, 49.25799 ] ] } },
{ "type": "Feature", "properties": { "cls": "shared", "highway": "path", "name": "Southwest Marine Trail" }, "geometry": { "type": "LineString", "coordinates": [ [ -123.197153, 49.235172 ], [ -123.197195, 49.235263 ], [ -123.197344, 49.235306 ], [ -123.197596, 49.235364 ], [ -123.198139, 49.235521 ], [ -123.198551, 49.23563 ], [ -123.198791, 49.235715 ], [ -123.198925, 49.235755 ], [ -123.199082, 49.235806 ], [ -123.199382, 49.23588 ], [ -123.199786, 49.235999 ], [ -123.199906, 49.236035 ], [ -123.200615, 49.236238 ], [ -123.201009, 49.236331 ], [ -123.201476, 49.236451 ] ] } },
{ "type": "Feature", "properties": { "cls": "painted", "highway": "primary", "name": "Southwest Marine Drive" }, "geometry": { "type": "LineString", "coordinates": [ [ -123.205565, 49.23736 ], [ -123.206605, 49.237643 ] ] } },
{ "type": "Feature", "properties": { "cls": "painted", "highway": "primary", "name": "Southwest Marine Drive" }, "geometry": { "type": "LineString", "coordinates": [ [ -123.208671, 49.238064 ], [ -123.20831, 49.237972 ], [ -123.207795, 49.237838 ], [ -123.207314, 49.237708 ], [ -123.205833, 49.237307 ], [ -123.205696, 49.237271 ] ] } },
{ "type": "Feature", "properties": { "cls": "painted", "highway": "primary", "name": "Southwest Marine Drive" }, "geometry": { "type": "LineString", "coordinates": [ [ -123.206605, 49.237643 ], [ -123.20677, 49.237689 ], [ -123.208203, 49.238074 ], [ -123.208596, 49.238172 ] ] } },
{ "type": "Feature", "properties": { "cls": "shared", "highway": "path", "name": "Clinton Trail" }, "geometry": { "type": "LineString", "coordinates": [ [ -123.203805, 49.238094 ], [ -123.203885, 49.238302 ], [ -123.20401, 49.238447 ], [ -123.204155, 49.238597 ], [ -123.204299, 49.238706 ], [ -123.204397, 49.238833 ], [ -123.204521, 49.238912 ], [ -123.204604, 49.239017 ], [ -123.204607, 49.239104 ], [ -123.204564, 49.239204 ], [ -123.204517, 49.239304 ], [ -123.204487, 49.239387 ], [ -123.204531, 49.239477 ], [ -123.20461, 49.239556 ], [ -123.204787, 49.239708 ], [ -123.204841, 49.239795 ], [ -123.204842, 49.239912 ], [ -123.204742, 49.24011 ], [ -123.204747, 49.240222 ], [ -123.204724, 49.240418 ], [ -123.204669, 49.240531 ], [ -123.204549, 49.24063 ], [ -123.204387, 49.240719 ], [ -123.204178, 49.240784 ], [ -123.203913, 49.24081 ], [ -123.203552, 49.240928 ], [ -123.203448, 49.240966 ], [ -123.203256, 49.24103 ], [ -123.202948, 49.24114 ], [ -123.202425, 49.24137 ], [ -123.202104, 49.241526 ], [ -123.201947, 49.241661 ], [ -123.201675, 49.24175 ], [ -123.201413, 49.241864 ], [ -123.201217, 49.241939 ], [ -123.200991, 49.242004 ], [ -123.20056, 49.242133 ], [ -123.20041, 49.242191 ], [ -123.200153, 49.242289 ], [ -123.199913, 49.242393 ], [ -123.199742, 49.242449 ], [ -123.199556, 49.242542 ], [ -123.199411, 49.242624 ] ] } },
{ "type": "Feature", "properties": { "cls": "shared", "highway": "path", "name": "Southwest Marine Trail" }, "geometry": { "type": "LineString", "coordinates": [ [ -123.201476, 49.236451 ], [ -123.201644, 49.236501 ], [ -123.201886, 49.236607 ], [ -123.202242, 49.236728 ], [ -123.202715, 49.236873 ], [ -123.202968, 49.236947 ], [ -123.203082, 49.236992 ], [ -123.203245, 49.237065 ], [ -123.203296, 49.237078 ], [ -123.203419, 49.237083 ], [ -123.203494, 49.237084 ], [ -123.203796, 49.237119 ], [ -123.203891, 49.237179 ], [ -123.204026, 49.237201 ], [ -123.204449, 49.237353 ], [ -123.20457, 49.237398 ], [ -123.204722, 49.237425 ], [ -123.204852, 49.237427 ], [ -123.205028, 49.237404 ], [ -123.205089, 49.237403 ], [ -123.205139, 49.237415 ], [ -123.205216, 49.237453 ], [ -123.205336, 49.237506 ], [ -123.205471, 49.237543 ], [ -123.205594, 49.237591 ], [ -123.205818, 49.237697 ], [ -123.205928, 49.237714 ], [ -123.206385, 49.237771 ], [ -123.206611, 49.237798 ], [ -123.207063, 49.237974 ], [ -123.207267, 49.238021 ], [ -123.207389, 49.23809 ], [ -123.207487, 49.238113 ], [ -123.207781, 49.238121 ], [ -123.208433, 49.238296 ], [ -123.209331, 49.23855 ], [ -123.209851, 49.238631 ], [ -123.210488, 49.238776 ], [ -123.210713, 49.238801 ], [ -123.210837, 49.238836 ], [ -123.211154, 49.23894 ], [ -123.211319, 49.238955 ], [ -123.211594, 49.238973 ], [ -123.211719, 49.238979 ], [ -123.211825, 49.239011 ], [ -123.212525, 49.239155 ], [ -123.212854, 49.239173 ], [ -123.213112, 49.239193 ], [ -123.213313, 49.239179 ], [ -123.213462, 49.239183 ], [ -123.213609, 49.239203 ], [ -123.213877, 49.239275 ], [ -123.213963, 49.239306 ], [ -123.214043, 49.239352 ], [ -123.214104, 49.239362 ], [ -123.214154, 49.239355 ], [ -123.21431, 49.239322 ], [ -123.214503, 49.239363 ], [ -123.2155, 49.239457 ], [ -123.216189, 49.239537 ], [ -123.216407, 49.239564 ], [ -123.217142, 49.239679 ], [ -123.217341, 49.239686 ], [ -123.218743, 49.239905 ], [ -123.218927, 49.23991 ], [ -123.219337, 49.239907 ], [ -123.219727, 49.239944 ], [ -123.219994, 49.24 ], [ -123.220213, 49.240091 ], [ -123.22029, 49.240105 ], [ -123.220409, 49.24008 ], [ -123.220686, 49.240093 ], [ -123.221271, 49.24021 ], [ -123.221426, 49.240242 ], [ -123.221655, 49.240269 ], [ -123.221868, 49.240331 ], [ -123.22211, 49.240469 ], [ -123.222191, 49.240491 ], [ -123.222442, 49.240506 ], [ -123.222801, 49.240636 ], [ -123.222885, 49.24066 ], [ -123.22311, 49.240689 ], [ -123.223567, 49.240774 ], [ -123.223968, 49.240901 ], [ -123.224497, 49.241043 ], [ -123.224807, 49.241121 ], [ -123.224949, 49.241163 ], [ -123.22506, 49.241211 ], [ -123.225116, 49.241219 ], [ -123.22524, 49.241234 ], [ -123.225324, 49.241253 ], [ -123.22541, 49.241302 ], [ -123.225668, 49.24139 ], [ -123.225968, 49.24144 ], [ -123.22622, 49.241513 ], [ -123.226312, 49.24154 ], [ -123.22683, 49.241761 ], [ -123.227107, 49.241848 ], [ -123.227446, 49.241948 ] ] } },
{ "type": "Feature", "properties": { "cls": "painted", "highway": "primary", "name": "Southwest Marine Drive" }, "geometry": { "type": "LineString", "coordinates": [ [ -123.226435, 49.241232 ], [ -123.225721, 49.240985 ], [ -123.224591, 49.240637 ], [ -123.223795, 49.240424 ], [ -123.222683, 49.240153 ], [ -123.221603, 49.239932 ], [ -123.220197, 49.239703 ], [ -123.219096, 49.239559 ], [ -123.216983, 49.239298 ], [ -123.215863, 49.239163 ], [ -123.214951, 49.239051 ], [ -123.213743, 49.238904 ], [ -123.212581, 49.238764 ], [ -123.21189, 49.238668 ], [ -123.211278, 49.238573 ], [ -123.210273, 49.238402 ], [ -123.209766, 49.238305 ], [ -123.209272, 49.238201 ], [ -123.208907, 49.23812 ], [ -123.208671, 49.238064 ] ] } },
{ "type": "Feature", "properties": { "cls": "painted", "highway": "primary", "name": "Southwest Marine Drive" }, "geometry": { "type": "LineString", "coordinates": [ [ -123.208596, 49.238172 ], [ -123.209465, 49.23839 ], [ -123.210385, 49.238582 ], [ -123.211242, 49.23874 ], [ -123.212512, 49.238926 ], [ -123.213743, 49.239079 ], [ -123.215172, 49.239252 ], [ -123.215966, 49.239349 ], [ -123.216866, 49.23946 ], [ -123.217601, 49.239549 ], [ -123.21837, 49.239641 ], [ -123.219397, 49.239767 ], [ -123.220302, 49.239891 ], [ -123.220857, 49.239984 ], [ -123.221307, 49.240057 ], [ -123.222271, 49.240241 ], [ -123.222924, 49.240386 ], [ -123.223799, 49.240606 ], [ -123.22463, 49.240835 ], [ -123.225373, 49.241061 ], [ -123.225731, 49.241175 ], [ -123.226146, 49.241318 ], [ -123.226432, 49.241422 ], [ -123.226918, 49.241598 ] ] } },
{ "type": "Feature", "properties": { "cls": "painted", "highway": "primary", "name": "Southwest Marine Drive" }, "geometry": { "type": "LineString", "coordinates": [ [ -123.227282, 49.24154 ], [ -123.226435, 49.241232 ] ] } },
{ "type": "Feature", "properties": { "cls": "painted", "highway": "primary", "name": "Southwest Marine Drive" }, "geometry": { "type": "LineString", "coordinates": [ [ -123.226918, 49.241598 ], [ -123.227312, 49.241749 ] ] } },
{ "type": "Feature", "properties": { "cls": "shared", "highway": "path", "name": "Imperial Trail" }, "geometry": { "type": "LineString", "coordinates": [ [ -123.217552, 49.249259 ], [ -123.217998, 49.249092 ], [ -123.218267, 49.249014 ], [ -123.218851, 49.248766 ], [ -123.219195, 49.24854 ], [ -123.219287, 49.248446 ], [ -123.21952, 49.248246 ], [ -123.220062, 49.247879 ], [ -123.220433, 49.247632 ], [ -123.221023, 49.247324 ], [ -123.221796, 49.247047 ], [ -123.222353, 49.246859 ], [ -123.222664, 49.246771 ], [ -123.223012, 49.246702 ], [ -123.223477, 49.24662 ], [ -123.224133, 49.246532 ], [ -123.225289, 49.246301 ], [ -123.226316, 49.24603 ], [ -123.226385, 49.24601 ], [ -123.226975, 49.245803 ], [ -123.227769, 49.245433 ] ] } },
{ "type": "Feature", "properties": { "cls": "shared", "highway": "path", "name": "Long Trail" }, "geometry": { "type": "LineString", "coordinates": [ [ -123.220452, 49.249432 ], [ -123.220654, 49.249373 ], [ -123.221166, 49.24934 ], [ -123.221371, 49.249337 ], [ -123.22155, 49.249325 ], [ -123.221745, 49.249324 ], [ -123.222025, 49.24931 ], [ -123.222325, 49.249284 ], [ -123.222618, 49.249244 ], [ -123.222981, 49.249223 ], [ -123.223221, 49.249223 ], [ -123.223429, 49.249192 ], [ -123.223549, 49.249157 ], [ -123.223703, 49.249131 ], [ -123.224019, 49.249072 ], [ -123.224276, 49.249036 ], [ -123.224396, 49.249017 ], [ -123.224551, 49.248987 ], [ -123.224822, 49.248953 ], [ -123.225224, 49.248899 ], [ -123.225352, 49.24888 ], [ -123.22546, 49.248864 ], [ -123.226167, 49.248745 ], [ -123.226547, 49.248711 ], [ -123.226874, 49.248654 ], [ -123.227162, 49.248612 ], [ -123.227447, 49.248574 ], [ -123.227805, 49.248546 ], [ -123.228057, 49.248542 ], [ -123.228262, 49.248519 ] ] } },
{ "type": "Feature", "properties": { "cls": "shared", "highway": "path", "name": "Imperial Trail" }, "geometry": { "type": "LineString", "coordinates": [ [ -123.206264, 49.249128 ], [ -123.206504, 49.249088 ], [ -123.206676, 49.249067 ], [ -123.207438, 49.248994 ], [ -123.208905, 49.248908 ], [ -123.209227, 49.248904 ], [ -123.209576, 49.248907 ], [ -123.209954, 49.248925 ], [ -123.211407, 49.24898 ], [ -123.211831, 49.248999 ], [ -123.212017, 49.249004 ], [ -123.212478, 49.249023 ], [ -123.213403, 49.24907 ], [ -123.213825, 49.249101 ], [ -123.214248, 49.249112 ], [ -123.214377, 49.249117 ], [ -123.214689, 49.249141 ], [ -123.216227, 49.24922 ], [ -123.216795, 49.249236 ], [ -123.216944, 49.24925 ], [ -123.21727, 49.249261 ], [ -123.217552, 49.249259 ] ] } },
{ "type": "Feature", "properties": { "cls": "shared", "highway": "path", "name": "Powerline Trail" }, "geometry": { "type": "LineString", "coordinates": [ [ -123.220452, 49.249432 ], [ -123.220894, 49.249487 ], [ -123.221313, 49.249553 ], [ -123.221442, 49.249562 ], [ -123.221553, 49.249573 ], [ -123.221797, 49.249581 ], [ -123.221954, 49.249597 ], [ -123.222362, 49.249602 ], [ -123.222615, 49.249623 ], [ -123.223103, 49.249636 ], [ -123.223769, 49.249684 ], [ -123.224014, 49.249698 ], [ -123.224409, 49.249722 ], [ -123.224647, 49.24974 ], [ -123.224874, 49.249751 ], [ -123.225386, 49.249784 ], [ -123.225693, 49.249772 ], [ -123.226082, 49.249799 ], [ -123.226373, 49.249779 ], [ -123.226719, 49.249766 ], [ -123.22689, 49.249741 ], [ -123.22717, 49.249679 ], [ -123.22767, 49.249653 ], [ -123.227834, 49.24965 ], [ -123.228025, 49.249652 ], [ -123.228193, 49.249676 ], [ -123.228555, 49.249702 ], [ -123.228648, 49.249708 ], [ -123.228922, 49.249745 ], [ -123.228988, 49.249743 ] ] } },
{ "type": "Feature", "properties": { "cls": "shared", "highway": "path", "name": "Iron Knee Trail" }, "geometry": { "type": "LineString", "coordinates": [ [ -123.22345, 49.252891 ], [ -123.223359, 49.252753 ], [ -123.223358, 49.252514 ], [ -123.223301, 49.251782 ], [ -123.223349, 49.251672 ], [ -123.223465, 49.251518 ], [ -123.223673, 49.251383 ], [ -123.223925, 49.251196 ], [ -123.224037, 49.251114 ], [ -123.224112, 49.251031 ], [ -123.224127, 49.250943 ], [ -123.224097, 49.250757 ], [ -123.223965, 49.250312 ], [ -123.223907, 49.25019 ], [ -123.223769, 49.249684 ], [ -123.223721, 49.249497 ], [ -123.223549, 49.249157 ], [ -123.223529, 49.249115 ], [ -123.223455, 49.248741 ], [ -123.223179, 49.248109 ], [ -123.223064, 49.247736 ], [ -123.222841, 49.247199 ], [ -123.22275, 49.247045 ], [ -123.222664, 49.246771 ] ] } },
{ "type": "Feature", "properties": { "cls": "shared", "highway": "path", "name": "Salish Trail" }, "geometry": { "type": "LineString", "coordinates": [ [ -123.214248, 49.249112 ], [ -123.214313, 49.248866 ], [ -123.214357, 49.248765 ], [ -123.214356, 49.248703 ], [ -123.214319, 49.248667 ], [ -123.214192, 49.248608 ], [ -123.214029, 49.248529 ], [ -123.213893, 49.248448 ], [ -123.213758, 49.248297 ], [ -123.213707, 49.248168 ], [ -123.213507, 49.247641 ], [ -123.213376, 49.24739 ], [ -123.213293, 49.247245 ], [ -123.213123, 49.247078 ], [ -123.212727, 49.246716 ], [ -123.212661, 49.246615 ], [ -123.212666, 49.246567 ], [ -123.212726, 49.246509 ], [ -123.212818, 49.246418 ], [ -123.212833, 49.246297 ], [ -123.212835, 49.246132 ], [ -123.212878, 49.245922 ], [ -123.212772, 49.245682 ], [ -123.212759, 49.24554 ], [ -123.212826, 49.245332 ], [ -123.212804, 49.245205 ], [ -123.212833, 49.244993 ], [ -123.212723, 49.244817 ], [ -123.212735, 49.244557 ], [ -123.212647, 49.244165 ], [ -123.212508, 49.243757 ], [ -123.212403, 49.243611 ], [ -123.212219, 49.243417 ], [ -123.212009, 49.243199 ], [ -123.211833, 49.243006 ], [ -123.211598, 49.24287 ], [ -123.211342, 49.242649 ], [ -123.211113, 49.242364 ], [ -123.210921, 49.242021 ], [ -123.210828, 49.241858 ], [ -123.210742, 49.241742 ], [ -123.210651, 49.241658 ], [ -123.210482, 49.241539 ], [ -123.210256, 49.241477 ], [ -123.2102, 49.241446 ], [ -123.210106, 49.241355 ], [ -123.210006, 49.241304 ], [ -123.209813, 49.241239 ], [ -123.20963, 49.241185 ], [ -123.209506, 49.24111 ], [ -123.20941, 49.241006 ], [ -123.209337, 49.240881 ], [ -123.209304, 49.240692 ], [ -123.209249, 49.240582 ], [ -123.209022, 49.240401 ], [ -123.20893, 49.240351 ], [ -123.208887, 49.240301 ], [ -123.208752, 49.240201 ], [ -123.208499, 49.240066 ], [ -123.208366, 49.239979 ], [ -123.2083, 49.239876 ], [ -123.208273, 49.239767 ], [ -123.208272, 49.239612 ], [ -123.208238, 49.239494 ], [ -123.208126, 49.239399 ], [ -123.207648, 49.239221 ], [ -123.207445, 49.239101 ], [ -123.207367, 49.238966 ], [ -123.207309, 49.238748 ], [ -123.207258, 49.238682 ], [ -123.207122, 49.23861 ], [ -123.207007, 49.238538 ], [ -123.206953, 49.238476 ], [ -123.206893, 49.238375 ], [ -123.206863, 49.238322 ], [ -123.206824, 49.238279 ], [ -123.206763, 49.238244 ], [ -123.206669, 49.238212 ], [ -123.206442, 49.238136 ], [ -123.206257, 49.238068 ], [ -123.20604, 49.23801 ], [ -123.205557, 49.237948 ], [ -123.205418, 49.237891 ], [ -123.205287, 49.237788 ], [ -123.205139, 49.237733 ], [ -123.204878, 49.237697 ], [ -123.204628, 49.23759 ], [ -123.204522, 49.237557 ], [ -123.20446, 49.237555 ], [ -123.204391, 49.237562 ], [ -123.204312, 49.237589 ], [ -123.203964, 49.237719 ], [ -123.203836, 49.237729 ], [ -123.20363, 49.237747 ], [ -123.20333, 49.237756 ], [ -123.20313, 49.237723 ], [ -123.202875, 49.237657 ], [ -123.202782, 49.237618 ], [ -123.202739, 49.237585 ], [ -123.20271, 49.237549 ], [ -123.202707, 49.237519 ], [ -123.202722, 49.237469 ], [ -123.202723, 49.237431 ], [ -123.202698, 49.237381 ], [ -123.202492, 49.237246 ], [ -123.202128, 49.237059 ], [ -123.201873, 49.236865 ], [ -123.20169, 49.236777 ], [ -123.201594, 49.236771 ], [ -123.20152, 49.236771 ], [ -123.201477, 49.236766 ], [ -123.201417, 49.236735 ], [ -123.2014, 49.236671 ], [ -123.201434, 49.236622 ], [ -123.201476, 49.236451 ] ] } },
{ "type": "Feature", "properties": { "cls": "shared", "highway": "path", "name": "Sasamat Trail" }, "geometry": { "type": "LineString", "coordinates": [ [ -123.196897, 49.242502 ], [ -123.196953, 49.242501 ], [ -123.197781, 49.242549 ], [ -123.198102, 49.242608 ], [ -123.198535, 49.242607 ], [ -123.198844, 49.242593 ], [ -123.199235, 49.242616 ], [ -123.199411, 49.242624 ], [ -123.199609, 49.242653 ], [ -123.199815, 49.242693 ], [ -123.199971, 49.242725 ], [ -123.200168, 49.242779 ], [ -123.200318, 49.242866 ], [ -123.200622, 49.243054 ], [ -123.200771, 49.243206 ], [ -123.201226, 49.243538 ], [ -123.201472, 49.243758 ], [ -123.202042, 49.244189 ], [ -123.20241, 49.244447 ], [ -123.202563, 49.244557 ], [ -123.2029, 49.24482 ] ] } },
{ "type": "Feature", "properties": { "cls": "shared", "highway": "path", "name": "Hemlock Trail" }, "geometry": { "type": "LineString", "coordinates": [ [ -123.2029, 49.24482 ], [ -123.203166, 49.245013 ], [ -123.203236, 49.24504 ], [ -123.203297, 49.245035 ], [ -123.203374, 49.245021 ], [ -123.203437, 49.245029 ], [ -123.20348, 49.245041 ], [ -123.203515, 49.245061 ], [ -123.203547, 49.245081 ], [ -123.203587, 49.245094 ], [ -123.203684, 49.245103 ], [ -123.203771, 49.245088 ], [ -123.20385, 49.245061 ], [ -123.203929, 49.245043 ], [ -123.204062, 49.245044 ], [ -123.204175, 49.24505 ], [ -123.204229, 49.245068 ], [ -123.204292, 49.2451 ], [ -123.204373, 49.245172 ], [ -123.204456, 49.245244 ], [ -123.204571, 49.245293 ], [ -123.204833, 49.245279 ], [ -123.204945, 49.245281 ], [ -123.205013, 49.245303 ], [ -123.205103, 49.245353 ], [ -123.205177, 49.245426 ], [ -123.205266, 49.245493 ], [ -123.205348, 49.245602 ], [ -123.205424, 49.245733 ], [ -123.205526, 49.24581 ], [ -123.205555, 49.245868 ], [ -123.205637, 49.246 ], [ -123.205753, 49.246144 ], [ -123.205808, 49.246253 ], [ -123.205869, 49.246314 ], [ -123.205928, 49.24637 ], [ -123.205967, 49.246399 ], [ -123.206018, 49.246462 ], [ -123.206108, 49.246609 ], [ -123.206318, 49.246675 ], [ -123.206399, 49.246771 ], [ -123.206557, 49.246957 ], [ -123.20661, 49.247019 ], [ -123.206746, 49.247113 ], [ -123.206958, 49.247328 ], [ -123.207162, 49.247546 ], [ -123.207244, 49.247812 ], [ -123.207405, 49.247916 ], [ -123.207641, 49.248024 ], [ -123.208031, 49.248143 ], [ -123.208372, 49.24825 ], [ -123.208598, 49.248288 ], [ -123.20875, 49.248352 ], [ -123.208776, 49.248401 ], [ -123.20881, 49.24843 ], [ -123.209055, 49.248533 ], [ -123.209266, 49.248576 ], [ -123.209334, 49.248602 ], [ -123.209378, 49.248643 ], [ -123.209404, 49.248739 ], [ -123.209551, 49.248836 ], [ -123.209572, 49.248863 ], [ -123.209576, 49.248907 ] ] } },
{ "type": "Feature", "properties": { "cls": "shared", "highway": "path", "name": "Sasamat Trail" }, "geometry": { "type": "LineString", "coordinates": [ [ -123.2029, 49.24482 ], [ -123.202718, 49.245023 ], [ -123.202625, 49.245188 ], [ -123.202498, 49.245283 ], [ -123.202449, 49.245352 ], [ -123.202437, 49.245415 ], [ -123.202431, 49.245509 ], [ -123.202402, 49.245571 ], [ -123.202344, 49.245597 ], [ -123.202268, 49.245603 ], [ -123.20208, 49.245594 ], [ -123.201975, 49.245593 ], [ -123.201899, 49.245625 ], [ -123.20186, 49.245662 ], [ -123.201854, 49.24573 ], [ -123.201807, 49.245827 ], [ -123.201775, 49.245875 ], [ -123.201769, 49.245904 ], [ -123.201801, 49.245963 ], [ -123.201982, 49.246106 ], [ -123.202021, 49.246183 ], [ -123.202021, 49.246223 ], [ -123.202076, 49.246399 ], [ -123.202129, 49.246507 ], [ -123.202197, 49.246646 ], [ -123.202291, 49.246802 ], [ -123.202368, 49.246881 ], [ -123.202518, 49.246964 ], [ -123.202984, 49.247217 ], [ -123.203081, 49.247286 ], [ -123.203166, 49.247357 ], [ -123.203193, 49.247421 ], [ -123.203212, 49.247484 ], [ -123.203226, 49.247551 ], [ -123.203225, 49.247619 ], [ -123.203229, 49.247674 ], [ -123.203234, 49.247722 ], [ -123.203277, 49.247811 ], [ -123.203445, 49.248003 ], [ -123.203593, 49.248102 ], [ -123.203671, 49.248128 ], [ -123.2038, 49.248141 ], [ -123.20402, 49.248144 ], [ -123.204117, 49.248164 ], [ -123.204206, 49.248203 ], [ -123.204467, 49.248264 ], [ -123.204629, 49.248285 ], [ -123.204745, 49.248318 ], [ -123.204929, 49.248389 ], [ -123.205048, 49.248479 ], [ -123.205282, 49.248717 ], [ -123.205494, 49.248934 ], [ -123.205543, 49.248999 ], [ -123.20559, 49.249069 ], [ -123.205669, 49.249227 ] ] } },
{ "type": "Feature", "properties": { "cls": "shared", "highway": "path", "name": "Sasamat Trail" }, "geometry": { "type": "LineString", "coordinates": [ [ -123.205795, 49.249208 ], [ -123.205813, 49.249239 ], [ -123.205867, 49.249292 ], [ -123.206062, 49.249387 ], [ -123.206353, 49.249525 ], [ -123.206371, 49.249596 ], [ -123.206408, 49.249766 ], [ -123.20648, 49.249984 ], [ -123.206488, 49.250036 ], [ -123.206515, 49.250094 ], [ -123.206573, 49.250161 ], [ -123.206765, 49.250317 ], [ -123.206842, 49.250425 ], [ -123.206912, 49.250534 ], [ -123.206936, 49.250624 ], [ -123.206946, 49.250709 ], [ -123.206975, 49.250811 ], [ -123.207011, 49.250893 ], [ -123.20709, 49.250967 ], [ -123.207276, 49.251046 ], [ -123.207448, 49.251155 ], [ -123.207576, 49.251287 ], [ -123.207763, 49.251415 ], [ -123.20815, 49.251559 ], [ -123.208288, 49.251665 ], [ -123.208383, 49.251776 ], [ -123.208534, 49.251878 ], [ -123.208709, 49.251931 ], [ -123.208894, 49.252044 ], [ -123.208955, 49.252145 ], [ -123.209098, 49.252236 ], [ -123.209169, 49.252349 ], [ -123.209261, 49.252518 ], [ -123.209417, 49.252638 ], [ -123.209491, 49.252691 ], [ -123.209516, 49.252723 ], [ -123.209523, 49.252753 ], [ -123.209497, 49.252869 ], [ -123.209465, 49.253002 ], [ -123.209472, 49.253081 ], [ -123.209505, 49.253155 ], [ -123.209584, 49.253232 ], [ -123.20973, 49.253362 ], [ -123.209899, 49.253544 ], [ -123.209988, 49.253603 ], [ -123.210089, 49.253642 ], [ -123.210299, 49.253683 ], [ -123.210656, 49.253737 ], [ -123.210993, 49.253743 ], [ -123.211049, 49.253748 ], [ -123.211119, 49.253778 ], [ -123.211175, 49.253825 ], [ -123.211202, 49.25387 ], [ -123.211211, 49.253974 ], [ -123.211227, 49.254038 ], [ -123.211269, 49.254165 ], [ -123.211336, 49.254321 ], [ -123.21135, 49.254407 ], [ -123.211347, 49.254501 ], [ -123.211296, 49.254743 ], [ -123.211288, 49.254824 ], [ -123.211271, 49.254877 ], [ -123.211215, 49.254968 ], [ -123.211147, 49.255094 ], [ -123.211094, 49.255221 ], [ -123.211075, 49.255312 ], [ -123.211074, 49.255403 ], [ -123.211109, 49.255472 ], [ -123.21116, 49.255545 ], [ -123.211354, 49.255787 ], [ -123.21142, 49.255876 ], [ -123.211478, 49.255964 ], [ -123.211482, 49.256013 ], [ -123.211475, 49.256064 ], [ -123.211463, 49.256103 ], [ -123.211437, 49.256132 ], [ -123.211354, 49.256206 ], [ -123.211117, 49.256352 ], [ -123.211014, 49.256527 ], [ -123.210964, 49.256553 ], [ -123.21091, 49.256566 ], [ -123.210786, 49.256573 ], [ -123.210646, 49.256678 ], [ -123.210551, 49.256774 ], [ -123.210527, 49.256806 ], [ -123.210521, 49.256833 ], [ -123.210517, 49.256888 ], [ -123.210502, 49.256926 ], [ -123.210411, 49.25704 ], [ -123.210156, 49.257297 ], [ -123.210033, 49.257391 ], [ -123.209857, 49.257527 ], [ -123.209791, 49.257598 ], [ -123.209534, 49.257727 ] ] } },
{ "type": "Feature", "properties": { "cls": "sharrow", "highway": "residential", "name": "Camosun Street" }, "geometry": { "type": "LineString", "coordinates": [ [ -123.196577, 49.256628 ], [ -123.196577, 49.256609 ], [ -123.196578, 49.256533 ] ] } },
{ "type": "Feature", "properties": { "cls": "shared", "highway": "path", "name": "Council Trail" }, "geometry": { "type": "LineString", "coordinates": [ [ -123.221702, 49.252165 ], [ -123.221573, 49.252208 ], [ -123.221469, 49.252249 ], [ -123.221329, 49.252304 ], [ -123.221142, 49.252363 ], [ -123.221056, 49.252378 ], [ -123.220973, 49.252377 ], [ -123.220875, 49.252359 ], [ -123.220721, 49.252318 ], [ -123.220017, 49.252192 ], [ -123.219738, 49.252168 ], [ -123.219525, 49.252161 ], [ -123.219442, 49.252164 ], [ -123.219228, 49.252163 ], [ -123.218923, 49.252169 ], [ -123.218748, 49.252142 ], [ -123.218305, 49.252126 ], [ -123.21803, 49.252081 ], [ -123.217223, 49.251819 ], [ -123.216636, 49.251578 ], [ -123.216511, 49.251537 ], [ -123.216377, 49.251496 ], [ -123.216228, 49.251476 ], [ -123.216062, 49.251504 ], [ -123.215935, 49.251503 ], [ -123.215715, 49.251494 ], [ -123.215448, 49.251525 ], [ -123.215235, 49.251549 ], [ -123.215112, 49.25155 ], [ -123.214715, 49.251541 ], [ -123.214406, 49.251593 ], [ -123.214047, 49.251746 ], [ -123.213256, 49.251953 ], [ -123.213143, 49.251991 ], [ -123.212946, 49.25201 ], [ -123.212761, 49.25196 ], [ -123.212545, 49.251864 ], [ -123.21241, 49.251846 ], [ -123.212193, 49.251831 ], [ -123.212095, 49.251802 ], [ -123.211819, 49.25172 ], [ -123.211558, 49.251633 ], [ -123.211193, 49.251474 ], [ -123.210897, 49.251388 ], [ -123.210668, 49.251299 ], [ -123.210314, 49.251218 ], [ -123.210074, 49.251073 ], [ -123.209868, 49.251042 ], [ -123.209264, 49.250819 ], [ -123.208938, 49.250645 ], [ -123.208707, 49.250482 ], [ -123.208475, 49.250345 ], [ -123.207878, 49.25004 ], [ -123.20777, 49.249965 ], [ -123.207668, 49.249935 ], [ -123.207372, 49.249935 ], [ -123.20708, 49.249908 ], [ -123.206949, 49.249872 ], [ -123.206892, 49.24982 ], [ -123.206694, 49.249677 ], [ -123.206547, 49.249575 ], [ -123.206353, 49.249525 ] ] } },
{ "type": "Feature", "properties": { "cls": "shared", "highway": "path", "name": "Salish Trail" }, "geometry": { "type": "LineString", "coordinates": [ [ -123.222232, 49.253168 ], [ -123.222025, 49.253157 ], [ -123.221926, 49.253131 ], [ -123.221551, 49.253078 ], [ -123.220872, 49.252968 ], [ -123.22065, 49.25291 ], [ -123.220467, 49.252825 ], [ -123.22017, 49.252663 ], [ -123.219952, 49.252546 ], [ -123.219821, 49.252437 ], [ -123.219676, 49.252322 ], [ -123.219442, 49.252164 ], [ -123.2193, 49.252039 ], [ -123.218855, 49.251745 ], [ -123.218526, 49.251481 ], [ -123.218326, 49.251275 ], [ -123.218099, 49.25109 ], [ -123.217682, 49.250831 ], [ -123.217544, 49.250711 ], [ -123.217401, 49.250453 ], [ -123.217207, 49.250191 ], [ -123.217031, 49.249918 ], [ -123.216918, 49.249767 ], [ -123.21692, 49.249656 ], [ -123.21695, 49.249531 ], [ -123.216953, 49.24941 ], [ -123.216947, 49.249294 ], [ -123.216944, 49.24925 ] ] } },
{ "type": "Feature", "properties": { "cls": "shared", "highway": "path", "name": "Hemlock Trail" }, "geometry": { "type": "LineString", "coordinates": [ [ -123.211831, 49.248999 ], [ -123.211801, 49.249142 ], [ -123.211802, 49.249171 ], [ -123.211809, 49.2492 ], [ -123.211829, 49.249247 ], [ -123.211912, 49.249344 ], [ -123.212098, 49.249503 ], [ -123.21211, 49.24955 ], [ -123.2121, 49.249601 ], [ -123.21202, 49.249671 ], [ -123.211963, 49.249777 ], [ -123.211989, 49.249937 ], [ -123.211956, 49.250044 ], [ -123.211802, 49.250119 ], [ -123.211746, 49.250165 ], [ -123.211724, 49.250211 ], [ -123.21172, 49.250294 ], [ -123.211798, 49.250469 ], [ -123.211797, 49.250573 ], [ -123.211806, 49.250704 ], [ -123.212031, 49.250921 ], [ -123.212087, 49.251006 ], [ -123.212103, 49.251125 ], [ -123.212154, 49.251248 ], [ -123.212277, 49.251354 ], [ -123.212407, 49.251476 ], [ -123.212471, 49.251559 ], [ -123.212532, 49.251591 ], [ -123.212625, 49.251605 ], [ -123.212967, 49.251679 ], [ -123.213107, 49.251769 ], [ -123.213178, 49.251889 ], [ -123.213256, 49.251953 ], [ -123.213344, 49.252086 ], [ -123.213489, 49.25219 ], [ -123.213905, 49.252318 ], [ -123.214227, 49.252378 ], [ -123.21433, 49.252402 ], [ -123.214382, 49.252421 ], [ -123.214416, 49.252441 ], [ -123.214431, 49.252462 ], [ -123.214501, 49.25247 ], [ -123.214703, 49.25251 ], [ -123.214896, 49.25256 ], [ -123.21514, 49.252594 ], [ -123.215263, 49.252595 ], [ -123.215379, 49.252586 ], [ -123.215474, 49.252574 ], [ -123.215566, 49.25255 ], [ -123.215669, 49.252521 ], [ -123.215747, 49.252518 ], [ -123.215841, 49.252527 ], [ -123.215909, 49.252542 ], [ -123.21599, 49.252571 ], [ -123.216062, 49.252611 ], [ -123.21614, 49.252661 ], [ -123.216326, 49.252881 ], [ -123.216565, 49.253012 ], [ -123.217056, 49.253139 ], [ -123.217458, 49.253217 ], [ -123.217709, 49.253284 ], [ -123.218138, 49.253545 ], [ -123.218579, 49.253692 ], [ -123.218846, 49.25382 ], [ -123.218989, 49.253872 ], [ -123.219121, 49.253887 ], [ -123.219257, 49.253892 ], [ -123.219444, 49.253858 ], [ -123.219563, 49.253837 ] ] } },
{ "type": "Feature", "properties": { "cls": "shared", "highway": "path", "name": "Council Trail" }, "geometry": { "type": "LineString", "coordinates": [ [ -123.22959, 49.25174 ], [ -123.229428, 49.251723 ], [ -123.229368, 49.25171 ], [ -123.228951, 49.251617 ], [ -123.228863, 49.251608 ], [ -123.228587, 49.251657 ], [ -123.228427, 49.25172 ], [ -123.22831, 49.25179 ], [ -123.22818, 49.251839 ], [ -123.228059, 49.251868 ], [ -123.227834, 49.25187 ], [ -123.227721, 49.251883 ], [ -123.227637, 49.251909 ], [ -123.227173, 49.25194 ], [ -123.226782, 49.251904 ], [ -123.226508, 49.251886 ], [ -123.226233, 49.251892 ], [ -123.226032, 49.251929 ], [ -123.225734, 49.252014 ], [ -123.225559, 49.252035 ], [ -123.225343, 49.252038 ], [ -123.225157, 49.251994 ], [ -123.224621, 49.251813 ], [ -123.224254, 49.251719 ], [ -123.223349, 49.251672 ], [ -123.223002, 49.25166 ], [ -123.222713, 49.251713 ], [ -123.222538, 49.251812 ], [ -123.222414, 49.251911 ], [ -123.222337, 49.251998 ], [ -123.222246, 49.252062 ], [ -123.222122, 49.252103 ], [ -123.221929, 49.252107 ], [ -123.221845, 49.252121 ], [ -123.221755, 49.252148 ] ] } },
{ "type": "Feature", "properties": { "cls": "shared", "highway": "path", "name": "Council Trail" }, "geometry": { "type": "LineString", "coordinates": [ [ -123.221755, 49.252148 ], [ -123.221702, 49.252165 ] ] } },
{ "type": "Feature", "properties": { "cls": "shared", "highway": "path", "name": "Salish Trail" }, "geometry": { "type": "LineString", "coordinates": [ [ -123.222349, 49.253169 ], [ -123.222232, 49.253168 ] ] } },
{ "type": "Feature", "properties": { "cls": "shared", "highway": "path", "name": "Hemlock Trail" }, "geometry": { "type": "LineString", "coordinates": [ [ -123.219563, 49.253837 ], [ -123.220193, 49.253712 ], [ -123.220741, 49.253609 ], [ -123.22117, 49.253504 ], [ -123.22138, 49.253434 ], [ -123.221666, 49.253314 ], [ -123.222025, 49.253157 ] ] } },
{ "type": "Feature", "properties": { "cls": "shared", "highway": "path", "name": "Huckleberry Trail" }, "geometry": { "type": "LineString", "coordinates": [ [ -123.214431, 49.252462 ], [ -123.214415, 49.252494 ], [ -123.214349, 49.252563 ], [ -123.214271, 49.25262 ], [ -123.214014, 49.252775 ], [ -123.213847, 49.252874 ], [ -123.213687, 49.252942 ], [ -123.21349, 49.253056 ], [ -123.213325, 49.253194 ], [ -123.213129, 49.253317 ], [ -123.212869, 49.253476 ], [ -123.212649, 49.253719 ], [ -123.212316, 49.253965 ], [ -123.211873, 49.254264 ], [ -123.211736, 49.254413 ], [ -123.211638, 49.2546 ], [ -123.211565, 49.254689 ], [ -123.211428, 49.25482 ], [ -123.211348, 49.254858 ], [ -123.211271, 49.254877 ] ] } },
{ "type": "Feature", "properties": { "cls": "shared", "highway": "path", "name": "Salish Trail" }, "geometry": { "type": "LineString", "coordinates": [ [ -123.22614, 49.256993 ], [ -123.226045, 49.257002 ], [ -123.225853, 49.257045 ], [ -123.225625, 49.257032 ], [ -123.225414, 49.256971 ], [ -123.225345, 49.256916 ], [ -123.225307, 49.256847 ], [ -123.22528, 49.256746 ], [ -123.225251, 49.256565 ], [ -123.225218, 49.256338 ], [ -123.225178, 49.256217 ], [ -123.225127, 49.256012 ], [ -123.225029, 49.255553 ], [ -123.224914, 49.255131 ], [ -123.224776, 49.254854 ], [ -123.224365, 49.253999 ], [ -123.224314, 49.253844 ], [ -123.224331, 49.253563 ], [ -123.224352, 49.253375 ], [ -123.224324, 49.253248 ], [ -123.224176, 49.253135 ], [ -123.223881, 49.253041 ], [ -123.223615, 49.252925 ], [ -123.22345, 49.252891 ], [ -123.223131, 49.252982 ], [ -123.222849, 49.253102 ], [ -123.222562, 49.253169 ], [ -123.222349, 49.253169 ] ] } },
{ "type": "Feature", "properties": { "cls": "painted", "highway": "secondary", "name": "West 16th Avenue" }, "geometry": { "type": "LineString", "coordinates": [ [ -123.231244, 49.257462 ], [ -123.230459, 49.257683 ], [ -123.228377, 49.258129 ], [ -123.226974, 49.258315 ], [ -123.225592, 49.258417 ], [ -123.224498, 49.258442 ], [ -123.222003, 49.258405 ], [ -123.221701, 49.258401 ], [ -123.218984, 49.258364 ], [ -123.216566, 49.258331 ] ] } },
{ "type": "Feature", "properties": { "cls": "painted", "highway": "secondary", "name": "West 16th Avenue" }, "geometry": { "type": "LineString", "coordinates": [ [ -123.216566, 49.258331 ], [ -123.215699, 49.258325 ], [ -123.215657, 49.258324 ] ] } },
{ "type": "Feature", "properties": { "cls": "painted", "highway": "secondary", "name": "West 16th Avenue" }, "geometry": { "type": "LineString", "coordinates": [ [ -123.215582, 49.258475 ], [ -123.215651, 49.258477 ], [ -123.216293, 49.258497 ] ] } },
{ "type": "Feature", "properties": { "cls": "shared", "highway": "cycleway", "name": null }, "geometry": { "type": "LineString", "coordinates": [ [ -123.229597, 49.258237 ], [ -123.228792, 49.258416 ], [ -123.22817, 49.258552 ], [ -123.227478, 49.258653 ], [ -123.227155, 49.258677 ], [ -123.226674, 49.258707 ], [ -123.225932, 49.258735 ], [ -123.225058, 49.258758 ], [ -123.224266, 49.258767 ], [ -123.223572, 49.258753 ], [ -123.222116, 49.258754 ], [ -123.222081, 49.258776 ] ] } },
{ "type": "Feature", "properties": { "cls": "painted", "highway": "secondary", "name": "West 16th Avenue" }, "geometry": { "type": "LineString", "coordinates": [ [ -123.216293, 49.258497 ], [ -123.217522, 49.258506 ], [ -123.219, 49.258528 ], [ -123.222001, 49.258577 ], [ -123.222966, 49.258594 ], [ -123.223942, 49.258609 ], [ -123.225181, 49.258594 ], [ -123.226662, 49.258511 ], [ -123.227598, 49.258427 ] ] } },
{ "type": "Feature", "properties": { "cls": "painted", "highway": "secondary_link", "name": null }, "geometry": { "type": "LineString", "coordinates": [ [ -123.215567, 49.258831 ], [ -123.215585, 49.258819 ], [ -123.215649, 49.258756 ], [ -123.215718, 49.2587 ], [ -123.215796, 49.258651 ], [ -123.215878, 49.258614 ], [ -123.21596, 49.25859 ], [ -123.21606, 49.258564 ], [ -123.216159, 49.258537 ], [ -123.216293, 49.258497 ] ] } },
{ "type": "Feature", "properties": { "cls": "shared", "highway": "cycleway", "name": null }, "geometry": { "type": "LineString", "coordinates": [ [ -123.222019, 49.258817 ], [ -123.222004, 49.258817 ], [ -123.22199, 49.258814 ], [ -123.221856, 49.258761 ], [ -123.221777, 49.258742 ], [ -123.221485, 49.258731 ], [ -123.221081, 49.258732 ], [ -123.220766, 49.25873 ], [ -123.220364, 49.25872 ], [ -123.220204, 49.258708 ], [ -123.219987, 49.258701 ], [ -123.219742, 49.2587 ], [ -123.219508, 49.258702 ], [ -123.219005, 49.25872 ], [ -123.218884, 49.258723 ], [ -123.218584, 49.258728 ], [ -123.218384, 49.25873 ], [ -123.218196, 49.258728 ], [ -123.217987, 49.258721 ], [ -123.217676, 49.258706 ], [ -123.216471, 49.258654 ], [ -123.216245, 49.258666 ], [ -123.216055, 49.2587 ], [ -123.215993, 49.258633 ] ] } },
{ "type": "Feature", "properties": { "cls": "shared", "highway": "cycleway", "name": null }, "geometry": { "type": "LineString", "coordinates": [ [ -123.222081, 49.258776 ], [ -123.222048, 49.258798 ], [ -123.222019, 49.258817 ] ] } },
{ "type": "Feature", "properties": { "cls": "shared", "highway": "cycleway", "name": null }, "geometry": { "type": "LineString", "coordinates": [ [ -123.216055, 49.2587 ], [ -123.21595, 49.258754 ], [ -123.215825, 49.258819 ], [ -123.215683, 49.258996 ] ] } },
{ "type": "Feature", "properties": { "cls": "shared", "highway": "path", "name": "Pioneer Trail" }, "geometry": { "type": "LineString", "coordinates": [ [ -123.2278, 49.267558 ], [ -123.227765, 49.267479 ], [ -123.227722, 49.267415 ], [ -123.22772, 49.26726 ], [ -123.227725, 49.267197 ], [ -123.227704, 49.267151 ], [ -123.227659, 49.2671 ], [ -123.227623, 49.267017 ], [ -123.227558, 49.266966 ], [ -123.227453, 49.266916 ], [ -123.227229, 49.266808 ], [ -123.227071, 49.266776 ], [ -123.227004, 49.26673 ], [ -123.226987, 49.2667 ], [ -123.22697, 49.266633 ], [ -123.226964, 49.266606 ] ] } },
{ "type": "Feature", "properties": { "cls": "shared", "highway": "path", "name": "Spanish Trail" }, "geometry": { "type": "LineString", "coordinates": [ [ -123.233403, 49.26934 ], [ -123.233236, 49.269324 ], [ -123.233045, 49.269291 ], [ -123.23282, 49.269227 ], [ -123.232605, 49.269226 ], [ -123.232438, 49.269211 ], [ -123.232276, 49.269185 ], [ -123.232143, 49.269143 ], [ -123.231991, 49.269084 ], [ -123.231854, 49.269034 ], [ -123.231653, 49.268985 ], [ -123.23134, 49.268758 ], [ -123.231283, 49.268684 ], [ -123.231158, 49.268595 ], [ -123.231021, 49.26853 ], [ -123.230799, 49.268332 ], [ -123.230699, 49.268217 ], [ -123.230599, 49.268121 ], [ -123.230405, 49.267976 ], [ -123.230288, 49.267909 ], [ -123.230179, 49.26787 ], [ -123.230069, 49.26783 ], [ -123.229942, 49.267759 ], [ -123.229866, 49.267713 ], [ -123.229767, 49.267671 ], [ -123.229622, 49.267647 ], [ -123.229543, 49.26764 ], [ -123.229445, 49.267641 ], [ -123.229324, 49.267652 ], [ -123.229258, 49.267647 ], [ -123.229198, 49.267636 ], [ -123.229131, 49.267622 ], [ -123.229094, 49.26762 ], [ -123.229063, 49.267624 ], [ -123.228961, 49.267637 ], [ -123.228899, 49.267638 ], [ -123.228796, 49.267643 ], [ -123.228723, 49.267651 ], [ -123.228454, 49.267648 ], [ -123.228194, 49.267587 ], [ -123.228045, 49.267546 ], [ -123.227969, 49.267537 ], [ -123.227895, 49.267545 ], [ -123.2278, 49.267558 ], [ -123.227568, 49.26765 ], [ -123.227432, 49.267654 ], [ -123.22734, 49.267666 ], [ -123.227262, 49.267688 ], [ -123.227151, 49.267708 ], [ -123.226986, 49.267719 ], [ -123.226861, 49.267754 ], [ -123.226699, 49.267794 ], [ -123.226608, 49.267804 ], [ -123.226277, 49.267808 ], [ -123.226138, 49.267798 ], [ -123.225986, 49.267792 ], [ -123.22581, 49.267816 ], [ -123.225671, 49.267883 ], [ -123.225595, 49.26796 ], [ -123.225458, 49.268057 ], [ -123.225446, 49.268115 ], [ -123.225452, 49.268194 ], [ -123.225488, 49.268301 ], [ -123.225555, 49.268361 ], [ -123.225613, 49.26841 ], [ -123.225652, 49.268479 ], [ -123.225659, 49.268568 ], [ -123.22565, 49.268609 ], [ -123.225619, 49.268655 ], [ -123.225559, 49.26873 ], [ -123.225518, 49.268795 ] ] } },
{ "type": "Feature", "properties": { "cls": "shared", "highway": "path", "name": "Spanish Trail" }, "geometry": { "type": "LineString", "coordinates": [ [ -123.236346, 49.268486 ], [ -123.236281, 49.268494 ], [ -123.236216, 49.268509 ], [ -123.236163, 49.268531 ], [ -123.236094, 49.268579 ], [ -123.236027, 49.268673 ], [ -123.235961, 49.268848 ], [ -123.235831, 49.268951 ], [ -123.235731, 49.269051 ], [ -123.235512, 49.269239 ], [ -123.235351, 49.269331 ] ] } },
{ "type": "Feature", "properties": { "cls": "shared", "highway": "path", "name": "Pioneer Trail" }, "geometry": { "type": "LineString", "coordinates": [ [ -123.228723, 49.267651 ], [ -123.228737, 49.267721 ], [ -123.228723, 49.268029 ], [ -123.228704, 49.26876 ], [ -123.228666, 49.269294 ], [ -123.22866, 49.269911 ], [ -123.228635, 49.27026 ], [ -123.228637, 49.270285 ] ] } },
{ "type": "Feature", "properties": { "cls": "shared", "highway": "path", "name": "Spanish Trail" }, "geometry": { "type": "LineString", "coordinates": [ [ -123.233724, 49.269472 ], [ -123.233697, 49.269465 ], [ -123.233602, 49.269417 ], [ -123.233524, 49.269382 ], [ -123.233446, 49.26935 ], [ -123.233403, 49.26934 ] ] } },
{ "type": "Feature", "properties": { "cls": "shared", "highway": "path", "name": "Spanish Trail" }, "geometry": { "type": "LineString", "coordinates": [ [ -123.235351, 49.269331 ], [ -123.234859, 49.269511 ], [ -123.23468, 49.269579 ], [ -123.234611, 49.269596 ], [ -123.234557, 49.269612 ], [ -123.234502, 49.269633 ], [ -123.234473, 49.269644 ], [ -123.234465, 49.269646 ], [ -123.234455, 49.269648 ], [ -123.234439, 49.269649 ], [ -123.234422, 49.26965 ], [ -123.234403, 49.269649 ], [ -123.234354, 49.269645 ], [ -123.234327, 49.269643 ], [ -123.234285, 49.26964 ], [ -123.234237, 49.269633 ], [ -123.234155, 49.269615 ], [ -123.234117, 49.269598 ], [ -123.23409, 49.269582 ] ] } },
{ "type": "Feature", "properties": { "cls": "shared", "highway": "path", "name": "Spanish Trail" }, "geometry": { "type": "LineString", "coordinates": [ [ -123.23409, 49.269582 ], [ -123.234003, 49.269533 ], [ -123.233724, 49.269472 ] ] } },
{ "type": "Feature", "properties": { "cls": "shared", "highway": "path", "name": "Pioneer Trail" }, "geometry": { "type": "LineString", "coordinates": [ [ -123.228637, 49.270285 ], [ -123.228651, 49.270304 ], [ -123.22866, 49.27034 ] ] } },
{ "type": "Feature", "properties": { "cls": "shared", "highway": "footway", "name": "Pioneer Trail" }, "geometry": { "type": "LineString", "coordinates": [ [ -123.22866, 49.27034 ], [ -123.228657, 49.270386 ], [ -123.228651, 49.270426 ] ] } },
{ "type": "Feature", "properties": { "cls": "sharrow", "highway": "secondary", "name": "Chancellor Boulevard" }, "geometry": { "type": "LineString", "coordinates": [ [ -123.222251, 49.268695 ], [ -123.222452, 49.268711 ], [ -123.222532, 49.268704 ] ] } },
{ "type": "Feature", "properties": { "cls": "sharrow", "highway": "secondary", "name": "West 4th Avenue" }, "geometry": { "type": "LineString", "coordinates": [ [ -123.221663, 49.268755 ], [ -123.222251, 49.268695 ] ] } },
{ "type": "Feature", "properties": { "cls": "sharrow", "highway": "secondary", "name": "Chancellor Boulevard" }, "geometry": { "type": "LineString", "coordinates": [ [ -123.225637, 49.268979 ], [ -123.225363, 49.268874 ], [ -123.225127, 49.268793 ], [ -123.224836, 49.268715 ], [ -123.224572, 49.268662 ], [ -123.224327, 49.26862 ], [ -123.223966, 49.268582 ], [ -123.223635, 49.268566 ], [ -123.223384, 49.268562 ], [ -123.223112, 49.268575 ], [ -123.222811, 49.268596 ], [ -123.2226, 49.268615 ], [ -123.222398, 49.268639 ], [ -123.222251, 49.268695 ] ] } },
{ "type": "Feature", "properties": { "cls": "sharrow", "highway": "secondary", "name": "Chancellor Boulevard" }, "geometry": { "type": "LineString", "coordinates": [ [ -123.222532, 49.268704 ], [ -123.222681, 49.268692 ], [ -123.22315, 49.268655 ], [ -123.223374, 49.268644 ], [ -123.223623, 49.268647 ], [ -123.223805, 49.26866 ], [ -123.224035, 49.268678 ], [ -123.224405, 49.268729 ], [ -123.224737, 49.268799 ], [ -123.225019, 49.268875 ], [ -123.225242, 49.26895 ], [ -123.225506, 49.269053 ], [ -123.225539, 49.269066 ] ] } },
{ "type": "Feature", "properties": { "cls": "sharrow", "highway": "secondary", "name": "West 4th Avenue" }, "geometry": { "type": "LineString", "coordinates": [ [ -123.219685, 49.268966 ], [ -123.220784, 49.268849 ], [ -123.221426, 49.268781 ], [ -123.221663, 49.268755 ] ] } },
{ "type": "Feature", "properties": { "cls": "separated", "highway": "cycleway", "name": "Spanish Trail" }, "geometry": { "type": "LineString", "coordinates": [ [ -123.225718, 49.268892 ], [ -123.225637, 49.268979 ], [ -123.225539, 49.269066 ], [ -123.225493, 49.26911 ] ] } },
{ "type": "Feature", "properties": { "cls": "painted", "highway": "secondary", "name": "West 16th Avenue" }, "geometry": { "type": "LineString", "coordinates": [ [ -123.227598, 49.258427 ], [ -123.228439, 49.258283 ], [ -123.229232, 49.258127 ], [ -123.229666, 49.258042 ], [ -123.230652, 49.257824 ], [ -123.230971, 49.257724 ], [ -123.231365, 49.257603 ] ] } },
{ "type": "Feature", "properties": { "cls": "shared", "highway": "cycleway", "name": null }, "geometry": { "type": "LineString", "coordinates": [ [ -123.229767, 49.258166 ], [ -123.230516, 49.25799 ] ] } },
{ "type": "Feature", "properties": { "cls": "shared", "highway": "cycleway", "name": null }, "geometry": { "type": "LineString", "coordinates": [ [ -123.229767, 49.258166 ], [ -123.229597, 49.258237 ] ] } },
{ "type": "Feature", "properties": { "cls": "shared", "highway": "path", "name": "Salish Trail" }, "geometry": { "type": "LineString", "coordinates": [ [ -123.242744, 49.279223 ], [ -123.242819, 49.279213 ], [ -123.243047, 49.2792 ], [ -123.243296, 49.279172 ], [ -123.243468, 49.279146 ], [ -123.243536, 49.279131 ], [ -123.243631, 49.279133 ], [ -123.243721, 49.279129 ], [ -123.243782, 49.279116 ], [ -123.243906, 49.279078 ], [ -123.244034, 49.279028 ], [ -123.244247, 49.278931 ], [ -123.244577, 49.278784 ], [ -123.244609, 49.278767 ] ] } },
{ "type": "Feature", "properties": { "cls": "shared", "highway": "path", "name": "Salish Trail" }, "geometry": { "type": "LineString", "coordinates": [ [ -123.238543, 49.274594 ], [ -123.238828, 49.274871 ], [ -123.239319, 49.275262 ], [ -123.239748, 49.275492 ], [ -123.240257, 49.275715 ], [ -123.240639, 49.275841 ], [ -123.241044, 49.276026 ], [ -123.241334, 49.276153 ], [ -123.24161, 49.276317 ], [ -123.24195, 49.276601 ], [ -123.242523, 49.276895 ], [ -123.242871, 49.277068 ], [ -123.243079, 49.277187 ], [ -123.243201, 49.277291 ], [ -123.2433, 49.277417 ], [ -123.243353, 49.277552 ], [ -123.243373, 49.277696 ], [ -123.243372, 49.278348 ], [ -123.243399, 49.278411 ], [ -123.24345, 49.278471 ], [ -123.243648, 49.278655 ], [ -123.243716, 49.278756 ], [ -123.243729, 49.278795 ], [ -123.243727, 49.278857 ], [ -123.24367, 49.278984 ], [ -123.243613, 49.279073 ], [ -123.243536, 49.279131 ] ] } },
{ "type": "Feature", "properties": { "cls": "sharrow", "highway": "tertiary", "name": "Northwest Marine Drive" }, "geometry": { "type": "LineString", "coordinates": [ [ -123.242475, 49.279262 ], [ -123.241839, 49.279252 ], [ -123.241713, 49.27925 ], [ -123.241293, 49.279242 ], [ -123.240804, 49.279234 ], [ -123.240291, 49.279225 ] ] } },
{ "type": "Feature", "properties": { "cls": "shared", "highway": "path", "name": "Pioneer Trail" }, "geometry": { "type": "LineString", "coordinates": [ [ -123.228651, 49.270426 ], [ -123.22864, 49.270485 ] ] } },
{ "type": "Feature", "properties": { "cls": "shared", "highway": "footway", "name": "Pioneer Trail" }, "geometry": { "type": "LineString", "coordinates": [ [ -123.22864, 49.270485 ], [ -123.228636, 49.270532 ], [ -123.228632, 49.270579 ] ] } },
{ "type": "Feature", "properties": { "cls": "separated", "highway": "cycleway", "name": null }, "geometry": { "type": "LineString", "coordinates": [ [ -123.236954, 49.272779 ], [ -123.236476, 49.272695 ], [ -123.236157, 49.272636 ], [ -123.235678, 49.272541 ], [ -123.23532, 49.272465 ], [ -123.234853, 49.272357 ], [ -123.23434, 49.272234 ], [ -123.233979, 49.272143 ], [ -123.233502, 49.272015 ], [ -123.233164, 49.271921 ], [ -123.232827, 49.271826 ], [ -123.232501, 49.271728 ], [ -123.23199, 49.271563 ], [ -123.231296, 49.271324 ], [ -123.230819, 49.271157 ], [ -123.230176, 49.270929 ], [ -123.229784, 49.270785 ], [ -123.22939, 49.270625 ], [ -123.228978, 49.270447 ], [ -123.228651, 49.270304 ], [ -123.227927, 49.269974 ], [ -123.227036, 49.269541 ], [ -123.226478, 49.269266 ], [ -123.22617, 49.269109 ], [ -123.225973, 49.269016 ], [ -123.225718, 49.268892 ], [ -123.225518, 49.268795 ], [ -123.224927, 49.268514 ], [ -123.224043, 49.268085 ], [ -123.223934, 49.26804 ] ] } },
{ "type": "Feature", "properties": { "cls": "shared", "highway": "path", "name": "Pioneer Trail" }, "geometry": { "type": "LineString", "coordinates": [ [ -123.228632, 49.270579 ], [ -123.228632, 49.270593 ], [ -123.228624, 49.27078 ], [ -123.228619, 49.270901 ] ] } },
{ "type": "Feature", "properties": { "cls": "sharrow", "highway": "tertiary", "name": "Northwest Marine Drive" }, "geometry": { "type": "LineString", "coordinates": [ [ -123.250098, 49.276092 ], [ -123.249983, 49.276255 ], [ -123.249824, 49.276432 ], [ -123.249734, 49.276518 ], [ -123.249637, 49.276598 ], [ -123.249583, 49.27664 ] ] } },
{ "type": "Feature", "properties": { "cls": "sharrow", "highway": "tertiary", "name": "Northwest Marine Drive" }, "geometry": { "type": "LineString", "coordinates": [ [ -123.244743, 49.278756 ], [ -123.244119, 49.27905 ], [ -123.243897, 49.279137 ], [ -123.243723, 49.279187 ], [ -123.243516, 49.279229 ], [ -123.243356, 49.279252 ], [ -123.243201, 49.279267 ], [ -123.243024, 49.279272 ], [ -123.242882, 49.27927 ], [ -123.24268, 49.279266 ], [ -123.242475, 49.279262 ] ] } },
{ "type": "Feature", "properties": { "cls": "shared", "highway": "path", "name": "Chancellor Trail" }, "geometry": { "type": "LineString", "coordinates": [ [ -123.228619, 49.270901 ], [ -123.22843, 49.270845 ], [ -123.228349, 49.270811 ], [ -123.228093, 49.270641 ], [ -123.227831, 49.270595 ], [ -123.227693, 49.270547 ], [ -123.227589, 49.270528 ], [ -123.227511, 49.270538 ], [ -123.227429, 49.270574 ], [ -123.227357, 49.270652 ], [ -123.227292, 49.270702 ], [ -123.227254, 49.270719 ], [ -123.227202, 49.270729 ], [ -123.227132, 49.270721 ], [ -123.226989, 49.270704 ], [ -123.226882, 49.27071 ], [ -123.226771, 49.270728 ], [ -123.226699, 49.270727 ], [ -123.22664, 49.270717 ], [ -123.226511, 49.270671 ], [ -123.226394, 49.270648 ], [ -123.226335, 49.270614 ], [ -123.226274, 49.270603 ], [ -123.226148, 49.270544 ], [ -123.225906, 49.27049 ], [ -123.225677, 49.270435 ], [ -123.225465, 49.270379 ], [ -123.225309, 49.270349 ], [ -123.225241, 49.270292 ], [ -123.225203, 49.270239 ], [ -123.225166, 49.270211 ], [ -123.225113, 49.270193 ], [ -123.225051, 49.27019 ], [ -123.224929, 49.270189 ] ] } },
{ "type": "Feature", "properties": { "cls": "shared", "highway": "path", "name": "Spanish Trail" }, "geometry": { "type": "LineString", "coordinates": [ [ -123.225493, 49.26911 ], [ -123.225328, 49.269044 ], [ -123.225305, 49.269063 ], [ -123.225268, 49.269093 ], [ -123.225097, 49.269253 ], [ -123.225027, 49.269295 ], [ -123.224954, 49.26933 ], [ -123.224689, 49.269403 ], [ -123.224536, 49.269459 ], [ -123.224494, 49.269486 ], [ -123.224468, 49.269517 ], [ -123.224454, 49.26956 ], [ -123.224459, 49.269609 ], [ -123.224478, 49.269685 ], [ -123.224549, 49.269806 ], [ -123.224747, 49.270036 ], [ -123.224929, 49.270189 ], [ -123.224936, 49.27023 ], [ -123.224934, 49.270258 ], [ -123.224929, 49.27027 ], [ -123.224907, 49.270288 ], [ -123.224904, 49.270333 ], [ -123.224926, 49.270415 ], [ -123.224931, 49.270464 ], [ -123.224866, 49.270561 ], [ -123.224876, 49.270636 ], [ -123.225011, 49.270841 ], [ -123.225012, 49.270895 ], [ -123.224993, 49.27097 ], [ -123.225011, 49.271047 ], [ -123.225066, 49.271097 ], [ -123.225156, 49.27117 ], [ -123.225491, 49.27132 ], [ -123.225573, 49.271396 ], [ -123.22564, 49.271512 ], [ -123.225736, 49.27159 ], [ -123.225955, 49.271632 ], [ -123.226134, 49.271684 ], [ -123.226249, 49.27177 ], [ -123.226322, 49.271893 ], [ -123.226428, 49.272256 ], [ -123.226445, 49.272357 ], [ -123.226398, 49.27248 ], [ -123.226358, 49.272545 ], [ -123.226298, 49.2726 ], [ -123.226272, 49.272649 ], [ -123.226252, 49.272715 ], [ -123.226251, 49.272767 ], [ -123.226259, 49.272828 ], [ -123.2263, 49.272902 ], [ -123.226365, 49.272994 ], [ -123.226448, 49.273127 ], [ -123.22651, 49.27327 ], [ -123.22657, 49.273498 ], [ -123.226592, 49.273626 ], [ -123.226582, 49.273722 ], [ -123.226541, 49.273876 ], [ -123.22646, 49.274032 ], [ -123.226484, 49.274154 ], [ -123.226462, 49.274535 ], [ -123.226431, 49.274666 ], [ -123.226383, 49.274833 ], [ -123.226188, 49.275138 ], [ -123.22612, 49.275204 ], [ -123.226097, 49.27526 ], [ -123.226103, 49.275336 ], [ -123.226093, 49.275657 ], [ -123.226084, 49.275728 ], [ -123.22604, 49.275759 ], [ -123.225884, 49.275854 ], [ -123.2257, 49.276001 ], [ -123.22562, 49.276087 ], [ -123.225588, 49.276131 ], [ -123.225571, 49.276163 ], [ -123.225567, 49.276194 ], [ -123.225578, 49.276229 ], [ -123.22563, 49.276266 ], [ -123.22568, 49.276291 ], [ -123.225705, 49.276311 ], [ -123.22571, 49.276332 ], [ -123.225702, 49.276342 ], [ -123.225695, 49.276351 ], [ -123.225677, 49.276361 ], [ -123.225644, 49.276376 ], [ -123.225578, 49.276388 ], [ -123.225454, 49.276398 ], [ -123.225426, 49.276407 ], [ -123.225402, 49.276419 ], [ -123.22538, 49.276436 ], [ -123.225369, 49.276454 ], [ -123.225363, 49.276472 ], [ -123.22536, 49.276499 ], [ -123.225365, 49.276544 ], [ -123.225364, 49.276558 ], [ -123.225363, 49.276567 ], [ -123.225343, 49.276596 ], [ -123.225306, 49.276637 ], [ -123.225246, 49.276695 ], [ -123.225209, 49.276747 ], [ -123.225085, 49.276955 ], [ -123.225022, 49.277054 ], [ -123.224972, 49.27711 ], [ -123.224904, 49.277151 ], [ -123.224643, 49.277301 ], [ -123.224604, 49.277343 ], [ -123.224592, 49.277383 ] ] } },
{ "type": "Feature", "properties": { "cls": "shared", "highway": "path", "name": "Pioneer Trail" }, "geometry": { "type": "LineString", "coordinates": [ [ -123.228619, 49.270901 ], [ -123.228623, 49.271052 ], [ -123.228618, 49.271351 ], [ -123.228614, 49.271502 ], [ -123.228605, 49.271599 ], [ -123.228604, 49.27167 ], [ -123.228642, 49.271888 ], [ -123.22864, 49.271964 ], [ -123.228622, 49.272127 ], [ -123.228598, 49.272184 ], [ -123.228576, 49.272206 ], [ -123.228564, 49.272212 ], [ -123.228551, 49.272215 ], [ -123.228531, 49.272217 ], [ -123.228516, 49.272218 ], [ -123.228487, 49.272215 ], [ -123.228394, 49.272207 ], [ -123.228285, 49.272239 ], [ -123.228235, 49.272314 ], [ -123.22823, 49.272381 ], [ -123.228273, 49.27246 ], [ -123.228386, 49.272611 ], [ -123.228446, 49.272708 ], [ -123.22851, 49.272795 ], [ -123.228549, 49.272884 ], [ -123.228559, 49.273069 ], [ -123.228572, 49.273288 ], [ -123.22856, 49.273342 ], [ -123.22856, 49.2734 ], [ -123.228598, 49.273482 ], [ -123.228672, 49.273559 ], [ -123.228948, 49.273879 ], [ -123.228994, 49.273924 ], [ -123.22905, 49.273962 ], [ -123.229423, 49.27418 ], [ -123.229514, 49.274243 ], [ -123.229635, 49.274388 ], [ -123.229705, 49.274543 ], [ -123.229713, 49.274603 ], [ -123.229706, 49.274733 ], [ -123.229729, 49.274839 ], [ -123.229796, 49.275037 ], [ -123.229794, 49.275235 ], [ -123.22985, 49.275746 ], [ -123.229867, 49.276115 ], [ -123.229809, 49.276203 ], [ -123.22972, 49.27625 ], [ -123.229341, 49.276308 ], [ -123.229128, 49.276304 ], [ -123.228393, 49.276227 ], [ -123.228303, 49.27622 ], [ -123.228231, 49.276224 ], [ -123.227935, 49.27627 ], [ -123.227691, 49.276279 ], [ -123.227558, 49.276278 ], [ -123.227239, 49.276244 ], [ -123.227009, 49.276188 ], [ -123.226978, 49.276123 ], [ -123.226948, 49.27599 ], [ -123.226936, 49.275945 ], [ -123.226856, 49.275875 ], [ -123.226667, 49.275776 ], [ -123.2265, 49.275709 ], [ -123.226413, 49.275677 ], [ -123.226317, 49.275655 ], [ -123.226254, 49.275659 ], [ -123.226142, 49.275697 ], [ -123.226084, 49.275728 ] ] } }
]
}
