{
"type": "FeatureCollection",
"name": "111-birmingham-sandwell-valley-park",
"crs": { "type": "name", "properties": { "name": "urn:ogc:def:crs:OGC:1.3:CRS84" } },
"xy_coordinate_resolution": 1e-06,
"features": [
{ "type": "Feature", "properties": { "cls": "shared", "highway": "cycleway", "name": null }, "geometry": { "type": "LineString", "coordinates": [ [ -1.974656, 52.517562 ], [ -1.974576, 52.517626 ], [ -1.973997, 52.517554 ] ] } },
{ "type": "Feature", "properties": { "cls": "shared", "highway": "cycleway", "name": "Swan Pool MTB Trails (Green)" }, "geometry": { "type": "LineString", "coordinates": [ [ -1.969173, 52.527065 ], [ -1.968842, 52.527474 ], [ -1.968624, 52.527678 ], [ -1.968584, 52.527787 ], [ -1.968453, 52.527988 ], [ -1.96819, 52.528133 ], [ -1.968021, 52.528197 ] ] } },
{ "type": "Feature", "properties": { "cls": "shared", "highway": "cycleway", "name": "Lodge Hill Road" }, "geometry": { "type": "LineString", "coordinates": [ [ -1.958661, 52.519524 ], [ -1.958461, 52.519517 ] ] } },
{ "type": "Feature", "properties": { "cls": "shared", "highway": "cycleway", "name": "River Tame Way" }, "geometry": { "type": "LineString", "coordinates": [ [ -1.950992, 52.529666 ], [ -1.950829, 52.52972 ], [ -1.950214, 52.530018 ], [ -1.949786, 52.530211 ], [ -1.949533, 52.530507 ], [ -1.948908, 52.531225 ], [ -1.948774, 52.531471 ], [ -1.948649, 52.531549 ] ] } },
{ "type": "Feature", "properties": { "cls": "separated", "highway": "cycleway", "name": null }, "geometry": { "type": "LineString", "coordinates": [ [ -1.960122, 52.523849 ], [ -1.960163, 52.523749 ], [ -1.960134, 52.52361 ], [ -1.960115, 52.523439 ], [ -1.96011, 52.52324 ], [ -1.960129, 52.52304 ], [ -1.960196, 52.522871 ] ] } },
{ "type": "Feature", "properties": { "cls": "separated", "highway": "cycleway", "name": "Swan Pool MTB Trails Flow Loop (Green)" }, "geometry": { "type": "LineString", "coordinates": [ [ -1.962299, 52.524982 ], [ -1.961758, 52.525127 ], [ -1.961587, 52.525112 ], [ -1.961392, 52.525001 ], [ -1.961374, 52.52483 ], [ -1.961292, 52.524765 ], [ -1.96121, 52.52464 ], [ -1.961099, 52.524595 ], [ -1.961025, 52.524543 ], [ -1.960622, 52.524505 ], [ -1.960506, 52.524461 ], [ -1.960423, 52.524376 ], [ -1.960409, 52.524286 ], [ -1.960122, 52.524091 ], [ -1.960077, 52.523984 ], [ -1.960122, 52.523849 ], [ -1.960097, 52.523758 ], [ -1.959821, 52.52345 ], [ -1.959934, 52.523071 ], [ -1.959925, 52.522958 ], [ -1.959984, 52.522899 ], [ -1.960196, 52.522871 ], [ -1.96026, 52.522872 ], [ -1.960456, 52.522849 ], [ -1.960671, 52.522772 ], [ -1.960754, 52.522781 ], [ -1.96085, 52.522867 ], [ -1.960911, 52.522878 ], [ -1.961049, 52.522836 ], [ -1.961113, 52.522849 ], [ -1.961183, 52.522943 ], [ -1.961566, 52.523052 ], [ -1.961775, 52.522989 ], [ -1.961991, 52.523075 ], [ -1.962133, 52.523066 ], [ -1.962421, 52.523333 ], [ -1.962558, 52.523342 ], [ -1.962653, 52.523328 ], [ -1.962784, 52.523366 ], [ -1.962903, 52.523321 ], [ -1.962996, 52.523327 ], [ -1.963184, 52.523497 ], [ -1.963314, 52.523535 ], [ -1.963354, 52.523773 ], [ -1.963525, 52.523865 ], [ -1.963692, 52.524096 ], [ -1.963777, 52.524204 ], [ -1.963896, 52.524231 ], [ -1.964078, 52.524201 ], [ -1.964128, 52.524185 ], [ -1.96425, 52.524186 ], [ -1.964428, 52.524115 ], [ -1.964672, 52.524059 ], [ -1.964786, 52.524012 ], [ -1.964928, 52.523993 ], [ -1.965084, 52.523931 ], [ -1.965276, 52.523885 ], [ -1.965533, 52.523792 ], [ -1.965779, 52.523732 ] ] } },
{ "type": "Feature", "properties": { "cls": "separated", "highway": "cycleway", "name": null }, "geometry": { "type": "LineString", "coordinates": [ [ -1.96121, 52.52464 ], [ -1.961161, 52.52453 ], [ -1.961071, 52.524446 ], [ -1.960962, 52.524403 ], [ -1.960848, 52.524377 ], [ -1.960757, 52.524327 ], [ -1.960705, 52.524264 ], [ -1.960633, 52.524206 ], [ -1.960524, 52.524194 ], [ -1.960453, 52.524163 ], [ -1.96041, 52.524105 ], [ -1.960439, 52.524041 ], [ -1.960515, 52.523989 ], [ -1.960543, 52.523928 ], [ -1.9606, 52.523841 ], [ -1.960633, 52.523752 ], [ -1.96071, 52.523697 ], [ -1.960819, 52.523685 ], [ -1.960957, 52.523688 ], [ -1.961076, 52.523731 ], [ -1.961166, 52.523757 ], [ -1.961309, 52.523749 ], [ -1.961459, 52.52377 ], [ -1.96157, 52.523766 ], [ -1.961689, 52.523749 ], [ -1.961832, 52.523769 ], [ -1.96197, 52.523804 ], [ -1.962055, 52.523847 ], [ -1.962079, 52.523891 ], [ -1.962179, 52.523893 ], [ -1.96226, 52.523922 ], [ -1.962279, 52.523963 ], [ -1.962341, 52.523969 ], [ -1.962407, 52.523945 ], [ -1.962498, 52.523928 ], [ -1.962616, 52.523943 ], [ -1.962968, 52.52407 ], [ -1.963011, 52.524113 ], [ -1.963006, 52.524168 ], [ -1.96303, 52.52422 ], [ -1.963121, 52.524223 ], [ -1.963253, 52.524178 ], [ -1.96332, 52.524174 ], [ -1.963377, 52.52416 ], [ -1.963396, 52.524108 ], [ -1.963477, 52.524058 ], [ -1.963582, 52.524064 ], [ -1.963692, 52.524096 ] ] } },
{ "type": "Feature", "properties": { "cls": "separated", "highway": "cycleway", "name": "Swan Pool MTB Trails (Green)" }, "geometry": { "type": "LineString", "coordinates": [ [ -1.962865, 52.525285 ], [ -1.962783, 52.52521 ], [ -1.962299, 52.524982 ], [ -1.962843, 52.524808 ], [ -1.963156, 52.524691 ], [ -1.9634, 52.524595 ], [ -1.963564, 52.524489 ], [ -1.963841, 52.524329 ], [ -1.964001, 52.524286 ], [ -1.964078, 52.524201 ] ] } },
{ "type": "Feature", "properties": { "cls": "shared", "highway": "cycleway", "name": null }, "geometry": { "type": "LineString", "coordinates": [ [ -1.963873, 52.527194 ], [ -1.963619, 52.527491 ], [ -1.963544, 52.527517 ] ] } },
{ "type": "Feature", "properties": { "cls": "separated", "highway": "cycleway", "name": null }, "geometry": { "type": "LineString", "coordinates": [ [ -1.962425, 52.527536 ], [ -1.962258, 52.527495 ], [ -1.962159, 52.527454 ], [ -1.961945, 52.527465 ] ] } },
{ "type": "Feature", "properties": { "cls": "shared", "highway": "cycleway", "name": null }, "geometry": { "type": "LineString", "coordinates": [ [ -1.963544, 52.527517 ], [ -1.963492, 52.527515 ] ] } },
{ "type": "Feature", "properties": { "cls": "shared", "highway": "cycleway", "name": null }, "geometry": { "type": "LineString", "coordinates": [ [ -1.963492, 52.527515 ], [ -1.963361, 52.527522 ], [ -1.96275, 52.527561 ], [ -1.962569, 52.527567 ], [ -1.962425, 52.527536 ] ] } },
{ "type": "Feature", "properties": { "cls": "shared", "highway": "cycleway", "name": "Swan Pool MTB Trails (Green)" }, "geometry": { "type": "LineString", "coordinates": [ [ -1.964346, 52.527754 ], [ -1.964291, 52.527712 ], [ -1.964094, 52.527638 ], [ -1.964021, 52.527621 ] ] } },
{ "type": "Feature", "properties": { "cls": "separated", "highway": "cycleway", "name": "The Miners Trail (Red)" }, "geometry": { "type": "LineString", "coordinates": [ [ -1.964021, 52.527621 ], [ -1.964133, 52.527742 ], [ -1.964203, 52.52785 ], [ -1.96413, 52.527936 ] ] } },
{ "type": "Feature", "properties": { "cls": "separated", "highway": "cycleway", "name": "The Miners Trail (Blue)" }, "geometry": { "type": "LineString", "coordinates": [ [ -1.964021, 52.527621 ], [ -1.963957, 52.527782 ], [ -1.96413, 52.527936 ] ] } },
{ "type": "Feature", "properties": { "cls": "separated", "highway": "cycleway", "name": "The Miners Trail (Black)" }, "geometry": { "type": "LineString", "coordinates": [ [ -1.964203, 52.52785 ], [ -1.964226, 52.527872 ], [ -1.964216, 52.527901 ], [ -1.96413, 52.527936 ] ] } },
{ "type": "Feature", "properties": { "cls": "separated", "highway": "cycleway", "name": "The Miners Trail (Red)" }, "geometry": { "type": "LineString", "coordinates": [ [ -1.964202, 52.528721 ], [ -1.964351, 52.528687 ], [ -1.964505, 52.528652 ], [ -1.964551, 52.528621 ], [ -1.964582, 52.528533 ], [ -1.964552, 52.528417 ], [ -1.964514, 52.528268 ], [ -1.964461, 52.528125 ], [ -1.964411, 52.528112 ], [ -1.964255, 52.528114 ] ] } },
{ "type": "Feature", "properties": { "cls": "separated", "highway": "cycleway", "name": "The Miners Trail (Blue)" }, "geometry": { "type": "LineString", "coordinates": [ [ -1.964202, 52.528721 ], [ -1.964256, 52.528615 ], [ -1.964235, 52.528542 ], [ -1.964229, 52.528519 ], [ -1.964251, 52.528507 ], [ -1.964305, 52.528476 ], [ -1.964306, 52.528347 ], [ -1.964171, 52.528178 ] ] } },
{ "type": "Feature", "properties": { "cls": "separated", "highway": "cycleway", "name": "The Miners Trail (Blue)" }, "geometry": { "type": "LineString", "coordinates": [ [ -1.963719, 52.528915 ], [ -1.963814, 52.528845 ], [ -1.964202, 52.528721 ] ] } },
{ "type": "Feature", "properties": { "cls": "separated", "highway": "cycleway", "name": "The Miners Trail (Black)" }, "geometry": { "type": "LineString", "coordinates": [ [ -1.962857, 52.528845 ], [ -1.962888, 52.528927 ], [ -1.963129, 52.529049 ], [ -1.963309, 52.529063 ] ] } },
{ "type": "Feature", "properties": { "cls": "shared", "highway": "cycleway", "name": null }, "geometry": { "type": "LineString", "coordinates": [ [ -1.959892, 52.530166 ], [ -1.959846, 52.53022 ], [ -1.959614, 52.530422 ], [ -1.959432, 52.530521 ], [ -1.959255, 52.53058 ] ] } },
{ "type": "Feature", "properties": { "cls": "shared", "highway": "cycleway", "name": "Swan Pool MTB Trails (Green)" }, "geometry": { "type": "LineString", "coordinates": [ [ -1.964362, 52.527951 ], [ -1.964525, 52.527945 ], [ -1.964714, 52.527919 ], [ -1.964918, 52.527919 ] ] } },
{ "type": "Feature", "properties": { "cls": "shared", "highway": "cycleway", "name": "Swan Pool MTB Trails (Green)" }, "geometry": { "type": "LineString", "coordinates": [ [ -1.967135, 52.528153 ], [ -1.967034, 52.528149 ], [ -1.966642, 52.528105 ], [ -1.965984, 52.52802 ], [ -1.965462, 52.528068 ], [ -1.965426, 52.52806 ], [ -1.965202, 52.528009 ], [ -1.964918, 52.527919 ] ] } },
{ "type": "Feature", "properties": { "cls": "shared", "highway": "cycleway", "name": "Swan Pool MTB Trails (Green)" }, "geometry": { "type": "LineString", "coordinates": [ [ -1.968021, 52.528197 ], [ -1.967903, 52.528169 ], [ -1.96771, 52.528143 ], [ -1.96755, 52.528162 ], [ -1.967326, 52.528174 ] ] } },
{ "type": "Feature", "properties": { "cls": "separated", "highway": "cycleway", "name": "The Miners Trail (Black)" }, "geometry": { "type": "LineString", "coordinates": [ [ -1.964351, 52.528687 ], [ -1.964514, 52.528691 ], [ -1.964689, 52.528638 ], [ -1.964745, 52.52853 ], [ -1.964708, 52.528446 ], [ -1.964646, 52.528303 ], [ -1.96459, 52.52811 ], [ -1.964472, 52.528084 ], [ -1.96428, 52.528078 ] ] } },
{ "type": "Feature", "properties": { "cls": "separated", "highway": "cycleway", "name": "The Miners Trail (Black)" }, "geometry": { "type": "LineString", "coordinates": [ [ -1.966183, 52.528496 ], [ -1.965892, 52.528462 ], [ -1.965671, 52.528514 ] ] } },
{ "type": "Feature", "properties": { "cls": "separated", "highway": "cycleway", "name": "The Miners Trail (Red)" }, "geometry": { "type": "LineString", "coordinates": [ [ -1.966783, 52.529116 ], [ -1.966926, 52.52915 ], [ -1.967191, 52.52914 ], [ -1.967327, 52.529097 ], [ -1.967398, 52.529013 ] ] } },
{ "type": "Feature", "properties": { "cls": "separated", "highway": "cycleway", "name": "The Miners Trail (Black)" }, "geometry": { "type": "LineString", "coordinates": [ [ -1.966926, 52.52915 ], [ -1.967103, 52.529182 ], [ -1.967191, 52.52914 ] ] } },
{ "type": "Feature", "properties": { "cls": "separated", "highway": "cycleway", "name": "The Miners Trail (Blue)" }, "geometry": { "type": "LineString", "coordinates": [ [ -1.962502, 52.528796 ], [ -1.962793, 52.528837 ], [ -1.962857, 52.528845 ], [ -1.962951, 52.528858 ], [ -1.963309, 52.529063 ], [ -1.963683, 52.529137 ], [ -1.963753, 52.529248 ], [ -1.963832, 52.529525 ], [ -1.963793, 52.529636 ], [ -1.963403, 52.529766 ], [ -1.963361, 52.529926 ], [ -1.963402, 52.530009 ], [ -1.963461, 52.530129 ], [ -1.963734, 52.530193 ], [ -1.964065, 52.530169 ], [ -1.964241, 52.530148 ], [ -1.964478, 52.530121 ], [ -1.964788, 52.530102 ], [ -1.964801, 52.529993 ], [ -1.965167, 52.529783 ], [ -1.965721, 52.529607 ], [ -1.965792, 52.529585 ], [ -1.966077, 52.529494 ], [ -1.966206, 52.529399 ], [ -1.965891, 52.529292 ], [ -1.965832, 52.529186 ], [ -1.966042, 52.529108 ], [ -1.966454, 52.529044 ], [ -1.966659, 52.529059 ], [ -1.966783, 52.529116 ], [ -1.967233, 52.529088 ], [ -1.967398, 52.529013 ], [ -1.967478, 52.528977 ], [ -1.96742, 52.528821 ], [ -1.967347, 52.528761 ], [ -1.967138, 52.528588 ], [ -1.967082, 52.528448 ], [ -1.966992, 52.528363 ], [ -1.966834, 52.528332 ], [ -1.966484, 52.528359 ], [ -1.966319, 52.528399 ], [ -1.966183, 52.528496 ], [ -1.966008, 52.52854 ], [ -1.965671, 52.528514 ], [ -1.965574, 52.528495 ], [ -1.965357, 52.528398 ], [ -1.964991, 52.52828 ], [ -1.964991, 52.528414 ], [ -1.964991, 52.528439 ], [ -1.964991, 52.528555 ], [ -1.965023, 52.528774 ], [ -1.964956, 52.528891 ], [ -1.964697, 52.528931 ], [ -1.964267, 52.528968 ], [ -1.963964, 52.528966 ], [ -1.963719, 52.528915 ] ] } },
{ "type": "Feature", "properties": { "cls": "separated", "highway": "cycleway", "name": "The Miners Trail (Blue)" }, "geometry": { "type": "LineString", "coordinates": [ [ -1.965033, 52.529631 ], [ -1.965199, 52.529554 ], [ -1.965579, 52.52935 ], [ -1.965681, 52.529284 ], [ -1.965832, 52.529186 ] ] } },
{ "type": "Feature", "properties": { "cls": "separated", "highway": "cycleway", "name": "The Miners Trail (Red)" }, "geometry": { "type": "LineString", "coordinates": [ [ -1.965033, 52.529631 ], [ -1.965721, 52.529607 ] ] } },
{ "type": "Feature", "properties": { "cls": "separated", "highway": "cycleway", "name": "The Miners Trail (Blue)" }, "geometry": { "type": "LineString", "coordinates": [ [ -1.964801, 52.529993 ], [ -1.964709, 52.529896 ], [ -1.964698, 52.529805 ], [ -1.964916, 52.529771 ], [ -1.964959, 52.529687 ], [ -1.964798, 52.52966 ], [ -1.964849, 52.529598 ], [ -1.965033, 52.529631 ] ] } },
{ "type": "Feature", "properties": { "cls": "shared", "highway": "footway", "name": null }, "geometry": { "type": "LineString", "coordinates": [ [ -1.956355, 52.533787 ], [ -1.95635, 52.533714 ], [ -1.956424, 52.533279 ], [ -1.956443, 52.53319 ], [ -1.95643, 52.533104 ], [ -1.956379, 52.533031 ], [ -1.956245, 52.532868 ], [ -1.956149, 52.532646 ], [ -1.956091, 52.532472 ], [ -1.956063, 52.532388 ], [ -1.955989, 52.532306 ], [ -1.955705, 52.532085 ], [ -1.955357, 52.531823 ], [ -1.955144, 52.531689 ], [ -1.954939, 52.531625 ], [ -1.954655, 52.531557 ], [ -1.954454, 52.53154 ], [ -1.954218, 52.531547 ], [ -1.953532, 52.531559 ], [ -1.953356, 52.531576 ], [ -1.953216, 52.531623 ], [ -1.953104, 52.531646 ], [ -1.952941, 52.53178 ], [ -1.952808, 52.531798 ] ] } },
{ "type": "Feature", "properties": { "cls": "separated", "highway": "cycleway", "name": "The Miners Trail (Red)" }, "geometry": { "type": "LineString", "coordinates": [ [ -1.963683, 52.529137 ], [ -1.963802, 52.529226 ], [ -1.963818, 52.529333 ], [ -1.963951, 52.529496 ], [ -1.96386, 52.529637 ], [ -1.963649, 52.529762 ], [ -1.963414, 52.529917 ], [ -1.963402, 52.530009 ] ] } },
{ "type": "Feature", "properties": { "cls": "separated", "highway": "cycleway", "name": "The Miners Trail (Red)" }, "geometry": { "type": "LineString", "coordinates": [ [ -1.963461, 52.530129 ], [ -1.963507, 52.530249 ], [ -1.963567, 52.530436 ], [ -1.96381, 52.530423 ], [ -1.963933, 52.530386 ], [ -1.963802, 52.530343 ], [ -1.964241, 52.530148 ] ] } },
{ "type": "Feature", "properties": { "cls": "shared", "highway": "cycleway", "name": null }, "geometry": { "type": "LineString", "coordinates": [ [ -1.960024, 52.541844 ], [ -1.960021, 52.54184 ], [ -1.959975, 52.541772 ], [ -1.959974, 52.541705 ], [ -1.96025, 52.54154 ], [ -1.960604, 52.541314 ] ] } },
{ "type": "Feature", "properties": { "cls": "shared", "highway": "cycleway", "name": null }, "geometry": { "type": "LineString", "coordinates": [ [ -1.957496, 52.540366 ], [ -1.957542, 52.5403 ], [ -1.957442, 52.540113 ], [ -1.957401, 52.539802 ] ] } }
]
}
