{
"type": "FeatureCollection",
"name": "112-kansas-city-swope-park",
"crs": { "type": "name", "properties": { "name": "urn:ogc:def:crs:OGC:1.3:CRS84" } },
"xy_coordinate_resolution": 1e-06,
"features": [
{ "type": "Feature", "properties": { "cls": "shared", "highway": "path", "name": "A2B" }, "geometry": { "type": "LineString", "coordinates": [ [ -94.521679, 38.992629 ], [ -94.521835, 38.992589 ], [ -94.521997, 38.992512 ], [ -94.522056, 38.992457 ], [ -94.522068, 38.992398 ], [ -94.522051, 38.992243 ], [ -94.522088, 38.991941 ], [ -94.522655, 38.99159 ], [ -94.523565, 38.991144 ], [ -94.523781, 38.991124 ], [ -94.523966, 38.991159 ], [ -94.524404, 38.991059 ], [ -94.524542, 38.990991 ], [ -94.524769, 38.990877 ], [ -94.525024, 38.990861 ], [ -94.525125, 38.990838 ], [ -94.525129, 38.990755 ], [ -94.525186, 38.990666 ], [ -94.525357, 38.990627 ], [ -94.525612, 38.990615 ], [ -94.525859, 38.99063 ], [ -94.526086, 38.990687 ], [ -94.526197, 38.99074 ], [ -94.526258, 38.990674 ], [ -94.526214, 38.990573 ], [ -94.526143, 38.990447 ], [ -94.526187, 38.990381 ], [ -94.526257, 38.990289 ], [ -94.52627, 38.990109 ], [ -94.526293, 38.990006 ], [ -94.52636, 38.989994 ], [ -94.526583, 38.990114 ], [ -94.526676, 38.99008 ], [ -94.52676, 38.989998 ], [ -94.526791, 38.989882 ], [ -94.526783, 38.989558 ], [ -94.526804, 38.9895 ], [ -94.526821, 38.989393 ], [ -94.526927, 38.989336 ], [ -94.527106, 38.989196 ], [ -94.52726, 38.989152 ], [ -94.527321, 38.989061 ], [ -94.527303, 38.988959 ], [ -94.527324, 38.988835 ], [ -94.527496, 38.988637 ], [ -94.527809, 38.988393 ], [ -94.527962, 38.988275 ], [ -94.528259, 38.987965 ], [ -94.528458, 38.9878 ], [ -94.528578, 38.987781 ], [ -94.528682, 38.987741 ], [ -94.528756, 38.98763 ] ] } },
{ "type": "Feature", "properties": { "cls": "shared", "highway": "path", "name": "Upper Wudchuck" }, "geometry": { "type": "LineString", "coordinates": [ [ -94.526222, 38.986605 ], [ -94.526411, 38.986497 ], [ -94.526428, 38.986476 ], [ -94.526463, 38.986442 ], [ -94.526555, 38.986238 ], [ -94.52665, 38.986026 ], [ -94.526628, 38.985949 ], [ -94.526597, 38.985898 ], [ -94.526508, 38.985833 ], [ -94.526404, 38.985773 ] ] } },
{ "type": "Feature", "properties": { "cls": "shared", "highway": "path", "name": "Stepup Downhill" }, "geometry": { "type": "LineString", "coordinates": [ [ -94.526555, 38.986238 ], [ -94.52677, 38.986084 ], [ -94.526845, 38.985971 ], [ -94.526764, 38.985815 ], [ -94.526744, 38.985778 ] ] } },
{ "type": "Feature", "properties": { "cls": "shared", "highway": "path", "name": "Wudchuk Run Phase 7" }, "geometry": { "type": "MultiLineString", "coordinates": [ [ [ -94.51482, 38.986617 ], [ -94.514838, 38.986513 ], [ -94.514837, 38.98638 ], [ -94.514859, 38.986351 ], [ -94.514871, 38.986266 ], [ -94.514878, 38.986167 ], [ -94.514985, 38.9861 ], [ -94.515073, 38.98605 ], [ -94.515125, 38.985966 ], [ -94.515134, 38.985855 ], [ -94.515159, 38.9858 ], [ -94.51521, 38.985836 ], [ -94.51524, 38.985893 ], [ -94.51528, 38.985971 ], [ -94.515316, 38.98614 ], [ -94.515376, 38.986283 ], [ -94.515647, 38.986471 ], [ -94.516005, 38.986587 ], [ -94.516195, 38.986689 ], [ -94.516403, 38.986853 ], [ -94.516468, 38.986966 ], [ -94.516567, 38.987005 ], [ -94.516834, 38.987047 ], [ -94.516993, 38.987102 ], [ -94.517671, 38.987155 ], [ -94.517988, 38.987303 ], [ -94.518289, 38.987404 ], [ -94.51858, 38.987447 ], [ -94.518871, 38.987492 ], [ -94.51924, 38.987489 ], [ -94.519439, 38.987484 ], [ -94.519743, 38.987449 ], [ -94.519832, 38.987353 ], [ -94.519816, 38.987197 ], [ -94.519777, 38.987011 ], [ -94.519825, 38.986731 ], [ -94.519847, 38.986522 ], [ -94.519894, 38.986315 ], [ -94.519881, 38.986184 ], [ -94.519923, 38.986073 ], [ -94.519926, 38.985875 ], [ -94.519934, 38.985724 ], [ -94.51996, 38.985699 ] ], [ [ -94.520026, 38.985699 ], [ -94.520037, 38.985736 ], [ -94.52008, 38.985947 ], [ -94.520132, 38.986121 ], [ -94.520159, 38.986172 ], [ -94.520186, 38.986196 ], [ -94.520213, 38.986182 ], [ -94.520214, 38.986165 ], [ -94.520221, 38.986135 ], [ -94.520247, 38.986115 ], [ -94.520286, 38.986085 ], [ -94.520343, 38.986043 ], [ -94.520378, 38.986054 ], [ -94.520394, 38.986077 ], [ -94.520413, 38.986104 ], [ -94.520437, 38.986111 ], [ -94.520472, 38.986103 ], [ -94.520496, 38.9861 ], [ -94.520527, 38.986052 ], [ -94.520538, 38.985983 ], [ -94.520553, 38.985954 ], [ -94.520583, 38.98594 ], [ -94.520629, 38.985914 ], [ -94.520736, 38.985867 ], [ -94.5209, 38.985796 ], [ -94.521079, 38.985768 ], [ -94.521194, 38.985768 ], [ -94.521248, 38.98579 ], [ -94.521316, 38.985854 ], [ -94.521339, 38.985861 ], [ -94.52136, 38.98585 ], [ -94.521379, 38.985839 ], [ -94.521423, 38.985779 ], [ -94.521465, 38.985693 ] ], [ [ -94.521669, 38.985692 ], [ -94.521665, 38.985722 ], [ -94.521665, 38.985771 ], [ -94.521665, 38.985808 ], [ -94.521672, 38.985833 ], [ -94.521672, 38.98593 ], [ -94.521668, 38.985977 ], [ -94.521666, 38.986061 ], [ -94.521657, 38.986163 ], [ -94.521657, 38.986165 ], [ -94.521656, 38.986166 ] ] ] } },
{ "type": "Feature", "properties": { "cls": "shared", "highway": "path", "name": "Wudchuk Phase 7" }, "geometry": { "type": "LineString", "coordinates": [ [ -94.526077, 38.98668 ], [ -94.526222, 38.986605 ] ] } },
{ "type": "Feature", "properties": { "cls": "shared", "highway": "path", "name": "Wudchuk Run Phase 7" }, "geometry": { "type": "LineString", "coordinates": [ [ -94.521657, 38.986163 ], [ -94.521746, 38.98634 ], [ -94.521823, 38.986557 ], [ -94.521834, 38.986705 ], [ -94.521869, 38.98687 ], [ -94.521952, 38.987011 ], [ -94.522001, 38.987145 ], [ -94.522033, 38.987312 ], [ -94.522039, 38.987355 ], [ -94.522047, 38.987405 ], [ -94.522054, 38.987457 ], [ -94.522134, 38.987585 ] ] } },
{ "type": "Feature", "properties": { "cls": "shared", "highway": "path", "name": "Birdbath" }, "geometry": { "type": "LineString", "coordinates": [ [ -94.521656, 38.986166 ], [ -94.521615, 38.986341 ], [ -94.521616, 38.986538 ], [ -94.521662, 38.986856 ], [ -94.521706, 38.986955 ], [ -94.521778, 38.987063 ], [ -94.521794, 38.987132 ], [ -94.52184, 38.987196 ], [ -94.521876, 38.987297 ], [ -94.521995, 38.987466 ], [ -94.522134, 38.987585 ] ] } },
{ "type": "Feature", "properties": { "cls": "shared", "highway": "path", "name": "Connector" }, "geometry": { "type": "LineString", "coordinates": [ [ -94.513909, 38.987082 ], [ -94.513822, 38.987071 ], [ -94.513771, 38.98708 ], [ -94.513686, 38.987157 ], [ -94.513602, 38.987219 ], [ -94.513553, 38.987194 ], [ -94.513661, 38.98713 ], [ -94.513764, 38.987043 ], [ -94.513839, 38.986964 ], [ -94.513869, 38.98687 ], [ -94.513889, 38.986824 ], [ -94.513865, 38.986792 ], [ -94.513833, 38.986792 ], [ -94.513817, 38.986806 ], [ -94.513802, 38.986823 ], [ -94.513801, 38.98687 ], [ -94.513778, 38.986936 ], [ -94.513678, 38.987034 ], [ -94.513629, 38.98706 ], [ -94.513553, 38.987094 ] ] } },
{ "type": "Feature", "properties": { "cls": "shared", "highway": "path", "name": "Wudchuk Run Phase 7" }, "geometry": { "type": "LineString", "coordinates": [ [ -94.522134, 38.987585 ], [ -94.522139, 38.98759 ], [ -94.52235, 38.987733 ], [ -94.522552, 38.987754 ], [ -94.522817, 38.987773 ], [ -94.52288, 38.987777 ], [ -94.522965, 38.987737 ], [ -94.523158, 38.987637 ], [ -94.523302, 38.987566 ], [ -94.523433, 38.987483 ], [ -94.52362, 38.987417 ], [ -94.523724, 38.987353 ], [ -94.523837, 38.987263 ], [ -94.523913, 38.987218 ], [ -94.523977, 38.987173 ], [ -94.524068, 38.987095 ], [ -94.524118, 38.987028 ], [ -94.524171, 38.986965 ], [ -94.52419, 38.986947 ], [ -94.524222, 38.98692 ], [ -94.524254, 38.986914 ], [ -94.524278, 38.986923 ], [ -94.524291, 38.986941 ], [ -94.524366, 38.986989 ], [ -94.524454, 38.987024 ], [ -94.524606, 38.987036 ], [ -94.525019, 38.986966 ], [ -94.525182, 38.986907 ], [ -94.525331, 38.986882 ], [ -94.525438, 38.986849 ], [ -94.52566, 38.98681 ], [ -94.525845, 38.986732 ], [ -94.525988, 38.986706 ], [ -94.526077, 38.98668 ] ] } },
{ "type": "Feature", "properties": { "cls": "shared", "highway": "path", "name": "A2B Connection" }, "geometry": { "type": "LineString", "coordinates": [ [ -94.513909, 38.987082 ], [ -94.513956, 38.987141 ], [ -94.513879, 38.987305 ], [ -94.513751, 38.987445 ], [ -94.513745, 38.987502 ], [ -94.513785, 38.987528 ], [ -94.513901, 38.987517 ], [ -94.514065, 38.987558 ], [ -94.514122, 38.987597 ], [ -94.514145, 38.987613 ], [ -94.514272, 38.987651 ], [ -94.514365, 38.987697 ] ] } },
{ "type": "Feature", "properties": { "cls": "shared", "highway": "path", "name": "Wudchuk Run" }, "geometry": { "type": "LineString", "coordinates": [ [ -94.511662, 38.9854 ], [ -94.511561, 38.98546 ], [ -94.511454, 38.985517 ], [ -94.511414, 38.985559 ], [ -94.511376, 38.985558 ], [ -94.511361, 38.985538 ], [ -94.511358, 38.985351 ], [ -94.511319, 38.985283 ], [ -94.511341, 38.985181 ], [ -94.511302, 38.98506 ], [ -94.511223, 38.984976 ], [ -94.511093, 38.984857 ], [ -94.510941, 38.984799 ], [ -94.510855, 38.984786 ], [ -94.510777, 38.984754 ], [ -94.510551, 38.984708 ], [ -94.510414, 38.984683 ], [ -94.510334, 38.984703 ], [ -94.510259, 38.984728 ], [ -94.510124, 38.98477 ], [ -94.510009, 38.98469 ], [ -94.509952, 38.984642 ], [ -94.509879, 38.984611 ], [ -94.509446, 38.984565 ], [ -94.50924, 38.984564 ], [ -94.509016, 38.984538 ], [ -94.508819, 38.984537 ], [ -94.508646, 38.984511 ], [ -94.508567, 38.984485 ], [ -94.508345, 38.984409 ], [ -94.508252, 38.984405 ], [ -94.507861, 38.984498 ], [ -94.507792, 38.984559 ], [ -94.50775, 38.984588 ], [ -94.507728, 38.984627 ], [ -94.507531, 38.984764 ], [ -94.507474, 38.984921 ], [ -94.507465, 38.98521 ], [ -94.507444, 38.985328 ], [ -94.507413, 38.985432 ], [ -94.507385, 38.985448 ], [ -94.507357, 38.985433 ], [ -94.507328, 38.985307 ], [ -94.507272, 38.985161 ], [ -94.507195, 38.984962 ], [ -94.507121, 38.984868 ], [ -94.507019, 38.984802 ], [ -94.50677, 38.984734 ], [ -94.506609, 38.984694 ], [ -94.506467, 38.984637 ], [ -94.506429, 38.984563 ], [ -94.506452, 38.984491 ], [ -94.506505, 38.984435 ], [ -94.506494, 38.984367 ], [ -94.506422, 38.984297 ], [ -94.506371, 38.984265 ], [ -94.506347, 38.984199 ], [ -94.50639, 38.984135 ], [ -94.506454, 38.984091 ], [ -94.506576, 38.984073 ], [ -94.506804, 38.984013 ], [ -94.506982, 38.983894 ], [ -94.507047, 38.983738 ], [ -94.507046, 38.983565 ], [ -94.506951, 38.98331 ], [ -94.506887, 38.983216 ], [ -94.506825, 38.983167 ], [ -94.506756, 38.983141 ], [ -94.506682, 38.983123 ], [ -94.506647, 38.983127 ], [ -94.506623, 38.983146 ], [ -94.50662, 38.983193 ], [ -94.506655, 38.983241 ], [ -94.506658, 38.983263 ], [ -94.506612, 38.983269 ], [ -94.506451, 38.983189 ], [ -94.50627, 38.983176 ], [ -94.506146, 38.983181 ], [ -94.50606, 38.98321 ], [ -94.505882, 38.983285 ], [ -94.505692, 38.983298 ], [ -94.505587, 38.983294 ], [ -94.505539, 38.983314 ], [ -94.505543, 38.983358 ], [ -94.505719, 38.983467 ], [ -94.505791, 38.983605 ], [ -94.505919, 38.98366 ], [ -94.506115, 38.983724 ], [ -94.506209, 38.983714 ], [ -94.506272, 38.983675 ], [ -94.506447, 38.983599 ], [ -94.506508, 38.98354 ], [ -94.506552, 38.983487 ], [ -94.506606, 38.983476 ], [ -94.506692, 38.983513 ], [ -94.506762, 38.983611 ], [ -94.506767, 38.983698 ], [ -94.506752, 38.983807 ], [ -94.506674, 38.983862 ], [ -94.506584, 38.983932 ], [ -94.50642, 38.983946 ], [ -94.506243, 38.984014 ], [ -94.506055, 38.984034 ], [ -94.505858, 38.983973 ], [ -94.505585, 38.983933 ], [ -94.50545, 38.983933 ], [ -94.50537, 38.983935 ], [ -94.505274, 38.98395 ], [ -94.505235, 38.983991 ], [ -94.505243, 38.984044 ], [ -94.505295, 38.984084 ], [ -94.505435, 38.984079 ], [ -94.505488, 38.98411 ], [ -94.505581, 38.98421 ], [ -94.505585, 38.984307 ], [ -94.505507, 38.984369 ], [ -94.505416, 38.984392 ], [ -94.505391, 38.98439 ], [ -94.505294, 38.984386 ], [ -94.505229, 38.984434 ], [ -94.505178, 38.984462 ], [ -94.505103, 38.984446 ], [ -94.505028, 38.98442 ], [ -94.504916, 38.984382 ], [ -94.50476, 38.984349 ], [ -94.504595, 38.984404 ], [ -94.504537, 38.984449 ], [ -94.504527, 38.984497 ], [ -94.50458, 38.984517 ], [ -94.504644, 38.984504 ], [ -94.504742, 38.984508 ], [ -94.504858, 38.984529 ], [ -94.504993, 38.984579 ], [ -94.505161, 38.984684 ], [ -94.505356, 38.984786 ], [ -94.505387, 38.984823 ], [ -94.505367, 38.984909 ], [ -94.505279, 38.984955 ], [ -94.505144, 38.984966 ], [ -94.504845, 38.984875 ], [ -94.504631, 38.984898 ], [ -94.504471, 38.984879 ], [ -94.504385, 38.984891 ], [ -94.504233, 38.984967 ], [ -94.504073, 38.985033 ], [ -94.504032, 38.985091 ] ] } },
{ "type": "Feature", "properties": { "cls": "shared", "highway": "path", "name": "Connector" }, "geometry": { "type": "LineString", "coordinates": [ [ -94.508646, 38.984511 ], [ -94.508306, 38.984489 ], [ -94.508109, 38.984529 ], [ -94.50794, 38.984669 ] ] } },
{ "type": "Feature", "properties": { "cls": "shared", "highway": "path", "name": "Sweet Luv" }, "geometry": { "type": "LineString", "coordinates": [ [ -94.505843, 38.985171 ], [ -94.505835, 38.985069 ], [ -94.505757, 38.984907 ], [ -94.505704, 38.98487 ], [ -94.505501, 38.984734 ], [ -94.50545, 38.98469 ], [ -94.505385, 38.984624 ], [ -94.505364, 38.984554 ], [ -94.50536, 38.984483 ], [ -94.505391, 38.98439 ] ] } },
{ "type": "Feature", "properties": { "cls": "shared", "highway": "path", "name": "Sweet Luv" }, "geometry": { "type": "LineString", "coordinates": [ [ -94.505279, 38.984955 ], [ -94.505294, 38.984992 ], [ -94.505318, 38.985083 ], [ -94.505362, 38.985089 ], [ -94.505555, 38.98506 ], [ -94.505646, 38.985073 ], [ -94.505843, 38.985171 ] ] } },
{ "type": "Feature", "properties": { "cls": "shared", "highway": "path", "name": "Connector" }, "geometry": { "type": "LineString", "coordinates": [ [ -94.511563, 38.986089 ], [ -94.51156, 38.985931 ], [ -94.511597, 38.985812 ], [ -94.511651, 38.985729 ], [ -94.51171, 38.98563 ], [ -94.511851, 38.985522 ], [ -94.511854, 38.98546 ], [ -94.511795, 38.98545 ], [ -94.511715, 38.985476 ], [ -94.511616, 38.985533 ], [ -94.51152, 38.985585 ], [ -94.511418, 38.985605 ], [ -94.511305, 38.985595 ], [ -94.511216, 38.985539 ], [ -94.511147, 38.985416 ], [ -94.51112, 38.985301 ], [ -94.511088, 38.985163 ], [ -94.511039, 38.98502 ], [ -94.51094, 38.984922 ], [ -94.510855, 38.984786 ] ] } },
{ "type": "Feature", "properties": { "cls": "shared", "highway": "path", "name": "Misty Valley Offshoot Loop" }, "geometry": { "type": "MultiLineString", "coordinates": [ [ [ -94.507413, 38.985432 ], [ -94.507468, 38.985568 ], [ -94.507438, 38.985766 ] ], [ [ -94.507438, 38.985766 ], [ -94.507429, 38.985826 ], [ -94.507316, 38.986125 ], [ -94.507254, 38.986274 ], [ -94.507195, 38.98636 ], [ -94.507101, 38.986486 ], [ -94.507088, 38.986585 ], [ -94.507124, 38.98665 ], [ -94.507205, 38.98659 ], [ -94.507286, 38.986509 ], [ -94.507407, 38.986463 ], [ -94.507485, 38.986418 ], [ -94.507556, 38.986344 ], [ -94.507618, 38.986223 ], [ -94.507738, 38.986114 ], [ -94.507846, 38.986049 ], [ -94.507943, 38.986097 ], [ -94.507917, 38.986236 ], [ -94.507891, 38.986405 ], [ -94.507898, 38.98658 ], [ -94.507826, 38.986693 ], [ -94.507729, 38.986868 ], [ -94.507693, 38.987017 ], [ -94.507628, 38.987161 ], [ -94.507449, 38.987237 ], [ -94.507192, 38.987323 ], [ -94.507052, 38.987447 ], [ -94.506828, 38.987563 ], [ -94.506701, 38.987631 ], [ -94.50658, 38.987616 ], [ -94.50647, 38.987563 ], [ -94.506379, 38.987487 ], [ -94.506271, 38.987459 ], [ -94.506154, 38.987371 ], [ -94.506057, 38.987194 ], [ -94.505949, 38.98706 ], [ -94.505927, 38.986951 ], [ -94.505923, 38.986807 ], [ -94.505836, 38.986698 ], [ -94.505754, 38.986618 ], [ -94.505741, 38.986531 ], [ -94.505644, 38.986484 ], [ -94.505527, 38.986486 ], [ -94.505449, 38.986415 ], [ -94.505439, 38.986317 ], [ -94.505543, 38.986264 ], [ -94.505702, 38.986271 ], [ -94.505797, 38.986296 ], [ -94.505891, 38.986243 ], [ -94.505826, 38.986162 ], [ -94.505826, 38.986056 ], [ -94.505976, 38.986033 ], [ -94.506076, 38.986011 ], [ -94.506128, 38.98593 ], [ -94.506223, 38.985872 ], [ -94.506327, 38.985882 ], [ -94.506372, 38.985801 ], [ -94.506447, 38.985717 ], [ -94.506587, 38.985637 ], [ -94.506655, 38.985508 ], [ -94.506668, 38.985424 ], [ -94.506711, 38.985341 ], [ -94.506688, 38.985247 ], [ -94.5066, 38.985214 ], [ -94.506493, 38.985209 ], [ -94.506379, 38.985212 ], [ -94.506343, 38.985161 ], [ -94.506431, 38.985111 ], [ -94.506593, 38.985091 ], [ -94.50675, 38.985025 ], [ -94.506922, 38.984999 ], [ -94.506997, 38.98504 ], [ -94.507072, 38.985141 ], [ -94.507111, 38.98529 ], [ -94.507133, 38.985402 ], [ -94.50712, 38.985546 ], [ -94.507111, 38.985702 ], [ -94.507114, 38.985829 ], [ -94.507114, 38.985925 ], [ -94.507159, 38.985935 ], [ -94.507208, 38.985877 ], [ -94.507215, 38.985791 ], [ -94.507299, 38.985755 ], [ -94.507438, 38.985766 ] ] ] } },
{ "type": "Feature", "properties": { "cls": "shared", "highway": "path", "name": "Wudchuk Run" }, "geometry": { "type": "LineString", "coordinates": [ [ -94.513553, 38.987094 ], [ -94.513661, 38.986932 ], [ -94.51367, 38.986883 ], [ -94.51367, 38.986826 ], [ -94.513671, 38.986756 ], [ -94.513668, 38.986649 ], [ -94.513654, 38.986554 ], [ -94.513668, 38.986455 ], [ -94.513666, 38.986355 ], [ -94.513617, 38.986239 ], [ -94.51358, 38.986201 ], [ -94.513568, 38.986184 ], [ -94.513547, 38.986122 ], [ -94.513498, 38.986031 ], [ -94.513433, 38.98596 ], [ -94.513364, 38.985962 ], [ -94.513344, 38.985992 ], [ -94.51335, 38.986024 ], [ -94.513404, 38.986108 ], [ -94.513431, 38.986203 ], [ -94.513438, 38.986302 ], [ -94.513467, 38.986417 ], [ -94.513517, 38.986511 ], [ -94.513564, 38.98663 ], [ -94.513575, 38.986708 ], [ -94.513554, 38.986782 ], [ -94.513485, 38.986901 ], [ -94.513344, 38.986984 ], [ -94.51325, 38.987014 ], [ -94.513194, 38.987026 ], [ -94.513153, 38.987065 ], [ -94.513055, 38.987119 ], [ -94.512952, 38.987172 ], [ -94.512901, 38.987188 ], [ -94.512826, 38.987193 ], [ -94.512724, 38.987198 ], [ -94.512654, 38.987198 ], [ -94.512639, 38.987169 ], [ -94.512793, 38.987145 ], [ -94.512911, 38.987084 ], [ -94.512995, 38.987009 ], [ -94.513055, 38.986921 ], [ -94.513127, 38.986857 ], [ -94.513128, 38.98679 ], [ -94.513072, 38.986782 ], [ -94.513055, 38.986797 ], [ -94.513032, 38.986811 ], [ -94.512988, 38.986889 ], [ -94.512855, 38.986931 ], [ -94.512788, 38.986946 ], [ -94.512719, 38.986966 ], [ -94.512663, 38.98696 ], [ -94.51262, 38.986954 ], [ -94.512601, 38.986934 ], [ -94.512651, 38.986907 ], [ -94.512694, 38.986879 ], [ -94.512751, 38.986836 ], [ -94.512816, 38.986787 ], [ -94.51291, 38.986691 ], [ -94.512935, 38.986614 ], [ -94.512917, 38.986497 ], [ -94.512906, 38.986423 ], [ -94.512838, 38.986323 ], [ -94.512784, 38.986274 ], [ -94.512735, 38.986187 ], [ -94.512695, 38.986103 ], [ -94.512624, 38.986039 ], [ -94.512529, 38.985959 ], [ -94.512471, 38.98591 ], [ -94.512436, 38.985869 ], [ -94.512405, 38.985817 ], [ -94.512349, 38.985751 ], [ -94.512347, 38.985717 ], [ -94.512366, 38.985678 ], [ -94.512415, 38.985677 ], [ -94.512535, 38.985725 ], [ -94.512648, 38.985802 ], [ -94.512728, 38.98589 ], [ -94.512782, 38.985969 ], [ -94.512787, 38.986016 ], [ -94.512832, 38.986058 ], [ -94.512854, 38.986041 ], [ -94.512856, 38.98603 ], [ -94.512856, 38.985993 ], [ -94.512844, 38.985948 ], [ -94.5128, 38.985878 ], [ -94.512741, 38.985813 ], [ -94.512661, 38.985731 ], [ -94.512587, 38.985655 ], [ -94.512504, 38.98558 ], [ -94.512439, 38.985519 ], [ -94.512359, 38.985506 ], [ -94.512325, 38.985465 ], [ -94.512285, 38.985424 ], [ -94.512245, 38.985402 ], [ -94.512095, 38.985352 ], [ -94.512031, 38.98534 ], [ -94.511927, 38.985352 ], [ -94.51191, 38.985314 ], [ -94.511835, 38.985316 ], [ -94.511763, 38.985323 ], [ -94.511722, 38.985349 ], [ -94.511662, 38.9854 ] ] } },
{ "type": "Feature", "properties": { "cls": "shared", "highway": "path", "name": "Sweet Luv" }, "geometry": { "type": "LineString", "coordinates": [ [ -94.505843, 38.985171 ], [ -94.505842, 38.985207 ], [ -94.50592, 38.9853 ], [ -94.505954, 38.985365 ], [ -94.505965, 38.985436 ], [ -94.505954, 38.985529 ], [ -94.505891, 38.985568 ], [ -94.505777, 38.985583 ], [ -94.505726, 38.985595 ], [ -94.50568, 38.985605 ], [ -94.505433, 38.985611 ], [ -94.505307, 38.985654 ], [ -94.505167, 38.98567 ], [ -94.505065, 38.985713 ], [ -94.50502, 38.985715 ], [ -94.50495, 38.985666 ], [ -94.504871, 38.98551 ], [ -94.504787, 38.985378 ], [ -94.504731, 38.985313 ], [ -94.50462, 38.9853 ], [ -94.504539, 38.98534 ], [ -94.504429, 38.985372 ], [ -94.504398, 38.985425 ], [ -94.504408, 38.985473 ], [ -94.504427, 38.985515 ], [ -94.504425, 38.985563 ], [ -94.504348, 38.985614 ], [ -94.504316, 38.985646 ], [ -94.504329, 38.985698 ], [ -94.504359, 38.985737 ], [ -94.504339, 38.98581 ], [ -94.504308, 38.985868 ], [ -94.50444, 38.986061 ], [ -94.504456, 38.986149 ], [ -94.504505, 38.986211 ], [ -94.504539, 38.986233 ], [ -94.50463, 38.986263 ], [ -94.504748, 38.986338 ], [ -94.504773, 38.986386 ], [ -94.504752, 38.986439 ], [ -94.504754, 38.986485 ], [ -94.504745, 38.986531 ], [ -94.504754, 38.986576 ], [ -94.504853, 38.986647 ], [ -94.504905, 38.986703 ], [ -94.504918, 38.986787 ], [ -94.504996, 38.986934 ], [ -94.505071, 38.987009 ], [ -94.505178, 38.987084 ], [ -94.505178, 38.987161 ], [ -94.505178, 38.98725 ], [ -94.505179, 38.98735 ], [ -94.505157, 38.98743 ], [ -94.505152, 38.987509 ], [ -94.505157, 38.987585 ], [ -94.505169, 38.987691 ], [ -94.505184, 38.98785 ], [ -94.505208, 38.988036 ], [ -94.505248, 38.988142 ], [ -94.505328, 38.988235 ] ] } },
{ "type": "Feature", "properties": { "cls": "shared", "highway": "path", "name": "Wudchuk Run" }, "geometry": { "type": "LineString", "coordinates": [ [ -94.504957, 38.988399 ], [ -94.504977, 38.988342 ], [ -94.504945, 38.98827 ], [ -94.50488, 38.988271 ], [ -94.504815, 38.988229 ], [ -94.504788, 38.988165 ], [ -94.504733, 38.988156 ], [ -94.504665, 38.98826 ], [ -94.504585, 38.988274 ], [ -94.504363, 38.98818 ], [ -94.504239, 38.988098 ], [ -94.503874, 38.9879 ], [ -94.503702, 38.987863 ], [ -94.503521, 38.987856 ], [ -94.50346, 38.987813 ], [ -94.503454, 38.987698 ], [ -94.503535, 38.987521 ], [ -94.50354, 38.987433 ], [ -94.503593, 38.987311 ], [ -94.503591, 38.987178 ], [ -94.50325, 38.986943 ], [ -94.503158, 38.986826 ], [ -94.503108, 38.986679 ], [ -94.503102, 38.986613 ], [ -94.503126, 38.986583 ], [ -94.503186, 38.986593 ], [ -94.503248, 38.986641 ], [ -94.503317, 38.986686 ], [ -94.503373, 38.986672 ], [ -94.503405, 38.986641 ], [ -94.503409, 38.986596 ], [ -94.503324, 38.98652 ], [ -94.503365, 38.986463 ], [ -94.50344, 38.986424 ], [ -94.503451, 38.986301 ], [ -94.503513, 38.98618 ], [ -94.50349, 38.986061 ], [ -94.503558, 38.98584 ], [ -94.503687, 38.985604 ], [ -94.503779, 38.985452 ], [ -94.50384, 38.985362 ], [ -94.503912, 38.985295 ], [ -94.504011, 38.985255 ], [ -94.504091, 38.985259 ], [ -94.504175, 38.985272 ], [ -94.504221, 38.985232 ], [ -94.504198, 38.985166 ], [ -94.50405, 38.985128 ], [ -94.504032, 38.985091 ] ] } },
{ "type": "Feature", "properties": { "cls": "shared", "highway": "path", "name": "Rancho D-Lux" }, "geometry": { "type": "LineString", "coordinates": [ [ -94.512195, 38.987708 ], [ -94.512182, 38.987635 ], [ -94.512255, 38.987543 ], [ -94.512215, 38.987434 ], [ -94.512125, 38.987372 ], [ -94.512077, 38.987342 ], [ -94.511985, 38.987334 ], [ -94.511817, 38.987355 ], [ -94.511679, 38.987354 ], [ -94.511674, 38.987313 ], [ -94.511785, 38.987282 ], [ -94.511898, 38.987217 ], [ -94.511995, 38.987164 ], [ -94.512004, 38.987087 ], [ -94.512038, 38.986955 ], [ -94.512067, 38.986841 ], [ -94.512107, 38.986731 ], [ -94.512197, 38.986713 ], [ -94.512307, 38.986743 ], [ -94.512422, 38.986744 ], [ -94.512519, 38.986728 ], [ -94.512582, 38.986694 ], [ -94.512578, 38.986648 ], [ -94.512554, 38.986646 ], [ -94.512505, 38.986678 ], [ -94.512402, 38.986665 ], [ -94.512333, 38.986644 ], [ -94.512248, 38.986588 ], [ -94.512187, 38.986543 ], [ -94.512225, 38.986517 ], [ -94.512329, 38.986525 ], [ -94.512427, 38.986527 ], [ -94.512467, 38.986487 ], [ -94.512416, 38.986467 ], [ -94.512344, 38.986479 ], [ -94.512275, 38.986453 ], [ -94.512121, 38.98642 ], [ -94.512021, 38.986414 ], [ -94.511865, 38.98642 ], [ -94.51181, 38.986341 ], [ -94.511791, 38.986263 ], [ -94.511787, 38.986158 ], [ -94.51178, 38.986067 ], [ -94.511778, 38.985996 ], [ -94.511874, 38.985874 ], [ -94.511843, 38.98585 ], [ -94.511816, 38.985845 ], [ -94.511724, 38.985897 ], [ -94.511622, 38.985936 ], [ -94.511563, 38.986089 ] ] } },
{ "type": "Feature", "properties": { "cls": "shared", "highway": "path", "name": "Lower Wudchuck" }, "geometry": { "type": "LineString", "coordinates": [ [ -94.526077, 38.98668 ], [ -94.526503, 38.986548 ], [ -94.526509, 38.986546 ], [ -94.526511, 38.986544 ], [ -94.526845, 38.986271 ], [ -94.527134, 38.986102 ], [ -94.527204, 38.986131 ], [ -94.527295, 38.98605 ], [ -94.52729, 38.98584 ], [ -94.527251, 38.985785 ] ] } },
{ "type": "Feature", "properties": { "cls": "shared", "highway": "path", "name": "Jetpack - Downhill Only" }, "geometry": { "type": "LineString", "coordinates": [ [ -94.526509, 38.986546 ], [ -94.526708, 38.986471 ], [ -94.526871, 38.986376 ], [ -94.527014, 38.986311 ], [ -94.527204, 38.98629 ], [ -94.527402, 38.986236 ], [ -94.527488, 38.986134 ], [ -94.527534, 38.985977 ], [ -94.527586, 38.98579 ] ] } },
{ "type": "Feature", "properties": { "cls": "shared", "highway": "cycleway", "name": "Blue River Trail" }, "geometry": { "type": "LineString", "coordinates": [ [ -94.528763, 38.987257 ], [ -94.528422, 38.987625 ] ] } },
{ "type": "Feature", "properties": { "cls": "shared", "highway": "path", "name": null }, "geometry": { "type": "LineString", "coordinates": [ [ -94.528458, 38.9878 ], [ -94.528405, 38.987738 ] ] } },
{ "type": "Feature", "properties": { "cls": "shared", "highway": "path", "name": null }, "geometry": { "type": "LineString", "coordinates": [ [ -94.527324, 38.988835 ], [ -94.52736, 38.988663 ] ] } },
{ "type": "Feature", "properties": { "cls": "shared", "highway": "path", "name": "Wudchuk Run" }, "geometry": { "type": "LineString", "coordinates": [ [ -94.504957, 38.988399 ], [ -94.504993, 38.988444 ], [ -94.505094, 38.988357 ], [ -94.505242, 38.988298 ], [ -94.505328, 38.988235 ], [ -94.505431, 38.9882 ], [ -94.505503, 38.988061 ], [ -94.505416, 38.987936 ], [ -94.505456, 38.987805 ], [ -94.505449, 38.987714 ], [ -94.505498, 38.987563 ], [ -94.505477, 38.987453 ], [ -94.505522, 38.987415 ], [ -94.505593, 38.987412 ], [ -94.505738, 38.987463 ], [ -94.505894, 38.987492 ], [ -94.505983, 38.987548 ], [ -94.505982, 38.987599 ], [ -94.505999, 38.987639 ], [ -94.506179, 38.98769 ], [ -94.506251, 38.987797 ], [ -94.506423, 38.987834 ], [ -94.506641, 38.987925 ], [ -94.50674, 38.987863 ], [ -94.506981, 38.987852 ], [ -94.507066, 38.987749 ], [ -94.507196, 38.987683 ], [ -94.507277, 38.987609 ], [ -94.507435, 38.987567 ], [ -94.507707, 38.987404 ], [ -94.507857, 38.987308 ], [ -94.50799, 38.987213 ], [ -94.508018, 38.987125 ], [ -94.508244, 38.986954 ], [ -94.508353, 38.986849 ], [ -94.50839, 38.986793 ], [ -94.508386, 38.986723 ], [ -94.508419, 38.986668 ], [ -94.508477, 38.98657 ], [ -94.508487, 38.986548 ], [ -94.508483, 38.986534 ], [ -94.508467, 38.986526 ], [ -94.508436, 38.986549 ], [ -94.508389, 38.98658 ], [ -94.508357, 38.986621 ], [ -94.508332, 38.986634 ], [ -94.508308, 38.986625 ], [ -94.508303, 38.986589 ], [ -94.508323, 38.986564 ], [ -94.508353, 38.986504 ], [ -94.508515, 38.986384 ], [ -94.50863, 38.986263 ], [ -94.508732, 38.986186 ], [ -94.508884, 38.986105 ], [ -94.508897, 38.98607 ], [ -94.508887, 38.986034 ], [ -94.508808, 38.986008 ], [ -94.508783, 38.985965 ], [ -94.50878, 38.985849 ], [ -94.508645, 38.985627 ], [ -94.508499, 38.985512 ], [ -94.508432, 38.985468 ], [ -94.508426, 38.985415 ], [ -94.508386, 38.985311 ], [ -94.508433, 38.985242 ], [ -94.508501, 38.985205 ], [ -94.508609, 38.985198 ], [ -94.508641, 38.985164 ], [ -94.508644, 38.985146 ], [ -94.50861, 38.985069 ], [ -94.508544, 38.985001 ], [ -94.508461, 38.98498 ], [ -94.508374, 38.984968 ], [ -94.508285, 38.984977 ], [ -94.50814, 38.985071 ], [ -94.50804, 38.985199 ], [ -94.508028, 38.985244 ], [ -94.508053, 38.9853 ], [ -94.50803, 38.985378 ], [ -94.507954, 38.985437 ], [ -94.507932, 38.985502 ], [ -94.508051, 38.98564 ], [ -94.508154, 38.985698 ], [ -94.508176, 38.985752 ], [ -94.508138, 38.985785 ], [ -94.507966, 38.985759 ], [ -94.507854, 38.985789 ], [ -94.507799, 38.985796 ], [ -94.507792, 38.985732 ], [ -94.507858, 38.985692 ], [ -94.507864, 38.985653 ], [ -94.507819, 38.985614 ], [ -94.507768, 38.985559 ], [ -94.507771, 38.985452 ], [ -94.507803, 38.98528 ], [ -94.507848, 38.985186 ], [ -94.507854, 38.985099 ], [ -94.50781, 38.985032 ], [ -94.507749, 38.984883 ], [ -94.507814, 38.984748 ], [ -94.50794, 38.984669 ], [ -94.508157, 38.984622 ], [ -94.508279, 38.984634 ], [ -94.508395, 38.984677 ], [ -94.508673, 38.984798 ], [ -94.508813, 38.984865 ], [ -94.508973, 38.984849 ], [ -94.50916, 38.984767 ], [ -94.509334, 38.984676 ], [ -94.509479, 38.98466 ], [ -94.509604, 38.984677 ], [ -94.509697, 38.98469 ], [ -94.509727, 38.984699 ], [ -94.509792, 38.984732 ], [ -94.509771, 38.984762 ], [ -94.509661, 38.984784 ], [ -94.509599, 38.984787 ], [ -94.509556, 38.9848 ], [ -94.509538, 38.984823 ], [ -94.509579, 38.984838 ], [ -94.509606, 38.984857 ], [ -94.509659, 38.984867 ], [ -94.509687, 38.984895 ], [ -94.50971, 38.98494 ], [ -94.509693, 38.985142 ], [ -94.509585, 38.985459 ], [ -94.509563, 38.985534 ], [ -94.509576, 38.985567 ], [ -94.509599, 38.985583 ], [ -94.509637, 38.985579 ], [ -94.509658, 38.98555 ], [ -94.509812, 38.985482 ], [ -94.509891, 38.985431 ], [ -94.50995, 38.985402 ], [ -94.510068, 38.985368 ], [ -94.510141, 38.985256 ], [ -94.510247, 38.985172 ], [ -94.510585, 38.985071 ], [ -94.510646, 38.985085 ], [ -94.510695, 38.985107 ], [ -94.510744, 38.985149 ], [ -94.510781, 38.985208 ], [ -94.510875, 38.985515 ], [ -94.510847, 38.985595 ], [ -94.510784, 38.985654 ], [ -94.510657, 38.985767 ], [ -94.510442, 38.985897 ], [ -94.510223, 38.986049 ], [ -94.509969, 38.98613 ], [ -94.50992, 38.98613 ], [ -94.509831, 38.986117 ], [ -94.509809, 38.986126 ], [ -94.509763, 38.986181 ], [ -94.509756, 38.986249 ], [ -94.509638, 38.986318 ], [ -94.5096, 38.986428 ], [ -94.50949, 38.986572 ], [ -94.509454, 38.98665 ], [ -94.509392, 38.98673 ], [ -94.509351, 38.98687 ], [ -94.509251, 38.98703 ], [ -94.509135, 38.987143 ], [ -94.509113, 38.987301 ], [ -94.508919, 38.987352 ], [ -94.50877, 38.987411 ], [ -94.508627, 38.987505 ], [ -94.508448, 38.987532 ], [ -94.508318, 38.987684 ], [ -94.508084, 38.987732 ], [ -94.507876, 38.98785 ], [ -94.507791, 38.987959 ], [ -94.507642, 38.98798 ], [ -94.507442, 38.988127 ], [ -94.507418, 38.988222 ], [ -94.507341, 38.988302 ], [ -94.50727, 38.988394 ], [ -94.507139, 38.988417 ], [ -94.50682, 38.988684 ], [ -94.506763, 38.988651 ], [ -94.506635, 38.988668 ], [ -94.506327, 38.988744 ], [ -94.506056, 38.988687 ], [ -94.50584, 38.988731 ], [ -94.50571, 38.988841 ], [ -94.505592, 38.988926 ], [ -94.505433, 38.988979 ], [ -94.505372, 38.989027 ], [ -94.505329, 38.989086 ], [ -94.505213, 38.989418 ], [ -94.50505, 38.989529 ] ] } },
{ "type": "Feature", "properties": { "cls": "shared", "highway": "path", "name": "Wudchuk Run" }, "geometry": { "type": "LineString", "coordinates": [ [ -94.513553, 38.987094 ], [ -94.513491, 38.987126 ], [ -94.513483, 38.987129 ], [ -94.513389, 38.987176 ], [ -94.513292, 38.987242 ], [ -94.513139, 38.987291 ], [ -94.512993, 38.987304 ], [ -94.51286, 38.987298 ], [ -94.51281, 38.98734 ], [ -94.512825, 38.987397 ], [ -94.512806, 38.987464 ], [ -94.512748, 38.987596 ], [ -94.512686, 38.987704 ], [ -94.512567, 38.987819 ], [ -94.51245, 38.987907 ], [ -94.512352, 38.987952 ], [ -94.512188, 38.987986 ], [ -94.512109, 38.988004 ], [ -94.512019, 38.987965 ], [ -94.512014, 38.987924 ], [ -94.512067, 38.987884 ], [ -94.512179, 38.987892 ], [ -94.512489, 38.987725 ], [ -94.512517, 38.987653 ], [ -94.512566, 38.987606 ], [ -94.512571, 38.987527 ], [ -94.5125, 38.987454 ], [ -94.512439, 38.987376 ], [ -94.512342, 38.987287 ], [ -94.512267, 38.987264 ], [ -94.512225, 38.987302 ], [ -94.5123, 38.98741 ], [ -94.512333, 38.987456 ], [ -94.512358, 38.987524 ], [ -94.512309, 38.987621 ], [ -94.512227, 38.987694 ], [ -94.512195, 38.987708 ] ] } },
{ "type": "Feature", "properties": { "cls": "shared", "highway": "path", "name": "Rancho D-Lux" }, "geometry": { "type": "LineString", "coordinates": [ [ -94.511404, 38.988785 ], [ -94.511302, 38.988633 ], [ -94.511207, 38.988513 ], [ -94.511126, 38.9885 ], [ -94.511093, 38.988436 ], [ -94.511259, 38.988339 ], [ -94.511335, 38.988269 ], [ -94.511376, 38.988175 ], [ -94.511515, 38.988031 ], [ -94.511651, 38.987934 ], [ -94.511709, 38.987875 ], [ -94.511804, 38.987839 ], [ -94.511869, 38.987791 ], [ -94.511968, 38.987783 ], [ -94.512012, 38.98777 ], [ -94.512108, 38.987757 ], [ -94.512195, 38.987708 ] ] } },
{ "type": "Feature", "properties": { "cls": "shared", "highway": "path", "name": "Connector" }, "geometry": { "type": "LineString", "coordinates": [ [ -94.506899, 38.98878 ], [ -94.506864, 38.988715 ], [ -94.50682, 38.988684 ] ] } },
{ "type": "Feature", "properties": { "cls": "shared", "highway": "path", "name": "Sunrise" }, "geometry": { "type": "LineString", "coordinates": [ [ -94.504363, 38.98818 ], [ -94.504084, 38.988205 ], [ -94.503957, 38.988168 ], [ -94.503793, 38.988159 ], [ -94.503691, 38.988194 ], [ -94.503594, 38.988255 ], [ -94.503602, 38.988309 ], [ -94.503754, 38.988358 ], [ -94.503834, 38.988476 ], [ -94.503911, 38.988511 ], [ -94.504021, 38.988573 ], [ -94.504137, 38.98859 ], [ -94.504199, 38.988666 ], [ -94.504021, 38.988767 ], [ -94.504005, 38.988826 ], [ -94.504041, 38.988882 ], [ -94.504228, 38.988948 ], [ -94.504263, 38.989067 ], [ -94.504203, 38.989164 ], [ -94.504219, 38.989363 ], [ -94.504153, 38.989442 ], [ -94.50416, 38.98949 ], [ -94.504243, 38.989619 ], [ -94.504233, 38.989725 ], [ -94.504357, 38.989792 ], [ -94.504509, 38.989781 ], [ -94.504565, 38.989821 ], [ -94.504565, 38.98987 ], [ -94.504524, 38.989925 ], [ -94.504358, 38.989959 ], [ -94.504338, 38.989995 ], [ -94.50434, 38.990041 ], [ -94.504429, 38.990093 ], [ -94.504533, 38.990113 ], [ -94.504591, 38.990094 ], [ -94.504662, 38.990057 ], [ -94.504722, 38.98999 ], [ -94.504778, 38.989974 ], [ -94.50484, 38.989973 ], [ -94.504876, 38.990017 ], [ -94.504898, 38.99007 ], [ -94.504844, 38.990139 ], [ -94.504754, 38.990195 ], [ -94.504714, 38.990254 ], [ -94.50481, 38.990341 ], [ -94.504931, 38.990395 ], [ -94.505055, 38.990362 ], [ -94.505124, 38.99032 ], [ -94.505234, 38.99034 ], [ -94.505308, 38.990418 ], [ -94.505283, 38.9906 ], [ -94.505319, 38.990649 ] ] } },
{ "type": "Feature", "properties": { "cls": "shared", "highway": "path", "name": "Rancho D-Lux" }, "geometry": { "type": "LineString", "coordinates": [ [ -94.511563, 38.986089 ], [ -94.511503, 38.986194 ], [ -94.511466, 38.986322 ], [ -94.51142, 38.98639 ], [ -94.511253, 38.986461 ], [ -94.511187, 38.986544 ], [ -94.511032, 38.986631 ], [ -94.510982, 38.98675 ], [ -94.510941, 38.986767 ], [ -94.510848, 38.986791 ], [ -94.510772, 38.986899 ], [ -94.510706, 38.986939 ], [ -94.510674, 38.986979 ], [ -94.510619, 38.987097 ], [ -94.510556, 38.987129 ], [ -94.510371, 38.987076 ], [ -94.510191, 38.987087 ], [ -94.510115, 38.987101 ], [ -94.510093, 38.987151 ], [ -94.5101, 38.987189 ], [ -94.510136, 38.987224 ], [ -94.510257, 38.987279 ], [ -94.510243, 38.987388 ], [ -94.51021, 38.987497 ], [ -94.510132, 38.987525 ], [ -94.510095, 38.987412 ], [ -94.510064, 38.987371 ], [ -94.510028, 38.987339 ], [ -94.509934, 38.987338 ], [ -94.509877, 38.987366 ], [ -94.50984, 38.987437 ], [ -94.50992, 38.987541 ], [ -94.509945, 38.987594 ], [ -94.509914, 38.987661 ], [ -94.509719, 38.987895 ], [ -94.509523, 38.988002 ], [ -94.509483, 38.988027 ], [ -94.509441, 38.988156 ], [ -94.509432, 38.98825 ], [ -94.509466, 38.988402 ], [ -94.509495, 38.988509 ], [ -94.509575, 38.988719 ], [ -94.50961, 38.988842 ], [ -94.509581, 38.988874 ], [ -94.509548, 38.988895 ], [ -94.509478, 38.988908 ], [ -94.50941, 38.988896 ], [ -94.50928, 38.988818 ], [ -94.509168, 38.9887 ], [ -94.509167, 38.988552 ], [ -94.509203, 38.988414 ], [ -94.509191, 38.988361 ], [ -94.50917, 38.98833 ], [ -94.509133, 38.988324 ], [ -94.509097, 38.988321 ], [ -94.50906, 38.98835 ], [ -94.509044, 38.988371 ], [ -94.50904, 38.988435 ], [ -94.508984, 38.988483 ], [ -94.508885, 38.988479 ], [ -94.508818, 38.988459 ], [ -94.508776, 38.988416 ], [ -94.508764, 38.988371 ], [ -94.508806, 38.988301 ], [ -94.508802, 38.988258 ], [ -94.508766, 38.988244 ], [ -94.508727, 38.98824 ], [ -94.508694, 38.988251 ], [ -94.508673, 38.988281 ], [ -94.508593, 38.988374 ], [ -94.50851, 38.988463 ], [ -94.50841, 38.988546 ], [ -94.508346, 38.988568 ], [ -94.508236, 38.988573 ], [ -94.508119, 38.988546 ], [ -94.507923, 38.988547 ], [ -94.50778, 38.988577 ], [ -94.507599, 38.988619 ], [ -94.507542, 38.988648 ], [ -94.507523, 38.988702 ], [ -94.507414, 38.98884 ], [ -94.507356, 38.988887 ], [ -94.5072, 38.988969 ], [ -94.507127, 38.988978 ], [ -94.507006, 38.988926 ], [ -94.506949, 38.988865 ], [ -94.506899, 38.98878 ], [ -94.506782, 38.988852 ], [ -94.506696, 38.988869 ], [ -94.506631, 38.988858 ], [ -94.506571, 38.988881 ], [ -94.506566, 38.988953 ], [ -94.506613, 38.989007 ], [ -94.506693, 38.989074 ], [ -94.506778, 38.98919 ], [ -94.506854, 38.989476 ], [ -94.506838, 38.989666 ], [ -94.506876, 38.989943 ], [ -94.506953, 38.990109 ], [ -94.507044, 38.990249 ], [ -94.507146, 38.990338 ], [ -94.507303, 38.990362 ], [ -94.507346, 38.990413 ], [ -94.507284, 38.990565 ], [ -94.507133, 38.990741 ], [ -94.50702, 38.990802 ], [ -94.506996, 38.990882 ], [ -94.50698, 38.990999 ], [ -94.506807, 38.991016 ], [ -94.506646, 38.991081 ], [ -94.506634, 38.991167 ], [ -94.506648, 38.991326 ], [ -94.506761, 38.991506 ], [ -94.506736, 38.991695 ], [ -94.506777, 38.99176 ], [ -94.506842, 38.991797 ], [ -94.506967, 38.991762 ], [ -94.507085, 38.991728 ], [ -94.507188, 38.991719 ], [ -94.507271, 38.991737 ], [ -94.507323, 38.991783 ], [ -94.507426, 38.992136 ], [ -94.507408, 38.992342 ], [ -94.507449, 38.992502 ], [ -94.507552, 38.992611 ], [ -94.507598, 38.992713 ] ] } },
{ "type": "Feature", "properties": { "cls": "shared", "highway": "path", "name": "Connector" }, "geometry": { "type": "LineString", "coordinates": [ [ -94.511878, 38.990061 ], [ -94.511839, 38.989975 ], [ -94.511853, 38.989807 ], [ -94.511842, 38.989694 ], [ -94.511762, 38.989622 ], [ -94.511606, 38.989488 ] ] } },
{ "type": "Feature", "properties": { "cls": "shared", "highway": "path", "name": "Wudchuk Run" }, "geometry": { "type": "LineString", "coordinates": [ [ -94.505319, 38.990649 ], [ -94.505389, 38.990396 ], [ -94.505392, 38.99023 ], [ -94.505483, 38.990105 ], [ -94.505484, 38.990025 ], [ -94.505343, 38.989922 ], [ -94.505353, 38.989873 ], [ -94.505396, 38.989809 ], [ -94.505474, 38.989765 ], [ -94.505512, 38.989726 ], [ -94.505539, 38.989673 ], [ -94.50551, 38.989584 ], [ -94.505443, 38.989582 ], [ -94.505314, 38.989642 ], [ -94.505197, 38.989638 ], [ -94.505108, 38.989598 ], [ -94.50505, 38.989529 ] ] } },
{ "type": "Feature", "properties": { "cls": "shared", "highway": "path", "name": "Rancho D-Lux" }, "geometry": { "type": "LineString", "coordinates": [ [ -94.507598, 38.992713 ], [ -94.507719, 38.992887 ], [ -94.507909, 38.993058 ], [ -94.507989, 38.993132 ], [ -94.508066, 38.993181 ], [ -94.508194, 38.993194 ], [ -94.508297, 38.99312 ], [ -94.508363, 38.993037 ], [ -94.508459, 38.992987 ], [ -94.508676, 38.993053 ], [ -94.508898, 38.993043 ], [ -94.509062, 38.992914 ], [ -94.509196, 38.992695 ], [ -94.509178, 38.992524 ], [ -94.509253, 38.992292 ], [ -94.50929, 38.99209 ], [ -94.509323, 38.991915 ], [ -94.509275, 38.991797 ], [ -94.509226, 38.991759 ], [ -94.509202, 38.99172 ], [ -94.509214, 38.991679 ], [ -94.509276, 38.991683 ], [ -94.509348, 38.991739 ], [ -94.509597, 38.992161 ], [ -94.509651, 38.992352 ], [ -94.50975, 38.992421 ], [ -94.509812, 38.992615 ], [ -94.509949, 38.992891 ], [ -94.510112, 38.993017 ], [ -94.510354, 38.993037 ], [ -94.510485, 38.993038 ], [ -94.510692, 38.992966 ], [ -94.510904, 38.992845 ], [ -94.511197, 38.992722 ], [ -94.511499, 38.992536 ], [ -94.511555, 38.992447 ], [ -94.511562, 38.992074 ], [ -94.511838, 38.991834 ], [ -94.511826, 38.991727 ], [ -94.511824, 38.991273 ], [ -94.511846, 38.991205 ], [ -94.511935, 38.991211 ], [ -94.51199, 38.991286 ], [ -94.512152, 38.991313 ], [ -94.512294, 38.991275 ], [ -94.512417, 38.991186 ], [ -94.512535, 38.991108 ], [ -94.512572, 38.99112 ], [ -94.512598, 38.991157 ], [ -94.512657, 38.991344 ], [ -94.512711, 38.991409 ], [ -94.512728, 38.991499 ], [ -94.512891, 38.991883 ], [ -94.512964, 38.992015 ], [ -94.513079, 38.992154 ], [ -94.513234, 38.992182 ], [ -94.513261, 38.992187 ], [ -94.513346, 38.992178 ], [ -94.513383, 38.992128 ], [ -94.513444, 38.992032 ], [ -94.513503, 38.991842 ], [ -94.513586, 38.991684 ], [ -94.513615, 38.991573 ], [ -94.513698, 38.991494 ], [ -94.51382, 38.991339 ], [ -94.513989, 38.991107 ], [ -94.513925, 38.990956 ], [ -94.513941, 38.990927 ], [ -94.514059, 38.99093 ], [ -94.514154, 38.990952 ], [ -94.51424, 38.990919 ], [ -94.514312, 38.990868 ], [ -94.514387, 38.990823 ], [ -94.514463, 38.990844 ], [ -94.514495, 38.991025 ], [ -94.51448, 38.991378 ], [ -94.514658, 38.991716 ], [ -94.514716, 38.991785 ], [ -94.514802, 38.991821 ], [ -94.514896, 38.991778 ], [ -94.515102, 38.991671 ], [ -94.51524, 38.991562 ], [ -94.515307, 38.991468 ], [ -94.51538, 38.991467 ], [ -94.515414, 38.991512 ], [ -94.515379, 38.991744 ], [ -94.515449, 38.991917 ], [ -94.515476, 38.992092 ], [ -94.51559, 38.99222 ], [ -94.515675, 38.992251 ], [ -94.515778, 38.992238 ], [ -94.516022, 38.992131 ], [ -94.516408, 38.99207 ], [ -94.516695, 38.992045 ], [ -94.516734, 38.992074 ], [ -94.516784, 38.992253 ], [ -94.516795, 38.992495 ], [ -94.516869, 38.992706 ], [ -94.516955, 38.992737 ], [ -94.517034, 38.992816 ], [ -94.517084, 38.992817 ], [ -94.517125, 38.992793 ] ] } },
{ "type": "Feature", "properties": { "cls": "shared", "highway": "path", "name": "Wudchuk Run" }, "geometry": { "type": "LineString", "coordinates": [ [ -94.505319, 38.990649 ], [ -94.505287, 38.990713 ], [ -94.505103, 38.990774 ], [ -94.504931, 38.990771 ], [ -94.504818, 38.99096 ], [ -94.504794, 38.991038 ], [ -94.504942, 38.991137 ], [ -94.505123, 38.991258 ], [ -94.505249, 38.991411 ], [ -94.505286, 38.991476 ], [ -94.505364, 38.991546 ], [ -94.505488, 38.991693 ], [ -94.505561, 38.992019 ], [ -94.505669, 38.99222 ], [ -94.50573, 38.992312 ], [ -94.505749, 38.992449 ], [ -94.505729, 38.992542 ], [ -94.505648, 38.992605 ], [ -94.50559, 38.992648 ], [ -94.505579, 38.99274 ], [ -94.505733, 38.992745 ], [ -94.505867, 38.992828 ], [ -94.505924, 38.992881 ], [ -94.50594, 38.992959 ], [ -94.50593, 38.992994 ], [ -94.505951, 38.993042 ], [ -94.50594, 38.993089 ], [ -94.50595, 38.99313 ], [ -94.505967, 38.993162 ], [ -94.505957, 38.993216 ], [ -94.505882, 38.993296 ], [ -94.505882, 38.993371 ], [ -94.505944, 38.993393 ], [ -94.506031, 38.99338 ], [ -94.506151, 38.993406 ], [ -94.506277, 38.993475 ], [ -94.506421, 38.99354 ], [ -94.506549, 38.993593 ], [ -94.50659, 38.993636 ], [ -94.506676, 38.993644 ], [ -94.50672, 38.993672 ], [ -94.506869, 38.993682 ], [ -94.50698, 38.993741 ], [ -94.507064, 38.99382 ], [ -94.507162, 38.993905 ], [ -94.507198, 38.993952 ], [ -94.507149, 38.994058 ], [ -94.50709, 38.994128 ], [ -94.506916, 38.99412 ], [ -94.506697, 38.994113 ], [ -94.506579, 38.994067 ], [ -94.506494, 38.994076 ], [ -94.50647, 38.994083 ], [ -94.506435, 38.994118 ], [ -94.506425, 38.994159 ], [ -94.506444, 38.994206 ], [ -94.506491, 38.994239 ], [ -94.506585, 38.994255 ], [ -94.506744, 38.994266 ], [ -94.506907, 38.994246 ], [ -94.507131, 38.994249 ], [ -94.507215, 38.994251 ], [ -94.507551, 38.99424 ], [ -94.507703, 38.994194 ], [ -94.507784, 38.994157 ], [ -94.50783, 38.994091 ], [ -94.50785, 38.994021 ], [ -94.507836, 38.993881 ], [ -94.507699, 38.993712 ], [ -94.507623, 38.993679 ], [ -94.507536, 38.993593 ], [ -94.507413, 38.993518 ], [ -94.507376, 38.993522 ], [ -94.507232, 38.993447 ], [ -94.507106, 38.993429 ], [ -94.506913, 38.993362 ], [ -94.506543, 38.993349 ], [ -94.506374, 38.993105 ], [ -94.506228, 38.992835 ], [ -94.506014, 38.992649 ], [ -94.506005, 38.992538 ], [ -94.506036, 38.992452 ], [ -94.506142, 38.99237 ], [ -94.506157, 38.992286 ], [ -94.506077, 38.99222 ], [ -94.505942, 38.992228 ], [ -94.505875, 38.992079 ], [ -94.505869, 38.991813 ], [ -94.505798, 38.991483 ], [ -94.505922, 38.991493 ], [ -94.506013, 38.991573 ], [ -94.506131, 38.991647 ], [ -94.506173, 38.991798 ], [ -94.506253, 38.991901 ], [ -94.506292, 38.992029 ], [ -94.506396, 38.992127 ], [ -94.506473, 38.992374 ], [ -94.506536, 38.992437 ], [ -94.5067, 38.9925 ], [ -94.506742, 38.992565 ], [ -94.506769, 38.992675 ], [ -94.506835, 38.992763 ], [ -94.507045, 38.992873 ], [ -94.507257, 38.992974 ], [ -94.507548, 38.993175 ], [ -94.507707, 38.993339 ], [ -94.507802, 38.993453 ], [ -94.508025, 38.993531 ], [ -94.508322, 38.993604 ], [ -94.508561, 38.993618 ], [ -94.508742, 38.993552 ], [ -94.509375, 38.993285 ], [ -94.509389, 38.993227 ], [ -94.509376, 38.993083 ], [ -94.509465, 38.992913 ], [ -94.509485, 38.992767 ], [ -94.509538, 38.992637 ], [ -94.509555, 38.992559 ], [ -94.509615, 38.992598 ], [ -94.509677, 38.992812 ], [ -94.509782, 38.99295 ], [ -94.509826, 38.993085 ], [ -94.509886, 38.993176 ], [ -94.510025, 38.993229 ], [ -94.510562, 38.993319 ], [ -94.51088, 38.99326 ], [ -94.510964, 38.99326 ], [ -94.511134, 38.993276 ], [ -94.511428, 38.993256 ], [ -94.511792, 38.993134 ], [ -94.511966, 38.993037 ], [ -94.51213, 38.993003 ], [ -94.512175, 38.992916 ], [ -94.512201, 38.992758 ], [ -94.51219, 38.992601 ], [ -94.512212, 38.992333 ], [ -94.512196, 38.992137 ], [ -94.512238, 38.992011 ], [ -94.512287, 38.991904 ], [ -94.512389, 38.991879 ], [ -94.512447, 38.991941 ], [ -94.512479, 38.992081 ], [ -94.512465, 38.992185 ], [ -94.512597, 38.99247 ], [ -94.512805, 38.992577 ], [ -94.513076, 38.992643 ], [ -94.513267, 38.992713 ], [ -94.513369, 38.992721 ], [ -94.513495, 38.992693 ], [ -94.513707, 38.992544 ], [ -94.513799, 38.992481 ], [ -94.513883, 38.99236 ], [ -94.513936, 38.992218 ], [ -94.51411, 38.991976 ], [ -94.514153, 38.991962 ], [ -94.514204, 38.991981 ], [ -94.514304, 38.992169 ], [ -94.514395, 38.992299 ], [ -94.514498, 38.992347 ], [ -94.514604, 38.992345 ], [ -94.514749, 38.992319 ], [ -94.514903, 38.992337 ], [ -94.515034, 38.992286 ], [ -94.515085, 38.992299 ], [ -94.515178, 38.992353 ], [ -94.515591, 38.992495 ], [ -94.51582, 38.992612 ], [ -94.516028, 38.992623 ], [ -94.516173, 38.992601 ], [ -94.516217, 38.992619 ], [ -94.516244, 38.992644 ], [ -94.516257, 38.99283 ], [ -94.516439, 38.993047 ], [ -94.516911, 38.993372 ], [ -94.517074, 38.993451 ], [ -94.517166, 38.993465 ], [ -94.517486, 38.993418 ], [ -94.517569, 38.993414 ], [ -94.517619, 38.993424 ], [ -94.517644, 38.993467 ], [ -94.517647, 38.993525 ], [ -94.517579, 38.99366 ], [ -94.517604, 38.993752 ], [ -94.517688, 38.993855 ], [ -94.517998, 38.993974 ], [ -94.518451, 38.994112 ], [ -94.518727, 38.994154 ], [ -94.518953, 38.994182 ], [ -94.519172, 38.994145 ], [ -94.51924, 38.994115 ], [ -94.519376, 38.994094 ], [ -94.519447, 38.994042 ], [ -94.51944, 38.993959 ], [ -94.519365, 38.993854 ], [ -94.519257, 38.993835 ], [ -94.519163, 38.993788 ], [ -94.519127, 38.993735 ], [ -94.51905, 38.993651 ], [ -94.518986, 38.993563 ], [ -94.518889, 38.993545 ], [ -94.518769, 38.993552 ], [ -94.518598, 38.993597 ], [ -94.518464, 38.993645 ], [ -94.518282, 38.993628 ], [ -94.518181, 38.993575 ], [ -94.518109, 38.993513 ], [ -94.518089, 38.993369 ], [ -94.518124, 38.993218 ], [ -94.518071, 38.993088 ], [ -94.518005, 38.993031 ], [ -94.517894, 38.992944 ], [ -94.517826, 38.992857 ], [ -94.51778, 38.992834 ], [ -94.517639, 38.992846 ], [ -94.517509, 38.992838 ], [ -94.517394, 38.992859 ], [ -94.51732, 38.992822 ], [ -94.517272, 38.99278 ] ] } },
{ "type": "Feature", "properties": { "cls": "shared", "highway": "path", "name": "Connector" }, "geometry": { "type": "LineString", "coordinates": [ [ -94.514253, 38.987876 ], [ -94.514145, 38.987613 ] ] } },
{ "type": "Feature", "properties": { "cls": "shared", "highway": "path", "name": "Wudchuk Run" }, "geometry": { "type": "LineString", "coordinates": [ [ -94.518586, 38.989913 ], [ -94.518363, 38.989859 ], [ -94.518243, 38.989832 ], [ -94.518141, 38.989856 ], [ -94.518043, 38.989892 ], [ -94.517873, 38.989959 ], [ -94.51779, 38.989969 ], [ -94.517716, 38.990007 ], [ -94.517667, 38.99 ], [ -94.517615, 38.989864 ], [ -94.517565, 38.98972 ], [ -94.517544, 38.989641 ], [ -94.517454, 38.989543 ], [ -94.517371, 38.98948 ], [ -94.517267, 38.989416 ], [ -94.517143, 38.989387 ], [ -94.516958, 38.989361 ], [ -94.516835, 38.98931 ], [ -94.516764, 38.989251 ], [ -94.516669, 38.989236 ], [ -94.516595, 38.989248 ], [ -94.516499, 38.989229 ], [ -94.516441, 38.9892 ], [ -94.516382, 38.989181 ], [ -94.516321, 38.989167 ], [ -94.516068, 38.989181 ], [ -94.515908, 38.98921 ], [ -94.515797, 38.989215 ], [ -94.515637, 38.989265 ], [ -94.515547, 38.989303 ], [ -94.515483, 38.989303 ], [ -94.515455, 38.98927 ], [ -94.515446, 38.989171 ], [ -94.515402, 38.98904 ], [ -94.515332, 38.988946 ], [ -94.515236, 38.988867 ], [ -94.515027, 38.988786 ], [ -94.514836, 38.988728 ], [ -94.514718, 38.98864 ], [ -94.514675, 38.988513 ], [ -94.514657, 38.988451 ], [ -94.514568, 38.988381 ], [ -94.514568, 38.988331 ], [ -94.514401, 38.988223 ], [ -94.514349, 38.988132 ], [ -94.514312, 38.988031 ], [ -94.51401, 38.987858 ], [ -94.513813, 38.987799 ], [ -94.513665, 38.987792 ], [ -94.513399, 38.987912 ], [ -94.513164, 38.988065 ], [ -94.512896, 38.98808 ] ] } },
{ "type": "Feature", "properties": { "cls": "shared", "highway": "path", "name": "Wudchuk Alternate" }, "geometry": { "type": "LineString", "coordinates": [ [ -94.518586, 38.989913 ], [ -94.518479, 38.989943 ], [ -94.518329, 38.989927 ], [ -94.518179, 38.989958 ], [ -94.518024, 38.990008 ], [ -94.517843, 38.990091 ], [ -94.517707, 38.990189 ], [ -94.517602, 38.990208 ], [ -94.517547, 38.990173 ], [ -94.517453, 38.989981 ], [ -94.517416, 38.989871 ], [ -94.517384, 38.98975 ], [ -94.517348, 38.989668 ], [ -94.517288, 38.989624 ], [ -94.517222, 38.989575 ], [ -94.517122, 38.989534 ], [ -94.516995, 38.989497 ], [ -94.516874, 38.989456 ], [ -94.516789, 38.989376 ], [ -94.516603, 38.989325 ], [ -94.516481, 38.9893 ], [ -94.516202, 38.989261 ], [ -94.516083, 38.989283 ], [ -94.515999, 38.989301 ], [ -94.515895, 38.989338 ], [ -94.515764, 38.98934 ], [ -94.515575, 38.989399 ], [ -94.515379, 38.989436 ], [ -94.515212, 38.989348 ], [ -94.515105, 38.989269 ], [ -94.51504, 38.98911 ], [ -94.514968, 38.989017 ], [ -94.514823, 38.988935 ], [ -94.514728, 38.988873 ], [ -94.514563, 38.988774 ], [ -94.514485, 38.988651 ], [ -94.514409, 38.988469 ], [ -94.514354, 38.988362 ], [ -94.514231, 38.988235 ], [ -94.514001, 38.988146 ], [ -94.513893, 38.988082 ], [ -94.513725, 38.988016 ], [ -94.513571, 38.987987 ], [ -94.513458, 38.988008 ], [ -94.513375, 38.988082 ], [ -94.513302, 38.988174 ], [ -94.513217, 38.988229 ], [ -94.513154, 38.988261 ], [ -94.512991, 38.988252 ], [ -94.512843, 38.988267 ], [ -94.512748, 38.988328 ], [ -94.512583, 38.988263 ] ] } },
{ "type": "Feature", "properties": { "cls": "shared", "highway": "path", "name": "A2B Connection" }, "geometry": { "type": "LineString", "coordinates": [ [ -94.514365, 38.987697 ], [ -94.514491, 38.987728 ], [ -94.514659, 38.98783 ], [ -94.514945, 38.988041 ], [ -94.515287, 38.988098 ], [ -94.51555, 38.988228 ], [ -94.515681, 38.988359 ], [ -94.515743, 38.988482 ], [ -94.515907, 38.988609 ], [ -94.516014, 38.988718 ], [ -94.516152, 38.98878 ], [ -94.516523, 38.988851 ], [ -94.516795, 38.988802 ], [ -94.517113, 38.988692 ], [ -94.517174, 38.988716 ], [ -94.517169, 38.988757 ], [ -94.51699, 38.988829 ], [ -94.516908, 38.988892 ], [ -94.516971, 38.988966 ], [ -94.517083, 38.989017 ], [ -94.517213, 38.989041 ], [ -94.517408, 38.989043 ], [ -94.51784, 38.98922 ], [ -94.518033, 38.989162 ], [ -94.518287, 38.989133 ], [ -94.518366, 38.989194 ], [ -94.518478, 38.98927 ], [ -94.518444, 38.989343 ], [ -94.518396, 38.989376 ], [ -94.518264, 38.98941 ], [ -94.518249, 38.989467 ], [ -94.518302, 38.989497 ], [ -94.518438, 38.989468 ], [ -94.518564, 38.989493 ], [ -94.518716, 38.989576 ], [ -94.51879, 38.989659 ], [ -94.519161, 38.989806 ], [ -94.519341, 38.989876 ], [ -94.519502, 38.990028 ], [ -94.519642, 38.990074 ], [ -94.519708, 38.990124 ], [ -94.519994, 38.990299 ], [ -94.520091, 38.990341 ], [ -94.520144, 38.990395 ], [ -94.520234, 38.990625 ], [ -94.520351, 38.9908 ], [ -94.520426, 38.991021 ], [ -94.52047, 38.991583 ], [ -94.520546, 38.991763 ], [ -94.520704, 38.992098 ], [ -94.520885, 38.992455 ], [ -94.520998, 38.992891 ], [ -94.521109, 38.993019 ], [ -94.521168, 38.993045 ] ] } },
{ "type": "Feature", "properties": { "cls": "shared", "highway": "path", "name": "Rancho D-Lux" }, "geometry": { "type": "LineString", "coordinates": [ [ -94.517125, 38.992793 ], [ -94.517021, 38.992668 ], [ -94.516979, 38.992499 ], [ -94.516972, 38.992365 ], [ -94.517003, 38.992249 ], [ -94.517095, 38.992061 ], [ -94.517116, 38.99187 ], [ -94.517039, 38.991796 ], [ -94.516946, 38.991727 ], [ -94.516962, 38.991683 ], [ -94.51701, 38.991678 ], [ -94.51705, 38.991692 ], [ -94.517185, 38.991774 ], [ -94.517249, 38.991787 ], [ -94.517307, 38.991756 ], [ -94.51733, 38.991728 ], [ -94.517307, 38.991677 ], [ -94.517284, 38.991615 ], [ -94.517279, 38.991576 ], [ -94.517386, 38.991489 ], [ -94.517495, 38.991377 ], [ -94.517621, 38.991319 ], [ -94.517701, 38.991263 ], [ -94.51778, 38.991285 ], [ -94.517889, 38.991278 ], [ -94.517961, 38.991331 ], [ -94.518061, 38.991374 ], [ -94.518136, 38.991325 ], [ -94.518137, 38.991244 ], [ -94.51804, 38.991165 ], [ -94.5179, 38.991052 ], [ -94.517816, 38.990876 ], [ -94.517833, 38.990835 ], [ -94.517802, 38.990796 ], [ -94.517729, 38.990755 ], [ -94.517659, 38.990758 ], [ -94.517541, 38.990784 ], [ -94.517434, 38.990817 ], [ -94.517346, 38.990914 ], [ -94.517263, 38.991002 ], [ -94.517247, 38.991049 ], [ -94.517227, 38.991071 ], [ -94.517195, 38.991086 ], [ -94.51716, 38.991078 ], [ -94.517125, 38.991061 ], [ -94.517091, 38.991013 ], [ -94.517033, 38.990986 ], [ -94.51695, 38.990969 ], [ -94.516898, 38.990944 ], [ -94.516873, 38.990897 ], [ -94.516917, 38.990854 ], [ -94.516876, 38.990774 ], [ -94.516811, 38.990701 ], [ -94.516652, 38.99062 ], [ -94.516571, 38.990588 ], [ -94.516477, 38.990616 ], [ -94.516401, 38.990571 ], [ -94.516493, 38.990402 ], [ -94.516527, 38.990389 ], [ -94.516551, 38.990368 ], [ -94.516525, 38.990318 ], [ -94.516579, 38.990177 ], [ -94.516543, 38.990085 ], [ -94.51647, 38.990044 ], [ -94.516429, 38.989983 ], [ -94.516344, 38.989943 ], [ -94.516287, 38.989845 ], [ -94.516203, 38.989774 ], [ -94.516128, 38.989758 ], [ -94.516049, 38.989775 ], [ -94.51594, 38.98979 ], [ -94.515853, 38.989811 ], [ -94.5158, 38.989821 ], [ -94.515751, 38.989843 ], [ -94.515651, 38.989913 ], [ -94.515499, 38.989953 ], [ -94.515422, 38.989958 ], [ -94.515353, 38.989973 ], [ -94.515181, 38.990053 ], [ -94.515043, 38.990161 ], [ -94.514968, 38.990239 ], [ -94.514906, 38.990291 ], [ -94.514837, 38.990292 ], [ -94.514805, 38.990245 ], [ -94.514791, 38.990182 ], [ -94.514785, 38.99012 ], [ -94.514759, 38.990052 ], [ -94.5147, 38.989913 ], [ -94.514371, 38.989887 ], [ -94.514123, 38.989951 ], [ -94.51403, 38.989894 ], [ -94.514059, 38.989793 ], [ -94.514162, 38.989679 ], [ -94.51422, 38.98956 ], [ -94.514267, 38.989476 ], [ -94.514173, 38.989398 ], [ -94.514013, 38.98928 ], [ -94.513843, 38.989194 ], [ -94.513774, 38.989195 ], [ -94.513705, 38.989256 ], [ -94.513683, 38.989322 ], [ -94.513635, 38.989357 ], [ -94.513561, 38.989349 ], [ -94.513476, 38.989394 ], [ -94.513416, 38.989414 ], [ -94.513361, 38.989401 ], [ -94.513093, 38.989318 ], [ -94.513061, 38.989275 ], [ -94.512901, 38.989305 ], [ -94.512826, 38.989254 ], [ -94.512838, 38.989178 ], [ -94.512879, 38.989089 ], [ -94.512844, 38.989001 ], [ -94.512743, 38.989023 ], [ -94.512646, 38.989084 ], [ -94.512537, 38.989127 ], [ -94.512473, 38.989238 ], [ -94.5124, 38.989233 ], [ -94.512379, 38.989182 ], [ -94.512345, 38.988954 ], [ -94.512316, 38.988765 ], [ -94.512246, 38.988683 ], [ -94.512063, 38.988678 ], [ -94.511847, 38.988765 ], [ -94.511746, 38.988834 ], [ -94.511711, 38.988917 ], [ -94.511647, 38.988997 ], [ -94.511655, 38.989204 ], [ -94.511687, 38.989345 ], [ -94.511606, 38.989488 ], [ -94.511508, 38.989463 ], [ -94.51143, 38.989311 ], [ -94.511417, 38.989137 ], [ -94.511375, 38.988974 ], [ -94.511398, 38.988818 ], [ -94.511404, 38.988785 ] ] } },
{ "type": "Feature", "properties": { "cls": "shared", "highway": "path", "name": "Kids Loop" }, "geometry": { "type": "LineString", "coordinates": [ [ -94.516745, 38.991539 ], [ -94.516766, 38.991499 ], [ -94.516764, 38.991427 ], [ -94.516763, 38.991405 ], [ -94.516676, 38.991349 ], [ -94.516605, 38.991284 ], [ -94.516425, 38.991193 ], [ -94.516215, 38.991027 ], [ -94.516097, 38.990943 ], [ -94.516011, 38.990913 ], [ -94.515942, 38.990915 ], [ -94.515848, 38.990897 ], [ -94.515811, 38.990787 ], [ -94.51578, 38.990745 ], [ -94.515725, 38.990735 ], [ -94.515664, 38.990753 ], [ -94.515534, 38.99075 ], [ -94.515364, 38.990682 ], [ -94.515301, 38.990617 ], [ -94.515205, 38.990572 ], [ -94.514985, 38.990526 ], [ -94.514876, 38.990474 ], [ -94.514747, 38.990441 ], [ -94.51469, 38.990382 ], [ -94.51462, 38.990308 ], [ -94.514537, 38.990281 ], [ -94.514446, 38.99031 ], [ -94.514379, 38.990326 ], [ -94.514314, 38.990282 ], [ -94.514238, 38.990255 ], [ -94.514039, 38.990209 ], [ -94.51388, 38.990158 ], [ -94.513687, 38.990226 ], [ -94.513651, 38.990331 ], [ -94.513714, 38.990385 ], [ -94.51386, 38.990432 ], [ -94.513987, 38.990476 ], [ -94.514117, 38.990475 ], [ -94.51422, 38.990511 ], [ -94.514376, 38.990503 ], [ -94.514471, 38.990546 ], [ -94.51468, 38.990615 ], [ -94.514746, 38.990696 ], [ -94.514778, 38.990795 ], [ -94.514848, 38.990839 ], [ -94.514872, 38.990865 ], [ -94.51492, 38.990926 ], [ -94.514908, 38.991015 ], [ -94.514866, 38.991078 ], [ -94.51483, 38.99114 ], [ -94.514852, 38.991208 ], [ -94.514883, 38.991247 ], [ -94.514956, 38.991288 ], [ -94.515045, 38.991285 ], [ -94.515119, 38.991234 ], [ -94.515194, 38.991169 ], [ -94.515275, 38.991105 ], [ -94.515341, 38.99103 ], [ -94.515437, 38.991023 ], [ -94.515571, 38.991065 ], [ -94.515694, 38.991165 ], [ -94.515766, 38.991343 ], [ -94.515737, 38.991506 ], [ -94.515758, 38.991622 ], [ -94.515701, 38.991722 ], [ -94.515701, 38.991805 ], [ -94.515753, 38.991873 ], [ -94.515843, 38.991875 ], [ -94.515963, 38.991847 ], [ -94.51603, 38.99178 ], [ -94.516249, 38.991707 ], [ -94.516289, 38.991672 ], [ -94.516282, 38.991643 ], [ -94.51626, 38.991603 ], [ -94.516269, 38.991564 ], [ -94.516336, 38.991539 ], [ -94.51641, 38.991542 ], [ -94.516498, 38.99156 ], [ -94.516542, 38.99155 ], [ -94.516599, 38.991533 ], [ -94.516697, 38.991551 ], [ -94.516745, 38.991539 ] ] } },
{ "type": "Feature", "properties": { "cls": "shared", "highway": "path", "name": "Wudchuk Run" }, "geometry": { "type": "LineString", "coordinates": [ [ -94.517272, 38.99278 ], [ -94.517577, 38.992691 ], [ -94.5177, 38.992644 ], [ -94.517771, 38.992578 ], [ -94.517955, 38.992335 ], [ -94.518071, 38.99229 ], [ -94.518145, 38.992298 ], [ -94.518191, 38.992331 ], [ -94.518212, 38.992437 ], [ -94.518269, 38.992533 ], [ -94.518332, 38.992857 ], [ -94.518434, 38.993028 ], [ -94.518485, 38.993097 ], [ -94.518532, 38.993167 ], [ -94.518661, 38.993212 ], [ -94.518799, 38.993184 ], [ -94.518948, 38.993147 ], [ -94.519118, 38.993149 ], [ -94.519229, 38.993135 ], [ -94.519301, 38.993186 ], [ -94.519305, 38.993234 ], [ -94.519241, 38.993337 ], [ -94.519245, 38.993416 ], [ -94.519282, 38.993445 ], [ -94.519335, 38.993444 ], [ -94.519436, 38.993281 ], [ -94.519499, 38.993266 ], [ -94.51961, 38.993369 ], [ -94.51967, 38.993417 ], [ -94.519721, 38.993455 ], [ -94.519813, 38.993579 ], [ -94.519864, 38.993651 ], [ -94.51994, 38.993715 ], [ -94.519976, 38.993777 ], [ -94.519929, 38.993903 ], [ -94.520117, 38.994195 ], [ -94.520173, 38.994256 ], [ -94.520307, 38.994287 ], [ -94.520433, 38.994326 ], [ -94.520548, 38.994325 ], [ -94.520686, 38.994279 ], [ -94.520789, 38.994207 ], [ -94.520873, 38.994089 ], [ -94.520964, 38.993988 ], [ -94.520957, 38.993854 ], [ -94.520797, 38.993568 ], [ -94.520803, 38.993401 ], [ -94.520752, 38.993181 ], [ -94.520734, 38.993065 ], [ -94.520723, 38.992998 ], [ -94.520674, 38.992941 ], [ -94.520656, 38.992848 ], [ -94.520638, 38.992716 ], [ -94.520597, 38.9926 ], [ -94.520521, 38.992451 ], [ -94.520477, 38.992287 ], [ -94.520326, 38.992018 ], [ -94.520286, 38.991845 ], [ -94.520185, 38.991686 ], [ -94.520121, 38.991419 ], [ -94.52006, 38.991086 ], [ -94.519966, 38.990822 ], [ -94.519908, 38.990664 ], [ -94.519815, 38.990523 ], [ -94.519695, 38.990326 ], [ -94.519487, 38.99021 ], [ -94.519142, 38.990054 ], [ -94.518784, 38.989972 ], [ -94.518586, 38.989913 ], [ -94.518471, 38.989845 ], [ -94.518225, 38.989738 ], [ -94.518122, 38.989761 ], [ -94.517856, 38.989828 ], [ -94.517717, 38.989823 ], [ -94.517645, 38.989636 ], [ -94.51753, 38.989404 ], [ -94.517393, 38.989311 ], [ -94.517172, 38.989291 ], [ -94.516807, 38.98917 ], [ -94.51656, 38.989098 ], [ -94.516333, 38.989101 ], [ -94.515968, 38.989059 ], [ -94.515668, 38.989118 ], [ -94.515603, 38.989087 ], [ -94.515485, 38.988946 ], [ -94.515372, 38.988748 ], [ -94.515134, 38.988703 ], [ -94.514937, 38.988564 ], [ -94.514722, 38.988356 ], [ -94.514561, 38.988122 ], [ -94.514253, 38.987876 ], [ -94.514171, 38.98783 ], [ -94.514055, 38.98772 ], [ -94.51392, 38.987663 ], [ -94.51376, 38.987691 ], [ -94.513564, 38.987758 ], [ -94.513403, 38.987757 ], [ -94.513298, 38.987833 ], [ -94.513162, 38.987921 ], [ -94.513018, 38.988023 ], [ -94.512896, 38.98808 ], [ -94.512842, 38.988105 ], [ -94.512583, 38.988263 ], [ -94.512262, 38.988217 ], [ -94.512042, 38.988251 ], [ -94.51181, 38.988323 ], [ -94.511716, 38.988391 ], [ -94.511644, 38.988463 ], [ -94.511404, 38.988785 ] ] } },
{ "type": "Feature", "properties": { "cls": "shared", "highway": "path", "name": "Connector" }, "geometry": { "type": "LineString", "coordinates": [ [ -94.513234, 38.992182 ], [ -94.513219, 38.992057 ], [ -94.513205, 38.991946 ], [ -94.513234, 38.991805 ], [ -94.513233, 38.991738 ], [ -94.51326, 38.991544 ], [ -94.5133, 38.991348 ], [ -94.513328, 38.991238 ], [ -94.513336, 38.991103 ], [ -94.51345, 38.990173 ] ] } },
{ "type": "Feature", "properties": { "cls": "shared", "highway": "path", "name": "Connector" }, "geometry": { "type": "LineString", "coordinates": [ [ -94.517386, 38.991489 ], [ -94.517287, 38.99149 ], [ -94.517123, 38.991469 ], [ -94.516962, 38.991437 ], [ -94.516841, 38.991421 ], [ -94.516764, 38.991427 ] ] } },
{ "type": "Feature", "properties": { "cls": "shared", "highway": "path", "name": "Connector" }, "geometry": { "type": "LineString", "coordinates": [ [ -94.517125, 38.992793 ], [ -94.517259, 38.992783 ], [ -94.517272, 38.99278 ] ] } },
{ "type": "Feature", "properties": { "cls": "shared", "highway": "path", "name": "Connector" }, "geometry": { "type": "LineString", "coordinates": [ [ -94.509555, 38.992559 ], [ -94.509603, 38.99241 ], [ -94.509651, 38.992352 ] ] } },
{ "type": "Feature", "properties": { "cls": "shared", "highway": "path", "name": "Wudchuk Run" }, "geometry": { "type": "LineString", "coordinates": [ [ -94.507198, 38.993952 ], [ -94.507263, 38.993995 ], [ -94.507289, 38.994042 ], [ -94.507265, 38.994099 ], [ -94.507295, 38.994129 ], [ -94.507374, 38.994131 ], [ -94.507512, 38.99408 ], [ -94.507602, 38.994016 ], [ -94.507651, 38.993962 ], [ -94.507642, 38.993886 ], [ -94.507604, 38.993826 ], [ -94.507475, 38.993612 ], [ -94.507376, 38.993522 ] ] } },
{ "type": "Feature", "properties": { "cls": "painted", "highway": "secondary", "name": "East Gregory Boulevard" }, "geometry": { "type": "LineString", "coordinates": [ [ -94.530654, 38.996806 ], [ -94.528137, 38.996715 ] ] } },
{ "type": "Feature", "properties": { "cls": "painted", "highway": "secondary", "name": "East Gregory Boulevard" }, "geometry": { "type": "LineString", "coordinates": [ [ -94.533504, 38.996941 ], [ -94.53203, 38.996885 ], [ -94.530901, 38.996822 ], [ -94.530654, 38.996806 ] ] } },
{ "type": "Feature", "properties": { "cls": "painted", "highway": "secondary", "name": "East Gregory Boulevard" }, "geometry": { "type": "GeometryCollection", "geometries": [ { "type": "LineString", "coordinates": [ [ -94.535934, 38.997603 ], [ -94.53558, 38.997567 ], [ -94.535431, 38.997529 ] ] }, { "type": "LineString", "coordinates": [ [ -94.535431, 38.997529 ], [ -94.535278, 38.997489 ], [ -94.535091, 38.997411 ] ] }, { "type": "LineString", "coordinates": [ [ -94.534159, 38.997014 ], [ -94.533913, 38.996966 ], [ -94.5337, 38.996953 ], [ -94.533504, 38.996941 ] ] }, { "type": "Point", "coordinates": [ -94.534477, 38.997109 ] } ] } },
{ "type": "Feature", "properties": { "cls": "shared", "highway": "cycleway", "name": null }, "geometry": { "type": "LineString", "coordinates": [ [ -94.530912, 38.996958 ], [ -94.530967, 38.996968 ], [ -94.531007, 38.996964 ], [ -94.531048, 38.996947 ], [ -94.531079, 38.996938 ], [ -94.531102, 38.996939 ], [ -94.531812, 38.996964 ], [ -94.532363, 38.996993 ], [ -94.532547, 38.996994 ], [ -94.532577, 38.997003 ], [ -94.532606, 38.997022 ], [ -94.532633, 38.997038 ], [ -94.532665, 38.997045 ], [ -94.532701, 38.997045 ], [ -94.532734, 38.997039 ], [ -94.532773, 38.997027 ], [ -94.532807, 38.997019 ], [ -94.532835, 38.997012 ], [ -94.532894, 38.997014 ], [ -94.533128, 38.997019 ], [ -94.533188, 38.997023 ], [ -94.533271, 38.997044 ], [ -94.533325, 38.997081 ], [ -94.533344, 38.997131 ], [ -94.533353, 38.997179 ], [ -94.533392, 38.997222 ], [ -94.533422, 38.997253 ], [ -94.533409, 38.997649 ], [ -94.533434, 38.99768 ], [ -94.53344, 38.997704 ], [ -94.533438, 38.997735 ], [ -94.533427, 38.997914 ], [ -94.533395, 38.997956 ], [ -94.533384, 38.997981 ], [ -94.53338, 38.998054 ], [ -94.533384, 38.998078 ], [ -94.53341, 38.998119 ], [ -94.533414, 38.998139 ], [ -94.533381, 38.9988 ], [ -94.533365, 38.99924 ], [ -94.533343, 38.999715 ] ] } },
{ "type": "Feature", "properties": { "cls": "shared", "highway": "path", "name": "Connector" }, "geometry": { "type": "LineString", "coordinates": [ [ -94.51994, 38.993715 ], [ -94.519985, 38.993686 ], [ -94.520021, 38.993665 ], [ -94.52005, 38.993621 ], [ -94.520026, 38.993571 ], [ -94.519968, 38.993545 ], [ -94.519933, 38.993503 ], [ -94.519917, 38.993426 ], [ -94.519911, 38.993338 ], [ -94.519903, 38.993224 ], [ -94.519852, 38.99313 ], [ -94.519774, 38.993016 ], [ -94.519738, 38.992947 ], [ -94.519708, 38.99286 ], [ -94.519685, 38.992772 ], [ -94.519602, 38.992721 ], [ -94.519533, 38.992641 ], [ -94.519435, 38.992583 ], [ -94.519281, 38.992487 ] ] } },
{ "type": "Feature", "properties": { "cls": "shared", "highway": "path", "name": "A2B Connection" }, "geometry": { "type": "LineString", "coordinates": [ [ -94.519172, 38.994145 ], [ -94.519246, 38.994221 ], [ -94.519345, 38.994256 ], [ -94.519671, 38.99424 ], [ -94.519788, 38.9943 ], [ -94.519847, 38.99441 ], [ -94.519965, 38.994493 ], [ -94.520522, 38.994664 ], [ -94.520725, 38.994679 ], [ -94.521025, 38.994559 ], [ -94.521076, 38.994525 ], [ -94.521357, 38.994035 ], [ -94.521335, 38.993736 ], [ -94.521252, 38.993633 ], [ -94.521201, 38.993486 ], [ -94.521188, 38.993313 ], [ -94.521262, 38.993121 ], [ -94.521168, 38.993045 ] ] } },
{ "type": "Feature", "properties": { "cls": "painted", "highway": "secondary", "name": "East Gregory Boulevard" }, "geometry": { "type": "LineString", "coordinates": [ [ -94.528137, 38.996715 ], [ -94.527752, 38.996676 ], [ -94.527616, 38.996661 ], [ -94.527414, 38.996639 ], [ -94.527022, 38.996555 ], [ -94.5264, 38.996359 ], [ -94.52486, 38.995755 ], [ -94.523702, 38.995246 ], [ -94.523251, 38.995005 ], [ -94.522876, 38.994783 ], [ -94.522468, 38.994529 ], [ -94.522174, 38.994376 ] ] } },
{ "type": "Feature", "properties": { "cls": "shared", "highway": "cycleway", "name": "Blue River Trail" }, "geometry": { "type": "LineString", "coordinates": [ [ -94.524658, 39.014015 ], [ -94.524616, 39.013973 ], [ -94.524567, 39.013944 ], [ -94.524502, 39.013923 ], [ -94.524423, 39.013905 ], [ -94.524299, 39.013889 ] ] } }
]
}
