{
"type": "FeatureCollection",
"name": "113-san-diego-torrey-pines-state-natural-reserve",
"crs": { "type": "name", "properties": { "name": "urn:ogc:def:crs:OGC:1.3:CRS84" } },
"xy_coordinate_resolution": 1e-06,
"features": [
{ "type": "Feature", "properties": { "cls": "painted", "highway": "primary", "name": "North Torrey Pines Road" }, "geometry": { "type": "LineString", "coordinates": [ [ -117.24499, 32.912863 ], [ -117.245048, 32.91307 ], [ -117.245106, 32.913245 ], [ -117.245159, 32.913397 ] ] } },
{ "type": "Feature", "properties": { "cls": "painted", "highway": "primary", "name": "North Torrey Pines Road" }, "geometry": { "type": "LineString", "coordinates": [ [ -117.245322, 32.913423 ], [ -117.245265, 32.913261 ], [ -117.245203, 32.913085 ], [ -117.245137, 32.912865 ] ] } },
{ "type": "Feature", "properties": { "cls": "painted", "highway": "primary", "name": "North Torrey Pines Road" }, "geometry": { "type": "LineString", "coordinates": [ [ -117.245159, 32.913397 ], [ -117.245243, 32.913581 ], [ -117.245361, 32.913791 ], [ -117.245479, 32.913975 ], [ -117.245693, 32.914258 ], [ -117.2479, 32.917001 ], [ -117.248182, 32.9174 ], [ -117.24836, 32.917694 ], [ -117.248503, 32.917974 ], [ -117.248698, 32.91844 ], [ -117.248814, 32.918837 ], [ -117.248902, 32.919182 ], [ -117.249047, 32.920028 ], [ -117.249117, 32.920324 ], [ -117.249209, 32.92059 ], [ -117.249347, 32.920903 ], [ -117.24948, 32.921147 ], [ -117.249589, 32.921335 ], [ -117.249886, 32.921765 ], [ -117.250232, 32.922123 ], [ -117.250608, 32.92245 ], [ -117.251032, 32.922733 ], [ -117.251431, 32.922946 ], [ -117.253835, 32.924154 ], [ -117.254218, 32.924359 ], [ -117.254458, 32.92451 ], [ -117.254679, 32.92466 ], [ -117.258075, 32.927252 ], [ -117.258343, 32.927478 ], [ -117.258488, 32.927617 ], [ -117.258652, 32.927796 ], [ -117.258802, 32.927965 ], [ -117.258999, 32.928202 ], [ -117.259035, 32.928253 ] ] } },
{ "type": "Feature", "properties": { "cls": "painted", "highway": "primary", "name": "North Torrey Pines Road" }, "geometry": { "type": "LineString", "coordinates": [ [ -117.259242, 32.928305 ], [ -117.259124, 32.928134 ], [ -117.258925, 32.927888 ], [ -117.258668, 32.927622 ], [ -117.25832, 32.927321 ], [ -117.257549, 32.926707 ], [ -117.254946, 32.924757 ], [ -117.254545, 32.924461 ], [ -117.254121, 32.924199 ], [ -117.253708, 32.923986 ], [ -117.251505, 32.922888 ], [ -117.251163, 32.922703 ], [ -117.250878, 32.922518 ], [ -117.250678, 32.922365 ], [ -117.250512, 32.922232 ], [ -117.250286, 32.922038 ], [ -117.250003, 32.921738 ], [ -117.249747, 32.921407 ], [ -117.249563, 32.921121 ], [ -117.249436, 32.920874 ], [ -117.249319, 32.920609 ], [ -117.249228, 32.920363 ], [ -117.249147, 32.920069 ], [ -117.248985, 32.919188 ], [ -117.248904, 32.918787 ], [ -117.248767, 32.91838 ], [ -117.248631, 32.918042 ], [ -117.248479, 32.91773 ], [ -117.248282, 32.917387 ], [ -117.248061, 32.917072 ], [ -117.245808, 32.914238 ], [ -117.245664, 32.914042 ], [ -117.245515, 32.913806 ], [ -117.245415, 32.913614 ], [ -117.245322, 32.913423 ] ] } },
{ "type": "Feature", "properties": { "cls": "painted", "highway": "primary", "name": "North Torrey Pines Road" }, "geometry": { "type": "LineString", "coordinates": [ [ -117.259035, 32.928253 ], [ -117.259232, 32.928561 ], [ -117.259364, 32.928815 ] ] } },
{ "type": "Feature", "properties": { "cls": "painted", "highway": "primary", "name": "North Torrey Pines Road" }, "geometry": { "type": "LineString", "coordinates": [ [ -117.259506, 32.928768 ], [ -117.259449, 32.928633 ], [ -117.259358, 32.928475 ], [ -117.259316, 32.928414 ], [ -117.259242, 32.928305 ] ] } },
{ "type": "Feature", "properties": { "cls": "painted", "highway": "primary", "name": "North Torrey Pines Road" }, "geometry": { "type": "LineString", "coordinates": [ [ -117.259644, 32.929061 ], [ -117.259506, 32.928768 ] ] } },
{ "type": "Feature", "properties": { "cls": "painted", "highway": "primary", "name": "North Torrey Pines Road" }, "geometry": { "type": "LineString", "coordinates": [ [ -117.259736, 32.929383 ], [ -117.259694, 32.929211 ], [ -117.259644, 32.929061 ] ] } },
{ "type": "Feature", "properties": { "cls": "painted", "highway": "primary", "name": "North Torrey Pines Road" }, "geometry": { "type": "LineString", "coordinates": [ [ -117.259364, 32.928815 ], [ -117.259443, 32.929031 ], [ -117.259533, 32.929262 ], [ -117.259588, 32.929428 ], [ -117.259642, 32.929618 ], [ -117.259694, 32.929823 ], [ -117.259753, 32.930171 ], [ -117.259812, 32.930632 ], [ -117.259933, 32.93147 ] ] } },
{ "type": "Feature", "properties": { "cls": "painted", "highway": "primary", "name": "North Torrey Pines Road" }, "geometry": { "type": "LineString", "coordinates": [ [ -117.260239, 32.932971 ], [ -117.26017, 32.932527 ], [ -117.260009, 32.931361 ], [ -117.259911, 32.930534 ], [ -117.259809, 32.92977 ], [ -117.259736, 32.929383 ] ] } },
{ "type": "Feature", "properties": { "cls": "painted", "highway": "primary", "name": "North Torrey Pines Road" }, "geometry": { "type": "LineString", "coordinates": [ [ -117.259933, 32.93147 ], [ -117.259993, 32.931936 ] ] } },
{ "type": "Feature", "properties": { "cls": "painted", "highway": "primary", "name": "North Torrey Pines Road" }, "geometry": { "type": "LineString", "coordinates": [ [ -117.259993, 32.931936 ], [ -117.26002, 32.932141 ], [ -117.260076, 32.932636 ], [ -117.260141, 32.933133 ], [ -117.260202, 32.933479 ], [ -117.260279, 32.933833 ] ] } },
{ "type": "Feature", "properties": { "cls": "painted", "highway": "primary", "name": "North Torrey Pines Road" }, "geometry": { "type": "LineString", "coordinates": [ [ -117.260247, 32.933025 ], [ -117.260239, 32.932971 ] ] } },
{ "type": "Feature", "properties": { "cls": "painted", "highway": "primary", "name": "North Torrey Pines Road" }, "geometry": { "type": "LineString", "coordinates": [ [ -117.260252, 32.933056 ], [ -117.260247, 32.933025 ] ] } },
{ "type": "Feature", "properties": { "cls": "painted", "highway": "primary", "name": "North Torrey Pines Road" }, "geometry": { "type": "LineString", "coordinates": [ [ -117.260308, 32.933398 ], [ -117.260296, 32.933343 ], [ -117.260252, 32.933056 ] ] } },
{ "type": "Feature", "properties": { "cls": "painted", "highway": "primary", "name": "North Torrey Pines Road" }, "geometry": { "type": "LineString", "coordinates": [ [ -117.260369, 32.933691 ], [ -117.260308, 32.933398 ] ] } },
{ "type": "Feature", "properties": { "cls": "painted", "highway": "primary", "name": "North Torrey Pines Road" }, "geometry": { "type": "LineString", "coordinates": [ [ -117.260397, 32.933816 ], [ -117.260369, 32.933691 ] ] } },
{ "type": "Feature", "properties": { "cls": "painted", "highway": "primary", "name": "North Torrey Pines Road" }, "geometry": { "type": "LineString", "coordinates": [ [ -117.260647, 32.934861 ], [ -117.260397, 32.933816 ] ] } },
{ "type": "Feature", "properties": { "cls": "painted", "highway": "primary", "name": "North Torrey Pines Road" }, "geometry": { "type": "LineString", "coordinates": [ [ -117.260279, 32.933833 ], [ -117.260522, 32.934882 ] ] } },
{ "type": "Feature", "properties": { "cls": "painted", "highway": "primary", "name": "North Torrey Pines Road" }, "geometry": { "type": "LineString", "coordinates": [ [ -117.261251, 32.937953 ], [ -117.261258, 32.937874 ], [ -117.261259, 32.937765 ], [ -117.261244, 32.937593 ], [ -117.261203, 32.937333 ], [ -117.261105, 32.936887 ], [ -117.260912, 32.936059 ], [ -117.260759, 32.935405 ], [ -117.260647, 32.934861 ] ] } },
{ "type": "Feature", "properties": { "cls": "painted", "highway": "primary", "name": "North Torrey Pines Road" }, "geometry": { "type": "LineString", "coordinates": [ [ -117.260522, 32.934882 ], [ -117.260601, 32.935225 ], [ -117.260697, 32.935667 ], [ -117.260967, 32.936717 ], [ -117.261088, 32.937196 ], [ -117.261116, 32.937315 ], [ -117.261144, 32.937443 ], [ -117.261163, 32.937608 ], [ -117.261172, 32.937742 ], [ -117.261188, 32.937951 ] ] } },
{ "type": "Feature", "properties": { "cls": "painted", "highway": "primary", "name": "North Torrey Pines Road" }, "geometry": { "type": "LineString", "coordinates": [ [ -117.261188, 32.937951 ], [ -117.261173, 32.93863 ] ] } },
{ "type": "Feature", "properties": { "cls": "painted", "highway": "primary", "name": "North Torrey Pines Road" }, "geometry": { "type": "LineString", "coordinates": [ [ -117.261232, 32.938659 ], [ -117.261251, 32.937953 ] ] } }
]
}
