{
"type": "FeatureCollection",
"name": "115-new-york-city-staten-island-greenbelt",
"crs": { "type": "name", "properties": { "name": "urn:ogc:def:crs:OGC:1.3:CRS84" } },
"xy_coordinate_resolution": 1e-06,
"features": [
{ "type": "Feature", "properties": { "cls": "shared", "highway": "cycleway", "name": "New Springville Greenway" }, "geometry": { "type": "LineString", "coordinates": [ [ -74.169471, 40.567104 ], [ -74.16942, 40.567202 ], [ -74.169409, 40.567259 ], [ -74.16941, 40.567316 ], [ -74.169418, 40.56743 ], [ -74.169404, 40.567546 ], [ -74.169364, 40.567668 ], [ -74.16935, 40.567721 ], [ -74.169357, 40.567782 ], [ -74.169369, 40.567888 ], [ -74.169361, 40.56807 ], [ -74.169343, 40.568192 ], [ -74.169332, 40.568318 ], [ -74.169319, 40.56843 ], [ -74.169314, 40.568564 ], [ -74.169331, 40.568713 ], [ -74.169342, 40.568842 ], [ -74.169327, 40.56907 ], [ -74.169332, 40.569316 ], [ -74.169367, 40.569671 ], [ -74.169389, 40.569949 ], [ -74.169403, 40.570086 ], [ -74.169407, 40.570203 ], [ -74.16942, 40.570449 ], [ -74.169419, 40.570521 ], [ -74.16942, 40.570561 ], [ -74.169426, 40.570597 ], [ -74.16944, 40.570634 ], [ -74.169461, 40.570669 ], [ -74.169505, 40.570736 ], [ -74.169543, 40.570763 ] ] } },
{ "type": "Feature", "properties": { "cls": "separated", "highway": "cycleway", "name": "La Tourette Park Greenway" }, "geometry": { "type": "LineString", "coordinates": [ [ -74.158274, 40.573791 ], [ -74.158737, 40.573411 ], [ -74.15907, 40.573115 ], [ -74.159283, 40.572951 ], [ -74.159441, 40.572814 ], [ -74.1597, 40.572669 ], [ -74.159773, 40.572644 ], [ -74.159843, 40.57264 ], [ -74.15996, 40.572677 ], [ -74.160036, 40.572694 ], [ -74.160083, 40.572698 ], [ -74.160134, 40.572693 ], [ -74.160298, 40.572636 ], [ -74.160363, 40.572614 ], [ -74.160439, 40.572614 ], [ -74.160503, 40.57263 ], [ -74.160557, 40.572654 ], [ -74.160704, 40.572746 ], [ -74.160824, 40.572815 ], [ -74.160957, 40.572872 ], [ -74.161042, 40.57289 ], [ -74.1611, 40.572887 ], [ -74.161178, 40.57289 ], [ -74.161289, 40.572933 ], [ -74.161405, 40.572993 ], [ -74.161454, 40.573012 ], [ -74.161503, 40.573026 ], [ -74.161582, 40.573043 ], [ -74.161681, 40.573073 ], [ -74.161752, 40.573109 ], [ -74.161924, 40.57324 ], [ -74.162011, 40.573308 ], [ -74.162064, 40.573351 ], [ -74.162121, 40.573373 ], [ -74.162178, 40.57338 ], [ -74.162242, 40.573375 ], [ -74.162322, 40.573353 ], [ -74.162673, 40.573167 ], [ -74.162771, 40.573111 ], [ -74.16294, 40.573023 ], [ -74.162977, 40.573003 ], [ -74.163004, 40.57298 ], [ -74.163083, 40.572809 ], [ -74.163153, 40.572609 ], [ -74.163189, 40.572479 ], [ -74.163229, 40.572371 ], [ -74.163278, 40.57231 ], [ -74.163336, 40.572261 ], [ -74.163447, 40.572203 ], [ -74.163535, 40.572173 ], [ -74.163612, 40.572161 ], [ -74.163692, 40.572156 ], [ -74.163792, 40.57215 ], [ -74.163847, 40.572142 ], [ -74.163937, 40.572117 ], [ -74.164007, 40.572103 ], [ -74.164044, 40.572099 ], [ -74.16408, 40.572099 ], [ -74.16425, 40.572108 ], [ -74.164288, 40.572108 ], [ -74.16432, 40.572105 ], [ -74.164383, 40.572089 ], [ -74.164446, 40.572068 ], [ -74.164498, 40.572046 ], [ -74.164591, 40.572023 ], [ -74.164693, 40.572008 ], [ -74.164766, 40.571995 ], [ -74.164991, 40.571951 ], [ -74.165037, 40.57194 ], [ -74.165077, 40.571926 ], [ -74.165161, 40.571879 ], [ -74.165249, 40.571825 ], [ -74.16539, 40.571769 ], [ -74.165539, 40.571717 ], [ -74.165694, 40.571675 ], [ -74.165825, 40.571639 ], [ -74.165937, 40.571596 ], [ -74.166024, 40.571554 ], [ -74.166231, 40.571451 ], [ -74.166297, 40.571399 ], [ -74.166321, 40.571372 ], [ -74.166369, 40.571319 ], [ -74.166397, 40.571295 ], [ -74.166431, 40.571278 ], [ -74.166491, 40.571267 ], [ -74.166567, 40.571261 ], [ -74.166884, 40.571252 ], [ -74.166954, 40.571259 ], [ -74.167018, 40.571279 ], [ -74.167142, 40.57134 ], [ -74.16739, 40.571441 ], [ -74.167461, 40.571495 ], [ -74.167527, 40.571554 ], [ -74.167641, 40.571672 ], [ -74.167667, 40.571698 ], [ -74.1677, 40.571721 ], [ -74.167738, 40.571733 ], [ -74.167785, 40.571732 ], [ -74.167844, 40.571715 ], [ -74.167907, 40.571687 ], [ -74.168022, 40.571632 ], [ -74.168106, 40.571599 ], [ -74.168197, 40.571558 ], [ -74.168304, 40.571501 ], [ -74.168407, 40.571463 ], [ -74.168486, 40.571416 ], [ -74.168564, 40.571351 ], [ -74.168648, 40.571276 ], [ -74.168712, 40.571232 ], [ -74.168821, 40.571169 ], [ -74.168875, 40.57112 ], [ -74.168904, 40.571086 ], [ -74.168928, 40.571047 ], [ -74.168967, 40.570946 ], [ -74.168989, 40.570912 ], [ -74.169025, 40.570884 ], [ -74.16908, 40.570861 ], [ -74.169167, 40.570841 ], [ -74.169354, 40.570808 ], [ -74.169539, 40.570782 ] ] } },
{ "type": "Feature", "properties": { "cls": "separated", "highway": "cycleway", "name": "La Tourette Park Greenway" }, "geometry": { "type": "LineString", "coordinates": [ [ -74.157724, 40.573327 ], [ -74.157622, 40.573225 ], [ -74.157574, 40.573181 ], [ -74.157527, 40.573147 ], [ -74.157466, 40.573122 ], [ -74.157383, 40.5731 ], [ -74.157304, 40.573077 ], [ -74.157225, 40.573042 ], [ -74.157181, 40.573017 ], [ -74.15706, 40.572938 ], [ -74.156925, 40.572857 ], [ -74.156812, 40.572797 ], [ -74.156693, 40.572742 ], [ -74.15658, 40.572638 ], [ -74.156498, 40.572556 ], [ -74.156455, 40.572528 ], [ -74.156391, 40.572501 ], [ -74.1562, 40.572456 ], [ -74.156141, 40.572433 ], [ -74.156073, 40.572391 ], [ -74.155995, 40.572358 ], [ -74.155889, 40.572338 ], [ -74.155789, 40.572331 ], [ -74.15556, 40.572344 ], [ -74.155458, 40.572352 ], [ -74.155402, 40.572349 ], [ -74.155342, 40.572337 ], [ -74.15527, 40.572303 ], [ -74.155208, 40.572253 ], [ -74.155077, 40.572164 ], [ -74.154957, 40.57213 ], [ -74.154824, 40.572114 ], [ -74.154703, 40.572105 ], [ -74.154548, 40.572093 ], [ -74.154326, 40.572111 ], [ -74.153917, 40.572168 ], [ -74.153465, 40.572231 ], [ -74.152983, 40.572302 ], [ -74.152478, 40.572396 ], [ -74.151688, 40.57259 ], [ -74.151474, 40.572644 ], [ -74.151172, 40.572701 ], [ -74.15086, 40.572736 ], [ -74.150501, 40.572774 ], [ -74.150262, 40.572804 ], [ -74.149592, 40.572884 ], [ -74.149303, 40.572922 ], [ -74.149005, 40.572964 ], [ -74.148825, 40.57299 ], [ -74.148718, 40.573006 ], [ -74.148529, 40.573034 ] ] } },
{ "type": "Feature", "properties": { "cls": "separated", "highway": "cycleway", "name": "La Tourette Park Greenway" }, "geometry": { "type": "LineString", "coordinates": [ [ -74.158274, 40.573791 ], [ -74.158171, 40.57371 ], [ -74.158129, 40.573677 ], [ -74.158044, 40.573607 ], [ -74.157858, 40.573448 ], [ -74.157724, 40.573327 ] ] } },
{ "type": "Feature", "properties": { "cls": "separated", "highway": "cycleway", "name": "La Tourette Park Greenway" }, "geometry": { "type": "LineString", "coordinates": [ [ -74.155793, 40.576006 ], [ -74.156031, 40.57574 ], [ -74.1563, 40.57542 ], [ -74.156526, 40.575166 ], [ -74.156719, 40.574945 ], [ -74.156842, 40.574826 ], [ -74.156955, 40.574742 ], [ -74.15708, 40.574664 ], [ -74.157498, 40.574403 ], [ -74.157635, 40.574317 ], [ -74.157954, 40.574075 ], [ -74.158274, 40.573791 ] ] } },
{ "type": "Feature", "properties": { "cls": "separated", "highway": "cycleway", "name": "La Tourette Park Greenway" }, "geometry": { "type": "LineString", "coordinates": [ [ -74.15566, 40.576148 ], [ -74.155793, 40.576006 ] ] } },
{ "type": "Feature", "properties": { "cls": "separated", "highway": "cycleway", "name": "La Tourette Park Greenway" }, "geometry": { "type": "LineString", "coordinates": [ [ -74.153858, 40.579369 ], [ -74.153896, 40.579287 ], [ -74.153999, 40.579014 ], [ -74.154082, 40.578722 ], [ -74.154188, 40.578416 ], [ -74.154278, 40.57808 ], [ -74.154417, 40.577671 ], [ -74.154515, 40.57748 ], [ -74.154581, 40.577374 ], [ -74.154634, 40.577295 ], [ -74.154725, 40.5772 ], [ -74.154794, 40.577144 ], [ -74.15566, 40.576148 ] ] } },
{ "type": "Feature", "properties": { "cls": "separated", "highway": "cycleway", "name": "La Tourette Park Greenway" }, "geometry": { "type": "LineString", "coordinates": [ [ -74.153542, 40.579612 ], [ -74.153749, 40.579485 ], [ -74.153791, 40.579451 ], [ -74.153833, 40.57941 ], [ -74.153858, 40.579369 ] ] } },
{ "type": "Feature", "properties": { "cls": "separated", "highway": "cycleway", "name": "La Tourette Park Greenway" }, "geometry": { "type": "LineString", "coordinates": [ [ -74.14792, 40.570983 ], [ -74.148021, 40.571411 ], [ -74.148168, 40.572051 ] ] } },
{ "type": "Feature", "properties": { "cls": "separated", "highway": "cycleway", "name": "La Tourette Park Greenway" }, "geometry": { "type": "LineString", "coordinates": [ [ -74.148168, 40.572051 ], [ -74.148215, 40.572371 ] ] } },
{ "type": "Feature", "properties": { "cls": "separated", "highway": "cycleway", "name": "La Tourette Park Greenway" }, "geometry": { "type": "LineString", "coordinates": [ [ -74.148215, 40.572371 ], [ -74.148357, 40.572592 ], [ -74.148459, 40.572781 ], [ -74.148529, 40.573034 ] ] } },
{ "type": "Feature", "properties": { "cls": "separated", "highway": "cycleway", "name": "La Tourette Park Greenway" }, "geometry": { "type": "LineString", "coordinates": [ [ -74.148529, 40.573034 ], [ -74.14844, 40.573045 ] ] } },
{ "type": "Feature", "properties": { "cls": "separated", "highway": "cycleway", "name": "La Tourette Park Greenway" }, "geometry": { "type": "LineString", "coordinates": [ [ -74.146349, 40.585688 ], [ -74.146512, 40.585518 ], [ -74.146596, 40.585476 ], [ -74.146684, 40.585406 ], [ -74.146772, 40.585356 ], [ -74.146831, 40.58532 ], [ -74.146905, 40.585274 ], [ -74.147005, 40.585215 ], [ -74.14712, 40.585136 ], [ -74.147251, 40.58504 ], [ -74.147292, 40.585009 ], [ -74.147446, 40.584875 ], [ -74.147524, 40.584803 ] ] } },
{ "type": "Feature", "properties": { "cls": "separated", "highway": "cycleway", "name": "La Tourette Park Greenway" }, "geometry": { "type": "LineString", "coordinates": [ [ -74.146263, 40.58574 ], [ -74.146349, 40.585688 ] ] } },
{ "type": "Feature", "properties": { "cls": "separated", "highway": "cycleway", "name": "La Tourette Park Greenway" }, "geometry": { "type": "LineString", "coordinates": [ [ -74.145752, 40.58845 ], [ -74.145729, 40.588438 ], [ -74.145709, 40.588428 ], [ -74.145689, 40.588416 ], [ -74.145664, 40.588374 ], [ -74.145656, 40.588309 ], [ -74.14568, 40.588185 ], [ -74.145753, 40.587902 ], [ -74.145815, 40.587433 ], [ -74.145869, 40.587121 ], [ -74.145906, 40.586828 ], [ -74.145998, 40.586573 ], [ -74.146052, 40.586314 ], [ -74.146119, 40.586077 ], [ -74.146263, 40.58574 ] ] } },
{ "type": "Feature", "properties": { "cls": "separated", "highway": "cycleway", "name": null }, "geometry": { "type": "LineString", "coordinates": [ [ -74.145759, 40.58846 ], [ -74.145752, 40.58845 ] ] } }
]
}
