{
"type": "FeatureCollection",
"name": "116-austin-barton-creek-greenbelt",
"crs": { "type": "name", "properties": { "name": "urn:ogc:def:crs:OGC:1.3:CRS84" } },
"xy_coordinate_resolution": 1e-06,
"features": [
{ "type": "Feature", "properties": { "cls": "shared", "highway": "cycleway", "name": "Violet Crown Trail" }, "geometry": { "type": "LineString", "coordinates": [ [ -97.81116, 30.24029 ], [ -97.811087, 30.240274 ] ] } },
{ "type": "Feature", "properties": { "cls": "shared", "highway": "path", "name": "Barton Creek Greenbelt Trail" }, "geometry": { "type": "LineString", "coordinates": [ [ -97.808291, 30.240035 ], [ -97.808459, 30.240102 ], [ -97.808526, 30.240129 ], [ -97.808627, 30.240146 ], [ -97.808853, 30.240158 ], [ -97.809126, 30.240209 ], [ -97.809364, 30.240194 ], [ -97.809476, 30.240208 ], [ -97.809693, 30.24027 ], [ -97.809981, 30.240304 ], [ -97.810051, 30.240312 ], [ -97.810145, 30.24035 ], [ -97.810309, 30.24046 ], [ -97.810436, 30.240518 ], [ -97.810753, 30.240559 ], [ -97.810823, 30.240579 ], [ -97.810918, 30.240612 ], [ -97.81101, 30.240669 ] ] } },
{ "type": "Feature", "properties": { "cls": "shared", "highway": "path", "name": "Barton Creek Greenbelt" }, "geometry": { "type": "LineString", "coordinates": [ [ -97.811087, 30.240274 ], [ -97.811051, 30.240493 ], [ -97.81101, 30.240669 ] ] } },
{ "type": "Feature", "properties": { "cls": "separated", "highway": "cycleway", "name": null }, "geometry": { "type": "LineString", "coordinates": [ [ -97.811075, 30.240879 ], [ -97.811158, 30.240726 ] ] } },
{ "type": "Feature", "properties": { "cls": "shared", "highway": "cycleway", "name": "Barton Creek Greenbelt & Violet Crown Trail" }, "geometry": { "type": "LineString", "coordinates": [ [ -97.803538, 30.243468 ], [ -97.803613, 30.243446 ], [ -97.803669, 30.243434 ], [ -97.803714, 30.243423 ], [ -97.803763, 30.243407 ], [ -97.803812, 30.243392 ], [ -97.803918, 30.243352 ], [ -97.804049, 30.243296 ], [ -97.80416, 30.243244 ], [ -97.804256, 30.243188 ], [ -97.804333, 30.24314 ], [ -97.804405, 30.243096 ], [ -97.804493, 30.243051 ], [ -97.804563, 30.243022 ], [ -97.804658, 30.242989 ], [ -97.804736, 30.242961 ], [ -97.804806, 30.242923 ], [ -97.804855, 30.242891 ], [ -97.804892, 30.242865 ], [ -97.804928, 30.242839 ], [ -97.80496, 30.242819 ], [ -97.80499, 30.242804 ], [ -97.805035, 30.242782 ], [ -97.805111, 30.242747 ], [ -97.805178, 30.242713 ], [ -97.805235, 30.242683 ], [ -97.805294, 30.242634 ], [ -97.805352, 30.242575 ], [ -97.805431, 30.242517 ], [ -97.805481, 30.242489 ], [ -97.805591, 30.242451 ], [ -97.80572, 30.242417 ], [ -97.806088, 30.242239 ], [ -97.80641, 30.241868 ], [ -97.806859, 30.241513 ], [ -97.807236, 30.241034 ], [ -97.807611, 30.240524 ], [ -97.808169, 30.240117 ], [ -97.808291, 30.240035 ], [ -97.808888, 30.239635 ], [ -97.809425, 30.239431 ], [ -97.809854, 30.239422 ], [ -97.810251, 30.239514 ], [ -97.810712, 30.239709 ], [ -97.811023, 30.239904 ], [ -97.811087, 30.240274 ] ] } },
{ "type": "Feature", "properties": { "cls": "shared", "highway": "cycleway", "name": "Barton Creek Mopac Mobility Bridge" }, "geometry": { "type": "LineString", "coordinates": [ [ -97.810694, 30.242666 ], [ -97.810421, 30.242799 ], [ -97.810013, 30.242989 ], [ -97.809977, 30.243003 ] ] } },
{ "type": "Feature", "properties": { "cls": "shared", "highway": "cycleway", "name": "Barton Creek Greenbelt & Violet Crown Trail" }, "geometry": { "type": "LineString", "coordinates": [ [ -97.793344, 30.2471 ], [ -97.793236, 30.247111 ], [ -97.793132, 30.247123 ], [ -97.793006, 30.247147 ], [ -97.792884, 30.247178 ], [ -97.7928, 30.247203 ], [ -97.792708, 30.247226 ], [ -97.792614, 30.247246 ], [ -97.792522, 30.247257 ], [ -97.792422, 30.247246 ], [ -97.792335, 30.247225 ], [ -97.792244, 30.247198 ], [ -97.792151, 30.247172 ], [ -97.792046, 30.247143 ], [ -97.791956, 30.247105 ], [ -97.791925, 30.247091 ], [ -97.791804, 30.247039 ], [ -97.791667, 30.246988 ], [ -97.791495, 30.24693 ], [ -97.791378, 30.246895 ], [ -97.791292, 30.246831 ], [ -97.79126, 30.24682 ], [ -97.791178, 30.246804 ], [ -97.791106, 30.246796 ], [ -97.791036, 30.246785 ], [ -97.790949, 30.246762 ], [ -97.790868, 30.246733 ], [ -97.790821, 30.246705 ], [ -97.790785, 30.246655 ], [ -97.790777, 30.246604 ], [ -97.790767, 30.246547 ], [ -97.790748, 30.246478 ], [ -97.790725, 30.246418 ], [ -97.790708, 30.246375 ], [ -97.790684, 30.246309 ], [ -97.790656, 30.246235 ], [ -97.790626, 30.246163 ], [ -97.790598, 30.246092 ], [ -97.790577, 30.246019 ], [ -97.79057, 30.245959 ], [ -97.790566, 30.245865 ], [ -97.790543, 30.245753 ], [ -97.790502, 30.245647 ], [ -97.790441, 30.245559 ], [ -97.790375, 30.24548 ], [ -97.790318, 30.245394 ], [ -97.790272, 30.245301 ], [ -97.790249, 30.245223 ], [ -97.790234, 30.245134 ], [ -97.790217, 30.245046 ], [ -97.790201, 30.244952 ], [ -97.790199, 30.244853 ], [ -97.790209, 30.244766 ], [ -97.79023, 30.244682 ], [ -97.790256, 30.244611 ], [ -97.790282, 30.244539 ], [ -97.790298, 30.244474 ], [ -97.790312, 30.2444 ], [ -97.790327, 30.244305 ], [ -97.790338, 30.244227 ], [ -97.790349, 30.244153 ], [ -97.790385, 30.24406 ], [ -97.790451, 30.243971 ], [ -97.790574, 30.243862 ], [ -97.790728, 30.243746 ], [ -97.790861, 30.243642 ], [ -97.790958, 30.243562 ], [ -97.791048, 30.243496 ], [ -97.791152, 30.243449 ], [ -97.791295, 30.243438 ], [ -97.791424, 30.243447 ], [ -97.791552, 30.243462 ], [ -97.791706, 30.243474 ], [ -97.791829, 30.243447 ], [ -97.7919, 30.243363 ], [ -97.791952, 30.243303 ], [ -97.792039, 30.243248 ], [ -97.792165, 30.243225 ], [ -97.79231, 30.243233 ], [ -97.792422, 30.243246 ], [ -97.792598, 30.243265 ], [ -97.792801, 30.243296 ], [ -97.792976, 30.243317 ], [ -97.793111, 30.243293 ], [ -97.793226, 30.243243 ], [ -97.793338, 30.243206 ], [ -97.793441, 30.243182 ], [ -97.793535, 30.243165 ], [ -97.793628, 30.243153 ], [ -97.793716, 30.243139 ], [ -97.79374, 30.243136 ], [ -97.793798, 30.243129 ], [ -97.793847, 30.243111 ], [ -97.79389, 30.243091 ], [ -97.793953, 30.243096 ], [ -97.794026, 30.243128 ], [ -97.794118, 30.243164 ], [ -97.794209, 30.243199 ], [ -97.794281, 30.24323 ], [ -97.794357, 30.243266 ], [ -97.794431, 30.243298 ], [ -97.794522, 30.243328 ], [ -97.794623, 30.243342 ], [ -97.794737, 30.243351 ], [ -97.794853, 30.243381 ], [ -97.794966, 30.243429 ], [ -97.795081, 30.243483 ], [ -97.7952, 30.243533 ], [ -97.795309, 30.243575 ], [ -97.795423, 30.24362 ], [ -97.795542, 30.243678 ], [ -97.795654, 30.243735 ], [ -97.795745, 30.243783 ], [ -97.795825, 30.243827 ], [ -97.795893, 30.243857 ], [ -97.795974, 30.243876 ], [ -97.79606, 30.243893 ], [ -97.796159, 30.243919 ], [ -97.796238, 30.243943 ], [ -97.79634, 30.243981 ], [ -97.796417, 30.244017 ], [ -97.796509, 30.244062 ], [ -97.796609, 30.244107 ], [ -97.796726, 30.244155 ], [ -97.796863, 30.244206 ], [ -97.797004, 30.244258 ], [ -97.79714, 30.244305 ], [ -97.797278, 30.244346 ], [ -97.797419, 30.244384 ], [ -97.797566, 30.244422 ], [ -97.797728, 30.24446 ], [ -97.797902, 30.244506 ], [ -97.798058, 30.244551 ], [ -97.798172, 30.244582 ], [ -97.798299, 30.24461 ], [ -97.798432, 30.244635 ], [ -97.798561, 30.24466 ], [ -97.798705, 30.244684 ], [ -97.798828, 30.244701 ], [ -97.798962, 30.244721 ], [ -97.799103, 30.244731 ], [ -97.799251, 30.244752 ], [ -97.799367, 30.244782 ], [ -97.799563, 30.244823 ], [ -97.799696, 30.244838 ], [ -97.799818, 30.244847 ], [ -97.799922, 30.244841 ], [ -97.800054, 30.244833 ], [ -97.800233, 30.244816 ], [ -97.800361, 30.244837 ], [ -97.80049, 30.244882 ], [ -97.800643, 30.244911 ], [ -97.800911, 30.244925 ], [ -97.801229, 30.24489 ], [ -97.801447, 30.244851 ], [ -97.8016, 30.244799 ], [ -97.801722, 30.244727 ], [ -97.80172, 30.244723 ], [ -97.801839, 30.244675 ], [ -97.802084, 30.244603 ], [ -97.802176, 30.244583 ], [ -97.80227, 30.244565 ], [ -97.802412, 30.244536 ], [ -97.802591, 30.244482 ], [ -97.802723, 30.244411 ], [ -97.802812, 30.244316 ], [ -97.80289, 30.244231 ], [ -97.802938, 30.244182 ], [ -97.802965, 30.244155 ], [ -97.80301, 30.244112 ], [ -97.803043, 30.24408 ], [ -97.803048, 30.244075 ], [ -97.803051, 30.244062 ], [ -97.803054, 30.244047 ], [ -97.803053, 30.244045 ], [ -97.803048, 30.244003 ], [ -97.803049, 30.243967 ], [ -97.803067, 30.24389 ], [ -97.803088, 30.243835 ], [ -97.803093, 30.243826 ], [ -97.803145, 30.24377 ], [ -97.803187, 30.243735 ], [ -97.803234, 30.2437 ], [ -97.803259, 30.243682 ], [ -97.803265, 30.243679 ], [ -97.80335, 30.243618 ], [ -97.803425, 30.243545 ], [ -97.803449, 30.24352 ], [ -97.803458, 30.243511 ], [ -97.803494, 30.243492 ], [ -97.803538, 30.243468 ] ] } },
{ "type": "Feature", "properties": { "cls": "shared", "highway": "path", "name": "Barton Creek Greenbelt & Violet Crown Trail" }, "geometry": { "type": "LineString", "coordinates": [ [ -97.795315, 30.24657 ], [ -97.795161, 30.246496 ], [ -97.795063, 30.246444 ], [ -97.794976, 30.246419 ], [ -97.794902, 30.246406 ], [ -97.794791, 30.246384 ], [ -97.794678, 30.246368 ], [ -97.794599, 30.246374 ], [ -97.794516, 30.246399 ], [ -97.794427, 30.24642 ], [ -97.794327, 30.246413 ], [ -97.794268, 30.246371 ], [ -97.79422, 30.246329 ], [ -97.794166, 30.246309 ], [ -97.794103, 30.246315 ], [ -97.794029, 30.24633 ], [ -97.79396, 30.246348 ], [ -97.793876, 30.246378 ], [ -97.793777, 30.246425 ], [ -97.793743, 30.246477 ], [ -97.793734, 30.246491 ], [ -97.793718, 30.246515 ], [ -97.7937, 30.246592 ], [ -97.793715, 30.24664 ], [ -97.793735, 30.246674 ], [ -97.793752, 30.246709 ], [ -97.793756, 30.246739 ], [ -97.793752, 30.246769 ], [ -97.79374, 30.246804 ], [ -97.793724, 30.246838 ], [ -97.793704, 30.246867 ], [ -97.793679, 30.246902 ], [ -97.793657, 30.246935 ], [ -97.793632, 30.24698 ], [ -97.793604, 30.247019 ], [ -97.793574, 30.247045 ], [ -97.793507, 30.247073 ], [ -97.793436, 30.247089 ], [ -97.793344, 30.2471 ] ] } },
{ "type": "Feature", "properties": { "cls": "shared", "highway": "cycleway", "name": "Barton Creek Greenbelt & Violet Crown Trail" }, "geometry": { "type": "LineString", "coordinates": [ [ -97.793344, 30.2471 ], [ -97.793479, 30.24714 ], [ -97.7936, 30.247155 ], [ -97.793709, 30.247178 ], [ -97.793808, 30.247205 ], [ -97.793919, 30.247225 ], [ -97.794049, 30.247228 ], [ -97.794174, 30.247202 ], [ -97.794299, 30.247152 ], [ -97.794417, 30.247092 ], [ -97.7945, 30.24704 ], [ -97.794643, 30.246946 ], [ -97.794841, 30.246815 ], [ -97.795054, 30.246676 ] ] } },
{ "type": "Feature", "properties": { "cls": "shared", "highway": "cycleway", "name": "Barton Creek Greenbelt & Violet Crown Trail" }, "geometry": { "type": "LineString", "coordinates": [ [ -97.795054, 30.246676 ], [ -97.795185, 30.246607 ], [ -97.795228, 30.246585 ], [ -97.795315, 30.24657 ], [ -97.795393, 30.246565 ], [ -97.79552, 30.246558 ], [ -97.795524, 30.246559 ], [ -97.795528, 30.246562 ], [ -97.795595, 30.246602 ], [ -97.795705, 30.246658 ], [ -97.795787, 30.24677 ], [ -97.79588, 30.246898 ], [ -97.795991, 30.247081 ], [ -97.796024, 30.247141 ], [ -97.796262, 30.247403 ], [ -97.796347, 30.247482 ], [ -97.796522, 30.247638 ], [ -97.796592, 30.247752 ], [ -97.796655, 30.247871 ], [ -97.796695, 30.247948 ], [ -97.796752, 30.248095 ], [ -97.796761, 30.248133 ], [ -97.796843, 30.248366 ], [ -97.796879, 30.248472 ], [ -97.796955, 30.248568 ], [ -97.797034, 30.248717 ], [ -97.797049, 30.24877 ], [ -97.797044, 30.248831 ], [ -97.797033, 30.248882 ], [ -97.797031, 30.248899 ], [ -97.797006, 30.24908 ], [ -97.796992, 30.249176 ], [ -97.79696, 30.249393 ], [ -97.796925, 30.249588 ], [ -97.796899, 30.24975 ], [ -97.796879, 30.249883 ], [ -97.796861, 30.250003 ], [ -97.796789, 30.250252 ], [ -97.79676, 30.250349 ], [ -97.796746, 30.250421 ], [ -97.796742, 30.250443 ], [ -97.79673, 30.250497 ], [ -97.796722, 30.250581 ], [ -97.796718, 30.250647 ], [ -97.796708, 30.250663 ], [ -97.796697, 30.250672 ], [ -97.796691, 30.250675 ], [ -97.796689, 30.250676 ], [ -97.796679, 30.250742 ], [ -97.796678, 30.250765 ], [ -97.796677, 30.250837 ], [ -97.796675, 30.250901 ], [ -97.796666, 30.250991 ], [ -97.79665, 30.251074 ], [ -97.796633, 30.251132 ], [ -97.796612, 30.251199 ], [ -97.79661, 30.251318 ], [ -97.796611, 30.251387 ], [ -97.796604, 30.251478 ], [ -97.796592, 30.251566 ], [ -97.796564, 30.251728 ], [ -97.796534, 30.251865 ], [ -97.796499, 30.251996 ], [ -97.796463, 30.252121 ], [ -97.796439, 30.252208 ], [ -97.796412, 30.252288 ], [ -97.796401, 30.252352 ], [ -97.796402, 30.252443 ], [ -97.796398, 30.252531 ], [ -97.796379, 30.252639 ], [ -97.796347, 30.252749 ], [ -97.796298, 30.252854 ], [ -97.796239, 30.25297 ], [ -97.796198, 30.253057 ], [ -97.796156, 30.253139 ], [ -97.796116, 30.253197 ], [ -97.796063, 30.253259 ], [ -97.795982, 30.253355 ], [ -97.795929, 30.253392 ], [ -97.795891, 30.253396 ] ] } },
{ "type": "Feature", "properties": { "cls": "shared", "highway": "cycleway", "name": "Barton Creek Greenbelt & Violet Crown Trail" }, "geometry": { "type": "LineString", "coordinates": [ [ -97.795891, 30.253396 ], [ -97.79588, 30.253351 ], [ -97.795781, 30.253259 ], [ -97.795693, 30.253241 ], [ -97.795603, 30.2532 ] ] } },
{ "type": "Feature", "properties": { "cls": "shared", "highway": "cycleway", "name": "Barton Creek Greenbelt & Violet Crown Trail" }, "geometry": { "type": "LineString", "coordinates": [ [ -97.795603, 30.2532 ], [ -97.795564, 30.253228 ], [ -97.79556, 30.253244 ], [ -97.795516, 30.253249 ], [ -97.795362, 30.253408 ], [ -97.795283, 30.253496 ], [ -97.794861, 30.253701 ], [ -97.794522, 30.253797 ], [ -97.794384, 30.25375 ], [ -97.794098, 30.253733 ], [ -97.793828, 30.253797 ], [ -97.793588, 30.25385 ], [ -97.793232, 30.253926 ], [ -97.793068, 30.254019 ] ] } },
{ "type": "Feature", "properties": { "cls": "separated", "highway": "cycleway", "name": "Barton Creek Greenbelt" }, "geometry": { "type": "LineString", "coordinates": [ [ -97.792832, 30.254787 ], [ -97.793148, 30.254742 ], [ -97.793484, 30.254738 ], [ -97.79361, 30.254706 ], [ -97.793704, 30.254617 ], [ -97.793788, 30.254581 ], [ -97.793961, 30.254576 ], [ -97.794189, 30.254496 ], [ -97.794381, 30.254383 ], [ -97.7946, 30.25429 ], [ -97.79482, 30.254201 ], [ -97.795007, 30.254117 ], [ -97.79524, 30.254 ], [ -97.795366, 30.253959 ], [ -97.795488, 30.25385 ], [ -97.795604, 30.253713 ], [ -97.795759, 30.253572 ], [ -97.795891, 30.253396 ] ] } },
{ "type": "Feature", "properties": { "cls": "shared", "highway": "cycleway", "name": "Barton Creek Greenbelt & Violet CrownTrail" }, "geometry": { "type": "LineString", "coordinates": [ [ -97.787008, 30.257093 ], [ -97.786992, 30.257154 ], [ -97.787005, 30.257315 ], [ -97.787024, 30.257352 ] ] } },
{ "type": "Feature", "properties": { "cls": "separated", "highway": "cycleway", "name": "Barton Creek Greenbelt" }, "geometry": { "type": "LineString", "coordinates": [ [ -97.790708, 30.246375 ], [ -97.790323, 30.246209 ], [ -97.790012, 30.24607 ], [ -97.789818, 30.245931 ], [ -97.789668, 30.245774 ], [ -97.789491, 30.245551 ], [ -97.789352, 30.245269 ], [ -97.789293, 30.245037 ], [ -97.789298, 30.244615 ], [ -97.78932, 30.244263 ], [ -97.789314, 30.243906 ], [ -97.789454, 30.243373 ], [ -97.789652, 30.242956 ], [ -97.789754, 30.242785 ], [ -97.790092, 30.242604 ], [ -97.790494, 30.24247 ], [ -97.790924, 30.242358 ], [ -97.79139, 30.242303 ], [ -97.791632, 30.242261 ], [ -97.791862, 30.242201 ], [ -97.792131, 30.242145 ], [ -97.792291, 30.242055 ], [ -97.792326, 30.242043 ], [ -97.792377, 30.242068 ], [ -97.792436, 30.242106 ], [ -97.7925, 30.242204 ], [ -97.792565, 30.242264 ], [ -97.792588, 30.242327 ], [ -97.79258, 30.242355 ], [ -97.792556, 30.242387 ], [ -97.792581, 30.242516 ], [ -97.792764, 30.24278 ], [ -97.792914, 30.242961 ], [ -97.793226, 30.243243 ] ] } },
{ "type": "Feature", "properties": { "cls": "shared", "highway": "cycleway", "name": null }, "geometry": { "type": "LineString", "coordinates": [ [ -97.800233, 30.244816 ], [ -97.80018, 30.244747 ], [ -97.800107, 30.244706 ], [ -97.800028, 30.244655 ], [ -97.800016, 30.244627 ], [ -97.800058, 30.244602 ], [ -97.800132, 30.244577 ], [ -97.800213, 30.244538 ], [ -97.80024, 30.244513 ], [ -97.800235, 30.24448 ], [ -97.800213, 30.244468 ], [ -97.800156, 30.244463 ], [ -97.800089, 30.244452 ], [ -97.800062, 30.244433 ], [ -97.800062, 30.244415 ], [ -97.800071, 30.244394 ], [ -97.800112, 30.244371 ], [ -97.800191, 30.244355 ], [ -97.800286, 30.244335 ], [ -97.800397, 30.244273 ], [ -97.800473, 30.24419 ], [ -97.800496, 30.244123 ], [ -97.800531, 30.244033 ], [ -97.800545, 30.243956 ], [ -97.800543, 30.243859 ], [ -97.80054, 30.243833 ] ] } },
{ "type": "Feature", "properties": { "cls": "shared", "highway": "cycleway", "name": "Barton Creek Greenbelt & Violet Crown Trail" }, "geometry": { "type": "MultiLineString", "coordinates": [ [ [ -97.793068, 30.254019 ], [ -97.79307, 30.254103 ], [ -97.793034, 30.25424 ], [ -97.792967, 30.254374 ], [ -97.792908, 30.254508 ], [ -97.792896, 30.254602 ], [ -97.792891, 30.254697 ], [ -97.792876, 30.254726 ], [ -97.792832, 30.254787 ], [ -97.792781, 30.254829 ], [ -97.792715, 30.254856 ], [ -97.792648, 30.25488 ], [ -97.792594, 30.254896 ], [ -97.792551, 30.254905 ], [ -97.792528, 30.254904 ], [ -97.792524, 30.254899 ], [ -97.79251, 30.254898 ], [ -97.792483, 30.254908 ], [ -97.792392, 30.254956 ], [ -97.792355, 30.254974 ], [ -97.792287, 30.255005 ], [ -97.792218, 30.255034 ], [ -97.792121, 30.255066 ], [ -97.792026, 30.255089 ], [ -97.791971, 30.255099 ], [ -97.791967, 30.255098 ], [ -97.791832, 30.255115 ], [ -97.791734, 30.255137 ], [ -97.791599, 30.255206 ], [ -97.791573, 30.255234 ], [ -97.791534, 30.255277 ] ], [ [ -97.790584, 30.255666 ], [ -97.79051, 30.255673 ], [ -97.790328, 30.255718 ], [ -97.790238, 30.255756 ], [ -97.790212, 30.255769 ], [ -97.790089, 30.255821 ], [ -97.78997, 30.255874 ], [ -97.789924, 30.255897 ], [ -97.789863, 30.255923 ], [ -97.789809, 30.255941 ], [ -97.789781, 30.25595 ], [ -97.789727, 30.25597 ], [ -97.789626, 30.256007 ], [ -97.789468, 30.256063 ], [ -97.78928, 30.256121 ], [ -97.789117, 30.25618 ], [ -97.789008, 30.25624 ], [ -97.78893, 30.256294 ], [ -97.788864, 30.256338 ], [ -97.788816, 30.256365 ], [ -97.788746, 30.2564 ], [ -97.788671, 30.256438 ], [ -97.788599, 30.256478 ], [ -97.788527, 30.256517 ], [ -97.788447, 30.256556 ], [ -97.788364, 30.25659 ], [ -97.788293, 30.256614 ], [ -97.788188, 30.256645 ], [ -97.788104, 30.256639 ], [ -97.788025, 30.256665 ], [ -97.787926, 30.256708 ], [ -97.787852, 30.256745 ], [ -97.787748, 30.256783 ], [ -97.787677, 30.256811 ], [ -97.787559, 30.256863 ], [ -97.787455, 30.256903 ], [ -97.78738, 30.256935 ], [ -97.787308, 30.256959 ], [ -97.787256, 30.256976 ], [ -97.787218, 30.256986 ], [ -97.787153, 30.257024 ], [ -97.78714, 30.257032 ], [ -97.787008, 30.257093 ], [ -97.786834, 30.257124 ], [ -97.7867, 30.257155 ], [ -97.7866, 30.257165 ], [ -97.78648, 30.257177 ], [ -97.7864, 30.257216 ], [ -97.786301, 30.257281 ], [ -97.786218, 30.257337 ], [ -97.786141, 30.257384 ], [ -97.786058, 30.257431 ], [ -97.78599, 30.257469 ], [ -97.78589, 30.257546 ], [ -97.785801, 30.257651 ], [ -97.785727, 30.257749 ], [ -97.785657, 30.257835 ], [ -97.785589, 30.257915 ], [ -97.785537, 30.257977 ], [ -97.785467, 30.258044 ], [ -97.78537, 30.258119 ], [ -97.785268, 30.258213 ], [ -97.785165, 30.25833 ], [ -97.785067, 30.258458 ], [ -97.784948, 30.258573 ], [ -97.784894, 30.258679 ], [ -97.784792, 30.258801 ], [ -97.784698, 30.258953 ], [ -97.784758, 30.259121 ], [ -97.784819, 30.25934 ], [ -97.785078, 30.259561 ], [ -97.785245, 30.259632 ], [ -97.78547, 30.259741 ], [ -97.785621, 30.259881 ], [ -97.785723, 30.260029 ], [ -97.785761, 30.260225 ], [ -97.785743, 30.260426 ], [ -97.785654, 30.2606 ], [ -97.785509, 30.260729 ], [ -97.785375, 30.260844 ], [ -97.785334, 30.260882 ], [ -97.785263, 30.26099 ], [ -97.785175, 30.261065 ], [ -97.78507, 30.261134 ], [ -97.784922, 30.261238 ], [ -97.784766, 30.261339 ], [ -97.784658, 30.261383 ], [ -97.784485, 30.261486 ], [ -97.784143, 30.261614 ], [ -97.783873, 30.261684 ], [ -97.783565, 30.261762 ], [ -97.783195, 30.261844 ], [ -97.782715, 30.26199 ], [ -97.782393, 30.262097 ], [ -97.78208, 30.262235 ], [ -97.781654, 30.262404 ], [ -97.781307, 30.262531 ], [ -97.781047, 30.262646 ], [ -97.780765, 30.26271 ], [ -97.780551, 30.262739 ], [ -97.780365, 30.262811 ], [ -97.780149, 30.262884 ], [ -97.779907, 30.262939 ], [ -97.779647, 30.263005 ], [ -97.779454, 30.263107 ], [ -97.779293, 30.263199 ], [ -97.779143, 30.263282 ], [ -97.778895, 30.263378 ], [ -97.778615, 30.263422 ], [ -97.778447, 30.263458 ] ] ] } }
]
}
