{
"type": "FeatureCollection",
"name": "117-jacksonville-little-talbot-island-state-park",
"crs": { "type": "name", "properties": { "name": "urn:ogc:def:crs:OGC:1.3:CRS84" } },
"xy_coordinate_resolution": 1e-06,
"features": [
{ "type": "Feature", "properties": { "cls": "separated", "highway": "cycleway", "name": null }, "geometry": { "type": "LineString", "coordinates": [ [ -81.411827, 30.429499 ], [ -81.411317, 30.429646 ], [ -81.410796, 30.429889 ], [ -81.410692, 30.42999 ], [ -81.410745, 30.430126 ], [ -81.410489, 30.430473 ], [ -81.41036, 30.430922 ] ] } },
{ "type": "Feature", "properties": { "cls": "separated", "highway": "cycleway", "name": null }, "geometry": { "type": "LineString", "coordinates": [ [ -81.412681, 30.436788 ], [ -81.412557, 30.436596 ], [ -81.411796, 30.43408 ], [ -81.411731, 30.433974 ], [ -81.411637, 30.433746 ] ] } },
{ "type": "Feature", "properties": { "cls": "shared", "highway": "cycleway", "name": "Timucuan Trail" }, "geometry": { "type": "MultiLineString", "coordinates": [ [ [ -81.41727, 30.459197 ], [ -81.418101, 30.458547 ], [ -81.418195, 30.45852 ], [ -81.418337, 30.45851 ], [ -81.418459, 30.458518 ], [ -81.41853, 30.458542 ], [ -81.418667, 30.458634 ], [ -81.418844, 30.458798 ], [ -81.419184, 30.459072 ], [ -81.419649, 30.45936 ], [ -81.420268, 30.459765 ], [ -81.420743, 30.460036 ], [ -81.421379, 30.460351 ], [ -81.422298, 30.460751 ], [ -81.422902, 30.46097 ], [ -81.423162, 30.461042 ] ], [ [ -81.424844, 30.461506 ], [ -81.428586, 30.462538 ], [ -81.431169, 30.463284 ] ] ] } },
{ "type": "Feature", "properties": { "cls": "shared", "highway": "cycleway", "name": "Timucuan Trail" }, "geometry": { "type": "LineString", "coordinates": [ [ -81.431169, 30.463284 ], [ -81.431307, 30.463324 ] ] } }
]
}
