{
"type": "FeatureCollection",
"name": "118-dublin-phoenix-park",
"crs": { "type": "name", "properties": { "name": "urn:ogc:def:crs:OGC:1.3:CRS84" } },
"xy_coordinate_resolution": 1e-06,
"features": [
{ "type": "Feature", "properties": { "cls": "separated", "highway": "secondary", "name": "Parkgate Street" }, "geometry": { "type": "Point", "coordinates": [ -6.295005, 53.348129 ] } },
{ "type": "Feature", "properties": { "cls": "separated", "highway": "secondary", "name": "Conyngham Road" }, "geometry": { "type": "LineString", "coordinates": [ [ -6.295209, 53.348137 ], [ -6.295005, 53.348129 ] ] } },
{ "type": "Feature", "properties": { "cls": "separated", "highway": "secondary", "name": "Conyngham Road" }, "geometry": { "type": "MultiLineString", "coordinates": [ [ [ -6.295431, 53.348147 ], [ -6.295367, 53.348144 ] ], [ [ -6.295367, 53.348144 ], [ -6.295209, 53.348137 ] ] ] } },
{ "type": "Feature", "properties": { "cls": "separated", "highway": "secondary", "name": "Conyngham Road" }, "geometry": { "type": "MultiLineString", "coordinates": [ [ [ -6.296147, 53.348179 ], [ -6.29604, 53.348177 ] ], [ [ -6.29604, 53.348177 ], [ -6.295895, 53.348173 ] ], [ [ -6.295895, 53.348173 ], [ -6.295431, 53.348147 ] ] ] } },
{ "type": "Feature", "properties": { "cls": "advisory", "highway": "secondary", "name": "Conyngham Road" }, "geometry": { "type": "Point", "coordinates": [ -6.296987, 53.348196 ] } },
{ "type": "Feature", "properties": { "cls": "shared", "highway": "cycleway", "name": null }, "geometry": { "type": "LineString", "coordinates": [ [ -6.296967, 53.348195 ], [ -6.296964, 53.348252 ] ] } },
{ "type": "Feature", "properties": { "cls": "advisory", "highway": "secondary", "name": "Conyngham Road" }, "geometry": { "type": "MultiLineString", "coordinates": [ [ [ -6.296947, 53.348195 ], [ -6.296911, 53.348194 ] ], [ [ -6.296911, 53.348194 ], [ -6.296811, 53.348192 ] ], [ [ -6.296811, 53.348192 ], [ -6.296713, 53.34819 ] ] ] } },
{ "type": "Feature", "properties": { "cls": "advisory", "highway": "secondary", "name": "Conyngham Road" }, "geometry": { "type": "LineString", "coordinates": [ [ -6.296713, 53.34819 ], [ -6.296297, 53.348181 ] ] } },
{ "type": "Feature", "properties": { "cls": "advisory", "highway": "secondary", "name": "Conyngham Road" }, "geometry": { "type": "LineString", "coordinates": [ [ -6.296297, 53.348181 ], [ -6.296243, 53.34818 ] ] } },
{ "type": "Feature", "properties": { "cls": "advisory", "highway": "secondary", "name": "Conyngham Road" }, "geometry": { "type": "LineString", "coordinates": [ [ -6.296243, 53.34818 ], [ -6.296147, 53.348179 ] ] } },
{ "type": "Feature", "properties": { "cls": "painted", "highway": "secondary", "name": "Infirmary Road" }, "geometry": { "type": "MultiLineString", "coordinates": [ [ [ -6.295005, 53.348129 ], [ -6.294993, 53.34818 ] ], [ [ -6.294993, 53.34818 ], [ -6.294976, 53.348248 ] ] ] } },
{ "type": "Feature", "properties": { "cls": "separated", "highway": "cycleway", "name": null }, "geometry": { "type": "LineString", "coordinates": [ [ -6.304667, 53.349339 ], [ -6.304612, 53.349378 ], [ -6.304502, 53.349472 ], [ -6.304398, 53.349589 ], [ -6.304349, 53.349652 ], [ -6.304232, 53.349834 ], [ -6.304099, 53.350096 ], [ -6.304039, 53.350248 ], [ -6.303956, 53.350439 ], [ -6.303902, 53.350546 ], [ -6.303868, 53.350596 ], [ -6.303854, 53.350616 ] ] } },
{ "type": "Feature", "properties": { "cls": "painted", "highway": "tertiary", "name": "Chesterfield Avenue" }, "geometry": { "type": "LineString", "coordinates": [ [ -6.302064, 53.350289 ], [ -6.303392, 53.350773 ] ] } },
{ "type": "Feature", "properties": { "cls": "painted", "highway": "secondary", "name": "Infirmary Road" }, "geometry": { "type": "MultiLineString", "coordinates": [ [ [ -6.29497, 53.348271 ], [ -6.294964, 53.348295 ] ], [ [ -6.294964, 53.348295 ], [ -6.294962, 53.348305 ] ] ] } },
{ "type": "Feature", "properties": { "cls": "painted", "highway": "secondary", "name": "Infirmary Road" }, "geometry": { "type": "MultiLineString", "coordinates": [ [ [ -6.294962, 53.348305 ], [ -6.294906, 53.348538 ] ], [ [ -6.294906, 53.348538 ], [ -6.294894, 53.348591 ] ] ] } },
{ "type": "Feature", "properties": { "cls": "painted", "highway": "secondary", "name": "Infirmary Road" }, "geometry": { "type": "Point", "coordinates": [ -6.294894, 53.348591 ] } },
{ "type": "Feature", "properties": { "cls": "separated", "highway": "tertiary", "name": "Chesterfield Avenue" }, "geometry": { "type": "LineString", "coordinates": [ [ -6.29739, 53.348591 ], [ -6.301515, 53.350089 ], [ -6.302064, 53.350289 ] ] } },
{ "type": "Feature", "properties": { "cls": "shared", "highway": "cycleway", "name": null }, "geometry": { "type": "LineString", "coordinates": [ [ -6.30375, 53.350589 ], [ -6.303782, 53.350597 ] ] } },
{ "type": "Feature", "properties": { "cls": "shared", "highway": "cycleway", "name": null }, "geometry": { "type": "LineString", "coordinates": [ [ -6.303782, 53.350597 ], [ -6.303807, 53.350604 ] ] } },
{ "type": "Feature", "properties": { "cls": "shared", "highway": "cycleway", "name": null }, "geometry": { "type": "LineString", "coordinates": [ [ -6.303807, 53.350604 ], [ -6.303854, 53.350616 ] ] } },
{ "type": "Feature", "properties": { "cls": "painted", "highway": "unclassified", "name": "Wellington Road" }, "geometry": { "type": "LineString", "coordinates": [ [ -6.303635, 53.350725 ], [ -6.303706, 53.350692 ], [ -6.30374, 53.350666 ], [ -6.303784, 53.350625 ] ] } },
{ "type": "Feature", "properties": { "cls": "separated", "highway": "cycleway", "name": null }, "geometry": { "type": "LineString", "coordinates": [ [ -6.303854, 53.350616 ], [ -6.30384, 53.350636 ], [ -6.303799, 53.350689 ], [ -6.303776, 53.350738 ], [ -6.303774, 53.350772 ], [ -6.303778, 53.350806 ] ] } },
{ "type": "Feature", "properties": { "cls": "painted", "highway": "tertiary", "name": "Chesterfield Avenue" }, "geometry": { "type": "LineString", "coordinates": [ [ -6.304565, 53.351249 ], [ -6.304194, 53.351101 ], [ -6.303851, 53.350946 ], [ -6.303781, 53.350898 ] ] } },
{ "type": "Feature", "properties": { "cls": "separated", "highway": "tertiary", "name": "Chesterfield Avenue" }, "geometry": { "type": "LineString", "coordinates": [ [ -6.308681, 53.352957 ], [ -6.307285, 53.352379 ], [ -6.306071, 53.351874 ], [ -6.306043, 53.351862 ], [ -6.305266, 53.351539 ], [ -6.304565, 53.351249 ] ] } },
{ "type": "Feature", "properties": { "cls": "sharrow", "highway": "unclassified", "name": "North Road" }, "geometry": { "type": "LineString", "coordinates": [ [ -6.303836, 53.357037 ], [ -6.303594, 53.356646 ], [ -6.30331, 53.356195 ], [ -6.303061, 53.355781 ], [ -6.303006, 53.355702 ], [ -6.30285, 53.35532 ], [ -6.302746, 53.355065 ], [ -6.302614, 53.354614 ], [ -6.302612, 53.354607 ], [ -6.302419, 53.354099 ], [ -6.302145, 53.353742 ], [ -6.302048, 53.353624 ], [ -6.301976, 53.353553 ], [ -6.301758, 53.353366 ] ] } },
{ "type": "Feature", "properties": { "cls": "shared", "highway": "path", "name": null }, "geometry": { "type": "LineString", "coordinates": [ [ -6.307713, 53.356887 ], [ -6.306716, 53.356931 ] ] } },
{ "type": "Feature", "properties": { "cls": "painted", "highway": "unclassified", "name": "Spa Road" }, "geometry": { "type": "LineString", "coordinates": [ [ -6.306716, 53.356931 ], [ -6.306662, 53.356933 ], [ -6.306433, 53.356926 ], [ -6.305809, 53.356836 ], [ -6.305427, 53.356814 ], [ -6.305139, 53.356808 ], [ -6.304945, 53.356834 ], [ -6.304727, 53.356866 ], [ -6.303836, 53.357037 ] ] } },
{ "type": "Feature", "properties": { "cls": "painted", "highway": "unclassified", "name": "North Road" }, "geometry": { "type": "LineString", "coordinates": [ [ -6.303862, 53.357082 ], [ -6.303836, 53.357037 ] ] } },
{ "type": "Feature", "properties": { "cls": "separated", "highway": "cycleway", "name": null }, "geometry": { "type": "LineString", "coordinates": [ [ -6.332679, 53.349442 ], [ -6.332349, 53.349432 ], [ -6.331728, 53.349396 ], [ -6.330788, 53.349336 ], [ -6.330158, 53.349294 ], [ -6.329344, 53.349238 ], [ -6.327526, 53.349099 ], [ -6.326698, 53.349035 ], [ -6.326221, 53.348998 ], [ -6.32524, 53.348885 ], [ -6.324233, 53.348789 ], [ -6.322918, 53.348656 ], [ -6.322579, 53.348622 ], [ -6.321286, 53.348489 ], [ -6.320305, 53.348392 ], [ -6.319559, 53.348318 ], [ -6.318928, 53.348255 ], [ -6.318773, 53.34823 ] ] } },
{ "type": "Feature", "properties": { "cls": "separated", "highway": "cycleway", "name": null }, "geometry": { "type": "LineString", "coordinates": [ [ -6.313315, 53.348917 ], [ -6.31321, 53.348984 ] ] } },
{ "type": "Feature", "properties": { "cls": "separated", "highway": "cycleway", "name": null }, "geometry": { "type": "LineString", "coordinates": [ [ -6.31321, 53.348984 ], [ -6.313026, 53.348966 ], [ -6.312975, 53.348964 ], [ -6.312722, 53.348948 ], [ -6.312361, 53.348906 ], [ -6.311816, 53.348822 ], [ -6.31117, 53.348709 ], [ -6.31047, 53.348556 ], [ -6.310161, 53.348531 ], [ -6.309878, 53.348534 ], [ -6.30957, 53.348548 ], [ -6.308327, 53.348669 ], [ -6.307587, 53.348709 ], [ -6.307198, 53.348737 ], [ -6.307031, 53.348749 ], [ -6.306825, 53.348764 ], [ -6.306567, 53.348798 ], [ -6.306045, 53.348897 ], [ -6.305382, 53.349043 ], [ -6.304991, 53.349152 ], [ -6.304849, 53.349222 ], [ -6.304667, 53.349339 ] ] } },
{ "type": "Feature", "properties": { "cls": "separated", "highway": "cycleway", "name": null }, "geometry": { "type": "LineString", "coordinates": [ [ -6.318773, 53.34823 ], [ -6.318478, 53.348224 ], [ -6.318243, 53.348215 ], [ -6.318144, 53.348212 ], [ -6.317989, 53.348214 ], [ -6.317968, 53.348218 ], [ -6.317934, 53.348226 ], [ -6.317901, 53.348251 ], [ -6.317886, 53.348298 ], [ -6.317899, 53.34835 ], [ -6.318043, 53.348611 ], [ -6.318395, 53.349141 ], [ -6.318723, 53.349634 ], [ -6.319082, 53.350184 ], [ -6.319198, 53.350363 ], [ -6.319474, 53.350788 ], [ -6.319936, 53.35155 ], [ -6.319991, 53.351639 ], [ -6.320031, 53.351697 ], [ -6.320064, 53.351744 ], [ -6.320123, 53.351809 ], [ -6.320242, 53.35185 ], [ -6.320488, 53.351922 ], [ -6.320741, 53.352004 ], [ -6.320974, 53.352097 ], [ -6.321263, 53.352236 ], [ -6.321573, 53.352408 ], [ -6.321893, 53.352571 ], [ -6.322133, 53.352683 ], [ -6.3227, 53.352918 ], [ -6.323203, 53.353121 ], [ -6.324593, 53.353674 ], [ -6.325022, 53.353861 ], [ -6.325224, 53.353936 ], [ -6.325383, 53.35401 ], [ -6.325491, 53.354079 ], [ -6.325537, 53.354127 ], [ -6.325561, 53.354151 ], [ -6.325657, 53.354228 ], [ -6.325771, 53.354312 ], [ -6.325894, 53.35438 ], [ -6.32599, 53.354412 ] ] } },
{ "type": "Feature", "properties": { "cls": "separated", "highway": "cycleway", "name": null }, "geometry": { "type": "LineString", "coordinates": [ [ -6.332349, 53.349432 ], [ -6.332244, 53.349476 ], [ -6.331812, 53.349703 ], [ -6.331447, 53.349903 ], [ -6.330815, 53.35026 ], [ -6.330388, 53.350549 ], [ -6.329772, 53.350982 ], [ -6.329413, 53.351245 ], [ -6.328928, 53.35162 ], [ -6.328674, 53.35182 ], [ -6.328424, 53.352021 ], [ -6.328146, 53.352252 ], [ -6.327866, 53.352493 ], [ -6.327673, 53.352661 ], [ -6.327484, 53.352829 ], [ -6.327416, 53.352889 ], [ -6.327224, 53.353063 ], [ -6.326947, 53.353327 ], [ -6.326639, 53.353627 ], [ -6.326408, 53.353849 ], [ -6.326313, 53.353945 ], [ -6.326179, 53.354081 ], [ -6.32608, 53.354186 ], [ -6.325994, 53.354277 ], [ -6.325894, 53.35438 ], [ -6.325649, 53.354662 ], [ -6.325427, 53.354916 ], [ -6.325094, 53.355327 ], [ -6.324952, 53.355508 ], [ -6.324888, 53.35559 ], [ -6.324758, 53.355761 ], [ -6.324644, 53.355895 ], [ -6.324593, 53.355933 ], [ -6.324565, 53.355948 ], [ -6.324536, 53.355957 ] ] } },
{ "type": "Feature", "properties": { "cls": "separated", "highway": "cycleway", "name": "Khyber Road" }, "geometry": { "type": "LineString", "coordinates": [ [ -6.315303, 53.35026 ], [ -6.315316, 53.350277 ], [ -6.315407, 53.35053 ], [ -6.315447, 53.350715 ], [ -6.31556, 53.350889 ], [ -6.315624, 53.350996 ], [ -6.315711, 53.3511 ], [ -6.315881, 53.351264 ], [ -6.316, 53.351361 ], [ -6.316342, 53.351628 ], [ -6.316707, 53.351876 ], [ -6.316954, 53.352039 ], [ -6.317206, 53.352187 ], [ -6.317393, 53.352273 ], [ -6.317599, 53.352346 ], [ -6.318223, 53.352492 ], [ -6.318809, 53.352618 ], [ -6.319113, 53.352692 ], [ -6.319402, 53.352773 ], [ -6.319904, 53.352934 ], [ -6.321453, 53.353429 ], [ -6.322149, 53.353726 ], [ -6.322714, 53.354039 ], [ -6.323162, 53.354375 ], [ -6.323542, 53.354706 ], [ -6.323831, 53.354987 ], [ -6.324036, 53.355214 ], [ -6.324217, 53.355445 ], [ -6.32437, 53.355691 ], [ -6.324536, 53.355957 ], [ -6.324554, 53.355987 ], [ -6.324711, 53.356135 ] ] } },
{ "type": "Feature", "properties": { "cls": "separated", "highway": "cycleway", "name": null }, "geometry": { "type": "LineString", "coordinates": [ [ -6.315195, 53.355572 ], [ -6.3151, 53.355646 ], [ -6.314991, 53.35573 ], [ -6.314863, 53.355856 ], [ -6.314827, 53.35589 ], [ -6.314723, 53.356004 ], [ -6.31463, 53.356083 ], [ -6.314432, 53.356212 ], [ -6.314135, 53.356372 ], [ -6.314047, 53.356411 ], [ -6.313906, 53.356465 ], [ -6.313803, 53.356497 ], [ -6.313658, 53.356541 ], [ -6.313296, 53.356629 ], [ -6.313131, 53.356662 ], [ -6.313071, 53.356675 ], [ -6.312916, 53.356705 ], [ -6.312776, 53.356724 ], [ -6.312633, 53.356744 ], [ -6.312482, 53.356759 ], [ -6.312333, 53.356767 ], [ -6.312192, 53.356768 ], [ -6.312033, 53.356763 ], [ -6.311599, 53.356757 ], [ -6.311338, 53.356753 ], [ -6.31115, 53.356752 ], [ -6.311065, 53.356752 ], [ -6.310954, 53.356761 ], [ -6.310551, 53.356811 ], [ -6.31029, 53.356847 ], [ -6.310222, 53.356848 ], [ -6.310194, 53.356848 ], [ -6.310085, 53.356837 ], [ -6.310026, 53.356823 ], [ -6.309931, 53.356789 ], [ -6.309814, 53.356749 ], [ -6.30974, 53.356731 ], [ -6.309649, 53.356713 ], [ -6.309536, 53.3567 ], [ -6.309389, 53.356689 ], [ -6.308866, 53.356669 ], [ -6.308748, 53.35667 ], [ -6.308653, 53.356672 ], [ -6.308569, 53.356681 ], [ -6.308469, 53.356696 ], [ -6.308342, 53.356725 ], [ -6.307816, 53.356888 ], [ -6.307713, 53.356887 ] ] } },
{ "type": "Feature", "properties": { "cls": "separated", "highway": "cycleway", "name": null }, "geometry": { "type": "LineString", "coordinates": [ [ -6.332918, 53.349543 ], [ -6.33288, 53.349496 ], [ -6.332823, 53.349463 ], [ -6.332767, 53.34945 ], [ -6.332679, 53.349442 ] ] } },
{ "type": "Feature", "properties": { "cls": "separated", "highway": "tertiary", "name": "Chesterfield Avenue" }, "geometry": { "type": "LineString", "coordinates": [ [ -6.33277, 53.36304 ], [ -6.330295, 53.361997 ], [ -6.326051, 53.360219 ] ] } },
{ "type": "Feature", "properties": { "cls": "sharrow", "highway": "unclassified", "name": "Ordnance Survey Road" }, "geometry": { "type": "LineString", "coordinates": [ [ -6.349386, 53.359659 ], [ -6.348067, 53.360525 ], [ -6.347754, 53.360732 ], [ -6.347547, 53.360968 ], [ -6.347253, 53.361352 ], [ -6.346844, 53.362074 ], [ -6.346652, 53.362481 ], [ -6.346464, 53.362836 ], [ -6.346263, 53.363121 ], [ -6.346155, 53.363235 ], [ -6.346031, 53.363335 ], [ -6.345859, 53.363498 ], [ -6.345712, 53.363608 ], [ -6.345584, 53.363705 ], [ -6.345131, 53.364039 ], [ -6.344727, 53.36433 ], [ -6.344423, 53.364549 ], [ -6.343764, 53.365024 ], [ -6.343501, 53.365215 ], [ -6.343215, 53.365421 ], [ -6.343091, 53.365516 ], [ -6.34283, 53.365695 ] ] } },
{ "type": "Feature", "properties": { "cls": "separated", "highway": "tertiary", "name": "Chesterfield Avenue" }, "geometry": { "type": "LineString", "coordinates": [ [ -6.325583, 53.360021 ], [ -6.324513, 53.359575 ], [ -6.3235, 53.359154 ], [ -6.321455, 53.3583 ], [ -6.3209, 53.358069 ], [ -6.318995, 53.357275 ], [ -6.317126, 53.356494 ], [ -6.315604, 53.355857 ], [ -6.3151, 53.355646 ], [ -6.312146, 53.354402 ], [ -6.310401, 53.353675 ], [ -6.308681, 53.352957 ] ] } },
{ "type": "Feature", "properties": { "cls": "separated", "highway": "cycleway", "name": null }, "geometry": { "type": "LineString", "coordinates": [ [ -6.324536, 53.355957 ], [ -6.32448, 53.355981 ], [ -6.324446, 53.356006 ], [ -6.324443, 53.356031 ], [ -6.324539, 53.356204 ], [ -6.324581, 53.356297 ], [ -6.324585, 53.356362 ], [ -6.324568, 53.356469 ], [ -6.324493, 53.356656 ], [ -6.3244, 53.356803 ], [ -6.324241, 53.356992 ], [ -6.324145, 53.357094 ], [ -6.324015, 53.357195 ], [ -6.323599, 53.357425 ] ] } },
{ "type": "Feature", "properties": { "cls": "painted", "highway": "service", "name": null }, "geometry": { "type": "LineString", "coordinates": [ [ -6.325134, 53.357145 ], [ -6.325173, 53.357128 ] ] } },
{ "type": "Feature", "properties": { "cls": "separated", "highway": "cycleway", "name": null }, "geometry": { "type": "LineString", "coordinates": [ [ -6.323599, 53.357425 ], [ -6.323878, 53.357361 ], [ -6.323992, 53.357333 ], [ -6.324474, 53.357223 ], [ -6.324731, 53.357171 ], [ -6.324991, 53.357132 ], [ -6.325118, 53.357111 ], [ -6.325173, 53.357128 ] ] } },
{ "type": "Feature", "properties": { "cls": "painted", "highway": "service", "name": null }, "geometry": { "type": "LineString", "coordinates": [ [ -6.323599, 53.357425 ], [ -6.323791, 53.357391 ], [ -6.323906, 53.357391 ], [ -6.3247, 53.357214 ], [ -6.3251, 53.357155 ], [ -6.325134, 53.357145 ] ] } },
{ "type": "Feature", "properties": { "cls": "separated", "highway": "cycleway", "name": null }, "geometry": { "type": "LineString", "coordinates": [ [ -6.323599, 53.357425 ], [ -6.323319, 53.357498 ], [ -6.322936, 53.35759 ], [ -6.322591, 53.357672 ], [ -6.322317, 53.35772 ], [ -6.321974, 53.357757 ], [ -6.3216, 53.357804 ], [ -6.32142, 53.357837 ], [ -6.321225, 53.357898 ] ] } },
{ "type": "Feature", "properties": { "cls": "separated", "highway": "cycleway", "name": null }, "geometry": { "type": "LineString", "coordinates": [ [ -6.321225, 53.357898 ], [ -6.32099, 53.357995 ], [ -6.320946, 53.358028 ], [ -6.3209, 53.358069 ] ] } },
{ "type": "Feature", "properties": { "cls": "painted", "highway": "unclassified", "name": "North Road" }, "geometry": { "type": "MultiLineString", "coordinates": [ [ [ -6.314918, 53.363112 ], [ -6.314725, 53.363037 ], [ -6.314581, 53.362985 ], [ -6.314443, 53.362936 ], [ -6.314256, 53.362873 ], [ -6.312928, 53.362408 ], [ -6.311599, 53.361941 ], [ -6.311133, 53.361756 ], [ -6.310963, 53.361691 ], [ -6.310647, 53.361568 ], [ -6.310446, 53.361489 ], [ -6.310302, 53.361432 ], [ -6.309807, 53.361232 ], [ -6.309806, 53.361232 ] ], [ [ -6.308518, 53.36052 ], [ -6.307924, 53.360164 ], [ -6.306821, 53.359504 ], [ -6.306396, 53.359253 ], [ -6.306138, 53.359098 ], [ -6.305762, 53.358877 ], [ -6.305533, 53.358737 ], [ -6.304863, 53.358339 ], [ -6.304727, 53.358251 ], [ -6.304653, 53.358191 ], [ -6.304581, 53.358128 ], [ -6.304497, 53.358041 ], [ -6.304294, 53.3578 ], [ -6.304138, 53.357563 ], [ -6.303865, 53.357087 ], [ -6.303862, 53.357082 ] ] ] } },
{ "type": "Feature", "properties": { "cls": "painted", "highway": "unclassified", "name": "Odd Lamp Road" }, "geometry": { "type": "LineString", "coordinates": [ [ -6.325787, 53.360619 ], [ -6.325807, 53.36073 ], [ -6.325842, 53.36094 ], [ -6.325855, 53.3612 ], [ -6.325852, 53.361372 ], [ -6.325824, 53.361573 ], [ -6.325707, 53.361908 ], [ -6.325414, 53.362595 ], [ -6.325257, 53.363107 ], [ -6.32516, 53.363541 ], [ -6.325145, 53.363656 ] ] } },
{ "type": "Feature", "properties": { "cls": "painted", "highway": "unclassified", "name": null }, "geometry": { "type": "LineString", "coordinates": [ [ -6.32232, 53.365093 ], [ -6.32239, 53.365076 ], [ -6.322536, 53.36504 ], [ -6.323137, 53.364878 ], [ -6.323509, 53.364721 ], [ -6.323745, 53.364606 ], [ -6.324227, 53.36433 ], [ -6.324484, 53.364164 ], [ -6.324691, 53.364013 ], [ -6.325145, 53.363656 ] ] } },
{ "type": "Feature", "properties": { "cls": "separated", "highway": "tertiary", "name": "Chesterfield Avenue" }, "geometry": { "type": "LineString", "coordinates": [ [ -6.341211, 53.36658 ], [ -6.33277, 53.36304 ] ] } },
{ "type": "Feature", "properties": { "cls": "separated", "highway": "cycleway", "name": null }, "geometry": { "type": "LineString", "coordinates": [ [ -6.34105, 53.366797 ], [ -6.341103, 53.36682 ] ] } },
{ "type": "Feature", "properties": { "cls": "separated", "highway": "tertiary", "name": "Chesterfield Avenue" }, "geometry": { "type": "LineString", "coordinates": [ [ -6.341512, 53.366702 ], [ -6.341704, 53.366782 ], [ -6.348133, 53.369479 ], [ -6.34841, 53.369594 ] ] } },
{ "type": "Feature", "properties": { "cls": "separated", "highway": "cycleway", "name": null }, "geometry": { "type": "LineString", "coordinates": [ [ -6.333981, 53.369217 ], [ -6.334303, 53.369201 ], [ -6.334941, 53.369173 ], [ -6.335539, 53.369116 ], [ -6.335876, 53.369068 ], [ -6.336126, 53.369022 ], [ -6.336505, 53.368944 ], [ -6.336822, 53.368873 ], [ -6.337071, 53.368808 ], [ -6.337693, 53.368626 ], [ -6.33804, 53.368506 ], [ -6.338505, 53.368316 ], [ -6.338829, 53.368149 ], [ -6.339535, 53.367729 ], [ -6.339849, 53.367535 ], [ -6.341029, 53.366788 ], [ -6.34105, 53.366797 ] ] } },
{ "type": "Feature", "properties": { "cls": "separated", "highway": "cycleway", "name": null }, "geometry": { "type": "LineString", "coordinates": [ [ -6.328971, 53.36795 ], [ -6.329013, 53.367982 ], [ -6.329058, 53.368038 ], [ -6.329122, 53.368091 ], [ -6.329403, 53.368224 ], [ -6.329935, 53.368472 ], [ -6.330346, 53.368655 ], [ -6.330764, 53.368811 ], [ -6.331101, 53.368922 ], [ -6.331449, 53.369011 ], [ -6.331978, 53.3691 ], [ -6.332517, 53.36917 ], [ -6.333256, 53.369222 ], [ -6.333981, 53.369217 ] ] } },
{ "type": "Feature", "properties": { "cls": "separated", "highway": "cycleway", "name": null }, "geometry": { "type": "LineString", "coordinates": [ [ -6.333981, 53.369217 ], [ -6.333977, 53.369262 ] ] } },
{ "type": "Feature", "properties": { "cls": "separated", "highway": "cycleway", "name": null }, "geometry": { "type": "LineString", "coordinates": [ [ -6.333977, 53.369262 ], [ -6.333965, 53.369298 ] ] } },
{ "type": "Feature", "properties": { "cls": "painted", "highway": "unclassified", "name": "Ashtown Gate Road" }, "geometry": { "type": "LineString", "coordinates": [ [ -6.333654, 53.370652 ], [ -6.333687, 53.370548 ], [ -6.333793, 53.37023 ], [ -6.333893, 53.369789 ], [ -6.333915, 53.369466 ], [ -6.333965, 53.369298 ] ] } },
{ "type": "Feature", "properties": { "cls": "painted", "highway": "unclassified", "name": "Ashtown Gate Road" }, "geometry": { "type": "LineString", "coordinates": [ [ -6.333618, 53.37077 ], [ -6.333654, 53.370652 ] ] } },
{ "type": "Feature", "properties": { "cls": "painted", "highway": "unclassified", "name": null }, "geometry": { "type": "LineString", "coordinates": [ [ -6.321969, 53.365167 ], [ -6.322102, 53.365145 ], [ -6.32232, 53.365093 ] ] } },
{ "type": "Feature", "properties": { "cls": "separated", "highway": "cycleway", "name": null }, "geometry": { "type": "LineString", "coordinates": [ [ -6.32232, 53.365093 ], [ -6.322371, 53.365148 ], [ -6.322439, 53.365167 ], [ -6.322756, 53.365246 ], [ -6.323677, 53.365435 ], [ -6.323921, 53.365496 ], [ -6.324296, 53.36564 ], [ -6.324855, 53.365875 ], [ -6.325325, 53.366126 ], [ -6.325368, 53.366146 ], [ -6.325418, 53.366157 ] ] } },
{ "type": "Feature", "properties": { "cls": "separated", "highway": "cycleway", "name": null }, "geometry": { "type": "LineString", "coordinates": [ [ -6.325418, 53.366157 ], [ -6.325492, 53.366168 ], [ -6.325551, 53.366173 ] ] } },
{ "type": "Feature", "properties": { "cls": "separated", "highway": "cycleway", "name": null }, "geometry": { "type": "LineString", "coordinates": [ [ -6.325551, 53.366173 ], [ -6.325613, 53.366182 ], [ -6.325675, 53.366277 ], [ -6.325781, 53.366372 ], [ -6.326121, 53.366573 ], [ -6.326505, 53.366789 ], [ -6.327306, 53.367203 ], [ -6.328605, 53.367838 ], [ -6.32871, 53.367877 ], [ -6.328793, 53.367883 ], [ -6.32886, 53.367895 ], [ -6.328971, 53.36795 ] ] } },
{ "type": "Feature", "properties": { "cls": "painted", "highway": "unclassified", "name": "Ashtown Gate Road" }, "geometry": { "type": "Point", "coordinates": [ -6.333618, 53.37077 ] } }
]
}
