{
"type": "FeatureCollection",
"name": "119-san-diego-mission-bay-park",
"crs": { "type": "name", "properties": { "name": "urn:ogc:def:crs:OGC:1.3:CRS84" } },
"xy_coordinate_resolution": 1e-06,
"features": [
{ "type": "Feature", "properties": { "cls": "sharrow", "highway": "residential", "name": "Fiesta Island Road" }, "geometry": { "type": "LineString", "coordinates": [ [ -117.211528, 32.768838 ], [ -117.211426, 32.768925 ], [ -117.211314, 32.768995 ], [ -117.211142, 32.769054 ], [ -117.210837, 32.769091 ] ] } },
{ "type": "Feature", "properties": { "cls": "sharrow", "highway": "residential", "name": "Fiesta Island Road" }, "geometry": { "type": "LineString", "coordinates": [ [ -117.210837, 32.769091 ], [ -117.210733, 32.769082 ] ] } },
{ "type": "Feature", "properties": { "cls": "sharrow", "highway": "residential", "name": "Fiesta Island Road" }, "geometry": { "type": "LineString", "coordinates": [ [ -117.221909, 32.780346 ], [ -117.222081, 32.780077 ], [ -117.222202, 32.779861 ], [ -117.222392, 32.779538 ], [ -117.222565, 32.779255 ], [ -117.222722, 32.778929 ], [ -117.222784, 32.778771 ], [ -117.22287, 32.77842 ], [ -117.22291, 32.778179 ], [ -117.222909, 32.777977 ], [ -117.222909, 32.777919 ], [ -117.222881, 32.777687 ], [ -117.222818, 32.777407 ], [ -117.222746, 32.777218 ], [ -117.22268, 32.777044 ], [ -117.222428, 32.776598 ], [ -117.222034, 32.776126 ], [ -117.221867, 32.775911 ], [ -117.221745, 32.77572 ], [ -117.221617, 32.775514 ], [ -117.221552, 32.775386 ], [ -117.221457, 32.775083 ], [ -117.221404, 32.774835 ], [ -117.221407, 32.774529 ], [ -117.221448, 32.774191 ], [ -117.221468, 32.774061 ], [ -117.221533, 32.773765 ], [ -117.221576, 32.773575 ], [ -117.221579, 32.773465 ], [ -117.221554, 32.773372 ], [ -117.221506, 32.773308 ], [ -117.221425, 32.77325 ], [ -117.221324, 32.773198 ], [ -117.221017, 32.773091 ], [ -117.22083, 32.773021 ], [ -117.220563, 32.772895 ], [ -117.220313, 32.772758 ], [ -117.220048, 32.772593 ], [ -117.219763, 32.772389 ], [ -117.219333, 32.772059 ], [ -117.218885, 32.77166 ], [ -117.218721, 32.77149 ], [ -117.218623, 32.771378 ], [ -117.218525, 32.771263 ], [ -117.218319, 32.770957 ], [ -117.218265, 32.770868 ], [ -117.218078, 32.770551 ], [ -117.217972, 32.770341 ], [ -117.2179, 32.770176 ], [ -117.217838, 32.769961 ], [ -117.217805, 32.769798 ], [ -117.217671, 32.768829 ], [ -117.217592, 32.768548 ], [ -117.217531, 32.768425 ], [ -117.217422, 32.768261 ], [ -117.217187, 32.767997 ], [ -117.216977, 32.767809 ], [ -117.21679, 32.767676 ], [ -117.216528, 32.767542 ], [ -117.21623, 32.76745 ], [ -117.215939, 32.767402 ], [ -117.215088, 32.767359 ], [ -117.214051, 32.76736 ], [ -117.21368, 32.767388 ], [ -117.213333, 32.767435 ], [ -117.213179, 32.767469 ], [ -117.212812, 32.767579 ], [ -117.21261, 32.767657 ], [ -117.212306, 32.76782 ], [ -117.212159, 32.767922 ], [ -117.211977, 32.768084 ], [ -117.211877, 32.76821 ], [ -117.211749, 32.768427 ], [ -117.211528, 32.768838 ], [ -117.211484, 32.768953 ], [ -117.211469, 32.769133 ], [ -117.211488, 32.769301 ], [ -117.211513, 32.769421 ], [ -117.211748, 32.769819 ], [ -117.211824, 32.770021 ], [ -117.211882, 32.770226 ], [ -117.211886, 32.770361 ], [ -117.211878, 32.770508 ], [ -117.211864, 32.770604 ], [ -117.21184, 32.770714 ], [ -117.211804, 32.770849 ], [ -117.21168, 32.771237 ], [ -117.211672, 32.771277 ], [ -117.211665, 32.771404 ], [ -117.211689, 32.771602 ], [ -117.211791, 32.771825 ], [ -117.211923, 32.772011 ], [ -117.212027, 32.772112 ], [ -117.212129, 32.772184 ], [ -117.212252, 32.772248 ], [ -117.212394, 32.772296 ], [ -117.212609, 32.77234 ], [ -117.21315, 32.772433 ], [ -117.213445, 32.772478 ], [ -117.213675, 32.772526 ], [ -117.213779, 32.772561 ], [ -117.213941, 32.772619 ], [ -117.214959, 32.773081 ], [ -117.215551, 32.773386 ], [ -117.215975, 32.773654 ], [ -117.216257, 32.773837 ], [ -117.216606, 32.774064 ], [ -117.216835, 32.77421 ], [ -117.21704, 32.774359 ], [ -117.217444, 32.774679 ], [ -117.217666, 32.77487 ], [ -117.218041, 32.775216 ], [ -117.218277, 32.775455 ], [ -117.218494, 32.775667 ], [ -117.218677, 32.775856 ], [ -117.218826, 32.776036 ], [ -117.219205, 32.776553 ], [ -117.21934, 32.776774 ], [ -117.219549, 32.777213 ], [ -117.219621, 32.777417 ], [ -117.219664, 32.777565 ], [ -117.219702, 32.777768 ], [ -117.219708, 32.777932 ], [ -117.219698, 32.778079 ], [ -117.219677, 32.7782 ], [ -117.219597, 32.778471 ], [ -117.219541, 32.778688 ], [ -117.219528, 32.778862 ], [ -117.21952, 32.779063 ], [ -117.21953, 32.779154 ], [ -117.219558, 32.779238 ], [ -117.21961, 32.779329 ], [ -117.219676, 32.779392 ], [ -117.219745, 32.779462 ] ] } },
{ "type": "Feature", "properties": { "cls": "sharrow", "highway": "residential", "name": "Fiesta Island Road" }, "geometry": { "type": "LineString", "coordinates": [ [ -117.219597, 32.778471 ], [ -117.219513, 32.77861 ], [ -117.21944, 32.778691 ], [ -117.219353, 32.778759 ], [ -117.219218, 32.778831 ], [ -117.21909, 32.778867 ], [ -117.218715, 32.778903 ], [ -117.218477, 32.778948 ] ] } },
{ "type": "Feature", "properties": { "cls": "sharrow", "highway": "residential", "name": "Fiesta Island Road" }, "geometry": { "type": "LineString", "coordinates": [ [ -117.218477, 32.778948 ], [ -117.218778, 32.779038 ], [ -117.218878, 32.779082 ], [ -117.219534, 32.77937 ], [ -117.219745, 32.779462 ] ] } },
{ "type": "Feature", "properties": { "cls": "sharrow", "highway": "residential", "name": "Fiesta Island Road" }, "geometry": { "type": "LineString", "coordinates": [ [ -117.219745, 32.779462 ], [ -117.220879, 32.780009 ], [ -117.221033, 32.780082 ], [ -117.221128, 32.780141 ], [ -117.221357, 32.780313 ], [ -117.221459, 32.780386 ], [ -117.221531, 32.780421 ], [ -117.221599, 32.780436 ], [ -117.221679, 32.780439 ], [ -117.221786, 32.78041 ], [ -117.221909, 32.780346 ] ] } },
{ "type": "Feature", "properties": { "cls": "sharrow", "highway": "residential", "name": "Fiesta Island Road" }, "geometry": { "type": "LineString", "coordinates": [ [ -117.218477, 32.778948 ], [ -117.218437, 32.778961 ], [ -117.2183, 32.779068 ], [ -117.218086, 32.779373 ], [ -117.217278, 32.780766 ], [ -117.217163, 32.780991 ], [ -117.216919, 32.781361 ], [ -117.216881, 32.781479 ], [ -117.216879, 32.781572 ], [ -117.216913, 32.78173 ], [ -117.217079, 32.782177 ], [ -117.217106, 32.782295 ], [ -117.217163, 32.782585 ], [ -117.217174, 32.782968 ], [ -117.217154, 32.783228 ], [ -117.217121, 32.783408 ], [ -117.217065, 32.783602 ], [ -117.216997, 32.783765 ], [ -117.216885, 32.783929 ], [ -117.216702, 32.784137 ], [ -117.216663, 32.78418 ], [ -117.21633, 32.784513 ], [ -117.216259, 32.784583 ], [ -117.2161, 32.784728 ], [ -117.215971, 32.78482 ], [ -117.215792, 32.784919 ], [ -117.215563, 32.785009 ], [ -117.21542, 32.785046 ], [ -117.215073, 32.785137 ], [ -117.214729, 32.785237 ], [ -117.214169, 32.785401 ], [ -117.214011, 32.785468 ], [ -117.213722, 32.78562 ], [ -117.213489, 32.785771 ], [ -117.213233, 32.785961 ], [ -117.213093, 32.786098 ], [ -117.212975, 32.786236 ], [ -117.212799, 32.786465 ], [ -117.212735, 32.786632 ], [ -117.21271, 32.786729 ], [ -117.212685, 32.786935 ], [ -117.21268, 32.787086 ], [ -117.212685, 32.787248 ], [ -117.212728, 32.787494 ], [ -117.21279, 32.787774 ], [ -117.212886, 32.788045 ], [ -117.212985, 32.788268 ], [ -117.213142, 32.788544 ], [ -117.213379, 32.788935 ], [ -117.213502, 32.789085 ], [ -117.213663, 32.78922 ], [ -117.213801, 32.789312 ], [ -117.214006, 32.789428 ], [ -117.21415, 32.789502 ], [ -117.21433, 32.789559 ], [ -117.214539, 32.789608 ], [ -117.214767, 32.78965 ], [ -117.214984, 32.789678 ], [ -117.21516, 32.789685 ], [ -117.215317, 32.789673 ], [ -117.215494, 32.789642 ], [ -117.215795, 32.789577 ], [ -117.216044, 32.789502 ], [ -117.216191, 32.789436 ], [ -117.216298, 32.789362 ], [ -117.216385, 32.789281 ], [ -117.216532, 32.789097 ], [ -117.216713, 32.788854 ], [ -117.217006, 32.788471 ], [ -117.217249, 32.788123 ], [ -117.217785, 32.787234 ], [ -117.218263, 32.786427 ], [ -117.221086, 32.78166 ], [ -117.221603, 32.780823 ], [ -117.221909, 32.780346 ] ] } },
{ "type": "Feature", "properties": { "cls": "sharrow", "highway": "residential", "name": "Fiesta Island Road" }, "geometry": { "type": "LineString", "coordinates": [ [ -117.210837, 32.769091 ], [ -117.21108, 32.76914 ], [ -117.211336, 32.76925 ], [ -117.211431, 32.769331 ], [ -117.211513, 32.769421 ] ] } },
{ "type": "Feature", "properties": { "cls": "shared", "highway": "cycleway", "name": "Mission Bay Bike Path" }, "geometry": { "type": "LineString", "coordinates": [ [ -117.212257, 32.780878 ], [ -117.212251, 32.780929 ], [ -117.21218, 32.781013 ], [ -117.212062, 32.781055 ], [ -117.211932, 32.781047 ], [ -117.211741, 32.780969 ], [ -117.211671, 32.780974 ], [ -117.211616, 32.781017 ], [ -117.211576, 32.781073 ], [ -117.211522, 32.78115 ], [ -117.211453, 32.781219 ], [ -117.211387, 32.781277 ], [ -117.211272, 32.781277 ], [ -117.211154, 32.781296 ], [ -117.211044, 32.781348 ], [ -117.210936, 32.781564 ], [ -117.210886, 32.781609 ], [ -117.210825, 32.78165 ], [ -117.210726, 32.78167 ], [ -117.21063, 32.781664 ], [ -117.210494, 32.781611 ], [ -117.210366, 32.781553 ], [ -117.210299, 32.781537 ], [ -117.210234, 32.781533 ], [ -117.21015, 32.781532 ], [ -117.210073, 32.781551 ], [ -117.209999, 32.781597 ], [ -117.209947, 32.781656 ], [ -117.209364, 32.782346 ], [ -117.209271, 32.782482 ], [ -117.209184, 32.782614 ], [ -117.209069, 32.782902 ], [ -117.209014, 32.783214 ], [ -117.209008, 32.78347 ], [ -117.208983, 32.78374 ], [ -117.20891, 32.784063 ], [ -117.20886, 32.784264 ], [ -117.208791, 32.784521 ], [ -117.208753, 32.784656 ], [ -117.208743, 32.784811 ], [ -117.208775, 32.784999 ], [ -117.208825, 32.785128 ], [ -117.208893, 32.785242 ], [ -117.208968, 32.785326 ], [ -117.209079, 32.78543 ], [ -117.209344, 32.785652 ], [ -117.209433, 32.78579 ], [ -117.209482, 32.785881 ], [ -117.20951, 32.786002 ], [ -117.209488, 32.786196 ], [ -117.20944, 32.786313 ], [ -117.20936, 32.786442 ], [ -117.209234, 32.786561 ], [ -117.209072, 32.786647 ], [ -117.208878, 32.786697 ], [ -117.208574, 32.786738 ], [ -117.208032, 32.786744 ], [ -117.207956, 32.786783 ], [ -117.207909, 32.786845 ], [ -117.207889, 32.786922 ], [ -117.207917, 32.787014 ], [ -117.20837, 32.787808 ], [ -117.208418, 32.787955 ], [ -117.208421, 32.788102 ], [ -117.208448, 32.788217 ], [ -117.208515, 32.788307 ], [ -117.208574, 32.788345 ], [ -117.208989, 32.788539 ], [ -117.209381, 32.788722 ], [ -117.20948, 32.788828 ], [ -117.20952, 32.788902 ], [ -117.20958, 32.788956 ], [ -117.209676, 32.788997 ], [ -117.209786, 32.789001 ], [ -117.209912, 32.788999 ], [ -117.210059, 32.789019 ], [ -117.210163, 32.789057 ], [ -117.210324, 32.789141 ], [ -117.210643, 32.789499 ], [ -117.210751, 32.789693 ], [ -117.21082, 32.789831 ], [ -117.210843, 32.790028 ], [ -117.21081, 32.790233 ], [ -117.210746, 32.79036 ], [ -117.210656, 32.79049 ], [ -117.210496, 32.790622 ], [ -117.210372, 32.79072 ], [ -117.210051, 32.790904 ], [ -117.209956, 32.790976 ] ] } },
{ "type": "Feature", "properties": { "cls": "separated", "highway": "cycleway", "name": null }, "geometry": { "type": "LineString", "coordinates": [ [ -117.209956, 32.790976 ], [ -117.209927, 32.791193 ], [ -117.209895, 32.791383 ], [ -117.209868, 32.791496 ], [ -117.209814, 32.791595 ], [ -117.209648, 32.791735 ], [ -117.209487, 32.791897 ], [ -117.209337, 32.792073 ], [ -117.209213, 32.792334 ], [ -117.209213, 32.792461 ], [ -117.209267, 32.792587 ], [ -117.209294, 32.792691 ], [ -117.209296, 32.792704 ], [ -117.209315, 32.792848 ], [ -117.209267, 32.793115 ], [ -117.209171, 32.793361 ], [ -117.209138, 32.793444 ], [ -117.209133, 32.793579 ], [ -117.209116, 32.793905 ], [ -117.209082, 32.794107 ], [ -117.209077, 32.794285 ], [ -117.209136, 32.794558 ], [ -117.209495, 32.79522 ], [ -117.209546, 32.795367 ], [ -117.209573, 32.795502 ], [ -117.209618, 32.79569 ], [ -117.209686, 32.795854 ], [ -117.209828, 32.796037 ], [ -117.21002, 32.796262 ], [ -117.210256, 32.796494 ], [ -117.210838, 32.796936 ], [ -117.211369, 32.797231 ], [ -117.211495, 32.797288 ], [ -117.211709, 32.797342 ], [ -117.211892, 32.79736 ], [ -117.212157, 32.797355 ], [ -117.212434, 32.797342 ], [ -117.212659, 32.797335 ], [ -117.212721, 32.797334 ], [ -117.212786, 32.797323 ], [ -117.212911, 32.7973 ], [ -117.213058, 32.797261 ], [ -117.213182, 32.797226 ], [ -117.213316, 32.797196 ], [ -117.213429, 32.797179 ], [ -117.213516, 32.797169 ], [ -117.213634, 32.797163 ], [ -117.213819, 32.797163 ], [ -117.214062, 32.797162 ], [ -117.214163, 32.797166 ], [ -117.214408, 32.797193 ], [ -117.214601, 32.797243 ], [ -117.214783, 32.797276 ], [ -117.214858, 32.797315 ], [ -117.214955, 32.797342 ], [ -117.215078, 32.797344 ], [ -117.215222, 32.797316 ], [ -117.215285, 32.797316 ], [ -117.215337, 32.797311 ], [ -117.215452, 32.797292 ], [ -117.215521, 32.797281 ], [ -117.215587, 32.797279 ] ] } },
{ "type": "Feature", "properties": { "cls": "shared", "highway": "footway", "name": null }, "geometry": { "type": "LineString", "coordinates": [ [ -117.215271, 32.797391 ], [ -117.215222, 32.797316 ] ] } }
]
}
