{
"type": "FeatureCollection",
"name": "120-washington-d-c-rock-creek-park",
"crs": { "type": "name", "properties": { "name": "urn:ogc:def:crs:OGC:1.3:CRS84" } },
"xy_coordinate_resolution": 1e-06,
"features": [
{ "type": "Feature", "properties": { "cls": "shared", "highway": "cycleway", "name": "Rock Creek Trail" }, "geometry": { "type": "LineString", "coordinates": [ [ -77.050461, 38.933055 ], [ -77.050376, 38.932923 ], [ -77.050365, 38.932845 ] ] } },
{ "type": "Feature", "properties": { "cls": "sharrow", "highway": "secondary", "name": "Klingle Road Northwest" }, "geometry": { "type": "LineString", "coordinates": [ [ -77.047581, 38.932607 ], [ -77.047372, 38.932605 ] ] } },
{ "type": "Feature", "properties": { "cls": "painted", "highway": "secondary", "name": "Klingle Road Northwest" }, "geometry": { "type": "LineString", "coordinates": [ [ -77.049885, 38.932984 ], [ -77.049588, 38.932844 ], [ -77.04948, 38.932798 ], [ -77.049387, 38.932764 ], [ -77.049283, 38.93273 ], [ -77.049164, 38.932698 ], [ -77.049033, 38.932668 ], [ -77.048893, 38.932644 ], [ -77.048743, 38.932622 ], [ -77.048601, 38.932613 ], [ -77.048455, 38.93261 ], [ -77.048168, 38.932606 ], [ -77.047581, 38.932607 ] ] } },
{ "type": "Feature", "properties": { "cls": "painted", "highway": "secondary", "name": "Klingle Road Northwest" }, "geometry": { "type": "LineString", "coordinates": [ [ -77.04738, 38.932658 ], [ -77.047505, 38.932659 ], [ -77.048347, 38.932662 ], [ -77.048536, 38.932661 ], [ -77.048678, 38.932669 ], [ -77.048816, 38.932684 ], [ -77.048957, 38.932706 ], [ -77.049086, 38.93273 ], [ -77.049203, 38.932761 ], [ -77.049317, 38.932797 ], [ -77.04942, 38.932835 ], [ -77.049541, 38.932884 ], [ -77.04985, 38.93303 ] ] } },
{ "type": "Feature", "properties": { "cls": "shared", "highway": "footway", "name": null }, "geometry": { "type": "LineString", "coordinates": [ [ -77.048575, 38.934166 ], [ -77.049242, 38.934252 ] ] } },
{ "type": "Feature", "properties": { "cls": "shared", "highway": "cycleway", "name": null }, "geometry": { "type": "LineString", "coordinates": [ [ -77.047854, 38.935004 ], [ -77.047936, 38.934885 ], [ -77.048017, 38.934786 ], [ -77.048057, 38.934726 ], [ -77.048114, 38.93461 ], [ -77.048185, 38.934503 ], [ -77.04827, 38.934348 ], [ -77.048349, 38.934255 ], [ -77.048417, 38.934196 ], [ -77.048515, 38.934171 ], [ -77.048575, 38.934166 ] ] } },
{ "type": "Feature", "properties": { "cls": "shared", "highway": "cycleway", "name": null }, "geometry": { "type": "LineString", "coordinates": [ [ -77.04776, 38.935185 ], [ -77.047793, 38.935113 ], [ -77.047854, 38.935004 ] ] } },
{ "type": "Feature", "properties": { "cls": "shared", "highway": "cycleway", "name": null }, "geometry": { "type": "LineString", "coordinates": [ [ -77.04776, 38.935185 ], [ -77.047749, 38.935183 ] ] } },
{ "type": "Feature", "properties": { "cls": "shared", "highway": "cycleway", "name": "Klingle Valley Trail" }, "geometry": { "type": "LineString", "coordinates": [ [ -77.050693, 38.933368 ], [ -77.050734, 38.933369 ], [ -77.05084, 38.933344 ], [ -77.050929, 38.933333 ], [ -77.051004, 38.933331 ], [ -77.051095, 38.933335 ], [ -77.051326, 38.93339 ], [ -77.051468, 38.933425 ], [ -77.051611, 38.933453 ], [ -77.051679, 38.933462 ], [ -77.051738, 38.933465 ], [ -77.051809, 38.933467 ], [ -77.051889, 38.933464 ], [ -77.051985, 38.933457 ], [ -77.052084, 38.933447 ], [ -77.052221, 38.933435 ], [ -77.052359, 38.933429 ], [ -77.052484, 38.933431 ], [ -77.052532, 38.933436 ], [ -77.052589, 38.933442 ], [ -77.052647, 38.933451 ], [ -77.052717, 38.933464 ], [ -77.052773, 38.933471 ], [ -77.052846, 38.933478 ], [ -77.052927, 38.933479 ], [ -77.052989, 38.933476 ], [ -77.053092, 38.933465 ], [ -77.053177, 38.933448 ], [ -77.053307, 38.933413 ], [ -77.053461, 38.933366 ], [ -77.053531, 38.933349 ], [ -77.053542, 38.933346 ], [ -77.053584, 38.93334 ], [ -77.053638, 38.933333 ], [ -77.05375, 38.933302 ], [ -77.053833, 38.933273 ], [ -77.053915, 38.933238 ], [ -77.053985, 38.933201 ], [ -77.054035, 38.93317 ], [ -77.054069, 38.933146 ], [ -77.054128, 38.933098 ], [ -77.054197, 38.933044 ], [ -77.054261, 38.93299 ], [ -77.054308, 38.932952 ], [ -77.054362, 38.932917 ], [ -77.05442, 38.932889 ], [ -77.054487, 38.932864 ], [ -77.054492, 38.932863 ] ] } },
{ "type": "Feature", "properties": { "cls": "shared", "highway": "cycleway", "name": null }, "geometry": { "type": "LineString", "coordinates": [ [ -77.053512, 38.933393 ], [ -77.053541, 38.933373 ], [ -77.053567, 38.933353 ], [ -77.053584, 38.93334 ] ] } },
{ "type": "Feature", "properties": { "cls": "painted", "highway": "secondary", "name": "Porter Street Northwest" }, "geometry": { "type": "LineString", "coordinates": [ [ -77.052029, 38.934029 ], [ -77.051546, 38.933789 ] ] } },
{ "type": "Feature", "properties": { "cls": "painted", "highway": "secondary", "name": "Porter Street Northwest" }, "geometry": { "type": "LineString", "coordinates": [ [ -77.051438, 38.933819 ], [ -77.0519, 38.934059 ] ] } },
{ "type": "Feature", "properties": { "cls": "painted", "highway": "secondary", "name": "Porter Street Northwest" }, "geometry": { "type": "LineString", "coordinates": [ [ -77.052503, 38.934277 ], [ -77.052258, 38.934148 ], [ -77.052029, 38.934029 ] ] } },
{ "type": "Feature", "properties": { "cls": "painted", "highway": "secondary", "name": "Porter Street Northwest" }, "geometry": { "type": "LineString", "coordinates": [ [ -77.0519, 38.934059 ], [ -77.052304, 38.934279 ], [ -77.052464, 38.93437 ] ] } },
{ "type": "Feature", "properties": { "cls": "shared", "highway": "cycleway", "name": "Klingle Ford footbridge" }, "geometry": { "type": "LineString", "coordinates": [ [ -77.05068, 38.933331 ], [ -77.050611, 38.933235 ], [ -77.050556, 38.933163 ], [ -77.050461, 38.933055 ] ] } },
{ "type": "Feature", "properties": { "cls": "painted", "highway": "secondary", "name": "Klingle Road Northwest" }, "geometry": { "type": "LineString", "coordinates": [ [ -77.050988, 38.93351 ], [ -77.050814, 38.93343 ], [ -77.049885, 38.932984 ] ] } },
{ "type": "Feature", "properties": { "cls": "painted", "highway": "secondary", "name": "Klingle Road Northwest" }, "geometry": { "type": "LineString", "coordinates": [ [ -77.04985, 38.93303 ], [ -77.050108, 38.933154 ], [ -77.050846, 38.933526 ] ] } },
{ "type": "Feature", "properties": { "cls": "painted", "highway": "secondary", "name": "Porter Street Northwest" }, "geometry": { "type": "LineString", "coordinates": [ [ -77.051071, 38.933549 ], [ -77.050988, 38.93351 ] ] } },
{ "type": "Feature", "properties": { "cls": "painted", "highway": "secondary", "name": "Porter Street Northwest" }, "geometry": { "type": "LineString", "coordinates": [ [ -77.050846, 38.933526 ], [ -77.050995, 38.933603 ] ] } },
{ "type": "Feature", "properties": { "cls": "sharrow", "highway": "primary_link", "name": null }, "geometry": { "type": "LineString", "coordinates": [ [ -77.05139, 38.933594 ], [ -77.051301, 38.93358 ], [ -77.051207, 38.93356 ], [ -77.051133, 38.933542 ] ] } },
{ "type": "Feature", "properties": { "cls": "shared", "highway": "cycleway", "name": "Rock Creek Trail" }, "geometry": { "type": "LineString", "coordinates": [ [ -77.049921, 38.933883 ], [ -77.050045, 38.933835 ], [ -77.050169, 38.933771 ], [ -77.050235, 38.933724 ], [ -77.050293, 38.93367 ], [ -77.05035, 38.93361 ], [ -77.050408, 38.933552 ], [ -77.050475, 38.933492 ], [ -77.050536, 38.933452 ], [ -77.050601, 38.933416 ], [ -77.050633, 38.933402 ], [ -77.050664, 38.933394 ], [ -77.050684, 38.933384 ], [ -77.050693, 38.933368 ], [ -77.050688, 38.933348 ], [ -77.05068, 38.933331 ] ] } },
{ "type": "Feature", "properties": { "cls": "separated", "highway": "primary_link", "name": null }, "geometry": { "type": "LineString", "coordinates": [ [ -77.050814, 38.933564 ], [ -77.050808, 38.933593 ], [ -77.050806, 38.933627 ], [ -77.050805, 38.933664 ] ] } },
{ "type": "Feature", "properties": { "cls": "separated", "highway": "primary_link", "name": null }, "geometry": { "type": "LineString", "coordinates": [ [ -77.050805, 38.933664 ], [ -77.050805, 38.933676 ] ] } },
{ "type": "Feature", "properties": { "cls": "painted", "highway": "secondary", "name": "Porter Street Northwest" }, "geometry": { "type": "LineString", "coordinates": [ [ -77.051546, 38.933789 ], [ -77.051071, 38.933549 ] ] } },
{ "type": "Feature", "properties": { "cls": "separated", "highway": "cycleway", "name": null }, "geometry": { "type": "LineString", "coordinates": [ [ -77.047749, 38.935183 ], [ -77.047714, 38.935193 ], [ -77.047642, 38.935214 ], [ -77.047608, 38.935223 ] ] } },
{ "type": "Feature", "properties": { "cls": "shared", "highway": "cycleway", "name": null }, "geometry": { "type": "LineString", "coordinates": [ [ -77.047593, 38.93523 ], [ -77.047583, 38.93522 ], [ -77.047563, 38.935207 ] ] } },
{ "type": "Feature", "properties": { "cls": "shared", "highway": "cycleway", "name": null }, "geometry": { "type": "LineString", "coordinates": [ [ -77.047608, 38.935223 ], [ -77.047593, 38.93523 ] ] } },
{ "type": "Feature", "properties": { "cls": "shared", "highway": "cycleway", "name": null }, "geometry": { "type": "LineString", "coordinates": [ [ -77.047563, 38.935207 ], [ -77.04756, 38.935206 ], [ -77.047546, 38.935201 ], [ -77.047528, 38.9352 ], [ -77.047512, 38.935202 ], [ -77.047493, 38.935207 ], [ -77.047161, 38.935293 ] ] } },
{ "type": "Feature", "properties": { "cls": "shared", "highway": "cycleway", "name": null }, "geometry": { "type": "LineString", "coordinates": [ [ -77.047701, 38.935346 ], [ -77.047712, 38.935313 ], [ -77.04776, 38.935185 ] ] } },
{ "type": "Feature", "properties": { "cls": "shared", "highway": "cycleway", "name": "Western Ridge Trail" }, "geometry": { "type": "LineString", "coordinates": [ [ -77.04803, 38.936747 ], [ -77.04808, 38.936715 ], [ -77.04814, 38.93664 ], [ -77.048146, 38.936574 ], [ -77.048128, 38.936402 ], [ -77.048137, 38.936216 ], [ -77.048115, 38.936107 ], [ -77.04809, 38.936029 ], [ -77.048075, 38.935983 ], [ -77.048078, 38.935774 ], [ -77.048096, 38.935657 ], [ -77.048123, 38.935517 ], [ -77.048169, 38.935341 ], [ -77.048203, 38.935224 ], [ -77.048276, 38.935112 ], [ -77.048374, 38.935005 ], [ -77.048536, 38.934887 ], [ -77.048652, 38.934805 ], [ -77.048742, 38.934728 ], [ -77.048795, 38.934608 ], [ -77.048836, 38.934524 ], [ -77.048883, 38.934474 ], [ -77.049025, 38.934329 ], [ -77.049087, 38.934254 ], [ -77.049186, 38.934137 ], [ -77.049237, 38.934088 ], [ -77.049291, 38.93405 ], [ -77.049351, 38.934017 ], [ -77.0494, 38.933999 ], [ -77.049637, 38.933941 ], [ -77.049853, 38.933897 ], [ -77.049921, 38.933883 ] ] } },
{ "type": "Feature", "properties": { "cls": "shared", "highway": "cycleway", "name": null }, "geometry": { "type": "LineString", "coordinates": [ [ -77.047688, 38.935393 ], [ -77.047701, 38.935346 ] ] } },
{ "type": "Feature", "properties": { "cls": "shared", "highway": "cycleway", "name": "Rock Creek Trail" }, "geometry": { "type": "LineString", "coordinates": [ [ -77.04769, 38.936733 ], [ -77.047696, 38.936613 ], [ -77.047701, 38.936314 ], [ -77.04767, 38.93605 ], [ -77.047658, 38.935964 ], [ -77.047648, 38.935845 ], [ -77.047646, 38.935722 ], [ -77.047658, 38.935573 ], [ -77.047667, 38.9355 ], [ -77.047678, 38.935442 ], [ -77.047688, 38.935393 ] ] } },
{ "type": "Feature", "properties": { "cls": "separated", "highway": "cycleway", "name": null }, "geometry": { "type": "LineString", "coordinates": [ [ -77.04769, 38.936733 ], [ -77.04773, 38.936736 ] ] } },
{ "type": "Feature", "properties": { "cls": "separated", "highway": "cycleway", "name": "Bluff Bridge" }, "geometry": { "type": "LineString", "coordinates": [ [ -77.04773, 38.936736 ], [ -77.048014, 38.936749 ] ] } },
{ "type": "Feature", "properties": { "cls": "separated", "highway": "cycleway", "name": "Jusserand Footbridge" }, "geometry": { "type": "LineString", "coordinates": [ [ -77.052147, 38.938426 ], [ -77.052054, 38.93838 ], [ -77.051875, 38.938292 ] ] } },
{ "type": "Feature", "properties": { "cls": "separated", "highway": "cycleway", "name": "Rock Creek Trail" }, "geometry": { "type": "LineString", "coordinates": [ [ -77.052225, 38.938484 ], [ -77.052196, 38.938454 ], [ -77.052147, 38.938426 ] ] } },
{ "type": "Feature", "properties": { "cls": "shared", "highway": "cycleway", "name": null }, "geometry": { "type": "LineString", "coordinates": [ [ -77.052225, 38.938484 ], [ -77.052424, 38.938615 ], [ -77.052521, 38.938692 ], [ -77.052635, 38.938784 ], [ -77.052642, 38.938871 ], [ -77.052646, 38.939124 ], [ -77.052625, 38.93932 ], [ -77.052551, 38.939374 ] ] } },
{ "type": "Feature", "properties": { "cls": "shared", "highway": "cycleway", "name": "Western Ridge Trail" }, "geometry": { "type": "LineString", "coordinates": [ [ -77.051596, 38.9401 ], [ -77.051607, 38.940013 ], [ -77.051612, 38.939944 ], [ -77.051622, 38.939821 ], [ -77.051647, 38.939752 ], [ -77.051698, 38.939686 ], [ -77.051753, 38.939657 ], [ -77.05179, 38.939623 ], [ -77.051816, 38.939582 ], [ -77.05183, 38.939542 ], [ -77.051841, 38.939511 ], [ -77.051875, 38.939421 ], [ -77.051982, 38.939068 ], [ -77.052073, 38.939014 ], [ -77.052134, 38.938967 ], [ -77.052156, 38.938922 ], [ -77.052159, 38.938768 ], [ -77.052175, 38.938698 ], [ -77.052233, 38.938548 ], [ -77.052236, 38.938528 ], [ -77.052232, 38.938508 ], [ -77.052225, 38.938484 ] ] } },
{ "type": "Feature", "properties": { "cls": "painted", "highway": "secondary", "name": "Porter Street Northwest" }, "geometry": { "type": "LineString", "coordinates": [ [ -77.050995, 38.933603 ], [ -77.051057, 38.933634 ], [ -77.051438, 38.933819 ] ] } },
{ "type": "Feature", "properties": { "cls": "painted", "highway": "primary_link", "name": null }, "geometry": { "type": "LineString", "coordinates": [ [ -77.050805, 38.933676 ], [ -77.050793, 38.933725 ], [ -77.050782, 38.933763 ], [ -77.05076, 38.933808 ], [ -77.050727, 38.933852 ], [ -77.050691, 38.93389 ], [ -77.050649, 38.933921 ], [ -77.050591, 38.933948 ], [ -77.050535, 38.933966 ], [ -77.050471, 38.933979 ], [ -77.050365, 38.93399 ], [ -77.050167, 38.934001 ] ] } },
{ "type": "Feature", "properties": { "cls": "shared", "highway": "cycleway", "name": null }, "geometry": { "type": "LineString", "coordinates": [ [ -77.050026, 38.93401 ], [ -77.049921, 38.933883 ] ] } },
{ "type": "Feature", "properties": { "cls": "shared", "highway": "cycleway", "name": null }, "geometry": { "type": "LineString", "coordinates": [ [ -77.050093, 38.934171 ], [ -77.050075, 38.934128 ], [ -77.050038, 38.93404 ], [ -77.050026, 38.93401 ] ] } },
{ "type": "Feature", "properties": { "cls": "shared", "highway": "footway", "name": null }, "geometry": { "type": "LineString", "coordinates": [ [ -77.050093, 38.934171 ], [ -77.050159, 38.93416 ], [ -77.050369, 38.934134 ], [ -77.050603, 38.93411 ] ] } },
{ "type": "Feature", "properties": { "cls": "shared", "highway": "footway", "name": null }, "geometry": { "type": "LineString", "coordinates": [ [ -77.049242, 38.934252 ], [ -77.049295, 38.934255 ], [ -77.049456, 38.934253 ], [ -77.049617, 38.934245 ], [ -77.04976, 38.934227 ], [ -77.049776, 38.934225 ], [ -77.050093, 38.934171 ] ] } },
{ "type": "Feature", "properties": { "cls": "shared", "highway": "cycleway", "name": "Rock Creek Trail" }, "geometry": { "type": "LineString", "coordinates": [ [ -77.051875, 38.938292 ], [ -77.051838, 38.938274 ], [ -77.051812, 38.938248 ], [ -77.051804, 38.938217 ], [ -77.051799, 38.938162 ], [ -77.051792, 38.93808 ], [ -77.051779, 38.938035 ], [ -77.051749, 38.937979 ], [ -77.051692, 38.937919 ], [ -77.051619, 38.937883 ], [ -77.051539, 38.937853 ], [ -77.051425, 38.93781 ], [ -77.051376, 38.93778 ], [ -77.051229, 38.937666 ], [ -77.051158, 38.937604 ], [ -77.051041, 38.937547 ], [ -77.050961, 38.937524 ], [ -77.050885, 38.937514 ], [ -77.050822, 38.937522 ], [ -77.050753, 38.937538 ], [ -77.050654, 38.937542 ], [ -77.050595, 38.937537 ], [ -77.050524, 38.937521 ], [ -77.050416, 38.937486 ], [ -77.050284, 38.937447 ], [ -77.050163, 38.937428 ], [ -77.049959, 38.937403 ], [ -77.049845, 38.93739 ], [ -77.049701, 38.937416 ], [ -77.049581, 38.93744 ], [ -77.04939, 38.937461 ], [ -77.049271, 38.937471 ], [ -77.049128, 38.937476 ], [ -77.048956, 38.937458 ], [ -77.048887, 38.937456 ], [ -77.048819, 38.937461 ], [ -77.048689, 38.937488 ], [ -77.048609, 38.937498 ], [ -77.048525, 38.937492 ], [ -77.048459, 38.937478 ], [ -77.048394, 38.937453 ], [ -77.048179, 38.937376 ], [ -77.048015, 38.937298 ], [ -77.047905, 38.937236 ], [ -77.047863, 38.937203 ], [ -77.047808, 38.937147 ], [ -77.047753, 38.937078 ], [ -77.047715, 38.937009 ], [ -77.047687, 38.93692 ], [ -77.047686, 38.936836 ], [ -77.04769, 38.936733 ] ] } },
{ "type": "Feature", "properties": { "cls": "shared", "highway": "cycleway", "name": "Western Ridge Trail" }, "geometry": { "type": "LineString", "coordinates": [ [ -77.051582, 38.940146 ], [ -77.051596, 38.9401 ] ] } },
{ "type": "Feature", "properties": { "cls": "shared", "highway": "cycleway", "name": "Western Ridge Trail" }, "geometry": { "type": "LineString", "coordinates": [ [ -77.051609, 38.941267 ], [ -77.051585, 38.941186 ], [ -77.051568, 38.94109 ], [ -77.051552, 38.940927 ], [ -77.051556, 38.940541 ], [ -77.051578, 38.940347 ], [ -77.051575, 38.940266 ], [ -77.051576, 38.940198 ], [ -77.051582, 38.940146 ] ] } },
{ "type": "Feature", "properties": { "cls": "separated", "highway": "cycleway", "name": null }, "geometry": { "type": "LineString", "coordinates": [ [ -77.050689, 38.943431 ], [ -77.050711, 38.943378 ], [ -77.050724, 38.943349 ], [ -77.050808, 38.943155 ], [ -77.050929, 38.942886 ], [ -77.051016, 38.942727 ], [ -77.051068, 38.94263 ], [ -77.05113, 38.942499 ], [ -77.051207, 38.942382 ], [ -77.051268, 38.942292 ], [ -77.051353, 38.942171 ], [ -77.05167, 38.941749 ], [ -77.051717, 38.941665 ], [ -77.05174, 38.941588 ], [ -77.051751, 38.941508 ], [ -77.05175, 38.941414 ], [ -77.051673, 38.94134 ], [ -77.051609, 38.941267 ] ] } },
{ "type": "Feature", "properties": { "cls": "shared", "highway": "cycleway", "name": "Western Ridge Trail" }, "geometry": { "type": "LineString", "coordinates": [ [ -77.052612, 38.961478 ], [ -77.052672, 38.961411 ], [ -77.052643, 38.961251 ], [ -77.05261, 38.96109 ], [ -77.052576, 38.960964 ], [ -77.052559, 38.96086 ], [ -77.052531, 38.960724 ], [ -77.052504, 38.960576 ], [ -77.052474, 38.960435 ], [ -77.052434, 38.960265 ], [ -77.052418, 38.96013 ], [ -77.05241, 38.960058 ], [ -77.052395, 38.959995 ], [ -77.052359, 38.959909 ], [ -77.052314, 38.959825 ] ] } },
{ "type": "Feature", "properties": { "cls": "shared", "highway": "cycleway", "name": "Western Ridge Trail" }, "geometry": { "type": "MultiLineString", "coordinates": [ [ [ -77.052523, 38.961544 ], [ -77.05252, 38.961529 ], [ -77.052551, 38.961511 ] ], [ [ -77.052573, 38.9615 ], [ -77.052612, 38.961478 ] ] ] } },
{ "type": "Feature", "properties": { "cls": "shared", "highway": "cycleway", "name": "Western Ridge Trail" }, "geometry": { "type": "LineString", "coordinates": [ [ -77.052615, 38.961773 ], [ -77.052587, 38.961706 ], [ -77.052546, 38.961603 ], [ -77.052523, 38.961544 ] ] } },
{ "type": "Feature", "properties": { "cls": "shared", "highway": "cycleway", "name": "Western Ridge Trail" }, "geometry": { "type": "LineString", "coordinates": [ [ -77.052675, 38.962429 ], [ -77.052659, 38.962192 ], [ -77.052663, 38.962027 ], [ -77.052665, 38.961937 ], [ -77.052662, 38.961879 ], [ -77.052643, 38.961804 ], [ -77.052614, 38.961789 ], [ -77.052615, 38.961773 ] ] } },
{ "type": "Feature", "properties": { "cls": "separated", "highway": "cycleway", "name": null }, "geometry": { "type": "LineString", "coordinates": [ [ -77.053485, 38.967329 ], [ -77.053582, 38.967295 ], [ -77.053671, 38.96726 ], [ -77.053781, 38.967192 ], [ -77.053864, 38.967091 ], [ -77.053906, 38.966953 ], [ -77.053927, 38.966874 ], [ -77.053989, 38.966461 ], [ -77.054012, 38.966405 ], [ -77.054052, 38.966344 ], [ -77.054114, 38.966298 ], [ -77.05419, 38.966255 ], [ -77.054224, 38.966217 ], [ -77.054252, 38.966134 ], [ -77.054293, 38.965996 ], [ -77.05431, 38.965715 ], [ -77.054281, 38.965544 ], [ -77.054233, 38.965339 ], [ -77.054206, 38.965205 ], [ -77.054118, 38.965053 ], [ -77.054007, 38.96489 ], [ -77.053731, 38.964559 ], [ -77.053602, 38.96441 ], [ -77.05325, 38.964095 ], [ -77.053161, 38.964024 ], [ -77.052993, 38.96392 ], [ -77.052966, 38.963895 ], [ -77.052969, 38.963856 ], [ -77.053002, 38.963758 ], [ -77.053014, 38.96364 ], [ -77.053016, 38.963585 ], [ -77.052982, 38.963535 ], [ -77.05291, 38.96342 ], [ -77.052867, 38.963299 ], [ -77.052876, 38.963214 ], [ -77.052869, 38.963114 ], [ -77.052821, 38.962952 ], [ -77.052829, 38.962889 ], [ -77.05276, 38.962739 ], [ -77.05272, 38.962649 ], [ -77.052699, 38.96257 ], [ -77.05269, 38.962522 ], [ -77.052675, 38.962429 ] ] } },
{ "type": "Feature", "properties": { "cls": "sharrow", "highway": "service", "name": "Horse Stable Road Northwest" }, "geometry": { "type": "LineString", "coordinates": [ [ -77.052783, 38.967018 ], [ -77.052895, 38.967057 ], [ -77.053024, 38.96711 ], [ -77.053268, 38.967226 ], [ -77.053485, 38.967329 ], [ -77.053736, 38.96746 ], [ -77.053889, 38.967548 ], [ -77.053917, 38.96756 ], [ -77.053957, 38.967577 ], [ -77.053993, 38.967593 ] ] } },
{ "type": "Feature", "properties": { "cls": "separated", "highway": "cycleway", "name": "Western Ridge Trail" }, "geometry": { "type": "LineString", "coordinates": [ [ -77.05332, 38.970882 ], [ -77.053262, 38.970774 ], [ -77.053192, 38.970663 ], [ -77.053142, 38.970581 ], [ -77.05312, 38.970513 ], [ -77.053086, 38.970488 ], [ -77.052774, 38.97039 ], [ -77.052621, 38.970317 ], [ -77.052552, 38.970274 ], [ -77.052449, 38.970157 ], [ -77.052459, 38.970089 ], [ -77.052493, 38.970049 ], [ -77.05256, 38.970016 ], [ -77.052691, 38.97 ], [ -77.052803, 38.969959 ], [ -77.052875, 38.969903 ], [ -77.052902, 38.969843 ], [ -77.052912, 38.969741 ], [ -77.052893, 38.969593 ], [ -77.052788, 38.969388 ], [ -77.052731, 38.969312 ], [ -77.052726, 38.969241 ], [ -77.052875, 38.968937 ], [ -77.053, 38.968655 ], [ -77.053043, 38.96853 ], [ -77.053094, 38.968331 ], [ -77.053158, 38.968145 ], [ -77.053196, 38.967992 ], [ -77.053195, 38.967926 ], [ -77.053164, 38.967863 ], [ -77.053097, 38.967729 ], [ -77.053081, 38.967628 ], [ -77.05309, 38.967517 ], [ -77.053131, 38.967458 ], [ -77.053186, 38.967412 ], [ -77.053296, 38.967374 ], [ -77.053407, 38.967357 ], [ -77.053485, 38.967329 ] ] } },
{ "type": "Feature", "properties": { "cls": "shared", "highway": "cycleway", "name": "Western Ridge Trail" }, "geometry": { "type": "LineString", "coordinates": [ [ -77.050062, 38.944209 ], [ -77.050149, 38.9441 ], [ -77.050167, 38.944058 ], [ -77.050214, 38.943851 ], [ -77.050247, 38.94373 ], [ -77.05029, 38.943624 ], [ -77.050352, 38.943485 ], [ -77.05039, 38.943384 ], [ -77.050449, 38.943274 ], [ -77.050576, 38.943032 ], [ -77.050708, 38.942769 ], [ -77.050951, 38.942403 ], [ -77.051103, 38.942197 ], [ -77.051324, 38.941867 ], [ -77.051462, 38.941666 ], [ -77.05151, 38.941557 ], [ -77.051561, 38.941384 ], [ -77.051609, 38.941267 ] ] } },
{ "type": "Feature", "properties": { "cls": "shared", "highway": "cycleway", "name": null }, "geometry": { "type": "LineString", "coordinates": [ [ -77.050449, 38.943274 ], [ -77.050711, 38.943378 ] ] } },
{ "type": "Feature", "properties": { "cls": "shared", "highway": "cycleway", "name": "Western Ridge Trail" }, "geometry": { "type": "LineString", "coordinates": [ [ -77.04981, 38.944188 ], [ -77.049854, 38.944212 ] ] } },
{ "type": "Feature", "properties": { "cls": "shared", "highway": "cycleway", "name": "Western Ridge Trail" }, "geometry": { "type": "LineString", "coordinates": [ [ -77.049854, 38.944212 ], [ -77.049872, 38.944221 ], [ -77.049935, 38.944243 ], [ -77.049995, 38.94425 ] ] } },
{ "type": "Feature", "properties": { "cls": "separated", "highway": "cycleway", "name": "Western Ridge Trail" }, "geometry": { "type": "LineString", "coordinates": [ [ -77.049995, 38.94425 ], [ -77.050019, 38.944243 ], [ -77.050062, 38.944209 ] ] } },
{ "type": "Feature", "properties": { "cls": "shared", "highway": "cycleway", "name": null }, "geometry": { "type": "LineString", "coordinates": [ [ -77.05016, 38.945129 ], [ -77.050114, 38.945076 ], [ -77.050064, 38.945006 ], [ -77.049788, 38.944551 ], [ -77.049766, 38.944503 ] ] } },
{ "type": "Feature", "properties": { "cls": "shared", "highway": "path", "name": null }, "geometry": { "type": "LineString", "coordinates": [ [ -77.052314, 38.959825 ], [ -77.052184, 38.959617 ], [ -77.052162, 38.959581 ] ] } },
{ "type": "Feature", "properties": { "cls": "shared", "highway": "cycleway", "name": "Western Ridge Trail" }, "geometry": { "type": "LineString", "coordinates": [ [ -77.052193, 38.962493 ], [ -77.052431, 38.96247 ], [ -77.052675, 38.962429 ] ] } },
{ "type": "Feature", "properties": { "cls": "shared", "highway": "pedestrian", "name": "Bingham Drive Northwest" }, "geometry": { "type": "LineString", "coordinates": [ [ -77.049758, 38.970169 ], [ -77.050134, 38.9702 ], [ -77.050437, 38.970224 ], [ -77.050635, 38.970237 ], [ -77.050738, 38.970246 ], [ -77.05085, 38.97025 ], [ -77.050912, 38.970253 ], [ -77.050987, 38.970255 ], [ -77.05113, 38.970255 ], [ -77.051412, 38.970246 ], [ -77.051561, 38.97024 ], [ -77.051638, 38.970235 ], [ -77.051809, 38.970228 ], [ -77.051833, 38.970228 ], [ -77.051877, 38.970226 ], [ -77.052056, 38.970225 ], [ -77.052169, 38.970228 ], [ -77.052203, 38.97023 ], [ -77.052283, 38.970237 ], [ -77.052415, 38.970252 ], [ -77.052552, 38.970274 ], [ -77.052694, 38.970302 ], [ -77.052784, 38.970324 ], [ -77.052882, 38.970353 ], [ -77.052949, 38.970373 ], [ -77.053083, 38.970424 ], [ -77.053227, 38.970477 ], [ -77.053348, 38.970529 ], [ -77.053405, 38.97055 ], [ -77.053457, 38.970569 ], [ -77.053523, 38.970588 ] ] } },
{ "type": "Feature", "properties": { "cls": "separated", "highway": "cycleway", "name": null }, "geometry": { "type": "LineString", "coordinates": [ [ -77.049735, 38.970206 ], [ -77.049788, 38.970212 ], [ -77.04993, 38.970251 ], [ -77.050314, 38.970303 ], [ -77.050695, 38.970344 ], [ -77.051006, 38.970331 ], [ -77.051311, 38.970325 ], [ -77.051401, 38.97031 ], [ -77.051524, 38.970318 ], [ -77.051811, 38.970322 ], [ -77.051948, 38.970348 ], [ -77.052158, 38.970363 ], [ -77.052324, 38.970397 ], [ -77.052461, 38.970419 ], [ -77.053016, 38.970619 ], [ -77.05316, 38.970712 ], [ -77.053262, 38.970774 ] ] } },
{ "type": "Feature", "properties": { "cls": "separated", "highway": "cycleway", "name": null }, "geometry": { "type": "LineString", "coordinates": [ [ -77.052332, 38.975915 ], [ -77.052314, 38.976098 ], [ -77.052294, 38.976182 ], [ -77.052245, 38.976323 ] ] } },
{ "type": "Feature", "properties": { "cls": "separated", "highway": "cycleway", "name": null }, "geometry": { "type": "LineString", "coordinates": [ [ -77.052245, 38.976323 ], [ -77.0522, 38.97646 ] ] } },
{ "type": "Feature", "properties": { "cls": "separated", "highway": "cycleway", "name": null }, "geometry": { "type": "LineString", "coordinates": [ [ -77.0522, 38.97646 ], [ -77.052162, 38.976514 ], [ -77.05214, 38.976542 ], [ -77.052044, 38.976628 ], [ -77.051962, 38.976684 ], [ -77.051906, 38.976769 ], [ -77.051884, 38.976847 ], [ -77.051915, 38.97701 ], [ -77.051987, 38.977184 ], [ -77.052045, 38.977275 ], [ -77.052157, 38.977396 ], [ -77.052229, 38.977534 ], [ -77.05226, 38.977639 ], [ -77.052276, 38.977741 ], [ -77.052276, 38.97785 ], [ -77.052266, 38.977962 ], [ -77.052219, 38.978134 ], [ -77.052194, 38.978247 ], [ -77.052149, 38.978397 ], [ -77.052101, 38.978531 ], [ -77.05204, 38.978632 ], [ -77.051948, 38.978717 ], [ -77.051787, 38.978801 ], [ -77.051648, 38.978881 ], [ -77.051627, 38.978912 ], [ -77.051627, 38.978941 ], [ -77.051643, 38.978966 ], [ -77.051672, 38.978981 ], [ -77.051733, 38.978987 ], [ -77.051846, 38.978973 ], [ -77.051933, 38.97897 ], [ -77.051975, 38.978975 ], [ -77.052032, 38.978998 ], [ -77.052068, 38.979048 ], [ -77.052065, 38.979128 ], [ -77.052047, 38.979292 ], [ -77.051941, 38.979368 ], [ -77.051822, 38.9794 ], [ -77.051672, 38.979426 ], [ -77.051458, 38.979492 ], [ -77.051352, 38.979536 ], [ -77.051288, 38.979596 ], [ -77.051248, 38.979633 ] ] } },
{ "type": "Feature", "properties": { "cls": "separated", "highway": "cycleway", "name": null }, "geometry": { "type": "LineString", "coordinates": [ [ -77.052047, 38.979292 ], [ -77.052072, 38.979402 ], [ -77.052088, 38.979501 ], [ -77.052092, 38.979571 ], [ -77.052102, 38.979572 ] ] } },
{ "type": "Feature", "properties": { "cls": "separated", "highway": "cycleway", "name": null }, "geometry": { "type": "LineString", "coordinates": [ [ -77.05332, 38.970882 ], [ -77.053336, 38.971036 ], [ -77.053292, 38.971199 ], [ -77.053233, 38.971296 ], [ -77.053217, 38.971417 ], [ -77.053198, 38.971463 ], [ -77.053169, 38.971512 ], [ -77.053135, 38.971595 ], [ -77.053071, 38.971665 ], [ -77.053022, 38.97173 ], [ -77.053007, 38.971797 ], [ -77.053034, 38.971843 ], [ -77.053125, 38.971956 ], [ -77.053174, 38.972064 ], [ -77.05318, 38.972169 ], [ -77.053159, 38.972287 ], [ -77.053117, 38.972387 ], [ -77.052999, 38.972518 ], [ -77.052902, 38.972649 ], [ -77.052805, 38.972728 ], [ -77.052754, 38.972826 ], [ -77.052735, 38.97303 ], [ -77.052718, 38.973146 ], [ -77.052719, 38.973259 ], [ -77.052727, 38.973359 ], [ -77.052814, 38.973569 ], [ -77.052827, 38.973643 ], [ -77.052824, 38.973702 ], [ -77.052796, 38.973756 ], [ -77.05273, 38.973848 ], [ -77.052644, 38.973919 ], [ -77.052613, 38.973983 ], [ -77.052631, 38.974075 ], [ -77.0527, 38.974284 ], [ -77.052699, 38.97433 ], [ -77.052699, 38.974373 ], [ -77.052659, 38.974459 ], [ -77.052629, 38.974528 ], [ -77.05263, 38.974603 ], [ -77.05264, 38.974703 ], [ -77.052638, 38.974793 ], [ -77.052578, 38.974913 ], [ -77.052533, 38.975126 ], [ -77.052541, 38.975266 ], [ -77.052498, 38.975321 ], [ -77.052362, 38.975422 ], [ -77.05234, 38.975467 ], [ -77.052343, 38.97553 ], [ -77.052346, 38.97567 ], [ -77.05233, 38.975808 ], [ -77.052332, 38.975915 ] ] } },
{ "type": "Feature", "properties": { "cls": "sharrow", "highway": "unclassified", "name": "Beach Drive" }, "geometry": { "type": "LineString", "coordinates": [ [ -77.053275, 38.986333 ], [ -77.053294, 38.986336 ] ] } },
{ "type": "Feature", "properties": { "cls": "shared", "highway": "pedestrian", "name": "Beach Drive" }, "geometry": { "type": "LineString", "coordinates": [ [ -77.053132, 38.9863 ], [ -77.053212, 38.986319 ], [ -77.053237, 38.986324 ], [ -77.053275, 38.986333 ] ] } },
{ "type": "Feature", "properties": { "cls": "shared", "highway": "cycleway", "name": "Rock Creek Trail" }, "geometry": { "type": "LineString", "coordinates": [ [ -77.053186, 38.986417 ], [ -77.053188, 38.986419 ] ] } },
{ "type": "Feature", "properties": { "cls": "shared", "highway": "cycleway", "name": null }, "geometry": { "type": "LineString", "coordinates": [ [ -77.035225, 38.940222 ], [ -77.035207, 38.940206 ], [ -77.035189, 38.940166 ], [ -77.035176, 38.940126 ], [ -77.035153, 38.939998 ], [ -77.035141, 38.939916 ], [ -77.035139, 38.939783 ], [ -77.035146, 38.939654 ], [ -77.03516, 38.939527 ], [ -77.03518, 38.939402 ], [ -77.035221, 38.939281 ], [ -77.035256, 38.939193 ], [ -77.035312, 38.939096 ], [ -77.035391, 38.938975 ], [ -77.035466, 38.93888 ], [ -77.03556, 38.938777 ], [ -77.035667, 38.938683 ], [ -77.035767, 38.938607 ], [ -77.035881, 38.93853 ], [ -77.03602, 38.938456 ], [ -77.036041, 38.938445 ], [ -77.036202, 38.938377 ], [ -77.036782, 38.938174 ], [ -77.03696, 38.938084 ], [ -77.037108, 38.937961 ], [ -77.037171, 38.937892 ], [ -77.037238, 38.937809 ], [ -77.03734, 38.937676 ], [ -77.037503, 38.937556 ], [ -77.037754, 38.937484 ], [ -77.038158, 38.937387 ], [ -77.03859, 38.937295 ], [ -77.03885, 38.937171 ], [ -77.039158, 38.937049 ], [ -77.039387, 38.936981 ], [ -77.039637, 38.936919 ], [ -77.039813, 38.936885 ], [ -77.040022, 38.936817 ], [ -77.040184, 38.936747 ], [ -77.040562, 38.936554 ], [ -77.040873, 38.936382 ], [ -77.041116, 38.936275 ], [ -77.041242, 38.936236 ], [ -77.041478, 38.936201 ], [ -77.041682, 38.936188 ], [ -77.042115, 38.936197 ], [ -77.042309, 38.936187 ], [ -77.042719, 38.936117 ], [ -77.043053, 38.936065 ], [ -77.043365, 38.936042 ], [ -77.043785, 38.936036 ], [ -77.044861, 38.936036 ], [ -77.045087, 38.936012 ], [ -77.045261, 38.935981 ], [ -77.045423, 38.935926 ], [ -77.046518, 38.935488 ], [ -77.046927, 38.935359 ], [ -77.047161, 38.935293 ] ] } },
{ "type": "Feature", "properties": { "cls": "shared", "highway": "cycleway", "name": null }, "geometry": { "type": "LineString", "coordinates": [ [ -77.036264, 38.939048 ], [ -77.036212, 38.939078 ], [ -77.036115, 38.939168 ], [ -77.036033, 38.939264 ], [ -77.035255, 38.94018 ], [ -77.035225, 38.940222 ] ] } },
{ "type": "Feature", "properties": { "cls": "shared", "highway": "cycleway", "name": null }, "geometry": { "type": "LineString", "coordinates": [ [ -77.034995, 38.940506 ], [ -77.03479, 38.940746 ] ] } },
{ "type": "Feature", "properties": { "cls": "painted", "highway": "tertiary", "name": "Park Road Northwest" }, "geometry": { "type": "LineString", "coordinates": [ [ -77.045427, 38.934803 ], [ -77.045427, 38.934822 ], [ -77.045434, 38.93492 ], [ -77.045441, 38.934973 ], [ -77.045448, 38.935018 ], [ -77.045472, 38.935102 ], [ -77.045509, 38.935184 ], [ -77.04554, 38.935242 ], [ -77.045587, 38.935322 ] ] } },
{ "type": "Feature", "properties": { "cls": "painted", "highway": "tertiary", "name": "Park Road Northwest" }, "geometry": { "type": "LineString", "coordinates": [ [ -77.045587, 38.935322 ], [ -77.046151, 38.93618 ] ] } },
{ "type": "Feature", "properties": { "cls": "shared", "highway": "pedestrian", "name": "Beach Drive Northwest" }, "geometry": { "type": "LineString", "coordinates": [ [ -77.045207, 38.948396 ], [ -77.044775, 38.948319 ] ] } },
{ "type": "Feature", "properties": { "cls": "shared", "highway": "pedestrian", "name": "Beach Drive Northwest" }, "geometry": { "type": "LineString", "coordinates": [ [ -77.045207, 38.948396 ], [ -77.045245, 38.948399 ], [ -77.045279, 38.948396 ], [ -77.045318, 38.94839 ], [ -77.045353, 38.948378 ], [ -77.045387, 38.948359 ], [ -77.045409, 38.94834 ], [ -77.045428, 38.94832 ], [ -77.045446, 38.948298 ], [ -77.04546, 38.948279 ], [ -77.045501, 38.948234 ], [ -77.045525, 38.948214 ], [ -77.045552, 38.948196 ], [ -77.045584, 38.948177 ], [ -77.045604, 38.948167 ], [ -77.045644, 38.94815 ], [ -77.045687, 38.948137 ], [ -77.045754, 38.948125 ], [ -77.045795, 38.948122 ], [ -77.045832, 38.948122 ], [ -77.045868, 38.948124 ], [ -77.045905, 38.948128 ], [ -77.045941, 38.948134 ], [ -77.045983, 38.948143 ], [ -77.046055, 38.948161 ], [ -77.046079, 38.948168 ], [ -77.046171, 38.948201 ], [ -77.04623, 38.948227 ], [ -77.046322, 38.948283 ], [ -77.046403, 38.948347 ], [ -77.04646, 38.948417 ], [ -77.046496, 38.948477 ], [ -77.046512, 38.948511 ], [ -77.046531, 38.948562 ], [ -77.046557, 38.948684 ], [ -77.04656, 38.948704 ], [ -77.046583, 38.948849 ], [ -77.046599, 38.949003 ], [ -77.046603, 38.949065 ], [ -77.046607, 38.949188 ], [ -77.046607, 38.949308 ], [ -77.046603, 38.949428 ], [ -77.0466, 38.9495 ], [ -77.046594, 38.949561 ], [ -77.046591, 38.949582 ], [ -77.046584, 38.94962 ], [ -77.046577, 38.949662 ], [ -77.046563, 38.949705 ], [ -77.046544, 38.949748 ], [ -77.046532, 38.949771 ], [ -77.046511, 38.949807 ], [ -77.046497, 38.949827 ], [ -77.046483, 38.949846 ], [ -77.046456, 38.949879 ], [ -77.04641, 38.949924 ], [ -77.046369, 38.949956 ], [ -77.046335, 38.949981 ], [ -77.046248, 38.950032 ], [ -77.046138, 38.95009 ], [ -77.04607, 38.950124 ], [ -77.045954, 38.950183 ], [ -77.045873, 38.950226 ], [ -77.045762, 38.950282 ], [ -77.045618, 38.950349 ], [ -77.045593, 38.950363 ], [ -77.045521, 38.95041 ], [ -77.045498, 38.950426 ], [ -77.045454, 38.95046 ], [ -77.045392, 38.950514 ], [ -77.045366, 38.95054 ], [ -77.045277, 38.950629 ], [ -77.045136, 38.950782 ], [ -77.044937, 38.950993 ], [ -77.044837, 38.9511 ], [ -77.04478, 38.951167 ], [ -77.044732, 38.951242 ], [ -77.044703, 38.951305 ], [ -77.044684, 38.951387 ], [ -77.044675, 38.951438 ], [ -77.044655, 38.951554 ], [ -77.044545, 38.951949 ], [ -77.044351, 38.952293 ], [ -77.044276, 38.9524 ], [ -77.044183, 38.952513 ], [ -77.044053, 38.952651 ], [ -77.043946, 38.952748 ], [ -77.043796, 38.95287 ], [ -77.043737, 38.952906 ], [ -77.043566, 38.953047 ], [ -77.043474, 38.953118 ], [ -77.043386, 38.953187 ], [ -77.042815, 38.95371 ], [ -77.042119, 38.954235 ], [ -77.041909, 38.954451 ], [ -77.041804, 38.954661 ], [ -77.04177, 38.954866 ], [ -77.04177, 38.954987 ], [ -77.041973, 38.955935 ], [ -77.042025, 38.956176 ], [ -77.042047, 38.956309 ], [ -77.042025, 38.956447 ], [ -77.041914, 38.956762 ], [ -77.04187, 38.956994 ], [ -77.041925, 38.957674 ], [ -77.041898, 38.957757 ], [ -77.041837, 38.957862 ], [ -77.04171, 38.957956 ], [ -77.041461, 38.9581 ], [ -77.041162, 38.958315 ], [ -77.041025, 38.95852 ], [ -77.040969, 38.958603 ], [ -77.040831, 38.958818 ], [ -77.040698, 38.958979 ], [ -77.040388, 38.959333 ], [ -77.0403, 38.959465 ], [ -77.040279, 38.959583 ], [ -77.040277, 38.959641 ], [ -77.040281, 38.959692 ] ] } },
{ "type": "Feature", "properties": { "cls": "sharrow", "highway": "tertiary", "name": "Morrow Drive Northwest" }, "geometry": { "type": "LineString", "coordinates": [ [ -77.036546, 38.956216 ], [ -77.037039, 38.956213 ], [ -77.037154, 38.956211 ], [ -77.037269, 38.956206 ], [ -77.03744, 38.956192 ], [ -77.037497, 38.956186 ], [ -77.037594, 38.956174 ], [ -77.037673, 38.956162 ], [ -77.037752, 38.956148 ], [ -77.037831, 38.956132 ], [ -77.037909, 38.956114 ], [ -77.037947, 38.956104 ], [ -77.038093, 38.956069 ], [ -77.038137, 38.95606 ], [ -77.038227, 38.956047 ], [ -77.038317, 38.956038 ], [ -77.038409, 38.956036 ], [ -77.038454, 38.956037 ], [ -77.038477, 38.956039 ], [ -77.038538, 38.956043 ], [ -77.038558, 38.956046 ], [ -77.038588, 38.95605 ], [ -77.038629, 38.956057 ], [ -77.038671, 38.956066 ], [ -77.038712, 38.956076 ], [ -77.038792, 38.9561 ], [ -77.038831, 38.956114 ], [ -77.038956, 38.956166 ], [ -77.039067, 38.956216 ], [ -77.03916, 38.956258 ], [ -77.03922, 38.95629 ], [ -77.039277, 38.956324 ], [ -77.039331, 38.956361 ], [ -77.039379, 38.956398 ], [ -77.03942, 38.956434 ], [ -77.039459, 38.956472 ], [ -77.039511, 38.956532 ], [ -77.039542, 38.956574 ], [ -77.039575, 38.956624 ], [ -77.039604, 38.956676 ], [ -77.039629, 38.956728 ], [ -77.039651, 38.956783 ], [ -77.039669, 38.956838 ], [ -77.039728, 38.957035 ], [ -77.039745, 38.957087 ], [ -77.039788, 38.957243 ], [ -77.0398, 38.957296 ], [ -77.039808, 38.95735 ], [ -77.039811, 38.957377 ], [ -77.039814, 38.957432 ], [ -77.039814, 38.957486 ], [ -77.039813, 38.957514 ], [ -77.039807, 38.957587 ], [ -77.039798, 38.957645 ], [ -77.039786, 38.957703 ], [ -77.039777, 38.957741 ], [ -77.039764, 38.957784 ], [ -77.039748, 38.957831 ], [ -77.039704, 38.957947 ], [ -77.039675, 38.958014 ], [ -77.039667, 38.958036 ], [ -77.039658, 38.958057 ], [ -77.039629, 38.958144 ], [ -77.039617, 38.958188 ], [ -77.039597, 38.958285 ], [ -77.039591, 38.958334 ], [ -77.039587, 38.958409 ], [ -77.039588, 38.958459 ], [ -77.039596, 38.958651 ], [ -77.039593, 38.958723 ], [ -77.039587, 38.95877 ], [ -77.039578, 38.958818 ], [ -77.039573, 38.958853 ], [ -77.039564, 38.958888 ], [ -77.039552, 38.958922 ], [ -77.039536, 38.958956 ], [ -77.039517, 38.958988 ], [ -77.039494, 38.959019 ], [ -77.039469, 38.959048 ], [ -77.03944, 38.959076 ], [ -77.039408, 38.959101 ], [ -77.039374, 38.959125 ], [ -77.039343, 38.959143 ], [ -77.03931, 38.95916 ], [ -77.039276, 38.959174 ], [ -77.03924, 38.959186 ], [ -77.039203, 38.959196 ], [ -77.039166, 38.959204 ], [ -77.039089, 38.959213 ], [ -77.038978, 38.959212 ], [ -77.038945, 38.959214 ], [ -77.038913, 38.959218 ], [ -77.038881, 38.959224 ], [ -77.03885, 38.959233 ], [ -77.03882, 38.959243 ], [ -77.038791, 38.959255 ], [ -77.038763, 38.959269 ], [ -77.038737, 38.959284 ], [ -77.038712, 38.959302 ], [ -77.038681, 38.959331 ], [ -77.038654, 38.959362 ], [ -77.038632, 38.959396 ], [ -77.038615, 38.959432 ], [ -77.038605, 38.959469 ], [ -77.038601, 38.959507 ], [ -77.038602, 38.959545 ], [ -77.03861, 38.959582 ], [ -77.038623, 38.959619 ], [ -77.038643, 38.959654 ], [ -77.038674, 38.959688 ], [ -77.038708, 38.959721 ], [ -77.038765, 38.959766 ], [ -77.038806, 38.959793 ], [ -77.038828, 38.959806 ], [ -77.03889, 38.959838 ], [ -77.038922, 38.959852 ], [ -77.038988, 38.959878 ], [ -77.039023, 38.959889 ], [ -77.039093, 38.959907 ], [ -77.039129, 38.959915 ], [ -77.039165, 38.959921 ], [ -77.03921, 38.959927 ], [ -77.039278, 38.959933 ], [ -77.039323, 38.959936 ], [ -77.039424, 38.959941 ], [ -77.039456, 38.959945 ], [ -77.039488, 38.959951 ], [ -77.039519, 38.959958 ], [ -77.03955, 38.959967 ], [ -77.03958, 38.959977 ], [ -77.039609, 38.959988 ], [ -77.039638, 38.960001 ], [ -77.039692, 38.96003 ], [ -77.039746, 38.960069 ], [ -77.039779, 38.960097 ], [ -77.039809, 38.960127 ], [ -77.039837, 38.960159 ], [ -77.039849, 38.960175 ], [ -77.039928, 38.960267 ], [ -77.039952, 38.960292 ], [ -77.039976, 38.960315 ], [ -77.040002, 38.960338 ], [ -77.040029, 38.96036 ], [ -77.040087, 38.960401 ], [ -77.040118, 38.960421 ], [ -77.040149, 38.960439 ], [ -77.040215, 38.960472 ], [ -77.040266, 38.960492 ], [ -77.040318, 38.96051 ], [ -77.040372, 38.960526 ], [ -77.040453, 38.960545 ], [ -77.040592, 38.960572 ], [ -77.040883, 38.96063 ], [ -77.041061, 38.960671 ] ] } },
{ "type": "Feature", "properties": { "cls": "sharrow", "highway": "living_street", "name": "Beach Drive Northwest" }, "geometry": { "type": "LineString", "coordinates": [ [ -77.040281, 38.959692 ], [ -77.04028, 38.95972 ], [ -77.040285, 38.959765 ], [ -77.040287, 38.959781 ], [ -77.0403, 38.959814 ], [ -77.040313, 38.959857 ], [ -77.040328, 38.959891 ], [ -77.040359, 38.959946 ], [ -77.040384, 38.959981 ], [ -77.040405, 38.960013 ], [ -77.040538, 38.960167 ], [ -77.040711, 38.960277 ], [ -77.040881, 38.960357 ], [ -77.041628, 38.960609 ], [ -77.041665, 38.960622 ] ] } },
{ "type": "Feature", "properties": { "cls": "shared", "highway": "cycleway", "name": null }, "geometry": { "type": "LineString", "coordinates": [ [ -77.04169, 38.960582 ], [ -77.041719, 38.960585 ], [ -77.041762, 38.960584 ] ] } },
{ "type": "Feature", "properties": { "cls": "shared", "highway": "cycleway", "name": null }, "geometry": { "type": "LineString", "coordinates": [ [ -77.04169, 38.960582 ], [ -77.041684, 38.960592 ] ] } },
{ "type": "Feature", "properties": { "cls": "shared", "highway": "cycleway", "name": null }, "geometry": { "type": "LineString", "coordinates": [ [ -77.042137, 38.960646 ], [ -77.04213, 38.960616 ], [ -77.042127, 38.960585 ], [ -77.042133, 38.960555 ], [ -77.042142, 38.960532 ], [ -77.042159, 38.960517 ] ] } },
{ "type": "Feature", "properties": { "cls": "shared", "highway": "cycleway", "name": "Valley Trail" }, "geometry": { "type": "LineString", "coordinates": [ [ -77.041762, 38.960584 ], [ -77.041766, 38.960593 ] ] } },
{ "type": "Feature", "properties": { "cls": "separated", "highway": "cycleway", "name": null }, "geometry": { "type": "LineString", "coordinates": [ [ -77.048014, 38.936749 ], [ -77.04803, 38.936747 ] ] } },
{ "type": "Feature", "properties": { "cls": "shared", "highway": "cycleway", "name": "Western Ridge Trail" }, "geometry": { "type": "LineString", "coordinates": [ [ -77.04977, 38.944252 ], [ -77.049797, 38.944209 ], [ -77.04981, 38.944188 ] ] } },
{ "type": "Feature", "properties": { "cls": "shared", "highway": "cycleway", "name": "Western Ridge Trail" }, "geometry": { "type": "LineString", "coordinates": [ [ -77.049736, 38.944302 ], [ -77.04977, 38.944252 ] ] } },
{ "type": "Feature", "properties": { "cls": "shared", "highway": "cycleway", "name": "Western Ridge Trail" }, "geometry": { "type": "LineString", "coordinates": [ [ -77.049766, 38.944503 ], [ -77.049757, 38.944455 ], [ -77.049769, 38.944383 ], [ -77.049746, 38.944342 ], [ -77.049736, 38.944302 ] ] } },
{ "type": "Feature", "properties": { "cls": "shared", "highway": "pedestrian", "name": "Beach Drive Northwest" }, "geometry": { "type": "LineString", "coordinates": [ [ -77.049335, 38.944435 ], [ -77.049304, 38.944466 ] ] } },
{ "type": "Feature", "properties": { "cls": "shared", "highway": "pedestrian", "name": "Beach Drive Northwest" }, "geometry": { "type": "LineString", "coordinates": [ [ -77.049304, 38.944466 ], [ -77.049405, 38.94444 ] ] } },
{ "type": "Feature", "properties": { "cls": "shared", "highway": "cycleway", "name": null }, "geometry": { "type": "LineString", "coordinates": [ [ -77.052193, 38.962493 ], [ -77.05204, 38.962448 ], [ -77.051777, 38.962378 ], [ -77.051593, 38.962316 ], [ -77.05143, 38.962281 ], [ -77.051326, 38.962273 ], [ -77.051183, 38.962298 ], [ -77.051061, 38.962309 ], [ -77.050864, 38.96231 ], [ -77.050726, 38.962293 ], [ -77.050565, 38.962256 ], [ -77.050342, 38.962169 ], [ -77.050132, 38.962064 ], [ -77.049973, 38.961987 ], [ -77.049836, 38.961922 ], [ -77.049628, 38.961866 ], [ -77.049568, 38.961833 ], [ -77.049492, 38.961781 ], [ -77.049355, 38.961715 ], [ -77.049161, 38.961636 ], [ -77.048972, 38.961574 ], [ -77.048785, 38.96152 ], [ -77.048706, 38.961476 ], [ -77.048344, 38.961261 ], [ -77.048165, 38.961166 ], [ -77.047998, 38.961075 ], [ -77.047833, 38.961018 ], [ -77.047611, 38.960972 ], [ -77.047298, 38.960955 ], [ -77.047063, 38.960937 ], [ -77.046856, 38.960922 ], [ -77.046679, 38.960909 ], [ -77.046528, 38.960891 ], [ -77.046368, 38.960834 ], [ -77.046184, 38.960771 ], [ -77.046052, 38.960734 ], [ -77.045957, 38.960727 ], [ -77.045823, 38.960772 ], [ -77.04547, 38.960854 ], [ -77.045282, 38.960922 ], [ -77.045171, 38.960982 ], [ -77.045106, 38.961062 ], [ -77.044999, 38.961255 ], [ -77.044964, 38.96132 ], [ -77.044861, 38.961467 ], [ -77.044817, 38.961503 ], [ -77.044733, 38.961554 ], [ -77.044514, 38.961644 ], [ -77.044412, 38.961701 ], [ -77.044292, 38.961765 ], [ -77.044231, 38.961766 ], [ -77.044151, 38.961741 ], [ -77.043973, 38.961652 ], [ -77.043791, 38.961532 ], [ -77.043697, 38.96145 ], [ -77.043629, 38.961388 ], [ -77.043394, 38.961133 ], [ -77.043244, 38.960953 ], [ -77.043175, 38.960884 ], [ -77.043089, 38.960784 ], [ -77.043017, 38.960695 ], [ -77.042936, 38.960649 ], [ -77.042827, 38.960587 ], [ -77.042733, 38.960478 ], [ -77.042639, 38.960383 ], [ -77.042542, 38.96035 ], [ -77.042462, 38.960346 ], [ -77.042403, 38.960342 ], [ -77.042384, 38.960352 ] ] } },
{ "type": "Feature", "properties": { "cls": "shared", "highway": "cycleway", "name": null }, "geometry": { "type": "LineString", "coordinates": [ [ -77.047174, 38.965035 ], [ -77.04758, 38.965376 ] ] } },
{ "type": "Feature", "properties": { "cls": "shared", "highway": "cycleway", "name": null }, "geometry": { "type": "LineString", "coordinates": [ [ -77.04758, 38.965376 ], [ -77.047631, 38.965419 ], [ -77.047718, 38.965492 ], [ -77.047793, 38.965578 ], [ -77.047911, 38.965735 ] ] } },
{ "type": "Feature", "properties": { "cls": "shared", "highway": "cycleway", "name": null }, "geometry": { "type": "LineString", "coordinates": [ [ -77.047911, 38.965735 ], [ -77.047931, 38.965762 ], [ -77.047957, 38.965806 ] ] } },
{ "type": "Feature", "properties": { "cls": "shared", "highway": "cycleway", "name": null }, "geometry": { "type": "LineString", "coordinates": [ [ -77.041684, 38.960592 ], [ -77.041665, 38.960622 ] ] } },
{ "type": "Feature", "properties": { "cls": "shared", "highway": "cycleway", "name": "Valley Trail" }, "geometry": { "type": "LineString", "coordinates": [ [ -77.041766, 38.960593 ], [ -77.041863, 38.960631 ], [ -77.041948, 38.96066 ] ] } },
{ "type": "Feature", "properties": { "cls": "shared", "highway": "cycleway", "name": null }, "geometry": { "type": "LineString", "coordinates": [ [ -77.041623, 38.960668 ], [ -77.041616, 38.960655 ], [ -77.0416, 38.960644 ], [ -77.041574, 38.960633 ], [ -77.041412, 38.96058 ], [ -77.041388, 38.960609 ], [ -77.041358, 38.96064 ], [ -77.041324, 38.960669 ], [ -77.041315, 38.960674 ], [ -77.041281, 38.960693 ], [ -77.04124, 38.960708 ] ] } },
{ "type": "Feature", "properties": { "cls": "shared", "highway": "cycleway", "name": null }, "geometry": { "type": "LineString", "coordinates": [ [ -77.041665, 38.960622 ], [ -77.041642, 38.96066 ], [ -77.041623, 38.960668 ] ] } },
{ "type": "Feature", "properties": { "cls": "sharrow", "highway": "living_street", "name": "Beach Drive Northwest" }, "geometry": { "type": "LineString", "coordinates": [ [ -77.041665, 38.960622 ], [ -77.041806, 38.960668 ] ] } },
{ "type": "Feature", "properties": { "cls": "shared", "highway": "cycleway", "name": "Valley Trail" }, "geometry": { "type": "LineString", "coordinates": [ [ -77.042071, 38.960655 ], [ -77.042137, 38.960646 ] ] } },
{ "type": "Feature", "properties": { "cls": "shared", "highway": "cycleway", "name": "Valley Trail" }, "geometry": { "type": "LineString", "coordinates": [ [ -77.042027, 38.960662 ], [ -77.04205, 38.960658 ], [ -77.042071, 38.960655 ] ] } },
{ "type": "Feature", "properties": { "cls": "shared", "highway": "cycleway", "name": "Valley Trail" }, "geometry": { "type": "LineString", "coordinates": [ [ -77.041948, 38.96066 ], [ -77.041961, 38.96067 ], [ -77.041978, 38.960673 ], [ -77.042004, 38.960668 ], [ -77.042027, 38.960662 ] ] } },
{ "type": "Feature", "properties": { "cls": "sharrow", "highway": "tertiary", "name": "Morrow Drive Northwest" }, "geometry": { "type": "LineString", "coordinates": [ [ -77.041633, 38.960823 ], [ -77.041515, 38.960784 ], [ -77.04124, 38.960708 ], [ -77.041061, 38.960671 ] ] } },
{ "type": "Feature", "properties": { "cls": "sharrow", "highway": "tertiary", "name": "Morrow Drive Northwest" }, "geometry": { "type": "LineString", "coordinates": [ [ -77.041061, 38.960671 ], [ -77.041195, 38.960735 ], [ -77.041356, 38.960822 ], [ -77.041458, 38.960884 ], [ -77.041499, 38.960909 ], [ -77.041572, 38.960924 ] ] } },
{ "type": "Feature", "properties": { "cls": "shared", "highway": "cycleway", "name": null }, "geometry": { "type": "LineString", "coordinates": [ [ -77.042159, 38.960517 ], [ -77.042384, 38.960352 ] ] } },
{ "type": "Feature", "properties": { "cls": "shared", "highway": "cycleway", "name": "Valley Trail" }, "geometry": { "type": "LineString", "coordinates": [ [ -77.043401, 38.961521 ], [ -77.043215, 38.96135 ], [ -77.043175, 38.961315 ], [ -77.043062, 38.961228 ], [ -77.042936, 38.961137 ], [ -77.042805, 38.96105 ], [ -77.042659, 38.960948 ], [ -77.042515, 38.96087 ], [ -77.042352, 38.960809 ], [ -77.042264, 38.96077 ], [ -77.042224, 38.960745 ], [ -77.042186, 38.960718 ], [ -77.042156, 38.960683 ], [ -77.042137, 38.960646 ] ] } },
{ "type": "Feature", "properties": { "cls": "sharrow", "highway": "unclassified", "name": "Beach Drive Northwest" }, "geometry": { "type": "LineString", "coordinates": [ [ -77.041806, 38.960668 ], [ -77.04194, 38.960712 ], [ -77.042196, 38.960812 ], [ -77.042409, 38.960913 ], [ -77.042505, 38.960961 ], [ -77.042557, 38.960989 ], [ -77.042659, 38.961048 ], [ -77.042758, 38.96111 ], [ -77.042855, 38.961174 ], [ -77.042957, 38.961244 ], [ -77.043061, 38.961321 ], [ -77.043112, 38.961361 ], [ -77.043334, 38.961565 ], [ -77.04347, 38.96169 ], [ -77.043807, 38.962108 ], [ -77.043905, 38.962214 ], [ -77.04418, 38.962561 ], [ -77.044355, 38.962723 ], [ -77.04454, 38.962878 ], [ -77.044846, 38.963107 ], [ -77.045114, 38.963318 ], [ -77.045413, 38.963556 ], [ -77.045784, 38.963882 ], [ -77.045804, 38.9639 ], [ -77.046202, 38.964273 ], [ -77.046397, 38.964449 ], [ -77.046483, 38.964525 ], [ -77.046618, 38.964638 ], [ -77.047158, 38.965092 ], [ -77.047179, 38.96511 ] ] } },
{ "type": "Feature", "properties": { "cls": "shared", "highway": "cycleway", "name": null }, "geometry": { "type": "LineString", "coordinates": [ [ -77.046517, 38.964485 ], [ -77.046466, 38.964444 ], [ -77.046378, 38.964376 ], [ -77.046254, 38.964263 ], [ -77.046165, 38.964154 ], [ -77.046102, 38.964052 ], [ -77.046049, 38.963977 ], [ -77.045955, 38.963891 ], [ -77.045896, 38.963842 ], [ -77.045829, 38.963788 ], [ -77.045694, 38.963664 ], [ -77.045596, 38.963556 ], [ -77.045455, 38.963438 ], [ -77.045298, 38.963302 ], [ -77.045287, 38.963217 ], [ -77.045291, 38.963085 ], [ -77.045284, 38.963005 ], [ -77.045265, 38.962972 ], [ -77.045071, 38.962829 ], [ -77.04484, 38.962667 ], [ -77.044717, 38.962564 ], [ -77.04457, 38.96247 ], [ -77.044484, 38.962401 ], [ -77.04437, 38.962311 ], [ -77.044244, 38.962185 ], [ -77.044061, 38.962105 ], [ -77.043966, 38.962043 ], [ -77.043789, 38.961872 ], [ -77.043698, 38.961799 ], [ -77.043602, 38.961732 ], [ -77.043532, 38.961667 ], [ -77.043462, 38.961589 ], [ -77.043401, 38.961521 ] ] } },
{ "type": "Feature", "properties": { "cls": "shared", "highway": "cycleway", "name": null }, "geometry": { "type": "LineString", "coordinates": [ [ -77.046609, 38.964569 ], [ -77.046574, 38.964537 ], [ -77.046517, 38.964485 ] ] } },
{ "type": "Feature", "properties": { "cls": "shared", "highway": "cycleway", "name": null }, "geometry": { "type": "LineString", "coordinates": [ [ -77.046643, 38.964601 ], [ -77.046609, 38.964569 ] ] } },
{ "type": "Feature", "properties": { "cls": "shared", "highway": "cycleway", "name": null }, "geometry": { "type": "LineString", "coordinates": [ [ -77.046676, 38.964631 ], [ -77.04666, 38.964619 ], [ -77.046643, 38.964601 ] ] } },
{ "type": "Feature", "properties": { "cls": "shared", "highway": "cycleway", "name": null }, "geometry": { "type": "LineString", "coordinates": [ [ -77.047174, 38.965035 ], [ -77.046676, 38.964631 ] ] } },
{ "type": "Feature", "properties": { "cls": "sharrow", "highway": "unclassified", "name": "Beach Drive Northwest" }, "geometry": { "type": "LineString", "coordinates": [ [ -77.047179, 38.96511 ], [ -77.047566, 38.965424 ] ] } },
{ "type": "Feature", "properties": { "cls": "sharrow", "highway": "unclassified", "name": "Beach Drive Northwest" }, "geometry": { "type": "LineString", "coordinates": [ [ -77.047566, 38.965424 ], [ -77.047634, 38.965483 ], [ -77.047725, 38.96558 ], [ -77.0478, 38.965678 ], [ -77.047858, 38.965786 ], [ -77.047873, 38.965845 ], [ -77.047888, 38.965911 ], [ -77.047892, 38.965962 ], [ -77.047893, 38.966016 ], [ -77.047893, 38.966062 ], [ -77.047887, 38.966137 ], [ -77.047857, 38.966243 ], [ -77.047794, 38.96639 ], [ -77.047727, 38.966543 ], [ -77.047412, 38.967242 ], [ -77.047373, 38.967306 ], [ -77.047251, 38.967545 ], [ -77.047044, 38.967896 ], [ -77.046864, 38.968161 ], [ -77.046759, 38.968309 ], [ -77.04671, 38.968374 ], [ -77.046447, 38.968706 ], [ -77.04613, 38.969069 ] ] } },
{ "type": "Feature", "properties": { "cls": "shared", "highway": "cycleway", "name": null }, "geometry": { "type": "LineString", "coordinates": [ [ -77.047957, 38.965806 ], [ -77.047992, 38.965867 ], [ -77.047989, 38.965976 ], [ -77.047972, 38.96613 ], [ -77.047897, 38.966344 ], [ -77.047677, 38.966807 ], [ -77.047611, 38.967065 ], [ -77.047487, 38.96732 ], [ -77.0473, 38.96767 ], [ -77.047191, 38.967839 ], [ -77.047005, 38.968061 ], [ -77.046927, 38.968173 ], [ -77.046748, 38.968463 ], [ -77.046427, 38.968817 ], [ -77.046326, 38.968949 ], [ -77.046316, 38.968968 ], [ -77.046315, 38.968989 ], [ -77.046324, 38.969069 ], [ -77.046323, 38.969088 ], [ -77.046313, 38.969101 ], [ -77.046286, 38.969117 ], [ -77.046259, 38.969128 ] ] } },
{ "type": "Feature", "properties": { "cls": "shared", "highway": "pedestrian", "name": "Bingham Drive Northwest" }, "geometry": { "type": "LineString", "coordinates": [ [ -77.04613, 38.969069 ], [ -77.04623, 38.969154 ] ] } },
{ "type": "Feature", "properties": { "cls": "separated", "highway": "cycleway", "name": null }, "geometry": { "type": "LineString", "coordinates": [ [ -77.046259, 38.969128 ], [ -77.04623, 38.969154 ], [ -77.046198, 38.969181 ] ] } },
{ "type": "Feature", "properties": { "cls": "shared", "highway": "cycleway", "name": null }, "geometry": { "type": "LineString", "coordinates": [ [ -77.046198, 38.969181 ], [ -77.04619, 38.9692 ] ] } },
{ "type": "Feature", "properties": { "cls": "shared", "highway": "pedestrian", "name": "Bingham Drive Northwest" }, "geometry": { "type": "LineString", "coordinates": [ [ -77.04623, 38.969154 ], [ -77.046288, 38.969206 ], [ -77.046377, 38.969278 ], [ -77.046479, 38.969363 ], [ -77.046506, 38.969386 ], [ -77.046603, 38.969468 ], [ -77.04662, 38.969481 ], [ -77.046717, 38.969561 ], [ -77.046806, 38.969635 ], [ -77.046904, 38.969698 ] ] } },
{ "type": "Feature", "properties": { "cls": "separated", "highway": "cycleway", "name": null }, "geometry": { "type": "LineString", "coordinates": [ [ -77.04619, 38.9692 ], [ -77.046222, 38.969224 ], [ -77.046271, 38.969268 ], [ -77.046456, 38.969409 ], [ -77.04675, 38.969642 ], [ -77.046868, 38.969723 ] ] } },
{ "type": "Feature", "properties": { "cls": "shared", "highway": "pedestrian", "name": "Bingham Drive Northwest" }, "geometry": { "type": "LineString", "coordinates": [ [ -77.046904, 38.969698 ], [ -77.046969, 38.969743 ] ] } },
{ "type": "Feature", "properties": { "cls": "separated", "highway": "cycleway", "name": null }, "geometry": { "type": "LineString", "coordinates": [ [ -77.046868, 38.969723 ], [ -77.046935, 38.969769 ] ] } },
{ "type": "Feature", "properties": { "cls": "sharrow", "highway": "unclassified", "name": "Beach Drive Northwest" }, "geometry": { "type": "LineString", "coordinates": [ [ -77.04613, 38.969069 ], [ -77.045853, 38.969345 ], [ -77.045762, 38.969436 ], [ -77.045722, 38.96948 ], [ -77.045695, 38.969508 ], [ -77.045682, 38.969523 ], [ -77.045602, 38.969607 ], [ -77.045579, 38.969633 ], [ -77.045535, 38.969687 ], [ -77.045488, 38.969743 ], [ -77.045402, 38.969856 ], [ -77.045355, 38.969916 ], [ -77.045312, 38.969975 ], [ -77.045199, 38.970141 ], [ -77.045178, 38.970176 ], [ -77.045157, 38.970211 ], [ -77.045057, 38.970382 ], [ -77.044906, 38.970645 ], [ -77.044852, 38.970735 ], [ -77.044817, 38.970787 ], [ -77.044759, 38.970858 ], [ -77.044716, 38.970906 ], [ -77.044667, 38.970956 ], [ -77.044617, 38.971001 ], [ -77.044516, 38.971083 ], [ -77.044487, 38.971103 ], [ -77.044427, 38.971141 ], [ -77.044356, 38.971181 ], [ -77.044282, 38.971218 ], [ -77.044205, 38.971253 ], [ -77.044101, 38.971295 ], [ -77.044039, 38.971316 ], [ -77.044011, 38.971326 ] ] } },
{ "type": "Feature", "properties": { "cls": "sharrow", "highway": "unclassified", "name": "Beach Drive Northwest" }, "geometry": { "type": "LineString", "coordinates": [ [ -77.044011, 38.971326 ], [ -77.0438, 38.971375 ] ] } },
{ "type": "Feature", "properties": { "cls": "shared", "highway": "pedestrian", "name": "Bingham Drive Northwest" }, "geometry": { "type": "LineString", "coordinates": [ [ -77.046969, 38.969743 ], [ -77.046997, 38.96976 ], [ -77.047074, 38.969806 ], [ -77.047167, 38.969857 ], [ -77.047243, 38.969895 ], [ -77.047312, 38.969928 ], [ -77.04738, 38.969956 ], [ -77.047511, 38.970008 ], [ -77.047549, 38.970021 ], [ -77.047627, 38.970045 ], [ -77.047702, 38.970065 ], [ -77.047773, 38.970081 ], [ -77.047874, 38.970099 ], [ -77.047948, 38.970109 ], [ -77.048024, 38.970116 ], [ -77.048141, 38.970122 ], [ -77.048225, 38.970124 ], [ -77.048442, 38.970124 ], [ -77.048579, 38.970121 ], [ -77.0488, 38.97012 ], [ -77.049212, 38.97013 ], [ -77.049409, 38.970142 ], [ -77.049679, 38.970162 ] ] } },
{ "type": "Feature", "properties": { "cls": "separated", "highway": "cycleway", "name": null }, "geometry": { "type": "LineString", "coordinates": [ [ -77.046935, 38.969769 ], [ -77.047039, 38.969848 ], [ -77.04711, 38.969893 ], [ -77.047233, 38.969956 ], [ -77.047301, 38.97 ], [ -77.047465, 38.970138 ], [ -77.047504, 38.970155 ], [ -77.047601, 38.970173 ], [ -77.047721, 38.970214 ], [ -77.047815, 38.970233 ], [ -77.047982, 38.970251 ], [ -77.048091, 38.970241 ], [ -77.048282, 38.970182 ], [ -77.048357, 38.970179 ], [ -77.048568, 38.970221 ], [ -77.049032, 38.970183 ], [ -77.049183, 38.970205 ], [ -77.049463, 38.970222 ], [ -77.049659, 38.9702 ] ] } },
{ "type": "Feature", "properties": { "cls": "shared", "highway": "pedestrian", "name": "Bingham Drive Northwest" }, "geometry": { "type": "LineString", "coordinates": [ [ -77.049679, 38.970162 ], [ -77.049758, 38.970169 ] ] } },
{ "type": "Feature", "properties": { "cls": "separated", "highway": "cycleway", "name": null }, "geometry": { "type": "LineString", "coordinates": [ [ -77.049659, 38.9702 ], [ -77.049735, 38.970206 ] ] } },
{ "type": "Feature", "properties": { "cls": "shared", "highway": "pedestrian", "name": "Beach Drive Northwest" }, "geometry": { "type": "LineString", "coordinates": [ [ -77.043172, 38.983759 ], [ -77.043263, 38.983779 ], [ -77.043361, 38.983786 ], [ -77.043572, 38.983785 ], [ -77.043869, 38.983767 ], [ -77.044201, 38.983736 ], [ -77.044351, 38.983723 ], [ -77.044558, 38.983719 ], [ -77.04484, 38.983749 ], [ -77.04504, 38.983789 ], [ -77.045477, 38.98388 ], [ -77.045697, 38.983931 ], [ -77.045905, 38.983984 ], [ -77.046029, 38.984023 ], [ -77.046161, 38.984073 ], [ -77.046315, 38.984142 ], [ -77.046472, 38.984227 ], [ -77.046992, 38.984546 ], [ -77.047173, 38.984659 ], [ -77.047504, 38.984864 ], [ -77.047779, 38.985031 ], [ -77.04794, 38.985114 ], [ -77.048038, 38.985147 ], [ -77.048172, 38.985193 ], [ -77.048348, 38.985224 ], [ -77.048502, 38.985245 ], [ -77.048712, 38.985253 ], [ -77.049778, 38.985288 ], [ -77.050078, 38.985303 ], [ -77.050277, 38.985328 ], [ -77.050422, 38.985356 ], [ -77.050539, 38.985396 ], [ -77.050655, 38.985456 ], [ -77.050751, 38.985504 ], [ -77.050806, 38.985536 ], [ -77.051121, 38.985735 ], [ -77.051298, 38.985831 ], [ -77.051474, 38.985911 ], [ -77.051641, 38.985971 ], [ -77.051799, 38.986013 ], [ -77.051968, 38.986047 ], [ -77.052379, 38.986133 ], [ -77.052987, 38.986266 ], [ -77.053132, 38.9863 ] ] } },
{ "type": "Feature", "properties": { "cls": "shared", "highway": "pedestrian", "name": "Beach Drive Northwest" }, "geometry": { "type": "LineString", "coordinates": [ [ -77.04147, 38.976603 ], [ -77.041572, 38.976707 ], [ -77.041783, 38.976919 ], [ -77.042112, 38.977252 ], [ -77.042304, 38.977414 ], [ -77.042484, 38.977524 ], [ -77.042594, 38.977585 ], [ -77.042698, 38.977632 ], [ -77.042831, 38.977687 ], [ -77.042963, 38.977734 ], [ -77.043307, 38.977839 ], [ -77.043534, 38.977912 ], [ -77.043795, 38.978016 ], [ -77.04397, 38.978113 ], [ -77.044106, 38.978213 ], [ -77.044245, 38.978367 ], [ -77.044412, 38.978589 ], [ -77.044613, 38.978862 ], [ -77.04476, 38.979135 ], [ -77.044849, 38.979404 ], [ -77.044994, 38.979931 ], [ -77.045018, 38.980185 ], [ -77.045, 38.980388 ], [ -77.044947, 38.98055 ], [ -77.044849, 38.980761 ], [ -77.044666, 38.98102 ], [ -77.044434, 38.981205 ], [ -77.044201, 38.981316 ], [ -77.043971, 38.98139 ], [ -77.043819, 38.98142 ], [ -77.043269, 38.981525 ], [ -77.043074, 38.981574 ], [ -77.042878, 38.981643 ], [ -77.042728, 38.981726 ], [ -77.042612, 38.981814 ], [ -77.042494, 38.981936 ], [ -77.042447, 38.982011 ] ] } },
{ "type": "Feature", "properties": { "cls": "shared", "highway": "pedestrian", "name": "Beach Drive Northwest" }, "geometry": { "type": "LineString", "coordinates": [ [ -77.042706, 38.983601 ], [ -77.042808, 38.983656 ], [ -77.042881, 38.983693 ], [ -77.042935, 38.983719 ], [ -77.042989, 38.983741 ], [ -77.043069, 38.983761 ], [ -77.043172, 38.983759 ] ] } },
{ "type": "Feature", "properties": { "cls": "shared", "highway": "pedestrian", "name": "Beach Drive Northwest" }, "geometry": { "type": "LineString", "coordinates": [ [ -77.043172, 38.983759 ], [ -77.043139, 38.983739 ], [ -77.043082, 38.983712 ], [ -77.042982, 38.983679 ], [ -77.042901, 38.983642 ], [ -77.042843, 38.983615 ] ] } },
{ "type": "Feature", "properties": { "cls": "shared", "highway": "pedestrian", "name": "West Beach Drive Northwest" }, "geometry": { "type": "LineString", "coordinates": [ [ -77.042982, 38.983679 ], [ -77.04293, 38.98368 ], [ -77.042881, 38.983693 ], [ -77.042849, 38.983716 ], [ -77.042816, 38.983783 ] ] } },
{ "type": "Feature", "properties": { "cls": "shared", "highway": "pedestrian", "name": null }, "geometry": { "type": "LineString", "coordinates": [ [ -77.042892, 38.983865 ], [ -77.042945, 38.983819 ], [ -77.042981, 38.983796 ], [ -77.043023, 38.983773 ], [ -77.043069, 38.983761 ] ] } },
{ "type": "Feature", "properties": { "cls": "sharrow", "highway": "unclassified", "name": "Beach Drive Northwest" }, "geometry": { "type": "LineString", "coordinates": [ [ -77.0438, 38.971375 ], [ -77.043627, 38.971406 ], [ -77.043488, 38.971419 ], [ -77.043344, 38.971427 ], [ -77.043011, 38.97143 ], [ -77.042853, 38.971437 ], [ -77.042619, 38.971458 ], [ -77.042486, 38.971482 ], [ -77.042257, 38.971536 ], [ -77.042031, 38.971605 ], [ -77.041741, 38.971708 ], [ -77.04142, 38.971832 ], [ -77.041173, 38.971928 ], [ -77.041041, 38.971997 ], [ -77.040962, 38.972047 ], [ -77.040873, 38.972114 ], [ -77.040784, 38.972205 ], [ -77.040706, 38.972319 ], [ -77.040668, 38.972397 ], [ -77.040623, 38.972531 ], [ -77.040603, 38.972634 ], [ -77.0406, 38.972743 ], [ -77.040604, 38.972837 ], [ -77.040611, 38.972963 ], [ -77.040621, 38.973216 ], [ -77.040617, 38.973443 ], [ -77.040612, 38.97353 ], [ -77.040598, 38.973683 ], [ -77.040584, 38.973773 ], [ -77.040565, 38.973875 ], [ -77.040509, 38.97412 ], [ -77.040419, 38.974542 ], [ -77.040387, 38.974732 ], [ -77.04037, 38.974877 ], [ -77.040366, 38.97497 ], [ -77.040372, 38.975064 ], [ -77.040387, 38.975164 ], [ -77.040415, 38.975264 ], [ -77.040464, 38.975393 ], [ -77.040531, 38.97552 ], [ -77.040613, 38.975635 ], [ -77.040699, 38.975755 ], [ -77.040805, 38.975887 ], [ -77.040966, 38.976078 ], [ -77.041312, 38.976443 ], [ -77.04147, 38.976603 ] ] } },
{ "type": "Feature", "properties": { "cls": "sharrow", "highway": "tertiary", "name": "Beach Drive Northwest" }, "geometry": { "type": "LineString", "coordinates": [ [ -77.042447, 38.982011 ], [ -77.042383, 38.982144 ], [ -77.04234, 38.982289 ], [ -77.042308, 38.982449 ], [ -77.042286, 38.982596 ], [ -77.042273, 38.98281 ], [ -77.042283, 38.983026 ], [ -77.04233, 38.983171 ], [ -77.042411, 38.983291 ], [ -77.042492, 38.983382 ], [ -77.04264, 38.983503 ] ] } },
{ "type": "Feature", "properties": { "cls": "sharrow", "highway": "tertiary", "name": "Beach Drive Northwest" }, "geometry": { "type": "LineString", "coordinates": [ [ -77.04264, 38.983503 ], [ -77.042655, 38.983553 ], [ -77.042706, 38.983601 ] ] } },
{ "type": "Feature", "properties": { "cls": "sharrow", "highway": "tertiary", "name": "Beach Drive Northwest" }, "geometry": { "type": "LineString", "coordinates": [ [ -77.042843, 38.983615 ], [ -77.042745, 38.983543 ], [ -77.042706, 38.983518 ], [ -77.04264, 38.983503 ] ] } }
]
}
