{
"type": "FeatureCollection",
"name": "124-north-little-rock-burns-park",
"crs": { "type": "name", "properties": { "name": "urn:ogc:def:crs:OGC:1.3:CRS84" } },
"xy_coordinate_resolution": 1e-06,
"features": [
{ "type": "Feature", "properties": { "cls": "shared", "highway": "cycleway", "name": "Arkansas River Trail" }, "geometry": { "type": "MultiLineString", "coordinates": [ [ [ -92.305839, 34.786547 ], [ -92.305837, 34.786512 ], [ -92.305841, 34.786475 ], [ -92.305847, 34.786459 ] ], [ [ -92.306028, 34.786332 ], [ -92.306136, 34.786291 ], [ -92.30616, 34.786277 ], [ -92.306177, 34.786257 ], [ -92.306181, 34.786234 ], [ -92.30618, 34.786224 ] ] ] } },
{ "type": "Feature", "properties": { "cls": "shared", "highway": "cycleway", "name": "Arkansas River Trail" }, "geometry": { "type": "LineString", "coordinates": [ [ -92.306374, 34.787615 ], [ -92.306221, 34.787628 ], [ -92.306123, 34.787611 ], [ -92.306058, 34.787587 ], [ -92.305989, 34.787529 ], [ -92.305951, 34.787472 ], [ -92.305931, 34.787436 ], [ -92.305922, 34.787412 ], [ -92.305857, 34.78726 ], [ -92.30582, 34.787182 ], [ -92.30581, 34.787151 ], [ -92.305807, 34.787112 ], [ -92.305815, 34.787061 ], [ -92.305833, 34.787014 ], [ -92.305918, 34.786866 ], [ -92.305936, 34.786826 ], [ -92.305943, 34.786808 ], [ -92.305945, 34.786773 ], [ -92.305923, 34.786716 ], [ -92.305839, 34.786547 ] ] } },
{ "type": "Feature", "properties": { "cls": "shared", "highway": "cycleway", "name": "Arkansas River Trail" }, "geometry": { "type": "LineString", "coordinates": [ [ -92.307786, 34.787525 ], [ -92.307613, 34.787498 ], [ -92.30708, 34.787494 ], [ -92.30696, 34.787498 ], [ -92.306844, 34.787519 ] ] } },
{ "type": "Feature", "properties": { "cls": "shared", "highway": "cycleway", "name": "Arkansas River Trail" }, "geometry": { "type": "LineString", "coordinates": [ [ -92.306844, 34.787519 ], [ -92.306374, 34.787615 ] ] } },
{ "type": "Feature", "properties": { "cls": "shared", "highway": "cycleway", "name": "Arkansas River Trail" }, "geometry": { "type": "LineString", "coordinates": [ [ -92.310414, 34.789074 ], [ -92.310341, 34.789081 ], [ -92.310245, 34.789091 ], [ -92.310075, 34.78913 ], [ -92.310015, 34.789132 ], [ -92.309989, 34.789133 ], [ -92.30995, 34.789121 ], [ -92.309902, 34.789086 ], [ -92.309639, 34.78887 ], [ -92.309502, 34.788771 ], [ -92.309344, 34.788648 ], [ -92.309278, 34.788611 ], [ -92.309057, 34.78852 ], [ -92.308944, 34.788461 ], [ -92.30885, 34.788418 ], [ -92.308778, 34.788343 ], [ -92.308694, 34.788251 ], [ -92.308633, 34.788192 ], [ -92.30856, 34.78808 ] ] } },
{ "type": "Feature", "properties": { "cls": "shared", "highway": "cycleway", "name": "Arkansas River Trail" }, "geometry": { "type": "LineString", "coordinates": [ [ -92.322612, 34.7912 ], [ -92.322601, 34.790989 ] ] } },
{ "type": "Feature", "properties": { "cls": "shared", "highway": "cycleway", "name": "Arkansas River Trail" }, "geometry": { "type": "LineString", "coordinates": [ [ -92.324281, 34.791351 ], [ -92.323978, 34.791342 ], [ -92.323833, 34.791318 ], [ -92.323686, 34.791279 ], [ -92.323503, 34.791202 ], [ -92.323302, 34.7911 ], [ -92.323042, 34.79103 ], [ -92.322731, 34.79099 ], [ -92.322601, 34.790989 ], [ -92.322353, 34.790986 ], [ -92.322076, 34.790972 ], [ -92.321765, 34.790933 ], [ -92.321574, 34.79092 ], [ -92.321277, 34.790917 ], [ -92.321053, 34.790908 ], [ -92.320689, 34.790877 ], [ -92.320425, 34.790842 ], [ -92.319847, 34.79074 ], [ -92.319764, 34.790734 ], [ -92.319673, 34.790731 ], [ -92.319564, 34.790747 ], [ -92.31948, 34.790763 ], [ -92.319352, 34.79079 ], [ -92.319234, 34.790816 ], [ -92.318864, 34.790849 ], [ -92.318658, 34.790875 ], [ -92.318541, 34.790883 ], [ -92.318418, 34.790878 ], [ -92.318201, 34.790869 ], [ -92.31805, 34.790854 ], [ -92.317884, 34.790851 ], [ -92.317648, 34.790873 ], [ -92.317514, 34.790895 ], [ -92.317318, 34.790964 ], [ -92.317085, 34.791005 ], [ -92.317031, 34.791034 ], [ -92.316963, 34.79106 ], [ -92.316821, 34.791124 ], [ -92.316644, 34.791248 ], [ -92.316585, 34.791315 ], [ -92.316529, 34.791378 ], [ -92.316424, 34.791505 ], [ -92.316393, 34.791541 ] ] } },
{ "type": "Feature", "properties": { "cls": "shared", "highway": "cycleway", "name": "Arkansas River Trail" }, "geometry": { "type": "LineString", "coordinates": [ [ -92.316025, 34.791839 ], [ -92.315949, 34.79188 ], [ -92.315847, 34.791963 ], [ -92.315764, 34.792003 ], [ -92.315698, 34.792014 ], [ -92.315669, 34.792016 ], [ -92.315613, 34.792008 ], [ -92.315577, 34.791986 ], [ -92.31554, 34.791946 ], [ -92.315386, 34.791728 ], [ -92.31532, 34.791597 ], [ -92.315302, 34.791548 ], [ -92.315223, 34.791341 ], [ -92.315188, 34.791277 ], [ -92.315048, 34.791188 ], [ -92.314933, 34.791108 ], [ -92.31474, 34.791012 ], [ -92.314633, 34.790997 ], [ -92.314534, 34.790975 ], [ -92.314459, 34.790944 ], [ -92.314247, 34.790858 ], [ -92.31395, 34.790737 ], [ -92.313883, 34.790724 ], [ -92.313804, 34.790719 ], [ -92.313697, 34.790748 ], [ -92.313522, 34.790828 ], [ -92.31347, 34.790856 ], [ -92.313389, 34.7909 ] ] } },
{ "type": "Feature", "properties": { "cls": "shared", "highway": "cycleway", "name": "Arkansas River Trail" }, "geometry": { "type": "LineString", "coordinates": [ [ -92.316393, 34.791541 ], [ -92.316086, 34.791786 ], [ -92.316025, 34.791839 ] ] } },
{ "type": "Feature", "properties": { "cls": "shared", "highway": "cycleway", "name": "Arkansas River Trail" }, "geometry": { "type": "LineString", "coordinates": [ [ -92.330629, 34.790876 ], [ -92.330547, 34.790871 ], [ -92.330335, 34.790862 ], [ -92.330005, 34.790867 ], [ -92.329882, 34.790876 ], [ -92.329823, 34.79088 ], [ -92.329373, 34.790877 ], [ -92.328819, 34.790892 ], [ -92.328376, 34.79089 ], [ -92.328128, 34.79089 ], [ -92.327607, 34.790899 ], [ -92.327079, 34.790871 ], [ -92.326695, 34.790869 ], [ -92.32627, 34.790871 ], [ -92.325595, 34.790822 ], [ -92.325536, 34.790812 ], [ -92.325445, 34.790803 ], [ -92.325196, 34.790783 ], [ -92.325102, 34.790818 ], [ -92.325066, 34.790902 ], [ -92.325016, 34.791078 ], [ -92.324905, 34.7912 ], [ -92.324819, 34.791246 ], [ -92.324689, 34.791292 ], [ -92.324602, 34.791315 ], [ -92.324512, 34.791329 ], [ -92.324281, 34.791351 ] ] } },
{ "type": "Feature", "properties": { "cls": "shared", "highway": "cycleway", "name": "Arkansas River Trail" }, "geometry": { "type": "LineString", "coordinates": [ [ -92.331057, 34.790922 ], [ -92.330922, 34.790915 ], [ -92.330855, 34.790915 ], [ -92.330772, 34.790904 ], [ -92.330629, 34.790876 ] ] } },
{ "type": "Feature", "properties": { "cls": "shared", "highway": "cycleway", "name": "Arkansas River Trail" }, "geometry": { "type": "LineString", "coordinates": [ [ -92.330629, 34.790876 ], [ -92.330594, 34.791056 ], [ -92.330559, 34.791223 ], [ -92.330572, 34.791316 ], [ -92.330602, 34.791422 ], [ -92.330616, 34.791487 ], [ -92.33056, 34.791616 ] ] } },
{ "type": "Feature", "properties": { "cls": "separated", "highway": "cycleway", "name": null }, "geometry": { "type": "LineString", "coordinates": [ [ -92.328561, 34.791947 ], [ -92.328473, 34.791812 ], [ -92.328442, 34.791743 ], [ -92.328425, 34.791682 ], [ -92.328419, 34.791607 ] ] } },
{ "type": "Feature", "properties": { "cls": "separated", "highway": "cycleway", "name": null }, "geometry": { "type": "LineString", "coordinates": [ [ -92.326548, 34.793713 ], [ -92.326548, 34.793638 ], [ -92.326499, 34.793539 ], [ -92.326481, 34.793471 ], [ -92.326467, 34.793393 ], [ -92.326462, 34.793281 ], [ -92.326446, 34.793048 ], [ -92.326442, 34.793003 ], [ -92.326432, 34.792959 ], [ -92.326397, 34.79284 ], [ -92.326367, 34.792772 ], [ -92.326303, 34.792684 ], [ -92.326279, 34.792661 ], [ -92.326242, 34.792642 ], [ -92.326126, 34.792622 ], [ -92.326068, 34.792606 ], [ -92.32602, 34.792585 ], [ -92.325885, 34.792499 ], [ -92.325815, 34.792433 ], [ -92.325772, 34.792365 ], [ -92.325767, 34.792338 ], [ -92.325772, 34.792314 ], [ -92.32588, 34.792105 ], [ -92.32594, 34.792037 ], [ -92.325984, 34.791999 ], [ -92.326027, 34.791972 ], [ -92.326076, 34.791951 ], [ -92.326128, 34.791934 ], [ -92.326207, 34.791921 ], [ -92.326284, 34.791919 ], [ -92.326314, 34.791919 ], [ -92.326345, 34.791915 ], [ -92.32656, 34.791869 ], [ -92.326599, 34.791862 ], [ -92.326652, 34.791865 ], [ -92.326695, 34.79187 ], [ -92.326735, 34.79188 ], [ -92.326779, 34.791885 ], [ -92.326827, 34.791882 ], [ -92.326956, 34.791883 ], [ -92.326989, 34.791886 ], [ -92.327016, 34.791894 ], [ -92.327129, 34.791932 ], [ -92.327213, 34.791948 ], [ -92.327246, 34.791951 ], [ -92.327309, 34.791943 ], [ -92.327362, 34.791934 ], [ -92.327478, 34.791904 ], [ -92.327581, 34.791875 ], [ -92.327606, 34.791873 ], [ -92.327631, 34.791876 ], [ -92.327698, 34.791902 ], [ -92.327763, 34.791924 ], [ -92.327791, 34.791928 ], [ -92.327822, 34.791924 ], [ -92.327875, 34.791898 ], [ -92.327939, 34.791887 ], [ -92.328012, 34.79189 ], [ -92.328086, 34.791899 ], [ -92.328151, 34.79192 ], [ -92.3282, 34.791944 ], [ -92.32826, 34.791962 ], [ -92.328333, 34.791973 ], [ -92.328392, 34.791974 ], [ -92.328561, 34.791947 ], [ -92.328715, 34.791918 ], [ -92.328884, 34.791904 ], [ -92.328963, 34.791904 ], [ -92.329037, 34.791909 ], [ -92.329111, 34.79192 ], [ -92.329139, 34.791924 ], [ -92.329209, 34.791961 ], [ -92.329241, 34.791989 ], [ -92.329277, 34.79201 ], [ -92.329369, 34.792025 ], [ -92.32941, 34.792023 ], [ -92.32945, 34.79203 ], [ -92.329541, 34.792083 ], [ -92.329578, 34.792094 ], [ -92.329616, 34.792091 ], [ -92.329662, 34.792083 ], [ -92.329747, 34.792061 ], [ -92.329806, 34.792054 ], [ -92.329898, 34.792063 ], [ -92.329934, 34.792071 ], [ -92.32997, 34.792085 ], [ -92.329999, 34.792106 ], [ -92.330029, 34.792142 ], [ -92.330099, 34.792197 ], [ -92.330163, 34.79223 ], [ -92.33023, 34.792248 ], [ -92.330297, 34.792248 ], [ -92.330461, 34.792239 ] ] } },
{ "type": "Feature", "properties": { "cls": "separated", "highway": "cycleway", "name": null }, "geometry": { "type": "LineString", "coordinates": [ [ -92.328699, 34.793859 ], [ -92.328731, 34.793777 ], [ -92.32874, 34.793759 ], [ -92.328758, 34.793743 ], [ -92.328794, 34.793728 ], [ -92.32884, 34.793713 ], [ -92.329065, 34.793662 ], [ -92.329108, 34.793644 ], [ -92.329135, 34.793628 ], [ -92.329211, 34.793571 ], [ -92.329211, 34.793537 ], [ -92.329204, 34.793506 ], [ -92.329187, 34.793451 ], [ -92.329134, 34.79331 ], [ -92.329096, 34.793209 ], [ -92.329062, 34.793154 ], [ -92.329073, 34.792961 ], [ -92.329077, 34.792824 ], [ -92.329082, 34.792701 ], [ -92.329077, 34.792584 ], [ -92.329053, 34.792518 ], [ -92.329034, 34.79245 ], [ -92.32903, 34.792429 ], [ -92.32903, 34.792408 ], [ -92.329033, 34.792388 ], [ -92.32904, 34.792368 ], [ -92.329077, 34.792324 ], [ -92.329121, 34.792291 ], [ -92.329132, 34.792277 ], [ -92.329136, 34.792263 ], [ -92.329135, 34.792238 ], [ -92.32912, 34.792201 ], [ -92.329095, 34.792152 ], [ -92.329092, 34.792099 ], [ -92.329095, 34.792049 ], [ -92.329111, 34.79192 ] ] } },
{ "type": "Feature", "properties": { "cls": "separated", "highway": "cycleway", "name": null }, "geometry": { "type": "LineString", "coordinates": [ [ -92.329062, 34.793154 ], [ -92.329015, 34.793227 ], [ -92.328966, 34.793292 ], [ -92.328892, 34.793383 ], [ -92.328824, 34.793442 ], [ -92.328783, 34.79347 ], [ -92.32876, 34.793477 ], [ -92.328733, 34.793482 ], [ -92.32863, 34.793489 ], [ -92.328432, 34.793497 ], [ -92.32839, 34.793538 ] ] } },
{ "type": "Feature", "properties": { "cls": "separated", "highway": "cycleway", "name": null }, "geometry": { "type": "LineString", "coordinates": [ [ -92.330815, 34.793595 ], [ -92.330697, 34.793578 ], [ -92.330566, 34.793561 ], [ -92.330356, 34.793554 ], [ -92.330138, 34.79355 ], [ -92.329885, 34.793559 ], [ -92.329774, 34.793561 ], [ -92.329467, 34.79357 ], [ -92.32937, 34.793577 ], [ -92.329313, 34.793578 ], [ -92.329248, 34.793571 ], [ -92.329211, 34.793571 ] ] } },
{ "type": "Feature", "properties": { "cls": "separated", "highway": "cycleway", "name": null }, "geometry": { "type": "LineString", "coordinates": [ [ -92.326179, 34.793669 ], [ -92.326035, 34.793624 ], [ -92.325976, 34.793624 ], [ -92.325869, 34.793659 ], [ -92.325761, 34.793703 ], [ -92.325657, 34.793712 ], [ -92.325509, 34.793741 ], [ -92.325343, 34.793759 ], [ -92.32523, 34.793761 ], [ -92.32508, 34.793759 ], [ -92.324857, 34.793743 ], [ -92.324673, 34.79371 ], [ -92.324546, 34.793677 ], [ -92.324522, 34.793673 ], [ -92.324499, 34.793675 ], [ -92.324426, 34.793684 ], [ -92.324324, 34.793692 ], [ -92.324214, 34.793754 ] ] } },
{ "type": "Feature", "properties": { "cls": "separated", "highway": "cycleway", "name": null }, "geometry": { "type": "LineString", "coordinates": [ [ -92.325583, 34.794924 ], [ -92.325604, 34.794843 ], [ -92.325611, 34.79481 ], [ -92.325612, 34.794768 ], [ -92.325603, 34.794635 ] ] } },
{ "type": "Feature", "properties": { "cls": "separated", "highway": "cycleway", "name": null }, "geometry": { "type": "LineString", "coordinates": [ [ -92.33056, 34.791616 ], [ -92.330531, 34.7917 ], [ -92.330516, 34.791771 ], [ -92.330514, 34.791805 ], [ -92.330524, 34.791895 ], [ -92.330525, 34.791985 ], [ -92.330517, 34.792083 ], [ -92.330493, 34.792173 ], [ -92.330461, 34.792239 ], [ -92.330386, 34.792382 ], [ -92.330374, 34.792422 ], [ -92.330372, 34.792462 ], [ -92.330394, 34.792655 ], [ -92.330423, 34.792799 ], [ -92.330434, 34.792937 ], [ -92.330439, 34.793041 ], [ -92.33044, 34.793129 ], [ -92.330443, 34.793173 ], [ -92.330461, 34.793246 ], [ -92.330533, 34.79338 ], [ -92.330571, 34.793455 ], [ -92.330579, 34.793492 ], [ -92.330566, 34.793561 ], [ -92.330488, 34.79368 ], [ -92.330453, 34.793763 ], [ -92.33045, 34.793799 ], [ -92.330458, 34.793922 ], [ -92.330465, 34.793957 ], [ -92.330478, 34.793992 ], [ -92.330527, 34.794042 ], [ -92.330568, 34.794102 ], [ -92.330574, 34.794127 ], [ -92.330556, 34.794259 ], [ -92.330545, 34.79436 ], [ -92.330544, 34.794432 ], [ -92.330549, 34.794481 ], [ -92.330547, 34.794581 ], [ -92.33054, 34.794687 ], [ -92.330528, 34.794873 ], [ -92.330517, 34.795047 ], [ -92.330493, 34.795314 ], [ -92.330489, 34.795397 ], [ -92.330461, 34.795552 ], [ -92.330453, 34.795588 ], [ -92.330444, 34.795631 ], [ -92.330444, 34.795693 ], [ -92.33044, 34.79582 ], [ -92.330422, 34.796237 ], [ -92.330409, 34.796426 ], [ -92.330401, 34.796475 ], [ -92.330394, 34.796548 ], [ -92.330397, 34.796649 ], [ -92.330415, 34.796777 ], [ -92.330443, 34.796973 ], [ -92.330444, 34.79708 ], [ -92.330436, 34.797126 ], [ -92.330422, 34.797173 ], [ -92.33042, 34.797215 ], [ -92.330423, 34.797255 ], [ -92.330433, 34.797368 ], [ -92.330447, 34.797459 ], [ -92.33046, 34.797603 ], [ -92.330475, 34.797815 ], [ -92.33048, 34.797895 ], [ -92.330488, 34.797977 ], [ -92.330496, 34.798061 ], [ -92.330503, 34.798081 ], [ -92.330545, 34.79816 ], [ -92.330552, 34.798183 ], [ -92.330555, 34.798208 ], [ -92.330551, 34.798238 ], [ -92.33051, 34.798328 ], [ -92.330498, 34.798355 ], [ -92.330493, 34.798386 ], [ -92.330493, 34.798426 ] ] } },
{ "type": "Feature", "properties": { "cls": "separated", "highway": "cycleway", "name": null }, "geometry": { "type": "LineString", "coordinates": [ [ -92.326966, 34.794925 ], [ -92.327231, 34.794913 ], [ -92.327438, 34.794915 ], [ -92.327693, 34.794935 ], [ -92.328184, 34.794995 ], [ -92.328436, 34.795012 ], [ -92.328723, 34.795043 ], [ -92.328785, 34.795029 ], [ -92.328829, 34.79502 ], [ -92.329006, 34.795094 ], [ -92.329057, 34.795111 ], [ -92.329112, 34.795122 ], [ -92.329243, 34.795129 ], [ -92.329766, 34.795184 ], [ -92.330066, 34.795218 ], [ -92.330131, 34.795224 ], [ -92.330208, 34.795239 ], [ -92.330355, 34.795281 ], [ -92.330416, 34.795302 ], [ -92.33045, 34.795311 ], [ -92.330493, 34.795314 ] ] } },
{ "type": "Feature", "properties": { "cls": "separated", "highway": "cycleway", "name": null }, "geometry": { "type": "LineString", "coordinates": [ [ -92.330493, 34.798426 ], [ -92.330287, 34.798362 ], [ -92.33012, 34.798316 ], [ -92.330013, 34.798296 ], [ -92.329916, 34.798298 ], [ -92.329788, 34.798325 ], [ -92.32964, 34.798402 ], [ -92.329314, 34.798568 ], [ -92.329034, 34.798699 ], [ -92.328731, 34.798829 ], [ -92.328511, 34.798931 ], [ -92.328355, 34.798955 ], [ -92.328221, 34.798942 ], [ -92.328068, 34.798915 ], [ -92.327535, 34.79884 ], [ -92.327352, 34.798851 ], [ -92.327132, 34.798867 ], [ -92.326987, 34.798875 ], [ -92.326856, 34.79886 ], [ -92.326775, 34.798816 ], [ -92.32669, 34.798807 ], [ -92.326566, 34.798801 ], [ -92.326443, 34.798763 ], [ -92.326344, 34.798752 ], [ -92.326116, 34.798765 ], [ -92.326006, 34.798754 ], [ -92.325917, 34.798726 ], [ -92.325846, 34.798701 ], [ -92.325748, 34.798635 ], [ -92.325643, 34.798607 ], [ -92.325241, 34.798581 ], [ -92.325166, 34.798551 ], [ -92.325107, 34.79853 ], [ -92.325044, 34.79853 ], [ -92.324958, 34.798539 ], [ -92.324896, 34.798514 ], [ -92.324823, 34.798485 ], [ -92.324746, 34.798485 ], [ -92.324624, 34.798474 ], [ -92.324536, 34.798436 ], [ -92.324443, 34.798389 ], [ -92.324386, 34.798372 ], [ -92.324304, 34.798366 ], [ -92.324246, 34.798324 ], [ -92.324208, 34.798279 ], [ -92.324153, 34.79824 ], [ -92.324088, 34.798219 ], [ -92.324014, 34.798207 ], [ -92.323975, 34.798186 ], [ -92.323936, 34.798148 ], [ -92.323785, 34.798095 ], [ -92.323725, 34.798058 ], [ -92.323704, 34.797968 ], [ -92.323675, 34.79791 ], [ -92.3236, 34.797844 ], [ -92.323565, 34.797745 ], [ -92.323624, 34.797694 ], [ -92.323742, 34.797646 ], [ -92.323841, 34.797635 ], [ -92.324042, 34.797664 ], [ -92.324198, 34.797677 ], [ -92.324388, 34.797664 ], [ -92.324517, 34.797611 ], [ -92.324627, 34.797571 ], [ -92.324748, 34.797569 ], [ -92.324892, 34.797595 ], [ -92.325067, 34.797628 ], [ -92.325171, 34.797624 ], [ -92.325238, 34.797587 ], [ -92.32526, 34.797514 ], [ -92.325276, 34.797441 ], [ -92.325332, 34.797375 ], [ -92.325434, 34.797285 ], [ -92.325501, 34.79717 ], [ -92.325504, 34.797018 ], [ -92.325469, 34.796789 ], [ -92.325443, 34.796423 ], [ -92.325431, 34.796375 ], [ -92.3254, 34.796338 ], [ -92.325369, 34.796319 ], [ -92.325332, 34.796301 ], [ -92.325273, 34.796292 ], [ -92.325236, 34.796292 ], [ -92.325194, 34.796297 ], [ -92.325045, 34.796316 ], [ -92.324997, 34.796323 ], [ -92.324957, 34.796322 ], [ -92.324839, 34.796307 ], [ -92.324635, 34.796281 ], [ -92.324477, 34.796276 ], [ -92.32427, 34.796281 ], [ -92.324096, 34.796281 ], [ -92.323927, 34.796269 ], [ -92.32371, 34.796243 ], [ -92.323648, 34.796199 ], [ -92.323594, 34.796128 ], [ -92.323578, 34.796095 ], [ -92.32357, 34.796038 ], [ -92.323565, 34.79595 ], [ -92.323573, 34.795769 ], [ -92.323579, 34.795617 ], [ -92.32358, 34.795498 ], [ -92.323559, 34.795369 ], [ -92.323566, 34.795315 ], [ -92.323622, 34.795194 ], [ -92.323645, 34.795101 ], [ -92.323659, 34.795039 ], [ -92.323696, 34.79501 ], [ -92.323739, 34.794993 ], [ -92.323785, 34.794985 ], [ -92.323927, 34.794974 ], [ -92.324152, 34.794946 ], [ -92.324351, 34.794913 ], [ -92.32452, 34.794902 ], [ -92.324703, 34.794893 ], [ -92.324756, 34.794897 ], [ -92.324876, 34.794917 ], [ -92.325078, 34.794963 ], [ -92.325128, 34.794964 ], [ -92.325222, 34.794957 ], [ -92.325517, 34.794924 ], [ -92.325583, 34.794924 ], [ -92.325646, 34.794924 ], [ -92.326002, 34.794925 ], [ -92.326056, 34.794921 ], [ -92.326178, 34.794898 ], [ -92.326246, 34.794895 ], [ -92.326323, 34.794896 ], [ -92.326437, 34.794908 ], [ -92.32655, 34.794921 ], [ -92.326681, 34.794926 ], [ -92.326797, 34.794926 ], [ -92.326966, 34.794925 ] ] } },
{ "type": "Feature", "properties": { "cls": "separated", "highway": "cycleway", "name": null }, "geometry": { "type": "LineString", "coordinates": [ [ -92.330493, 34.798426 ], [ -92.330608, 34.798455 ], [ -92.330632, 34.798455 ] ] } },
{ "type": "Feature", "properties": { "cls": "separated", "highway": "cycleway", "name": null }, "geometry": { "type": "LineString", "coordinates": [ [ -92.32452, 34.794902 ], [ -92.324525, 34.794656 ] ] } },
{ "type": "Feature", "properties": { "cls": "separated", "highway": "cycleway", "name": null }, "geometry": { "type": "LineString", "coordinates": [ [ -92.311286, 34.804094 ], [ -92.312596, 34.804464 ] ] } }
]
}
