{
"type": "FeatureCollection",
"name": "125-mexico-city-chapultepec-park",
"crs": { "type": "name", "properties": { "name": "urn:ogc:def:crs:OGC:1.3:CRS84" } },
"xy_coordinate_resolution": 1e-06,
"features": [
{ "type": "Feature", "properties": { "cls": "shared", "highway": "path", "name": "Serpientes y Escaleras Circuito MTB" }, "geometry": { "type": "LineString", "coordinates": [ [ -99.214517, 19.40408 ], [ -99.214815, 19.404042 ], [ -99.214939, 19.404064 ], [ -99.215107, 19.404059 ], [ -99.215274, 19.404008 ], [ -99.215472, 19.403931 ], [ -99.215569, 19.403887 ], [ -99.215633, 19.403841 ], [ -99.215676, 19.403787 ], [ -99.21579, 19.403478 ], [ -99.215835, 19.403422 ], [ -99.215926, 19.403321 ], [ -99.216009, 19.403255 ], [ -99.216179, 19.40314 ], [ -99.216271, 19.40309 ], [ -99.216503, 19.403015 ], [ -99.21655, 19.403011 ], [ -99.216714, 19.402999 ], [ -99.216931, 19.402984 ], [ -99.21705, 19.402957 ], [ -99.217157, 19.402938 ], [ -99.217405, 19.402839 ], [ -99.217529, 19.402796 ], [ -99.217608, 19.402741 ], [ -99.21772, 19.402642 ], [ -99.217781, 19.402549 ], [ -99.217761, 19.402465 ], [ -99.217737, 19.402364 ], [ -99.217849, 19.402282 ], [ -99.217981, 19.402182 ], [ -99.218232, 19.402066 ], [ -99.218387, 19.401973 ], [ -99.218679, 19.401847 ], [ -99.218815, 19.401785 ], [ -99.218897, 19.401757 ], [ -99.218961, 19.401753 ], [ -99.219026, 19.401744 ], [ -99.219231, 19.401646 ], [ -99.219422, 19.401529 ], [ -99.219544, 19.401434 ], [ -99.219763, 19.401191 ], [ -99.21991, 19.401106 ], [ -99.220051, 19.40098 ], [ -99.220191, 19.400834 ], [ -99.220274, 19.400698 ], [ -99.220419, 19.400638 ], [ -99.220596, 19.400622 ], [ -99.220728, 19.400627 ], [ -99.220829, 19.400576 ], [ -99.221019, 19.40033 ], [ -99.221235, 19.400166 ], [ -99.221681, 19.399993 ], [ -99.22178, 19.399929 ], [ -99.221954, 19.399785 ], [ -99.222405, 19.399602 ], [ -99.222512, 19.399521 ], [ -99.222749, 19.399278 ], [ -99.222799, 19.399202 ], [ -99.222895, 19.399057 ], [ -99.222972, 19.398941 ], [ -99.22302, 19.398893 ], [ -99.223092, 19.398877 ], [ -99.223234, 19.398953 ], [ -99.223312, 19.39896 ], [ -99.223505, 19.398964 ] ] } },
{ "type": "Feature", "properties": { "cls": "separated", "highway": "unclassified", "name": "Avenida de los Compositores" }, "geometry": { "type": "LineString", "coordinates": [ [ -99.198956, 19.409246 ], [ -99.198594, 19.409447 ] ] } },
{ "type": "Feature", "properties": { "cls": "separated", "highway": "unclassified", "name": "Avenida de los Compositores" }, "geometry": { "type": "LineString", "coordinates": [ [ -99.198594, 19.409447 ], [ -99.198369, 19.409572 ] ] } },
{ "type": "Feature", "properties": { "cls": "separated", "highway": "unclassified", "name": "Avenida de los Compositores" }, "geometry": { "type": "LineString", "coordinates": [ [ -99.198369, 19.409572 ], [ -99.197977, 19.409812 ] ] } },
{ "type": "Feature", "properties": { "cls": "separated", "highway": "unclassified", "name": "Avenida de los Compositores" }, "geometry": { "type": "MultiLineString", "coordinates": [ [ [ -99.200635, 19.413872 ], [ -99.200594, 19.413796 ], [ -99.200559, 19.413709 ], [ -99.200541, 19.413604 ], [ -99.200542, 19.413546 ], [ -99.200551, 19.413491 ], [ -99.200587, 19.413391 ], [ -99.200672, 19.413272 ], [ -99.2008, 19.413141 ], [ -99.200905, 19.413039 ], [ -99.200999, 19.412939 ], [ -99.201079, 19.412856 ], [ -99.201614, 19.412316 ], [ -99.202129, 19.411797 ], [ -99.202191, 19.411727 ], [ -99.202223, 19.411679 ], [ -99.20225, 19.411621 ], [ -99.202266, 19.411559 ], [ -99.202272, 19.411504 ], [ -99.20226, 19.411298 ], [ -99.202253, 19.411171 ], [ -99.202233, 19.410822 ] ], [ [ -99.202175, 19.409961 ], [ -99.202163, 19.40987 ], [ -99.202135, 19.409747 ], [ -99.202104, 19.409636 ], [ -99.202075, 19.409564 ], [ -99.202034, 19.409468 ], [ -99.201896, 19.40922 ], [ -99.201804, 19.409069 ], [ -99.201543, 19.408665 ], [ -99.201494, 19.408592 ], [ -99.201449, 19.408537 ], [ -99.201401, 19.4085 ], [ -99.201362, 19.408472 ], [ -99.201314, 19.408448 ], [ -99.201217, 19.408415 ], [ -99.201148, 19.408402 ], [ -99.201088, 19.4084 ], [ -99.201003, 19.408401 ], [ -99.200846, 19.40841 ], [ -99.200626, 19.408427 ], [ -99.200461, 19.408459 ], [ -99.200331, 19.408505 ], [ -99.200236, 19.408548 ], [ -99.2001, 19.408616 ], [ -99.199101, 19.409167 ], [ -99.198956, 19.409246 ] ] ] } },
{ "type": "Feature", "properties": { "cls": "separated", "highway": "unclassified", "name": null }, "geometry": { "type": "LineString", "coordinates": [ [ -99.197896, 19.412091 ], [ -99.197886, 19.412115 ], [ -99.197886, 19.41215 ], [ -99.197898, 19.412184 ], [ -99.197921, 19.412211 ], [ -99.197953, 19.41223 ], [ -99.197984, 19.412237 ], [ -99.198015, 19.412235 ], [ -99.198045, 19.412225 ], [ -99.19807, 19.412208 ], [ -99.198089, 19.412185 ], [ -99.1981, 19.412157 ], [ -99.198102, 19.412134 ] ] } },
{ "type": "Feature", "properties": { "cls": "separated", "highway": "unclassified", "name": "Avenida de los Compositores" }, "geometry": { "type": "LineString", "coordinates": [ [ -99.200936, 19.414406 ], [ -99.200878, 19.414335 ], [ -99.200729, 19.414072 ], [ -99.200675, 19.413963 ], [ -99.200635, 19.413872 ] ] } },
{ "type": "Feature", "properties": { "cls": "separated", "highway": "unclassified", "name": "Avenida de los Compositores" }, "geometry": { "type": "LineString", "coordinates": [ [ -99.201237, 19.41495 ], [ -99.201126, 19.414752 ], [ -99.200936, 19.414406 ] ] } },
{ "type": "Feature", "properties": { "cls": "sharrow", "highway": "unclassified", "name": null }, "geometry": { "type": "LineString", "coordinates": [ [ -99.201576, 19.415328 ], [ -99.201488, 19.415242 ], [ -99.201447, 19.41519 ], [ -99.201237, 19.41495 ] ] } },
{ "type": "Feature", "properties": { "cls": "separated", "highway": "unclassified", "name": "Avenida de los Compositores" }, "geometry": { "type": "LineString", "coordinates": [ [ -99.20139, 19.41538 ], [ -99.201373, 19.415288 ], [ -99.20135, 19.415222 ], [ -99.201237, 19.41495 ] ] } },
{ "type": "Feature", "properties": { "cls": "sharrow", "highway": "unclassified", "name": null }, "geometry": { "type": "LineString", "coordinates": [ [ -99.201576, 19.415328 ], [ -99.201531, 19.415314 ], [ -99.201485, 19.415315 ], [ -99.201441, 19.41533 ], [ -99.201405, 19.415359 ] ] } },
{ "type": "Feature", "properties": { "cls": "sharrow", "highway": "unclassified", "name": null }, "geometry": { "type": "LineString", "coordinates": [ [ -99.201405, 19.415359 ], [ -99.20139, 19.41538 ], [ -99.201382, 19.415398 ], [ -99.201375, 19.415437 ], [ -99.20138, 19.415477 ], [ -99.201388, 19.415492 ] ] } },
{ "type": "Feature", "properties": { "cls": "sharrow", "highway": "unclassified", "name": null }, "geometry": { "type": "LineString", "coordinates": [ [ -99.201548, 19.415562 ], [ -99.201584, 19.415546 ], [ -99.201614, 19.415524 ], [ -99.201638, 19.415488 ], [ -99.201645, 19.415437 ], [ -99.201636, 19.415394 ], [ -99.201612, 19.415356 ], [ -99.201576, 19.415328 ] ] } },
{ "type": "Feature", "properties": { "cls": "sharrow", "highway": "unclassified", "name": null }, "geometry": { "type": "LineString", "coordinates": [ [ -99.201388, 19.415492 ], [ -99.201399, 19.415513 ], [ -99.201428, 19.415542 ], [ -99.201466, 19.415561 ], [ -99.201508, 19.415568 ], [ -99.201548, 19.415562 ] ] } },
{ "type": "Feature", "properties": { "cls": "separated", "highway": "unclassified", "name": "Avenida de los Compositores" }, "geometry": { "type": "LineString", "coordinates": [ [ -99.196603, 19.415849 ], [ -99.196571, 19.416087 ] ] } },
{ "type": "Feature", "properties": { "cls": "separated", "highway": "unclassified", "name": "Avenida Rodolfo Neri Vela" }, "geometry": { "type": "LineString", "coordinates": [ [ -99.196571, 19.416087 ], [ -99.196709, 19.415891 ] ] } },
{ "type": "Feature", "properties": { "cls": "separated", "highway": "unclassified", "name": "Avenida de los Compositores" }, "geometry": { "type": "LineString", "coordinates": [ [ -99.196571, 19.416087 ], [ -99.196533, 19.416346 ], [ -99.196438, 19.417019 ] ] } },
{ "type": "Feature", "properties": { "cls": "shared", "highway": "cycleway", "name": null }, "geometry": { "type": "LineString", "coordinates": [ [ -99.196101, 19.418148 ], [ -99.196078, 19.418128 ] ] } },
{ "type": "Feature", "properties": { "cls": "separated", "highway": "cycleway", "name": null }, "geometry": { "type": "LineString", "coordinates": [ [ -99.187844, 19.41438 ], [ -99.188012, 19.414186 ], [ -99.188043, 19.414166 ], [ -99.188298, 19.414034 ], [ -99.188329, 19.414014 ], [ -99.188348, 19.413989 ], [ -99.188363, 19.413953 ], [ -99.188377, 19.413919 ], [ -99.188386, 19.413897 ], [ -99.188412, 19.413821 ], [ -99.188414, 19.413806 ], [ -99.188407, 19.41379 ], [ -99.1884, 19.413776 ] ] } },
{ "type": "Feature", "properties": { "cls": "shared", "highway": "cycleway", "name": "Sendero Compartido Reforma" }, "geometry": { "type": "LineString", "coordinates": [ [ -99.187175, 19.425033 ], [ -99.185157, 19.424722 ] ] } },
{ "type": "Feature", "properties": { "cls": "shared", "highway": "cycleway", "name": "Sendero Compartido Reforma" }, "geometry": { "type": "LineString", "coordinates": [ [ -99.187458, 19.425075 ], [ -99.187256, 19.425046 ] ] } },
{ "type": "Feature", "properties": { "cls": "shared", "highway": "cycleway", "name": null }, "geometry": { "type": "LineString", "coordinates": [ [ -99.187725, 19.425115 ], [ -99.187672, 19.425106 ], [ -99.187615, 19.425098 ] ] } },
{ "type": "Feature", "properties": { "cls": "shared", "highway": "cycleway", "name": "Sendero Compartido Reforma" }, "geometry": { "type": "LineString", "coordinates": [ [ -99.189949, 19.425458 ], [ -99.18798, 19.425153 ] ] } },
{ "type": "Feature", "properties": { "cls": "shared", "highway": "cycleway", "name": null }, "geometry": { "type": "LineString", "coordinates": [ [ -99.190301, 19.425508 ], [ -99.190266, 19.425502 ], [ -99.190236, 19.425498 ] ] } },
{ "type": "Feature", "properties": { "cls": "shared", "highway": "cycleway", "name": "Sendero Compartido Reforma" }, "geometry": { "type": "LineString", "coordinates": [ [ -99.180269, 19.423976 ], [ -99.179313, 19.423829 ] ] } },
{ "type": "Feature", "properties": { "cls": "shared", "highway": "cycleway", "name": "Sendero Compartido Reforma" }, "geometry": { "type": "LineString", "coordinates": [ [ -99.184503, 19.424623 ], [ -99.180706, 19.424041 ] ] } },
{ "type": "Feature", "properties": { "cls": "shared", "highway": "cycleway", "name": null }, "geometry": { "type": "LineString", "coordinates": [ [ -99.184962, 19.424692 ], [ -99.184898, 19.424681 ], [ -99.184846, 19.424673 ] ] } },
{ "type": "Feature", "properties": { "cls": "separated", "highway": "tertiary", "name": "Calzada Mahatma Gandhi" }, "geometry": { "type": "LineString", "coordinates": [ [ -99.184851, 19.427804 ], [ -99.18442, 19.42791 ], [ -99.184265, 19.427948 ], [ -99.183926, 19.42801 ], [ -99.183585, 19.428051 ], [ -99.182974, 19.428067 ], [ -99.1825, 19.428026 ], [ -99.182379, 19.42801 ], [ -99.18179, 19.427745 ], [ -99.181341, 19.427395 ], [ -99.181338, 19.427392 ] ] } },
{ "type": "Feature", "properties": { "cls": "painted", "highway": "tertiary", "name": "Calzada Mahatma Gandhi" }, "geometry": { "type": "LineString", "coordinates": [ [ -99.180432, 19.424085 ], [ -99.180445, 19.424002 ], [ -99.18046, 19.423914 ] ] } },
{ "type": "Feature", "properties": { "cls": "shared", "highway": "cycleway", "name": null }, "geometry": { "type": "LineString", "coordinates": [ [ -99.180518, 19.424013 ], [ -99.180445, 19.424002 ], [ -99.180346, 19.423987 ] ] } },
{ "type": "Feature", "properties": { "cls": "separated", "highway": "secondary_link", "name": "Calle Tolstoi" }, "geometry": { "type": "LineString", "coordinates": [ [ -99.179295, 19.423937 ], [ -99.179317, 19.423927 ], [ -99.179374, 19.423919 ] ] } },
{ "type": "Feature", "properties": { "cls": "separated", "highway": "tertiary", "name": "Calzada Mahatma Gandhi" }, "geometry": { "type": "LineString", "coordinates": [ [ -99.180287, 19.425126 ], [ -99.180326, 19.424772 ], [ -99.180432, 19.424085 ] ] } },
{ "type": "Feature", "properties": { "cls": "separated", "highway": "unclassified", "name": "Avenida de los Compositores" }, "geometry": { "type": "LineString", "coordinates": [ [ -99.196438, 19.417019 ], [ -99.19644, 19.417031 ] ] } },
{ "type": "Feature", "properties": { "cls": "shared", "highway": "cycleway", "name": "Ferrocarril a Cuernavaca" }, "geometry": { "type": "LineString", "coordinates": [ [ -99.19802, 19.419756 ], [ -99.197824, 19.419577 ], [ -99.197521, 19.41931 ], [ -99.196654, 19.418597 ], [ -99.196346, 19.418356 ], [ -99.196129, 19.418171 ], [ -99.196101, 19.418148 ] ] } },
{ "type": "Feature", "properties": { "cls": "separated", "highway": "unclassified", "name": "Peatonal Kiosko" }, "geometry": { "type": "MultiLineString", "coordinates": [ [ [ -99.197077, 19.417711 ], [ -99.197124, 19.417729 ], [ -99.197255, 19.417786 ], [ -99.197363, 19.417841 ], [ -99.197444, 19.417895 ], [ -99.197513, 19.417954 ], [ -99.197606, 19.418052 ], [ -99.197732, 19.418195 ], [ -99.197783, 19.418251 ], [ -99.197897, 19.418375 ] ], [ [ -99.19838, 19.418921 ], [ -99.19839, 19.418933 ], [ -99.19843, 19.418998 ], [ -99.198448, 19.419052 ], [ -99.198464, 19.419107 ], [ -99.198477, 19.419195 ], [ -99.198484, 19.419341 ], [ -99.198491, 19.419473 ], [ -99.198496, 19.419558 ], [ -99.198505, 19.41962 ], [ -99.198521, 19.4197 ], [ -99.198546, 19.41978 ], [ -99.198578, 19.419846 ], [ -99.198621, 19.419926 ], [ -99.198678, 19.419995 ], [ -99.198733, 19.420051 ], [ -99.198814, 19.420117 ], [ -99.198881, 19.420159 ], [ -99.198988, 19.420215 ], [ -99.1991, 19.420251 ], [ -99.199386, 19.420334 ], [ -99.199528, 19.42038 ], [ -99.199658, 19.420416 ], [ -99.199737, 19.420433 ], [ -99.199923, 19.420445 ], [ -99.200103, 19.420428 ], [ -99.20021, 19.420414 ], [ -99.200365, 19.420377 ], [ -99.200496, 19.420331 ], [ -99.200571, 19.420298 ], [ -99.200662, 19.420255 ], [ -99.201008, 19.420029 ], [ -99.201083, 19.419977 ], [ -99.201272, 19.419855 ], [ -99.201389, 19.419794 ], [ -99.201455, 19.419759 ] ] ] } },
{ "type": "Feature", "properties": { "cls": "shared", "highway": "cycleway", "name": "Ferrocarril a Cuernavaca" }, "geometry": { "type": "LineString", "coordinates": [ [ -99.198037, 19.419793 ], [ -99.19802, 19.419756 ] ] } },
{ "type": "Feature", "properties": { "cls": "shared", "highway": "cycleway", "name": "Ferrocarril a Cuernavaca" }, "geometry": { "type": "LineString", "coordinates": [ [ -99.198724, 19.420507 ], [ -99.198055, 19.419773 ], [ -99.19802, 19.419756 ] ] } },
{ "type": "Feature", "properties": { "cls": "shared", "highway": "cycleway", "name": "Ferrocarril a Cuernavaca" }, "geometry": { "type": "LineString", "coordinates": [ [ -99.199002, 19.420868 ], [ -99.198037, 19.419793 ] ] } },
{ "type": "Feature", "properties": { "cls": "shared", "highway": "cycleway", "name": "Ferrocarril a Cuernavaca" }, "geometry": { "type": "LineString", "coordinates": [ [ -99.199012, 19.420841 ], [ -99.198859, 19.42067 ] ] } },
{ "type": "Feature", "properties": { "cls": "shared", "highway": "cycleway", "name": "Sendero Compartido Reforma" }, "geometry": { "type": "LineString", "coordinates": [ [ -99.198287, 19.426725 ], [ -99.198077, 19.426693 ] ] } },
{ "type": "Feature", "properties": { "cls": "shared", "highway": "cycleway", "name": null }, "geometry": { "type": "LineString", "coordinates": [ [ -99.198471, 19.426753 ], [ -99.198406, 19.426743 ], [ -99.198347, 19.426734 ] ] } },
{ "type": "Feature", "properties": { "cls": "shared", "highway": "cycleway", "name": "Sendero Compartido Reforma" }, "geometry": { "type": "LineString", "coordinates": [ [ -99.20029, 19.42703 ], [ -99.198533, 19.426762 ] ] } },
{ "type": "Feature", "properties": { "cls": "shared", "highway": "cycleway", "name": null }, "geometry": { "type": "LineString", "coordinates": [ [ -99.200423, 19.427049 ], [ -99.200393, 19.427045 ], [ -99.200363, 19.42704 ] ] } },
{ "type": "Feature", "properties": { "cls": "separated", "highway": "secondary_link", "name": null }, "geometry": { "type": "LineString", "coordinates": [ [ -99.18999, 19.425545 ], [ -99.190046, 19.425584 ], [ -99.190081, 19.425638 ], [ -99.190101, 19.425701 ], [ -99.190106, 19.42578 ] ] } },
{ "type": "Feature", "properties": { "cls": "separated", "highway": "tertiary", "name": "Calzada Mahatma Gandhi" }, "geometry": { "type": "LineString", "coordinates": [ [ -99.190106, 19.42578 ], [ -99.190356, 19.425602 ] ] } },
{ "type": "Feature", "properties": { "cls": "separated", "highway": "tertiary", "name": "Calzada Mahatma Gandhi" }, "geometry": { "type": "LineString", "coordinates": [ [ -99.190106, 19.42578 ], [ -99.189984, 19.425887 ], [ -99.189741, 19.426087 ], [ -99.18944, 19.426243 ], [ -99.189124, 19.426366 ], [ -99.188684, 19.426516 ], [ -99.188371, 19.426601 ], [ -99.188127, 19.426658 ], [ -99.187156, 19.426916 ], [ -99.186568, 19.427087 ], [ -99.186351, 19.427189 ], [ -99.18605, 19.427333 ], [ -99.186024, 19.427347 ], [ -99.185356, 19.427628 ], [ -99.184851, 19.427804 ] ] } },
{ "type": "Feature", "properties": { "cls": "sharrow", "highway": "residential", "name": "Calle Schiller" }, "geometry": { "type": "LineString", "coordinates": [ [ -99.184851, 19.427804 ], [ -99.184855, 19.427806 ], [ -99.184949, 19.427847 ], [ -99.185143, 19.427945 ], [ -99.185384, 19.428164 ], [ -99.185448, 19.428276 ], [ -99.185469, 19.428314 ], [ -99.18548, 19.428334 ] ] } },
{ "type": "Feature", "properties": { "cls": "separated", "highway": "cycleway", "name": null }, "geometry": { "type": "LineString", "coordinates": [ [ -99.190356, 19.425602 ], [ -99.190392, 19.425566 ] ] } },
{ "type": "Feature", "properties": { "cls": "shared", "highway": "cycleway", "name": "Sendero Compartido Reforma" }, "geometry": { "type": "LineString", "coordinates": [ [ -99.191211, 19.425645 ], [ -99.19053, 19.425541 ] ] } },
{ "type": "Feature", "properties": { "cls": "shared", "highway": "cycleway", "name": "Sendero Compartido Reforma" }, "geometry": { "type": "LineString", "coordinates": [ [ -99.192773, 19.425889 ], [ -99.192365, 19.425823 ] ] } },
{ "type": "Feature", "properties": { "cls": "shared", "highway": "cycleway", "name": "Sendero Compartido Reforma" }, "geometry": { "type": "LineString", "coordinates": [ [ -99.193453, 19.425991 ], [ -99.193012, 19.425925 ] ] } },
{ "type": "Feature", "properties": { "cls": "shared", "highway": "cycleway", "name": "Sendero Compartido Reforma" }, "geometry": { "type": "LineString", "coordinates": [ [ -99.201335, 19.427185 ], [ -99.201217, 19.427169 ], [ -99.201108, 19.427155 ], [ -99.200551, 19.427069 ] ] } }
]
}
