{
"type": "FeatureCollection",
"name": "127-lawrence-fort-harrison-state-park",
"crs": { "type": "name", "properties": { "name": "urn:ogc:def:crs:OGC:1.3:CRS84" } },
"xy_coordinate_resolution": 1e-06,
"features": [
{ "type": "Feature", "properties": { "cls": "shared", "highway": "cycleway", "name": null }, "geometry": { "type": "LineString", "coordinates": [ [ -86.001294, 39.867199 ], [ -86.001332, 39.867082 ], [ -86.00134, 39.866847 ], [ -86.001319, 39.865515 ], [ -86.001319, 39.865486 ], [ -86.001317, 39.865444 ], [ -86.001297, 39.864757 ], [ -86.001263, 39.864595 ] ] } },
{ "type": "Feature", "properties": { "cls": "shared", "highway": "cycleway", "name": null }, "geometry": { "type": "LineString", "coordinates": [ [ -86.001227, 39.865444 ], [ -86.001317, 39.865444 ] ] } },
{ "type": "Feature", "properties": { "cls": "shared", "highway": "cycleway", "name": "Harrison Trace Trail" }, "geometry": { "type": "LineString", "coordinates": [ [ -86.036746, 39.86882 ], [ -86.036682, 39.868834 ], [ -86.036612, 39.86884 ], [ -86.036405, 39.868845 ], [ -86.036322, 39.868846 ], [ -86.036242, 39.868857 ], [ -86.036159, 39.868875 ], [ -86.035933, 39.868939 ], [ -86.035845, 39.868962 ], [ -86.035582, 39.868999 ], [ -86.035429, 39.869026 ], [ -86.035327, 39.869061 ], [ -86.035236, 39.86911 ], [ -86.035118, 39.869199 ], [ -86.03485, 39.869417 ], [ -86.0347, 39.869534 ], [ -86.034565, 39.869631 ], [ -86.03445, 39.869707 ], [ -86.03434, 39.869756 ], [ -86.034217, 39.86981 ], [ -86.034048, 39.869878 ], [ -86.033968, 39.869909 ], [ -86.033378, 39.870139 ], [ -86.033294, 39.870167 ], [ -86.033192, 39.870192 ], [ -86.033021, 39.870217 ], [ -86.032876, 39.870233 ], [ -86.032753, 39.870237 ], [ -86.032514, 39.870233 ], [ -86.032433, 39.870237 ], [ -86.032329, 39.870246 ], [ -86.032101, 39.870272 ], [ -86.031937, 39.870287 ], [ -86.031841, 39.870289 ], [ -86.03161, 39.870287 ], [ -86.031497, 39.870291 ], [ -86.031387, 39.870299 ], [ -86.031251, 39.87032 ], [ -86.031058, 39.870359 ], [ -86.030768, 39.870416 ], [ -86.030631, 39.870437 ], [ -86.030494, 39.870449 ], [ -86.030339, 39.870458 ], [ -86.030183, 39.87046 ], [ -86.029982, 39.870447 ], [ -86.029797, 39.870431 ], [ -86.029617, 39.870402 ], [ -86.029472, 39.870387 ], [ -86.02933, 39.870379 ], [ -86.02918, 39.870373 ], [ -86.028619, 39.870375 ], [ -86.028571, 39.870377 ], [ -86.028507, 39.870375 ], [ -86.028397, 39.870365 ], [ -86.028115, 39.870344 ], [ -86.028027, 39.87034 ], [ -86.027962, 39.87034 ], [ -86.027882, 39.870346 ], [ -86.027806, 39.870361 ], [ -86.02771, 39.870387 ], [ -86.027477, 39.870464 ], [ -86.027372, 39.870491 ], [ -86.02723, 39.870523 ], [ -86.027048, 39.870552 ], [ -86.026908, 39.870571 ], [ -86.026753, 39.870579 ], [ -86.026594, 39.870581 ], [ -86.026444, 39.870573 ], [ -86.026294, 39.870558 ], [ -86.026144, 39.870536 ], [ -86.025977, 39.870503 ], [ -86.025835, 39.87046 ], [ -86.025704, 39.870421 ], [ -86.025575, 39.870392 ], [ -86.02549, 39.870376 ], [ -86.025367, 39.870359 ], [ -86.025332, 39.870354 ], [ -86.025303, 39.87035 ], [ -86.025155, 39.870332 ], [ -86.025056, 39.870318 ], [ -86.02501, 39.870309 ], [ -86.024981, 39.870304 ], [ -86.024884, 39.870283 ], [ -86.024792, 39.870262 ], [ -86.024706, 39.870239 ], [ -86.024609, 39.870208 ], [ -86.024481, 39.870162 ], [ -86.024377, 39.870117 ], [ -86.024227, 39.870037 ], [ -86.024111, 39.869973 ], [ -86.023925, 39.869872 ] ] } },
{ "type": "Feature", "properties": { "cls": "shared", "highway": "cycleway", "name": "Harrison Trace Trail" }, "geometry": { "type": "LineString", "coordinates": [ [ -86.023645, 39.869858 ], [ -86.023502, 39.869851 ] ] } },
{ "type": "Feature", "properties": { "cls": "shared", "highway": "cycleway", "name": "Harrison Trace Trail" }, "geometry": { "type": "LineString", "coordinates": [ [ -86.023925, 39.869872 ], [ -86.023645, 39.869858 ] ] } },
{ "type": "Feature", "properties": { "cls": "shared", "highway": "cycleway", "name": "Harrison Trace Trail" }, "geometry": { "type": "LineString", "coordinates": [ [ -86.023502, 39.869851 ], [ -86.023361, 39.869848 ], [ -86.023283, 39.86985 ], [ -86.023219, 39.869859 ], [ -86.023172, 39.869877 ], [ -86.023119, 39.869906 ], [ -86.022989, 39.87 ], [ -86.022942, 39.870027 ], [ -86.022844, 39.870055 ], [ -86.022741, 39.870079 ], [ -86.022648, 39.870097 ], [ -86.022585, 39.870103 ], [ -86.022508, 39.870091 ], [ -86.022463, 39.870072 ], [ -86.022414, 39.870048 ], [ -86.022364, 39.870014 ], [ -86.022314, 39.869973 ], [ -86.022277, 39.869918 ], [ -86.022256, 39.869891 ], [ -86.022197, 39.869805 ], [ -86.02217, 39.869789 ], [ -86.021861, 39.869747 ], [ -86.021796, 39.869743 ], [ -86.021688, 39.869751 ], [ -86.021593, 39.86977 ], [ -86.021524, 39.869761 ], [ -86.021381, 39.869741 ], [ -86.021315, 39.869754 ], [ -86.02115, 39.869799 ], [ -86.021056, 39.86983 ], [ -86.020996, 39.869831 ], [ -86.020863, 39.869821 ], [ -86.020797, 39.869834 ], [ -86.020503, 39.869889 ], [ -86.020349, 39.869924 ], [ -86.020228, 39.869969 ], [ -86.019985, 39.869987 ], [ -86.019861, 39.870031 ], [ -86.019616, 39.870221 ], [ -86.019479, 39.870273 ], [ -86.019365, 39.870329 ], [ -86.0193, 39.870412 ], [ -86.019222, 39.870474 ], [ -86.019165, 39.870481 ], [ -86.018609, 39.870598 ], [ -86.018571, 39.870676 ] ] } },
{ "type": "Feature", "properties": { "cls": "separated", "highway": "cycleway", "name": "Harrison Trace Trail" }, "geometry": { "type": "LineString", "coordinates": [ [ -86.018571, 39.870676 ], [ -86.018489, 39.870642 ], [ -86.018335, 39.870656 ], [ -86.017621, 39.870731 ], [ -86.017472, 39.870756 ], [ -86.016855, 39.871048 ], [ -86.016686, 39.871126 ], [ -86.016575, 39.871198 ], [ -86.016207, 39.87153 ] ] } },
{ "type": "Feature", "properties": { "cls": "shared", "highway": "cycleway", "name": "Harrison Trace Trail" }, "geometry": { "type": "LineString", "coordinates": [ [ -86.016207, 39.87153 ], [ -86.016054, 39.871662 ] ] } },
{ "type": "Feature", "properties": { "cls": "separated", "highway": "cycleway", "name": "Harrison Trace Trail" }, "geometry": { "type": "LineString", "coordinates": [ [ -86.017326, 39.873064 ], [ -86.017395, 39.873049 ], [ -86.017542, 39.873011 ], [ -86.017652, 39.872958 ], [ -86.01775, 39.872885 ], [ -86.017849, 39.8728 ], [ -86.017911, 39.87272 ], [ -86.017986, 39.872608 ], [ -86.018043, 39.872522 ], [ -86.018143, 39.872402 ], [ -86.018219, 39.872326 ], [ -86.018352, 39.872192 ], [ -86.018394, 39.872124 ], [ -86.018406, 39.872096 ], [ -86.018436, 39.872031 ], [ -86.01847, 39.871932 ], [ -86.018514, 39.871835 ], [ -86.018537, 39.871794 ], [ -86.018584, 39.871711 ], [ -86.018699, 39.871542 ], [ -86.018785, 39.871361 ], [ -86.018849, 39.871224 ], [ -86.01888, 39.871107 ], [ -86.018875, 39.871017 ], [ -86.018837, 39.870909 ], [ -86.018772, 39.870834 ], [ -86.01869, 39.870758 ], [ -86.018571, 39.870676 ] ] } },
{ "type": "Feature", "properties": { "cls": "shared", "highway": "cycleway", "name": null }, "geometry": { "type": "LineString", "coordinates": [ [ -86.014779, 39.873001 ], [ -86.014767, 39.872921 ], [ -86.014743, 39.872847 ], [ -86.014713, 39.872785 ], [ -86.014646, 39.872714 ], [ -86.014604, 39.872676 ], [ -86.014571, 39.872651 ] ] } },
{ "type": "Feature", "properties": { "cls": "separated", "highway": "cycleway", "name": "Harrison Trace Trail" }, "geometry": { "type": "LineString", "coordinates": [ [ -86.017224, 39.873085 ], [ -86.017326, 39.873064 ] ] } },
{ "type": "Feature", "properties": { "cls": "shared", "highway": "cycleway", "name": "Fall Creek Trail" }, "geometry": { "type": "LineString", "coordinates": [ [ -86.036746, 39.86882 ], [ -86.03683, 39.868797 ] ] } },
{ "type": "Feature", "properties": { "cls": "shared", "highway": "cycleway", "name": "Harrison Trace Trail" }, "geometry": { "type": "LineString", "coordinates": [ [ -86.016054, 39.871662 ], [ -86.015905, 39.871801 ], [ -86.015798, 39.871947 ], [ -86.015708, 39.872045 ], [ -86.015584, 39.872132 ], [ -86.015459, 39.872213 ], [ -86.015319, 39.872375 ], [ -86.015173, 39.872539 ], [ -86.015033, 39.87261 ], [ -86.014801, 39.872654 ], [ -86.014571, 39.872651 ], [ -86.014452, 39.872649 ], [ -86.013248, 39.872599 ], [ -86.012619, 39.872574 ], [ -86.011701, 39.872535 ], [ -86.010751, 39.872496 ], [ -86.009551, 39.872443 ], [ -86.007807, 39.872358 ], [ -86.00697, 39.872324 ], [ -86.005863, 39.872268 ], [ -86.005217, 39.872232 ], [ -86.004962, 39.872238 ], [ -86.004769, 39.872252 ], [ -86.004579, 39.872299 ], [ -86.003912, 39.872567 ], [ -86.00363, 39.872695 ], [ -86.003495, 39.872737 ], [ -86.003365, 39.872758 ], [ -86.003251, 39.872782 ], [ -86.002017, 39.872792 ], [ -86.001837, 39.872794 ], [ -86.000785, 39.872806 ], [ -86.000737, 39.872844 ], [ -86.000723, 39.872908 ], [ -86.00072, 39.872995 ], [ -86.000791, 39.873346 ], [ -86.000895, 39.873663 ], [ -86.001033, 39.873973 ], [ -86.001175, 39.874236 ], [ -86.001381, 39.874618 ], [ -86.001429, 39.874699 ], [ -86.001451, 39.874799 ], [ -86.001451, 39.874921 ], [ -86.001435, 39.875405 ], [ -86.001402, 39.875683 ], [ -86.001433, 39.875757 ], [ -86.001476, 39.875798 ], [ -86.001549, 39.875823 ], [ -86.001917, 39.875851 ] ] } },
{ "type": "Feature", "properties": { "cls": "shared", "highway": "cycleway", "name": "Harrison Trace Trail" }, "geometry": { "type": "LineString", "coordinates": [ [ -86.001917, 39.875851 ], [ -86.002296, 39.87585 ], [ -86.003781, 39.875899 ], [ -86.004195, 39.875897 ], [ -86.00448, 39.875883 ], [ -86.004623, 39.875872 ], [ -86.004747, 39.875862 ], [ -86.005373, 39.875775 ], [ -86.006096, 39.875698 ], [ -86.006935, 39.875621 ], [ -86.007305, 39.875572 ], [ -86.007587, 39.875531 ], [ -86.007865, 39.875472 ], [ -86.008424, 39.875324 ], [ -86.008597, 39.87529 ], [ -86.008719, 39.875274 ], [ -86.009337, 39.875314 ], [ -86.009546, 39.875357 ], [ -86.010083, 39.875488 ], [ -86.010293, 39.875505 ], [ -86.010585, 39.875512 ], [ -86.011371, 39.875433 ], [ -86.011536, 39.875404 ], [ -86.011691, 39.875363 ], [ -86.011902, 39.875288 ], [ -86.012146, 39.875238 ], [ -86.012433, 39.875183 ], [ -86.013588, 39.875006 ], [ -86.01378, 39.874946 ], [ -86.013894, 39.874895 ], [ -86.013965, 39.874863 ], [ -86.014154, 39.874746 ], [ -86.014366, 39.874576 ], [ -86.014404, 39.87454 ], [ -86.014614, 39.874342 ], [ -86.014865, 39.874102 ] ] } },
{ "type": "Feature", "properties": { "cls": "shared", "highway": "cycleway", "name": "Harrison Trace Trail" }, "geometry": { "type": "LineString", "coordinates": [ [ -86.015319, 39.872375 ], [ -86.015289, 39.87251 ], [ -86.015264, 39.872638 ], [ -86.01518, 39.872734 ], [ -86.014934, 39.872895 ], [ -86.014811, 39.872971 ], [ -86.014779, 39.873001 ], [ -86.014678, 39.873092 ], [ -86.014607, 39.873225 ], [ -86.014545, 39.873387 ], [ -86.014576, 39.873551 ], [ -86.01461, 39.873732 ], [ -86.01469, 39.873869 ], [ -86.014783, 39.873993 ], [ -86.014865, 39.874102 ] ] } },
{ "type": "Feature", "properties": { "cls": "separated", "highway": "cycleway", "name": "Harrison Trace Trail" }, "geometry": { "type": "LineString", "coordinates": [ [ -86.014865, 39.874102 ], [ -86.015278, 39.873866 ], [ -86.015544, 39.873766 ], [ -86.015841, 39.87368 ], [ -86.016064, 39.873615 ], [ -86.01621, 39.873591 ], [ -86.016339, 39.873562 ], [ -86.01646, 39.873514 ], [ -86.016571, 39.873454 ], [ -86.016692, 39.873381 ], [ -86.01679, 39.873296 ], [ -86.016901, 39.873194 ], [ -86.016915, 39.873181 ], [ -86.01702, 39.873134 ], [ -86.017137, 39.873103 ], [ -86.017224, 39.873085 ] ] } }
]
}
