{
"type": "FeatureCollection",
"name": "128-eureka-springs-lake-leatherwood-park",
"crs": { "type": "name", "properties": { "name": "urn:ogc:def:crs:OGC:1.3:CRS84" } },
"xy_coordinate_resolution": 1e-06,
"features": [
{ "type": "Feature", "properties": { "cls": "separated", "highway": "cycleway", "name": "DH-1" }, "geometry": { "type": "MultiLineString", "coordinates": [ [ [ -93.772005, 36.423479 ], [ -93.771889, 36.423441 ], [ -93.771839, 36.423422 ], [ -93.771859, 36.423345 ] ], [ [ -93.771459, 36.422978 ], [ -93.771423, 36.422954 ], [ -93.771183, 36.422795 ], [ -93.771043, 36.422703 ], [ -93.771025, 36.422638 ], [ -93.771009, 36.422575 ], [ -93.770913, 36.422521 ], [ -93.77083, 36.422468 ], [ -93.770705, 36.422442 ], [ -93.770522, 36.422405 ], [ -93.770389, 36.422378 ], [ -93.770326, 36.422366 ], [ -93.770229, 36.422377 ], [ -93.770086, 36.422396 ], [ -93.769967, 36.422409 ], [ -93.769835, 36.422495 ], [ -93.769722, 36.42257 ], [ -93.769596, 36.422651 ], [ -93.769514, 36.4227 ], [ -93.769473, 36.422791 ], [ -93.769452, 36.422829 ], [ -93.769383, 36.422937 ], [ -93.76931, 36.423044 ], [ -93.769231, 36.423161 ], [ -93.769132, 36.423306 ], [ -93.769098, 36.423352 ], [ -93.769071, 36.423491 ], [ -93.769036, 36.42368 ], [ -93.769005, 36.423838 ], [ -93.768908, 36.424021 ], [ -93.768809, 36.424203 ], [ -93.768679, 36.424445 ], [ -93.768651, 36.424505 ], [ -93.768609, 36.424594 ], [ -93.768549, 36.424738 ], [ -93.768465, 36.424922 ], [ -93.768377, 36.425092 ], [ -93.768327, 36.425192 ], [ -93.76825, 36.425347 ], [ -93.768162, 36.42552 ], [ -93.768125, 36.42559 ], [ -93.768091, 36.425711 ], [ -93.768075, 36.425762 ], [ -93.768055, 36.42583 ], [ -93.76803, 36.42592 ], [ -93.768006, 36.426009 ], [ -93.767969, 36.426192 ] ] ] } },
{ "type": "Feature", "properties": { "cls": "separated", "highway": "cycleway", "name": "DH-2" }, "geometry": { "type": "LineString", "coordinates": [ [ -93.773817, 36.427171 ], [ -93.773749, 36.427156 ], [ -93.773709, 36.427166 ], [ -93.773655, 36.42716 ], [ -93.773596, 36.427167 ], [ -93.773543, 36.427151 ], [ -93.773442, 36.427165 ], [ -93.773404, 36.427124 ], [ -93.773336, 36.427071 ], [ -93.773281, 36.427029 ], [ -93.773251, 36.42699 ], [ -93.773196, 36.426958 ], [ -93.773145, 36.426904 ], [ -93.773117, 36.426847 ], [ -93.773101, 36.426826 ], [ -93.773093, 36.426774 ], [ -93.772986, 36.42669 ], [ -93.772912, 36.426705 ], [ -93.772846, 36.42666 ], [ -93.772758, 36.426587 ], [ -93.772608, 36.426518 ], [ -93.772573, 36.426509 ], [ -93.772482, 36.426472 ], [ -93.772418, 36.426453 ], [ -93.772206, 36.426537 ], [ -93.772072, 36.42657 ], [ -93.771933, 36.426598 ], [ -93.771807, 36.426615 ], [ -93.771718, 36.426606 ], [ -93.771686, 36.426608 ], [ -93.771592, 36.426587 ], [ -93.771499, 36.426526 ], [ -93.771448, 36.426474 ], [ -93.771416, 36.426431 ], [ -93.771357, 36.42638 ], [ -93.77133, 36.426354 ], [ -93.771285, 36.426309 ], [ -93.771231, 36.426268 ], [ -93.771226, 36.426248 ], [ -93.771169, 36.426207 ], [ -93.771073, 36.426199 ], [ -93.771006, 36.426173 ], [ -93.770961, 36.426158 ], [ -93.770923, 36.426153 ], [ -93.770784, 36.426097 ], [ -93.770674, 36.42602 ], [ -93.770655, 36.425994 ], [ -93.77062, 36.425953 ], [ -93.77041, 36.425985 ], [ -93.770068, 36.426097 ], [ -93.769891, 36.426222 ], [ -93.769779, 36.426528 ], [ -93.76963, 36.426846 ] ] } },
{ "type": "Feature", "properties": { "cls": "separated", "highway": "cycleway", "name": "South Hub Climb" }, "geometry": { "type": "LineString", "coordinates": [ [ -93.772957, 36.426356 ], [ -93.773358, 36.426586 ], [ -93.773443, 36.42666 ], [ -93.773699, 36.426735 ] ] } },
{ "type": "Feature", "properties": { "cls": "separated", "highway": "cycleway", "name": "DH-3" }, "geometry": { "type": "LineString", "coordinates": [ [ -93.774192, 36.42856 ], [ -93.774162, 36.428547 ], [ -93.774113, 36.428525 ], [ -93.774084, 36.428511 ], [ -93.774046, 36.428495 ], [ -93.774014, 36.428488 ], [ -93.773946, 36.428474 ], [ -93.773878, 36.42846 ], [ -93.773852, 36.428455 ], [ -93.773695, 36.428424 ], [ -93.773539, 36.42839 ], [ -93.773518, 36.428384 ], [ -93.773424, 36.428324 ], [ -93.773299, 36.428252 ], [ -93.773168, 36.428176 ], [ -93.773049, 36.428125 ], [ -93.772878, 36.428052 ], [ -93.772644, 36.427946 ], [ -93.772494, 36.427886 ], [ -93.772455, 36.427809 ], [ -93.772416, 36.427752 ], [ -93.772338, 36.427735 ], [ -93.772232, 36.427709 ], [ -93.772147, 36.427697 ], [ -93.77211, 36.427687 ], [ -93.772095, 36.427631 ], [ -93.772069, 36.427556 ], [ -93.772021, 36.427508 ], [ -93.771972, 36.427447 ], [ -93.771925, 36.427393 ], [ -93.771892, 36.427454 ], [ -93.771837, 36.427536 ], [ -93.771901, 36.427614 ], [ -93.771986, 36.427715 ], [ -93.77208, 36.427826 ], [ -93.77217, 36.427931 ], [ -93.772129, 36.427981 ], [ -93.772088, 36.428025 ], [ -93.771998, 36.427998 ], [ -93.771902, 36.427968 ], [ -93.771782, 36.427825 ], [ -93.771722, 36.427753 ], [ -93.771644, 36.427672 ], [ -93.771566, 36.427577 ], [ -93.771534, 36.427513 ], [ -93.771488, 36.427413 ], [ -93.771432, 36.42738 ], [ -93.771345, 36.427329 ], [ -93.771264, 36.427284 ], [ -93.771186, 36.427234 ], [ -93.771002, 36.427264 ], [ -93.770848, 36.427279 ], [ -93.770683, 36.427224 ], [ -93.770506, 36.427155 ], [ -93.770358, 36.427097 ], [ -93.770253, 36.427053 ], [ -93.770165, 36.427019 ], [ -93.770119, 36.426932 ], [ -93.770046, 36.426808 ], [ -93.769979, 36.426677 ], [ -93.769892, 36.426665 ], [ -93.769806, 36.426648 ], [ -93.769827, 36.426735 ], [ -93.769843, 36.426823 ], [ -93.769862, 36.426906 ], [ -93.769791, 36.426906 ], [ -93.769722, 36.4269 ], [ -93.76963, 36.426846 ], [ -93.769501, 36.426775 ], [ -93.769361, 36.426692 ], [ -93.769287, 36.426722 ], [ -93.769228, 36.426737 ], [ -93.769127, 36.426722 ], [ -93.769078, 36.426708 ], [ -93.769012, 36.426655 ], [ -93.768958, 36.4266 ], [ -93.76888, 36.42652 ], [ -93.768775, 36.426426 ], [ -93.768795, 36.426509 ], [ -93.768804, 36.426552 ], [ -93.76877, 36.426587 ], [ -93.768722, 36.426625 ], [ -93.768683, 36.426626 ], [ -93.768632, 36.426614 ], [ -93.768563, 36.42657 ], [ -93.768478, 36.4265 ], [ -93.76843, 36.426493 ], [ -93.768372, 36.426484 ], [ -93.768271, 36.426486 ], [ -93.768014, 36.426501 ] ] } },
{ "type": "Feature", "properties": { "cls": "separated", "highway": "cycleway", "name": "DH5" }, "geometry": { "type": "LineString", "coordinates": [ [ -93.773129, 36.431938 ], [ -93.773206, 36.431824 ], [ -93.773242, 36.431699 ], [ -93.773394, 36.431474 ], [ -93.773327, 36.431215 ], [ -93.77321, 36.431149 ], [ -93.773047, 36.431078 ], [ -93.772842, 36.431004 ], [ -93.772654, 36.43093 ], [ -93.772446, 36.43087 ], [ -93.772637, 36.430842 ], [ -93.772874, 36.430853 ], [ -93.77315, 36.430884 ], [ -93.773323, 36.430896 ], [ -93.773408, 36.430901 ], [ -93.773744, 36.431078 ], [ -93.773847, 36.431135 ], [ -93.773907, 36.431238 ], [ -93.773982, 36.431331 ], [ -93.774045, 36.431252 ], [ -93.774098, 36.431181 ], [ -93.774113, 36.431095 ], [ -93.774088, 36.430853 ], [ -93.774077, 36.430779 ], [ -93.773992, 36.430694 ], [ -93.773691, 36.430386 ], [ -93.773511, 36.430201 ], [ -93.773306, 36.430013 ], [ -93.773136, 36.429947 ], [ -93.772934, 36.429891 ], [ -93.772725, 36.429819 ], [ -93.772601, 36.429734 ], [ -93.772441, 36.429664 ], [ -93.772381, 36.429594 ], [ -93.772307, 36.429478 ], [ -93.772088, 36.429429 ], [ -93.771844, 36.429344 ], [ -93.771667, 36.42927 ], [ -93.771529, 36.429218 ], [ -93.771469, 36.429187 ], [ -93.771019, 36.42905 ], [ -93.770678, 36.428959 ], [ -93.770468, 36.428876 ], [ -93.77078, 36.428845 ], [ -93.77124, 36.428862 ], [ -93.771083, 36.428777 ], [ -93.770895, 36.428626 ], [ -93.77074, 36.428469 ], [ -93.770739, 36.428468 ], [ -93.770721, 36.428459 ], [ -93.770326, 36.428244 ], [ -93.769841, 36.42798 ], [ -93.769207, 36.427624 ], [ -93.768752, 36.427346 ], [ -93.768547, 36.427213 ], [ -93.768384, 36.427193 ], [ -93.768246, 36.427178 ], [ -93.768228, 36.427053 ], [ -93.768391, 36.427039 ], [ -93.768476, 36.427027 ], [ -93.768402, 36.426899 ], [ -93.768299, 36.426794 ], [ -93.7682, 36.4267 ], [ -93.76803, 36.4266 ], [ -93.767878, 36.426509 ], [ -93.767757, 36.426425 ] ] } },
{ "type": "Feature", "properties": { "cls": "separated", "highway": "cycleway", "name": "DH4" }, "geometry": { "type": "MultiLineString", "coordinates": [ [ [ -93.773129, 36.431938 ], [ -93.773178, 36.431913 ], [ -93.773229, 36.431898 ], [ -93.773288, 36.431889 ], [ -93.773423, 36.431919 ], [ -93.773573, 36.431955 ], [ -93.77372, 36.431983 ], [ -93.773816, 36.431996 ], [ -93.773869, 36.431943 ], [ -93.773769, 36.4319 ], [ -93.77369, 36.431879 ], [ -93.773633, 36.431815 ], [ -93.773608, 36.431782 ], [ -93.773652, 36.431755 ], [ -93.773703, 36.431722 ], [ -93.773799, 36.43174 ], [ -93.773918, 36.431752 ], [ -93.774107, 36.431748 ], [ -93.77429, 36.431738 ] ], [ [ -93.774289, 36.431651 ], [ -93.77422, 36.43165 ], [ -93.774166, 36.431603 ], [ -93.774142, 36.431566 ], [ -93.774192, 36.431522 ], [ -93.774288, 36.431525 ] ], [ [ -93.774278, 36.430073 ], [ -93.77424, 36.430048 ], [ -93.774087, 36.429937 ], [ -93.77398, 36.429867 ], [ -93.773842, 36.429767 ], [ -93.773693, 36.429648 ], [ -93.7735, 36.429496 ], [ -93.773325, 36.42935 ], [ -93.773161, 36.429255 ], [ -93.772929, 36.429106 ], [ -93.772695, 36.428967 ], [ -93.772612, 36.428931 ], [ -93.77237, 36.428824 ], [ -93.772075, 36.428699 ], [ -93.771831, 36.428588 ], [ -93.771658, 36.428525 ], [ -93.771286, 36.428376 ], [ -93.770923, 36.428237 ], [ -93.770766, 36.428173 ], [ -93.770538, 36.427982 ], [ -93.770297, 36.427782 ], [ -93.770158, 36.427656 ], [ -93.769947, 36.427512 ], [ -93.76976, 36.427376 ], [ -93.769625, 36.427277 ], [ -93.769398, 36.427162 ], [ -93.769154, 36.427041 ], [ -93.768961, 36.426933 ], [ -93.76877, 36.426837 ], [ -93.768497, 36.426698 ], [ -93.768316, 36.426593 ], [ -93.768259, 36.426585 ], [ -93.76805, 36.426511 ], [ -93.768014, 36.426501 ], [ -93.767889, 36.426466 ], [ -93.767757, 36.426425 ] ] ] } },
{ "type": "Feature", "properties": { "cls": "separated", "highway": "cycleway", "name": "DH6" }, "geometry": { "type": "LineString", "coordinates": [ [ -93.773129, 36.431938 ], [ -93.772871, 36.431631 ], [ -93.77256, 36.431308 ], [ -93.772255, 36.431018 ], [ -93.77204, 36.43088 ], [ -93.771804, 36.43072 ], [ -93.771504, 36.430617 ], [ -93.771219, 36.430513 ], [ -93.77115, 36.430479 ], [ -93.771101, 36.430397 ], [ -93.770956, 36.430319 ], [ -93.770758, 36.430436 ], [ -93.770549, 36.430358 ], [ -93.770227, 36.43022 ], [ -93.770152, 36.430138 ], [ -93.770109, 36.430008 ], [ -93.7699, 36.430013 ], [ -93.769723, 36.43003 ], [ -93.769584, 36.430127 ], [ -93.769452, 36.430196 ], [ -93.769441, 36.430363 ], [ -93.769703, 36.430458 ], [ -93.770079, 36.430548 ], [ -93.769951, 36.430602 ], [ -93.769638, 36.430602 ], [ -93.769246, 36.430672 ], [ -93.768901, 36.430564 ], [ -93.768773, 36.430473 ], [ -93.76863, 36.430353 ], [ -93.768569, 36.430241 ], [ -93.768505, 36.430069 ], [ -93.76858, 36.429913 ], [ -93.768639, 36.429775 ], [ -93.768575, 36.429741 ], [ -93.768398, 36.429836 ], [ -93.768231, 36.429913 ], [ -93.768151, 36.430163 ], [ -93.768069, 36.430235 ], [ -93.767942, 36.430125 ], [ -93.767845, 36.429978 ], [ -93.767786, 36.429853 ], [ -93.767743, 36.429572 ], [ -93.767963, 36.4293 ], [ -93.768108, 36.429223 ], [ -93.768204, 36.429145 ], [ -93.768006, 36.429132 ], [ -93.767759, 36.429098 ], [ -93.767523, 36.429162 ], [ -93.767405, 36.429223 ], [ -93.767212, 36.42937 ], [ -93.767035, 36.429672 ], [ -93.766933, 36.429663 ], [ -93.76689, 36.429525 ], [ -93.766837, 36.429322 ], [ -93.766847, 36.429132 ], [ -93.76689, 36.428852 ], [ -93.766987, 36.428714 ], [ -93.76702, 36.428545 ], [ -93.767239, 36.428394 ], [ -93.767363, 36.428297 ], [ -93.767271, 36.428205 ], [ -93.767137, 36.428144 ], [ -93.767105, 36.428075 ], [ -93.767116, 36.428015 ], [ -93.767303, 36.427833 ], [ -93.767512, 36.427639 ], [ -93.767572, 36.427441 ], [ -93.76762, 36.427195 ], [ -93.767663, 36.426975 ], [ -93.767775, 36.426931 ], [ -93.767753, 36.426717 ] ] } },
{ "type": "Feature", "properties": { "cls": "shared", "highway": "cycleway", "name": "MIners Rock Trail" }, "geometry": { "type": "MultiLineString", "coordinates": [ [ [ -93.765889, 36.434828 ], [ -93.766001, 36.434734 ], [ -93.766578, 36.43468 ], [ -93.766875, 36.43456 ], [ -93.768804, 36.433959 ], [ -93.769326, 36.433898 ], [ -93.769617, 36.43391 ], [ -93.770177, 36.434064 ], [ -93.770629, 36.434024 ], [ -93.770973, 36.433944 ], [ -93.77186, 36.433929 ], [ -93.773551, 36.434076 ], [ -93.774106, 36.434211 ], [ -93.774308, 36.434192 ] ], [ [ -93.774307, 36.43408 ], [ -93.773364, 36.433715 ], [ -93.772972, 36.433606 ], [ -93.773425, 36.433568 ], [ -93.773775, 36.433696 ], [ -93.774102, 36.433696 ], [ -93.773322, 36.433313 ], [ -93.771827, 36.433163 ], [ -93.771057, 36.433208 ], [ -93.769081, 36.433091 ], [ -93.768339, 36.433219 ], [ -93.76804, 36.4332 ], [ -93.766728, 36.43293 ], [ -93.766438, 36.432569 ], [ -93.766625, 36.432494 ], [ -93.766704, 36.432644 ], [ -93.766928, 36.432727 ], [ -93.766994, 36.432802 ], [ -93.767139, 36.432794 ], [ -93.767587, 36.432903 ], [ -93.767694, 36.432956 ], [ -93.768077, 36.432967 ], [ -93.768208, 36.433073 ], [ -93.768474, 36.43314 ], [ -93.769165, 36.432915 ], [ -93.769955, 36.432802 ], [ -93.770137, 36.432832 ], [ -93.770706, 36.432813 ], [ -93.772154, 36.432622 ], [ -93.772304, 36.432535 ], [ -93.773046, 36.432411 ], [ -93.773676, 36.432528 ], [ -93.773915, 36.432528 ], [ -93.774148, 36.432426 ], [ -93.77424, 36.432305 ], [ -93.774294, 36.432235 ] ], [ [ -93.774101, 36.428221 ], [ -93.773915, 36.428085 ], [ -93.773634, 36.427799 ], [ -93.773312, 36.427574 ], [ -93.773158, 36.427559 ], [ -93.773065, 36.427476 ], [ -93.773107, 36.427322 ], [ -93.773074, 36.427142 ], [ -93.772813, 36.426871 ], [ -93.772912, 36.426705 ], [ -93.772948, 36.426646 ], [ -93.772981, 36.426484 ], [ -93.772957, 36.426356 ], [ -93.772444, 36.426071 ], [ -93.772079, 36.425704 ], [ -93.771921, 36.425396 ], [ -93.771818, 36.425324 ], [ -93.771687, 36.425114 ], [ -93.771547, 36.424963 ], [ -93.770534, 36.424614 ], [ -93.770263, 36.424625 ], [ -93.769884, 36.424825 ], [ -93.769754, 36.424985 ], [ -93.76962, 36.424979 ], [ -93.769591, 36.424864 ], [ -93.769669, 36.424534 ], [ -93.769616, 36.424439 ], [ -93.769538, 36.42453 ], [ -93.769457, 36.424897 ], [ -93.769429, 36.425173 ], [ -93.769372, 36.42544 ], [ -93.769327, 36.425822 ], [ -93.769689, 36.426487 ], [ -93.769327, 36.426326 ], [ -93.769193, 36.42649 ], [ -93.768823, 36.426401 ], [ -93.768644, 36.42629 ], [ -93.768461, 36.426294 ], [ -93.767969, 36.426192 ], [ -93.767823, 36.426305 ], [ -93.767757, 36.426425 ], [ -93.767639, 36.426641 ] ] ] } },
{ "type": "Feature", "properties": { "cls": "separated", "highway": "cycleway", "name": "DH7" }, "geometry": { "type": "LineString", "coordinates": [ [ -93.773129, 36.431938 ], [ -93.773117, 36.432005 ], [ -93.773077, 36.432042 ], [ -93.772969, 36.432109 ], [ -93.772864, 36.432106 ], [ -93.772669, 36.432136 ], [ -93.772448, 36.432164 ], [ -93.77223, 36.432166 ], [ -93.772131, 36.432129 ], [ -93.772023, 36.432089 ], [ -93.771906, 36.432082 ], [ -93.771909, 36.43196 ], [ -93.772091, 36.431938 ], [ -93.772294, 36.431901 ], [ -93.772402, 36.431834 ], [ -93.772445, 36.43171 ], [ -93.772476, 36.431539 ], [ -93.772412, 36.43147 ], [ -93.772384, 36.431539 ], [ -93.772344, 36.431666 ], [ -93.772331, 36.431727 ], [ -93.772202, 36.431717 ], [ -93.772082, 36.431713 ], [ -93.771968, 36.43166 ], [ -93.771891, 36.431626 ], [ -93.771731, 36.431609 ], [ -93.771601, 36.431584 ], [ -93.771518, 36.431524 ], [ -93.771453, 36.431477 ], [ -93.771207, 36.431504 ], [ -93.770967, 36.431542 ], [ -93.770988, 36.431457 ], [ -93.771022, 36.431415 ], [ -93.771124, 36.43138 ], [ -93.771219, 36.431336 ], [ -93.771361, 36.431336 ], [ -93.771447, 36.431343 ], [ -93.771407, 36.431306 ], [ -93.77137, 36.431281 ], [ -93.771281, 36.431284 ], [ -93.771204, 36.431286 ], [ -93.771093, 36.431261 ], [ -93.770997, 36.431224 ], [ -93.770809, 36.431301 ], [ -93.770662, 36.431358 ], [ -93.77052, 36.431415 ], [ -93.77052, 36.431318 ], [ -93.770517, 36.431209 ], [ -93.770381, 36.431286 ], [ -93.770199, 36.431388 ], [ -93.770045, 36.431462 ], [ -93.769959, 36.431547 ], [ -93.769879, 36.431613 ], [ -93.769712, 36.431633 ], [ -93.769617, 36.431636 ], [ -93.7695, 36.431727 ], [ -93.769355, 36.431822 ], [ -93.769186, 36.431827 ], [ -93.768964, 36.431829 ], [ -93.76878, 36.431854 ], [ -93.768546, 36.431881 ], [ -93.768368, 36.431864 ], [ -93.768223, 36.431817 ], [ -93.767968, 36.43183 ], [ -93.76781, 36.431757 ], [ -93.767619, 36.431732 ], [ -93.767791, 36.431653 ], [ -93.767865, 36.431616 ], [ -93.768201, 36.431606 ], [ -93.768417, 36.431589 ], [ -93.768651, 36.43137 ], [ -93.768494, 36.431368 ], [ -93.76838, 36.431363 ], [ -93.768247, 36.431291 ], [ -93.768059, 36.431229 ], [ -93.767874, 36.43117 ], [ -93.76777, 36.431142 ], [ -93.767696, 36.43108 ], [ -93.767622, 36.431026 ], [ -93.767455, 36.430949 ], [ -93.76723, 36.430833 ], [ -93.767033, 36.430721 ], [ -93.766895, 36.430639 ], [ -93.766738, 36.430555 ], [ -93.766621, 36.430493 ], [ -93.766534, 36.430438 ], [ -93.766415, 36.430352 ] ] } },
{ "type": "Feature", "properties": { "cls": "shared", "highway": "cycleway", "name": "North Hub Connector" }, "geometry": { "type": "LineString", "coordinates": [ [ -93.774294, 36.43233 ], [ -93.77424, 36.432305 ], [ -93.774046, 36.432184 ], [ -93.773821, 36.432024 ], [ -93.773628, 36.431989 ], [ -93.773338, 36.431938 ], [ -93.773129, 36.431938 ] ] } },
{ "type": "Feature", "properties": { "cls": "shared", "highway": "cycleway", "name": "Lost Ridge Trail" }, "geometry": { "type": "MultiLineString", "coordinates": [ [ [ -93.752826, 36.422964 ], [ -93.75286, 36.422854 ], [ -93.753062, 36.422971 ], [ -93.753197, 36.423045 ], [ -93.753179, 36.422928 ], [ -93.753133, 36.422758 ], [ -93.753097, 36.422632 ], [ -93.753108, 36.422467 ], [ -93.753119, 36.422291 ], [ -93.753126, 36.422188 ], [ -93.753175, 36.422225 ], [ -93.75326, 36.422367 ], [ -93.753338, 36.42251 ], [ -93.753412, 36.422672 ], [ -93.75348, 36.4228 ], [ -93.753483, 36.422712 ], [ -93.753487, 36.422536 ], [ -93.753497, 36.42239 ], [ -93.753497, 36.422236 ], [ -93.753565, 36.422165 ], [ -93.753639, 36.422086 ], [ -93.753653, 36.422222 ], [ -93.753667, 36.422319 ], [ -93.753773, 36.422473 ], [ -93.753876, 36.422638 ], [ -93.753968, 36.422769 ], [ -93.754078, 36.422931 ], [ -93.754209, 36.423105 ], [ -93.754188, 36.42298 ], [ -93.754156, 36.422815 ], [ -93.754117, 36.422655 ], [ -93.754184, 36.422664 ], [ -93.754248, 36.422675 ], [ -93.75422, 36.422615 ], [ -93.754188, 36.422524 ], [ -93.754198, 36.42243 ], [ -93.754223, 36.422316 ], [ -93.75423, 36.422248 ], [ -93.754294, 36.422376 ], [ -93.754357, 36.422504 ], [ -93.754428, 36.422618 ], [ -93.754439, 36.42251 ], [ -93.754457, 36.42239 ], [ -93.754559, 36.422501 ], [ -93.754662, 36.422592 ], [ -93.75469, 36.422516 ], [ -93.754718, 36.422396 ], [ -93.754768, 36.422291 ], [ -93.754814, 36.422179 ], [ -93.754917, 36.422208 ], [ -93.755023, 36.422234 ], [ -93.755118, 36.422382 ], [ -93.755214, 36.422493 ], [ -93.755324, 36.422726 ], [ -93.755465, 36.422974 ], [ -93.755582, 36.423207 ], [ -93.755715, 36.423442 ], [ -93.755853, 36.423701 ], [ -93.755938, 36.423855 ], [ -93.755969, 36.423923 ], [ -93.756072, 36.42406 ], [ -93.75621, 36.424228 ], [ -93.756507, 36.424581 ], [ -93.756695, 36.42453 ], [ -93.756957, 36.424453 ], [ -93.757091, 36.424316 ], [ -93.757258, 36.424163 ], [ -93.757459, 36.423972 ], [ -93.75752, 36.423832 ], [ -93.75758, 36.423673 ], [ -93.757658, 36.423505 ], [ -93.757636, 36.423357 ], [ -93.757633, 36.423237 ], [ -93.757661, 36.423038 ], [ -93.757696, 36.42273 ], [ -93.757732, 36.42248 ], [ -93.75775, 36.422317 ], [ -93.757767, 36.422178 ], [ -93.757866, 36.422112 ], [ -93.757962, 36.422049 ], [ -93.758217, 36.422101 ], [ -93.758362, 36.422138 ], [ -93.758535, 36.422092 ], [ -93.758641, 36.422078 ], [ -93.758726, 36.421973 ], [ -93.758712, 36.421785 ], [ -93.758723, 36.421554 ], [ -93.758726, 36.421394 ], [ -93.758726, 36.421238 ], [ -93.758725, 36.421183 ] ], [ [ -93.75881, 36.421184 ], [ -93.758822, 36.421209 ], [ -93.758953, 36.421451 ], [ -93.759049, 36.421656 ], [ -93.759116, 36.421785 ], [ -93.759151, 36.421876 ], [ -93.759243, 36.421827 ], [ -93.759257, 36.421688 ], [ -93.759264, 36.421511 ], [ -93.759271, 36.421352 ], [ -93.759284, 36.421193 ] ], [ [ -93.759305, 36.421193 ], [ -93.759364, 36.421272 ], [ -93.759562, 36.421323 ], [ -93.759915, 36.421756 ] ] ] } },
{ "type": "Feature", "properties": { "cls": "shared", "highway": "cycleway", "name": "Twin Knobs Trail" }, "geometry": { "type": "LineString", "coordinates": [ [ -93.760764, 36.423739 ], [ -93.760839, 36.423691 ], [ -93.76091, 36.423716 ], [ -93.760975, 36.423739 ], [ -93.761095, 36.423688 ], [ -93.761191, 36.423641 ], [ -93.761286, 36.423605 ], [ -93.761331, 36.423474 ], [ -93.761388, 36.423317 ], [ -93.761437, 36.423183 ], [ -93.761526, 36.422964 ], [ -93.761609, 36.42274 ], [ -93.761642, 36.422663 ], [ -93.761695, 36.422521 ], [ -93.761737, 36.422391 ], [ -93.761807, 36.422565 ], [ -93.761898, 36.422807 ], [ -93.761981, 36.423021 ], [ -93.762057, 36.423232 ], [ -93.76212, 36.423391 ], [ -93.762162, 36.423571 ], [ -93.762203, 36.42377 ], [ -93.762144, 36.423952 ], [ -93.76204, 36.424237 ], [ -93.761928, 36.424286 ], [ -93.761829, 36.424329 ], [ -93.761764, 36.424502 ], [ -93.761666, 36.424756 ], [ -93.761538, 36.42507 ], [ -93.761449, 36.425314 ], [ -93.761394, 36.425462 ], [ -93.761321, 36.425631 ], [ -93.761207, 36.42586 ], [ -93.761056, 36.426156 ], [ -93.760922, 36.426423 ], [ -93.760798, 36.426661 ], [ -93.76066, 36.426938 ], [ -93.760497, 36.427239 ], [ -93.760459, 36.427425 ], [ -93.760538, 36.427486 ], [ -93.760621, 36.427543 ], [ -93.760611, 36.427845 ], [ -93.760605, 36.428141 ], [ -93.760601, 36.428503 ], [ -93.760593, 36.428982 ], [ -93.760563, 36.429069 ], [ -93.760554, 36.429128 ], [ -93.760441, 36.429214 ], [ -93.7604, 36.429254 ], [ -93.760475, 36.429348 ], [ -93.760543, 36.429425 ] ] } },
{ "type": "Feature", "properties": { "cls": "shared", "highway": "cycleway", "name": "Bench Loop Trail" }, "geometry": { "type": "LineString", "coordinates": [ [ -93.759915, 36.421756 ], [ -93.759921, 36.421976 ], [ -93.75991, 36.422149 ], [ -93.760007, 36.422265 ], [ -93.760071, 36.422347 ], [ -93.760108, 36.422511 ], [ -93.760135, 36.422675 ], [ -93.760141, 36.422822 ], [ -93.760017, 36.422826 ], [ -93.759846, 36.422585 ], [ -93.759674, 36.422356 ], [ -93.759733, 36.422559 ], [ -93.759733, 36.422731 ], [ -93.759851, 36.422887 ], [ -93.759824, 36.423098 ], [ -93.759647, 36.423366 ], [ -93.75947, 36.423659 ], [ -93.759556, 36.423767 ], [ -93.75962, 36.423828 ], [ -93.759626, 36.424151 ], [ -93.759647, 36.424389 ], [ -93.759572, 36.424479 ], [ -93.759513, 36.424574 ], [ -93.759475, 36.424868 ], [ -93.759416, 36.425235 ], [ -93.759395, 36.425407 ], [ -93.759288, 36.425563 ], [ -93.759202, 36.425671 ], [ -93.759111, 36.425744 ], [ -93.759046, 36.425813 ], [ -93.758821, 36.425921 ], [ -93.758671, 36.425977 ], [ -93.758558, 36.426102 ], [ -93.758505, 36.426159 ], [ -93.758456, 36.426266 ], [ -93.758376, 36.426443 ], [ -93.758274, 36.426521 ], [ -93.758225, 36.426581 ], [ -93.758209, 36.42678 ], [ -93.758199, 36.426931 ], [ -93.758258, 36.427039 ], [ -93.758317, 36.427108 ], [ -93.758424, 36.427156 ], [ -93.758483, 36.427207 ], [ -93.758537, 36.427298 ], [ -93.758623, 36.427363 ], [ -93.75866, 36.427402 ], [ -93.758681, 36.427661 ], [ -93.758799, 36.427898 ], [ -93.758896, 36.428148 ], [ -93.758966, 36.428308 ], [ -93.758999, 36.42838 ], [ -93.759024, 36.428437 ], [ -93.759026, 36.428516 ], [ -93.759025, 36.42859 ], [ -93.759023, 36.428688 ], [ -93.759025, 36.428778 ], [ -93.759045, 36.428869 ], [ -93.75907, 36.428967 ], [ -93.759087, 36.429055 ], [ -93.759098, 36.429095 ], [ -93.759162, 36.42918 ], [ -93.759227, 36.429263 ], [ -93.759294, 36.429355 ], [ -93.759317, 36.429439 ], [ -93.759354, 36.429543 ], [ -93.759374, 36.429624 ], [ -93.759384, 36.42966 ], [ -93.759446, 36.429757 ], [ -93.759491, 36.429826 ], [ -93.759522, 36.429868 ], [ -93.759526, 36.42995 ], [ -93.759533, 36.430073 ], [ -93.759536, 36.430164 ], [ -93.759604, 36.430272 ], [ -93.759675, 36.430389 ], [ -93.759748, 36.430506 ], [ -93.759789, 36.430578 ], [ -93.759875, 36.430647 ], [ -93.75997, 36.430723 ], [ -93.760046, 36.430749 ], [ -93.760089, 36.430761 ], [ -93.76023, 36.430751 ], [ -93.760397, 36.430744 ], [ -93.760511, 36.430738 ], [ -93.760565, 36.430684 ], [ -93.760673, 36.430584 ], [ -93.760763, 36.430503 ], [ -93.760835, 36.430433 ], [ -93.760878, 36.430395 ], [ -93.761013, 36.430345 ], [ -93.761072, 36.430276 ], [ -93.761145, 36.430186 ], [ -93.761241, 36.430079 ], [ -93.761321, 36.429982 ], [ -93.761396, 36.429879 ], [ -93.761532, 36.429686 ], [ -93.761614, 36.42957 ], [ -93.76168, 36.429482 ], [ -93.761732, 36.429438 ], [ -93.761769, 36.429403 ], [ -93.761827, 36.429277 ], [ -93.761887, 36.429145 ], [ -93.761928, 36.429059 ], [ -93.761955, 36.428995 ], [ -93.76199, 36.428872 ], [ -93.762038, 36.428705 ], [ -93.762082, 36.428541 ], [ -93.762111, 36.428445 ], [ -93.762131, 36.428373 ], [ -93.762167, 36.428244 ], [ -93.76222, 36.428061 ], [ -93.76227, 36.427895 ], [ -93.762305, 36.427762 ], [ -93.762328, 36.427676 ], [ -93.762343, 36.427634 ], [ -93.762324, 36.427569 ], [ -93.762311, 36.427501 ], [ -93.762296, 36.427419 ], [ -93.76233, 36.427352 ], [ -93.762351, 36.427306 ], [ -93.762331, 36.427258 ], [ -93.762294, 36.427187 ], [ -93.762335, 36.42709 ], [ -93.762368, 36.427008 ], [ -93.762407, 36.426907 ], [ -93.76243, 36.426846 ], [ -93.762473, 36.426796 ], [ -93.762524, 36.426746 ], [ -93.76257, 36.426692 ], [ -93.7626, 36.42666 ], [ -93.7626, 36.426614 ], [ -93.762601, 36.426572 ], [ -93.762604, 36.426534 ], [ -93.762677, 36.426488 ], [ -93.762734, 36.426455 ], [ -93.762828, 36.426397 ], [ -93.762866, 36.426335 ], [ -93.762905, 36.426281 ], [ -93.762941, 36.42623 ], [ -93.762959, 36.426194 ], [ -93.763009, 36.426157 ], [ -93.763065, 36.426111 ], [ -93.763133, 36.42606 ], [ -93.763202, 36.426007 ], [ -93.763261, 36.425961 ], [ -93.763294, 36.425936 ], [ -93.763348, 36.425831 ], [ -93.763393, 36.425745 ], [ -93.763428, 36.425678 ], [ -93.763476, 36.425587 ], [ -93.763537, 36.425476 ], [ -93.763562, 36.425401 ], [ -93.763572, 36.425364 ], [ -93.763605, 36.425309 ], [ -93.763659, 36.425214 ], [ -93.763714, 36.425126 ], [ -93.763751, 36.425061 ], [ -93.763827, 36.425035 ], [ -93.763953, 36.424992 ], [ -93.764103, 36.424941 ], [ -93.764239, 36.424893 ], [ -93.764298, 36.424838 ], [ -93.764325, 36.424815 ], [ -93.76428, 36.424742 ], [ -93.764223, 36.424655 ], [ -93.764134, 36.424511 ], [ -93.764024, 36.424335 ], [ -93.763965, 36.424245 ], [ -93.763972, 36.424136 ], [ -93.763975, 36.424036 ], [ -93.764049, 36.423941 ], [ -93.764123, 36.423855 ], [ -93.764199, 36.423759 ], [ -93.764256, 36.423687 ], [ -93.764306, 36.423583 ], [ -93.764352, 36.423481 ], [ -93.764388, 36.423408 ], [ -93.764338, 36.423313 ], [ -93.76427, 36.423191 ], [ -93.764226, 36.423116 ], [ -93.764146, 36.423066 ], [ -93.764087, 36.423029 ], [ -93.764047, 36.422999 ], [ -93.764002, 36.422904 ], [ -93.763964, 36.42281 ], [ -93.7639, 36.422671 ], [ -93.763859, 36.422576 ], [ -93.76382, 36.422457 ], [ -93.76378, 36.422343 ], [ -93.763726, 36.422173 ], [ -93.763639, 36.422061 ], [ -93.763528, 36.421921 ], [ -93.763462, 36.421835 ], [ -93.763392, 36.421748 ], [ -93.763355, 36.421701 ], [ -93.763414, 36.42165 ], [ -93.763453, 36.421607 ], [ -93.763627, 36.421545 ], [ -93.763806, 36.421481 ], [ -93.763962, 36.421427 ], [ -93.763817, 36.421412 ], [ -93.76368, 36.421398 ], [ -93.763599, 36.421362 ], [ -93.763495, 36.421321 ], [ -93.763436, 36.421296 ], [ -93.763369, 36.421297 ], [ -93.763311, 36.421298 ], [ -93.763244, 36.421326 ], [ -93.763134, 36.421371 ], [ -93.763072, 36.421395 ], [ -93.762988, 36.421525 ], [ -93.762898, 36.421666 ], [ -93.762836, 36.421768 ], [ -93.762717, 36.421896 ], [ -93.762614, 36.422001 ], [ -93.762529, 36.42209 ], [ -93.762517, 36.422155 ], [ -93.762512, 36.422207 ], [ -93.762598, 36.422318 ], [ -93.762686, 36.422432 ], [ -93.762767, 36.422546 ], [ -93.76286, 36.422627 ], [ -93.762979, 36.422734 ], [ -93.763061, 36.422808 ], [ -93.76323, 36.422864 ], [ -93.763359, 36.4229 ], [ -93.763407, 36.423019 ], [ -93.763444, 36.423112 ], [ -93.763465, 36.423225 ], [ -93.763484, 36.423356 ], [ -93.763456, 36.423444 ], [ -93.763421, 36.423585 ], [ -93.763374, 36.423666 ], [ -93.763304, 36.423778 ], [ -93.763249, 36.423874 ], [ -93.76328, 36.424034 ], [ -93.763314, 36.424201 ], [ -93.76334, 36.424311 ], [ -93.763308, 36.424415 ], [ -93.763273, 36.424526 ], [ -93.763193, 36.424601 ], [ -93.763057, 36.42472 ], [ -93.762938, 36.424823 ], [ -93.762785, 36.42496 ], [ -93.762655, 36.425077 ], [ -93.762564, 36.425189 ], [ -93.762527, 36.425235 ], [ -93.762416, 36.425371 ], [ -93.762305, 36.425509 ], [ -93.762252, 36.425573 ], [ -93.762136, 36.425662 ], [ -93.762035, 36.425741 ], [ -93.761965, 36.425862 ], [ -93.761875, 36.426019 ], [ -93.76181, 36.426132 ], [ -93.76178, 36.426268 ], [ -93.761765, 36.426329 ], [ -93.761696, 36.426477 ], [ -93.761635, 36.426595 ], [ -93.761597, 36.426716 ], [ -93.761538, 36.426922 ], [ -93.761482, 36.427113 ], [ -93.761457, 36.427186 ], [ -93.761477, 36.427259 ], [ -93.761491, 36.427319 ], [ -93.761453, 36.427427 ], [ -93.761415, 36.42754 ], [ -93.761448, 36.427585 ], [ -93.761483, 36.427629 ], [ -93.761418, 36.427728 ], [ -93.761347, 36.427846 ], [ -93.761316, 36.427896 ], [ -93.761358, 36.428004 ], [ -93.761407, 36.428126 ], [ -93.761372, 36.42818 ], [ -93.761334, 36.428233 ], [ -93.761334, 36.428359 ], [ -93.76133, 36.428467 ], [ -93.761247, 36.428544 ], [ -93.761155, 36.428626 ], [ -93.761113, 36.428759 ], [ -93.761062, 36.428909 ], [ -93.761009, 36.42907 ], [ -93.760892, 36.4292 ], [ -93.760775, 36.429331 ], [ -93.760705, 36.429404 ], [ -93.760595, 36.429418 ], [ -93.760543, 36.429425 ], [ -93.760513, 36.429429 ], [ -93.760444, 36.429436 ], [ -93.760383, 36.429384 ], [ -93.760326, 36.429325 ], [ -93.76026, 36.429263 ], [ -93.760211, 36.429172 ], [ -93.760164, 36.429065 ], [ -93.76011, 36.428951 ], [ -93.760039, 36.428801 ], [ -93.760004, 36.428726 ], [ -93.759958, 36.428581 ], [ -93.759918, 36.428461 ], [ -93.759874, 36.428323 ], [ -93.759802, 36.428112 ], [ -93.759755, 36.427962 ], [ -93.759732, 36.427891 ], [ -93.75969, 36.42781 ], [ -93.759628, 36.427697 ], [ -93.759569, 36.427589 ], [ -93.759509, 36.427469 ], [ -93.759497, 36.427376 ], [ -93.759483, 36.427255 ], [ -93.759459, 36.42709 ], [ -93.759454, 36.426988 ], [ -93.759441, 36.426901 ], [ -93.759458, 36.426838 ], [ -93.759466, 36.426791 ], [ -93.759534, 36.426716 ], [ -93.759594, 36.426646 ], [ -93.75965, 36.42658 ], [ -93.759716, 36.426504 ], [ -93.759807, 36.426439 ], [ -93.759932, 36.426351 ], [ -93.760041, 36.426273 ], [ -93.760096, 36.426191 ], [ -93.760159, 36.426091 ], [ -93.760228, 36.425987 ], [ -93.760299, 36.425877 ], [ -93.760339, 36.425815 ], [ -93.760358, 36.425705 ], [ -93.760385, 36.425545 ], [ -93.760403, 36.42543 ], [ -93.760421, 36.425351 ], [ -93.760464, 36.425239 ], [ -93.760506, 36.425134 ], [ -93.760532, 36.425058 ], [ -93.760543, 36.425026 ], [ -93.760541, 36.424965 ], [ -93.760537, 36.424856 ], [ -93.760537, 36.424779 ], [ -93.76059, 36.424696 ], [ -93.760619, 36.424651 ], [ -93.760599, 36.424556 ], [ -93.760599, 36.424483 ], [ -93.760589, 36.424453 ], [ -93.760605, 36.424369 ], [ -93.760623, 36.424291 ], [ -93.760664, 36.424134 ], [ -93.760716, 36.423918 ], [ -93.760764, 36.423739 ], [ -93.760779, 36.423684 ], [ -93.760745, 36.423521 ], [ -93.76073, 36.423415 ], [ -93.760703, 36.423303 ], [ -93.760671, 36.423223 ], [ -93.760623, 36.423119 ], [ -93.760583, 36.42303 ], [ -93.760543, 36.422949 ], [ -93.760563, 36.422878 ], [ -93.760578, 36.422816 ], [ -93.760546, 36.42273 ], [ -93.760484, 36.42261 ], [ -93.760448, 36.42252 ], [ -93.760369, 36.422346 ], [ -93.760302, 36.422184 ], [ -93.760229, 36.422111 ], [ -93.760132, 36.422005 ], [ -93.760038, 36.421899 ], [ -93.75996, 36.421817 ], [ -93.759915, 36.421756 ] ] } },
{ "type": "Feature", "properties": { "cls": "shared", "highway": "cycleway", "name": "Twin Knobs (West)" }, "geometry": { "type": "LineString", "coordinates": [ [ -93.762564, 36.425189 ], [ -93.762568, 36.425327 ], [ -93.762568, 36.425409 ], [ -93.762629, 36.425533 ], [ -93.762901, 36.425441 ], [ -93.763133, 36.425373 ], [ -93.763332, 36.425347 ], [ -93.763438, 36.42534 ], [ -93.763537, 36.425476 ], [ -93.763775, 36.425373 ], [ -93.763987, 36.425291 ], [ -93.764145, 36.425304 ], [ -93.764149, 36.425435 ], [ -93.764076, 36.425562 ], [ -93.763979, 36.425706 ], [ -93.763869, 36.425795 ], [ -93.763788, 36.42586 ], [ -93.763572, 36.425948 ], [ -93.763344, 36.426037 ], [ -93.763361, 36.426092 ], [ -93.763414, 36.426141 ], [ -93.763629, 36.426083 ], [ -93.763727, 36.42605 ], [ -93.763922, 36.425909 ], [ -93.764084, 36.425804 ], [ -93.764153, 36.425778 ], [ -93.764166, 36.425883 ], [ -93.764198, 36.425965 ], [ -93.764109, 36.426063 ], [ -93.763987, 36.426197 ], [ -93.763926, 36.426249 ], [ -93.763938, 36.426338 ], [ -93.76397, 36.426384 ], [ -93.764186, 36.426397 ], [ -93.764288, 36.42641 ], [ -93.764278, 36.426454 ], [ -93.764263, 36.426518 ], [ -93.764235, 36.426606 ], [ -93.764032, 36.426678 ], [ -93.763861, 36.426737 ], [ -93.763714, 36.426799 ], [ -93.763877, 36.426858 ], [ -93.764007, 36.426901 ], [ -93.763946, 36.426959 ], [ -93.763857, 36.427018 ], [ -93.763987, 36.427162 ], [ -93.764125, 36.427371 ], [ -93.764247, 36.427509 ], [ -93.764357, 36.427421 ], [ -93.76441, 36.427378 ], [ -93.764487, 36.42746 ], [ -93.76456, 36.427669 ], [ -93.764434, 36.427705 ], [ -93.764353, 36.427738 ], [ -93.764324, 36.427911 ], [ -93.764271, 36.428127 ], [ -93.764202, 36.42834 ], [ -93.764369, 36.428314 ], [ -93.764564, 36.428304 ], [ -93.764519, 36.428386 ], [ -93.764523, 36.428452 ] ] } },
{ "type": "Feature", "properties": { "cls": "shared", "highway": "cycleway", "name": "Hyde Hollow Trail" }, "geometry": { "type": "LineString", "coordinates": [ [ -93.752826, 36.422964 ], [ -93.752989, 36.423238 ], [ -93.753102, 36.423471 ], [ -93.753344, 36.423734 ], [ -93.753569, 36.424001 ], [ -93.753732, 36.424189 ], [ -93.753825, 36.424339 ], [ -93.754012, 36.424651 ], [ -93.754218, 36.424978 ], [ -93.754358, 36.425207 ], [ -93.75439, 36.425331 ], [ -93.7544, 36.425452 ], [ -93.75482, 36.425872 ], [ -93.755189, 36.426226 ], [ -93.755497, 36.426575 ], [ -93.755852, 36.426974 ], [ -93.756095, 36.427255 ], [ -93.7563, 36.427428 ], [ -93.756632, 36.427714 ], [ -93.756737, 36.427798 ], [ -93.756784, 36.427837 ], [ -93.756806, 36.427851 ], [ -93.756857, 36.427965 ], [ -93.756926, 36.428118 ], [ -93.756995, 36.428274 ], [ -93.757045, 36.428389 ], [ -93.757106, 36.428529 ], [ -93.757149, 36.428612 ], [ -93.757138, 36.428701 ], [ -93.757128, 36.428788 ], [ -93.757108, 36.428918 ], [ -93.757093, 36.429029 ], [ -93.757078, 36.429156 ], [ -93.757076, 36.429195 ], [ -93.75716, 36.429347 ], [ -93.757223, 36.429466 ], [ -93.757334, 36.429658 ], [ -93.757391, 36.429758 ], [ -93.7574, 36.429773 ], [ -93.757418, 36.429836 ], [ -93.757448, 36.429954 ], [ -93.757471, 36.430041 ], [ -93.757496, 36.430137 ], [ -93.757514, 36.43021 ], [ -93.757557, 36.430369 ], [ -93.757603, 36.430555 ], [ -93.757636, 36.43068 ], [ -93.757661, 36.430772 ], [ -93.757671, 36.430909 ], [ -93.757681, 36.43107 ], [ -93.75769, 36.431241 ], [ -93.757697, 36.431332 ], [ -93.757706, 36.431347 ], [ -93.757755, 36.431394 ], [ -93.757782, 36.431429 ] ] } },
{ "type": "Feature", "properties": { "cls": "shared", "highway": "cycleway", "name": "Hidden Falls" }, "geometry": { "type": "LineString", "coordinates": [ [ -93.756737, 36.427798 ], [ -93.756735, 36.427746 ], [ -93.756731, 36.427686 ], [ -93.756698, 36.427669 ], [ -93.756638, 36.42763 ], [ -93.756595, 36.427594 ], [ -93.75657, 36.427582 ], [ -93.756547, 36.427489 ], [ -93.756524, 36.427413 ], [ -93.756506, 36.427336 ], [ -93.756481, 36.427265 ], [ -93.756503, 36.42721 ], [ -93.756523, 36.427138 ], [ -93.756543, 36.42708 ], [ -93.756561, 36.427015 ], [ -93.75658, 36.426957 ], [ -93.756591, 36.426921 ], [ -93.756638, 36.426884 ], [ -93.756725, 36.426816 ], [ -93.756828, 36.426737 ], [ -93.756919, 36.42667 ], [ -93.756979, 36.426624 ], [ -93.757033, 36.42658 ], [ -93.757057, 36.426652 ], [ -93.757088, 36.426737 ], [ -93.75711, 36.426794 ], [ -93.757117, 36.426826 ], [ -93.757204, 36.426859 ], [ -93.757242, 36.426874 ], [ -93.757287, 36.426945 ], [ -93.757327, 36.427009 ], [ -93.757345, 36.427035 ], [ -93.757361, 36.427147 ], [ -93.757373, 36.427265 ], [ -93.757436, 36.427315 ], [ -93.757553, 36.427397 ], [ -93.757667, 36.427477 ], [ -93.75771, 36.427489 ], [ -93.757758, 36.427504 ], [ -93.757743, 36.427442 ], [ -93.757723, 36.42737 ], [ -93.757706, 36.427313 ], [ -93.757723, 36.427244 ], [ -93.757746, 36.427179 ], [ -93.757771, 36.427091 ], [ -93.757784, 36.427023 ], [ -93.757781, 36.426901 ], [ -93.757783, 36.426816 ], [ -93.757786, 36.426771 ], [ -93.757868, 36.426758 ], [ -93.757962, 36.426747 ], [ -93.758012, 36.426709 ], [ -93.758088, 36.426652 ], [ -93.758153, 36.426604 ], [ -93.758202, 36.426587 ], [ -93.758225, 36.426581 ] ] } },
{ "type": "Feature", "properties": { "cls": "shared", "highway": "cycleway", "name": "Minors Rock Loop" }, "geometry": { "type": "LineString", "coordinates": [ [ -93.766625, 36.432494 ], [ -93.766711, 36.43237 ], [ -93.766776, 36.432266 ], [ -93.766662, 36.432211 ], [ -93.766538, 36.432164 ], [ -93.766406, 36.432172 ], [ -93.766252, 36.432187 ], [ -93.766169, 36.432259 ], [ -93.766055, 36.432301 ], [ -93.765913, 36.432345 ], [ -93.765811, 36.432442 ], [ -93.765793, 36.432551 ], [ -93.765725, 36.432662 ], [ -93.765657, 36.432764 ], [ -93.76575, 36.432871 ], [ -93.76579, 36.432923 ], [ -93.765861, 36.433064 ], [ -93.765904, 36.433161 ], [ -93.766104, 36.43328 ], [ -93.766264, 36.43337 ], [ -93.766169, 36.433419 ], [ -93.765981, 36.433437 ], [ -93.765743, 36.433437 ], [ -93.765623, 36.433432 ], [ -93.765445, 36.433394 ], [ -93.765349, 36.433365 ], [ -93.765192, 36.43329 ], [ -93.76506, 36.433214 ], [ -93.764942, 36.433047 ], [ -93.764837, 36.432921 ], [ -93.764794, 36.432772 ], [ -93.764785, 36.432651 ], [ -93.764764, 36.432539 ], [ -93.764825, 36.432348 ], [ -93.764862, 36.432234 ], [ -93.764844, 36.432112 ], [ -93.764841, 36.431976 ], [ -93.764847, 36.43184 ], [ -93.764837, 36.431782 ], [ -93.764868, 36.431728 ], [ -93.764896, 36.431666 ], [ -93.765001, 36.431631 ], [ -93.765066, 36.43153 ], [ -93.765223, 36.431339 ], [ -93.765303, 36.431279 ], [ -93.765469, 36.431207 ], [ -93.765645, 36.431126 ], [ -93.76582, 36.431036 ], [ -93.765919, 36.430992 ], [ -93.766061, 36.430955 ], [ -93.766218, 36.430903 ], [ -93.766313, 36.430878 ], [ -93.766434, 36.43091 ], [ -93.766523, 36.430957 ], [ -93.766646, 36.43097 ], [ -93.766726, 36.43097 ], [ -93.766797, 36.430932 ], [ -93.766813, 36.430863 ], [ -93.766806, 36.430796 ], [ -93.766732, 36.430734 ], [ -93.766634, 36.430625 ], [ -93.766548, 36.430518 ], [ -93.76648, 36.430459 ], [ -93.766415, 36.430352 ], [ -93.766415, 36.430315 ], [ -93.766369, 36.430246 ], [ -93.766353, 36.430122 ], [ -93.766323, 36.430015 ], [ -93.766292, 36.429881 ], [ -93.766276, 36.429775 ], [ -93.766239, 36.429648 ], [ -93.766261, 36.429499 ], [ -93.766258, 36.429358 ], [ -93.766255, 36.429213 ], [ -93.766238, 36.429072 ], [ -93.766277, 36.428831 ], [ -93.766338, 36.428654 ], [ -93.7664, 36.428506 ], [ -93.766657, 36.428169 ], [ -93.766708, 36.428078 ], [ -93.766846, 36.427943 ], [ -93.766966, 36.427817 ], [ -93.76705, 36.427732 ], [ -93.767145, 36.427725 ], [ -93.76725, 36.427717 ], [ -93.767296, 36.42767 ], [ -93.767324, 36.427623 ], [ -93.767364, 36.427546 ], [ -93.767416, 36.427477 ], [ -93.767376, 36.427378 ], [ -93.767361, 36.427308 ], [ -93.767264, 36.427248 ], [ -93.767213, 36.427217 ], [ -93.767145, 36.427165 ], [ -93.767135, 36.427138 ], [ -93.76709, 36.427023 ], [ -93.767056, 36.426909 ], [ -93.766991, 36.426756 ], [ -93.76697, 36.426703 ], [ -93.76715, 36.426526 ], [ -93.767243, 36.42642 ], [ -93.767327, 36.42638 ], [ -93.76743, 36.42633 ], [ -93.767467, 36.426296 ], [ -93.767519, 36.426161 ], [ -93.767561, 36.426003 ], [ -93.767645, 36.426059 ] ] } },
{ "type": "Feature", "properties": { "cls": "shared", "highway": "cycleway", "name": "Mulladay Hollow Trail" }, "geometry": { "type": "LineString", "coordinates": [ [ -93.761513, 36.433803 ], [ -93.762559, 36.434079 ], [ -93.763351, 36.434533 ], [ -93.763754, 36.434713 ], [ -93.764083, 36.434685 ], [ -93.764488, 36.434885 ], [ -93.764533, 36.435042 ], [ -93.765518, 36.435202 ], [ -93.765702, 36.435191 ], [ -93.765738, 36.435189 ], [ -93.766019, 36.435147 ], [ -93.767267, 36.435186 ], [ -93.767861, 36.435304 ], [ -93.768594, 36.435378 ], [ -93.769079, 36.435439 ], [ -93.769347, 36.435388 ], [ -93.769468, 36.435196 ] ] } },
{ "type": "Feature", "properties": { "cls": "shared", "highway": "cycleway", "name": "Overlook Trail" }, "geometry": { "type": "MultiLineString", "coordinates": [ [ [ -93.757305, 36.442326 ], [ -93.757572, 36.442205 ], [ -93.757983, 36.442119 ], [ -93.758627, 36.441563 ], [ -93.759136, 36.441409 ], [ -93.759454, 36.441461 ], [ -93.759605, 36.441183 ], [ -93.759768, 36.44106 ], [ -93.759978, 36.441274 ], [ -93.760271, 36.441427 ], [ -93.760894, 36.441446 ], [ -93.761887, 36.441348 ], [ -93.762361, 36.441129 ], [ -93.762658, 36.441117 ], [ -93.762861, 36.4411 ], [ -93.763187, 36.440959 ], [ -93.763445, 36.440906 ], [ -93.763762, 36.441014 ], [ -93.764006, 36.441165 ], [ -93.763773, 36.441619 ], [ -93.763671, 36.441923 ], [ -93.763694, 36.442079 ], [ -93.763834, 36.442126 ], [ -93.763923, 36.441942 ], [ -93.764325, 36.441457 ], [ -93.764416, 36.4414 ], [ -93.764766, 36.441361 ], [ -93.764881, 36.441224 ], [ -93.764843, 36.441078 ], [ -93.764367, 36.4408 ], [ -93.762508, 36.440169 ], [ -93.762126, 36.440258 ], [ -93.761811, 36.440075 ], [ -93.761873, 36.439802 ], [ -93.762612, 36.43951 ], [ -93.763567, 36.438949 ], [ -93.76382, 36.438942 ], [ -93.764073, 36.438935 ], [ -93.76492, 36.439557 ], [ -93.765172, 36.43979 ], [ -93.765563, 36.439941 ], [ -93.765687, 36.439807 ], [ -93.765681, 36.439624 ], [ -93.765941, 36.43933 ] ], [ [ -93.76596, 36.438492 ], [ -93.765607, 36.43828 ], [ -93.765406, 36.437739 ], [ -93.765313, 36.437198 ], [ -93.765901, 36.436815 ], [ -93.766649, 36.436687 ], [ -93.766871, 36.436618 ], [ -93.767284, 36.436665 ], [ -93.76804, 36.436988 ], [ -93.768022, 36.436845 ], [ -93.768358, 36.43695 ], [ -93.768619, 36.436988 ], [ -93.767928, 36.436397 ], [ -93.768507, 36.436422 ], [ -93.768424, 36.436253 ], [ -93.768447, 36.436177 ], [ -93.769121, 36.436406 ], [ -93.768765, 36.436001 ], [ -93.768449, 36.435741 ], [ -93.768252, 36.435497 ], [ -93.767861, 36.435304 ] ] ] } },
{ "type": "Feature", "properties": { "cls": "shared", "highway": "cycleway", "name": "Fuller Trail" }, "geometry": { "type": "LineString", "coordinates": [ [ -93.759266, 36.435435 ], [ -93.759217, 36.435563 ], [ -93.759286, 36.435799 ], [ -93.758851, 36.436715 ], [ -93.758932, 36.437042 ], [ -93.758546, 36.437266 ], [ -93.75816, 36.437663 ], [ -93.758042, 36.437844 ], [ -93.757838, 36.438095 ], [ -93.757387, 36.438345 ], [ -93.757301, 36.438293 ], [ -93.757162, 36.438449 ], [ -93.757463, 36.438751 ], [ -93.757495, 36.438889 ], [ -93.757087, 36.439018 ], [ -93.756529, 36.439528 ], [ -93.756406, 36.439858 ], [ -93.756307, 36.43992 ], [ -93.756199, 36.440227 ], [ -93.755995, 36.440445 ], [ -93.755752, 36.440911 ], [ -93.755817, 36.44103 ], [ -93.755746, 36.441228 ], [ -93.755931, 36.441578 ], [ -93.755888, 36.442108 ], [ -93.75574, 36.442182 ], [ -93.755536, 36.442552 ], [ -93.755472, 36.442961 ], [ -93.755404, 36.443042 ], [ -93.755321, 36.443323 ], [ -93.755395, 36.443435 ], [ -93.755422, 36.443464 ], [ -93.755801, 36.443702 ], [ -93.75602, 36.443727 ], [ -93.756288, 36.443838 ], [ -93.756368, 36.443937 ], [ -93.756516, 36.444485 ], [ -93.756513, 36.444643 ], [ -93.756424, 36.444735 ], [ -93.756316, 36.444792 ], [ -93.75606, 36.444785 ], [ -93.755268, 36.444864 ], [ -93.754701, 36.444956 ], [ -93.754356, 36.44506 ], [ -93.75427, 36.445154 ], [ -93.754162, 36.445335 ], [ -93.754024, 36.445687 ], [ -93.753959, 36.445739 ], [ -93.753894, 36.445677 ], [ -93.753719, 36.445568 ], [ -93.753444, 36.445441 ], [ -93.753124, 36.445568 ], [ -93.753067, 36.445652 ], [ -93.75314, 36.445709 ] ] } }
]
}
