{
"type": "FeatureCollection",
"name": "129-philadelphia-pennypack-park",
"crs": { "type": "name", "properties": { "name": "urn:ogc:def:crs:OGC:1.3:CRS84" } },
"xy_coordinate_resolution": 1e-06,
"features": [
{ "type": "Feature", "properties": { "cls": "separated", "highway": "cycleway", "name": "Pennypack Trail" }, "geometry": { "type": "LineString", "coordinates": [ [ -75.020612, 40.032097 ], [ -75.020649, 40.032045 ] ] } },
{ "type": "Feature", "properties": { "cls": "separated", "highway": "cycleway", "name": "Pennypack Trail" }, "geometry": { "type": "LineString", "coordinates": [ [ -75.020612, 40.032097 ], [ -75.020486, 40.032218 ], [ -75.020353, 40.032305 ], [ -75.020206, 40.032425 ], [ -75.020083, 40.032533 ], [ -75.019945, 40.032611 ], [ -75.019704, 40.032734 ], [ -75.019621, 40.03279 ], [ -75.019581, 40.032851 ], [ -75.019561, 40.032909 ], [ -75.019559, 40.032963 ], [ -75.019574, 40.033016 ], [ -75.019596, 40.033084 ], [ -75.019629, 40.03321 ], [ -75.019711, 40.03334 ], [ -75.019793, 40.033446 ], [ -75.019854, 40.033488 ], [ -75.019947, 40.033517 ], [ -75.020459, 40.033583 ], [ -75.020725, 40.033602 ], [ -75.020899, 40.033604 ], [ -75.021185, 40.033592 ], [ -75.021407, 40.033594 ], [ -75.021597, 40.033618 ] ] } },
{ "type": "Feature", "properties": { "cls": "separated", "highway": "cycleway", "name": "Pennypack Trail" }, "geometry": { "type": "LineString", "coordinates": [ [ -75.021597, 40.033618 ], [ -75.022069, 40.034064 ] ] } },
{ "type": "Feature", "properties": { "cls": "separated", "highway": "cycleway", "name": "Pennypack Trail" }, "geometry": { "type": "LineString", "coordinates": [ [ -75.022069, 40.034064 ], [ -75.022148, 40.034157 ], [ -75.022192, 40.034268 ], [ -75.022224, 40.034455 ], [ -75.022185, 40.034553 ], [ -75.022165, 40.034625 ], [ -75.022165, 40.034716 ], [ -75.022176, 40.034874 ], [ -75.022194, 40.034988 ], [ -75.022171, 40.035053 ], [ -75.022147, 40.035087 ], [ -75.022017, 40.035199 ], [ -75.02188, 40.035316 ], [ -75.021813, 40.035432 ], [ -75.021721, 40.03563 ], [ -75.021685, 40.035752 ], [ -75.021683, 40.035805 ], [ -75.021697, 40.035883 ], [ -75.021753, 40.035981 ], [ -75.021816, 40.036057 ], [ -75.02191, 40.036134 ], [ -75.022031, 40.03622 ], [ -75.022116, 40.03628 ], [ -75.022211, 40.036323 ], [ -75.022256, 40.036335 ], [ -75.022454, 40.036347 ], [ -75.022554, 40.036358 ], [ -75.022629, 40.03637 ], [ -75.02269, 40.036369 ], [ -75.022741, 40.036445 ], [ -75.022758, 40.036462 ] ] } },
{ "type": "Feature", "properties": { "cls": "separated", "highway": "cycleway", "name": null }, "geometry": { "type": "LineString", "coordinates": [ [ -75.022001, 40.036874 ], [ -75.021899, 40.036926 ] ] } },
{ "type": "Feature", "properties": { "cls": "painted", "highway": "tertiary", "name": "Torresdale Avenue" }, "geometry": { "type": "LineString", "coordinates": [ [ -75.022018, 40.036922 ], [ -75.021916, 40.036974 ] ] } },
{ "type": "Feature", "properties": { "cls": "separated", "highway": "cycleway", "name": null }, "geometry": { "type": "LineString", "coordinates": [ [ -75.021899, 40.036926 ], [ -75.02189, 40.036931 ], [ -75.021413, 40.037182 ], [ -75.021412, 40.037182 ] ] } },
{ "type": "Feature", "properties": { "cls": "painted", "highway": "tertiary", "name": "Torresdale Avenue" }, "geometry": { "type": "LineString", "coordinates": [ [ -75.021916, 40.036974 ], [ -75.02143, 40.037232 ] ] } },
{ "type": "Feature", "properties": { "cls": "separated", "highway": "cycleway", "name": null }, "geometry": { "type": "LineString", "coordinates": [ [ -75.021412, 40.037182 ], [ -75.021409, 40.037183 ] ] } },
{ "type": "Feature", "properties": { "cls": "painted", "highway": "tertiary", "name": "Torresdale Avenue" }, "geometry": { "type": "Point", "coordinates": [ -75.02143, 40.037232 ] } },
{ "type": "Feature", "properties": { "cls": "separated", "highway": "cycleway", "name": null }, "geometry": { "type": "LineString", "coordinates": [ [ -75.02159, 40.038645 ], [ -75.021503, 40.038607 ], [ -75.021414, 40.038598 ], [ -75.021309, 40.03859 ], [ -75.021014, 40.038636 ], [ -75.02089, 40.038653 ], [ -75.020761, 40.038657 ], [ -75.020657, 40.038675 ], [ -75.020495, 40.038698 ], [ -75.020416, 40.038714 ], [ -75.02036, 40.038742 ], [ -75.020298, 40.038778 ] ] } },
{ "type": "Feature", "properties": { "cls": "painted", "highway": "secondary", "name": "Rhawn Street" }, "geometry": { "type": "LineString", "coordinates": [ [ -75.032249, 40.048827 ], [ -75.032207, 40.048802 ], [ -75.032136, 40.04876 ], [ -75.032118, 40.048747 ] ] } },
{ "type": "Feature", "properties": { "cls": "separated", "highway": "cycleway", "name": "Pennypack Trail" }, "geometry": { "type": "LineString", "coordinates": [ [ -75.026757, 40.049123 ], [ -75.026668, 40.049098 ], [ -75.026534, 40.049041 ], [ -75.026425, 40.048983 ], [ -75.02637, 40.048934 ], [ -75.026318, 40.048871 ], [ -75.026254, 40.048745 ], [ -75.026241, 40.048695 ], [ -75.026214, 40.048551 ], [ -75.026188, 40.048462 ], [ -75.026182, 40.04843 ], [ -75.026171, 40.0484 ] ] } },
{ "type": "Feature", "properties": { "cls": "painted", "highway": "tertiary", "name": "Welsh Road" }, "geometry": { "type": "LineString", "coordinates": [ [ -75.026117, 40.048907 ], [ -75.026153, 40.049027 ] ] } },
{ "type": "Feature", "properties": { "cls": "painted", "highway": "secondary", "name": "Rhawn Street" }, "geometry": { "type": "LineString", "coordinates": [ [ -75.033329, 40.049422 ], [ -75.032249, 40.048827 ] ] } },
{ "type": "Feature", "properties": { "cls": "painted", "highway": "tertiary", "name": "Welsh Road" }, "geometry": { "type": "LineString", "coordinates": [ [ -75.026415, 40.049796 ], [ -75.026153, 40.049027 ] ] } },
{ "type": "Feature", "properties": { "cls": "separated", "highway": "cycleway", "name": "Pennypack Trail" }, "geometry": { "type": "LineString", "coordinates": [ [ -75.032365, 40.050294 ], [ -75.032509, 40.050262 ], [ -75.03254, 40.050233 ], [ -75.032585, 40.050194 ], [ -75.032701, 40.050051 ], [ -75.032856, 40.049833 ], [ -75.032927, 40.049783 ], [ -75.032933, 40.049743 ], [ -75.032951, 40.049501 ], [ -75.032984, 40.049343 ], [ -75.033088, 40.0492 ], [ -75.033109, 40.049172 ], [ -75.033159, 40.04909 ], [ -75.033218, 40.048922 ], [ -75.033221, 40.048879 ], [ -75.033223, 40.048846 ], [ -75.033223, 40.048831 ], [ -75.033224, 40.048717 ], [ -75.033227, 40.048666 ], [ -75.033211, 40.048572 ] ] } },
{ "type": "Feature", "properties": { "cls": "separated", "highway": "cycleway", "name": "Pennypack Trail" }, "geometry": { "type": "LineString", "coordinates": [ [ -75.02628, 40.049226 ], [ -75.026476, 40.049183 ], [ -75.026757, 40.049123 ], [ -75.026954, 40.049143 ], [ -75.027176, 40.049166 ], [ -75.027367, 40.049167 ], [ -75.02758, 40.049191 ], [ -75.027695, 40.049211 ], [ -75.027804, 40.049249 ], [ -75.028761, 40.049647 ], [ -75.029209, 40.049816 ], [ -75.029454, 40.049891 ], [ -75.030063, 40.049958 ], [ -75.030339, 40.049985 ], [ -75.030533, 40.050008 ], [ -75.030662, 40.049991 ], [ -75.030821, 40.049988 ], [ -75.031024, 40.049962 ], [ -75.031037, 40.049961 ], [ -75.031113, 40.049959 ], [ -75.031277, 40.049984 ], [ -75.031347, 40.049996 ], [ -75.031548, 40.050031 ], [ -75.031841, 40.050057 ], [ -75.031886, 40.050065 ], [ -75.032003, 40.050086 ] ] } },
{ "type": "Feature", "properties": { "cls": "separated", "highway": "cycleway", "name": "Pennypack Trail" }, "geometry": { "type": "LineString", "coordinates": [ [ -75.020592, 40.037744 ], [ -75.020609, 40.037763 ], [ -75.020691, 40.03784 ], [ -75.020839, 40.037972 ], [ -75.021002, 40.038111 ], [ -75.021128, 40.038208 ], [ -75.021208, 40.038263 ], [ -75.021288, 40.038312 ], [ -75.021438, 40.038433 ], [ -75.021509, 40.038519 ], [ -75.02159, 40.038645 ], [ -75.021666, 40.038802 ], [ -75.021672, 40.038849 ], [ -75.021653, 40.03894 ], [ -75.021619, 40.039031 ], [ -75.021538, 40.039174 ], [ -75.021483, 40.039252 ], [ -75.021443, 40.039315 ], [ -75.021424, 40.039404 ], [ -75.02142, 40.039421 ], [ -75.021402, 40.039501 ], [ -75.021393, 40.039538 ], [ -75.02137, 40.039578 ], [ -75.021334, 40.03962 ], [ -75.0213, 40.039651 ], [ -75.021278, 40.039683 ], [ -75.02127, 40.03971 ], [ -75.021259, 40.039812 ], [ -75.021251, 40.039907 ], [ -75.021226, 40.040005 ], [ -75.021218, 40.040017 ], [ -75.021183, 40.040071 ], [ -75.021118, 40.040159 ], [ -75.021, 40.040326 ], [ -75.020951, 40.040394 ], [ -75.020927, 40.040464 ], [ -75.020908, 40.040522 ], [ -75.020886, 40.040582 ], [ -75.02084, 40.040647 ], [ -75.020825, 40.040692 ], [ -75.020829, 40.040792 ], [ -75.020822, 40.040862 ], [ -75.020779, 40.04102 ], [ -75.020754, 40.041175 ], [ -75.020736, 40.041271 ], [ -75.020685, 40.041478 ], [ -75.020642, 40.041691 ], [ -75.020626, 40.041734 ], [ -75.020606, 40.041768 ], [ -75.020541, 40.041802 ], [ -75.020469, 40.041808 ], [ -75.020319, 40.041794 ], [ -75.020243, 40.041787 ], [ -75.020194, 40.041804 ], [ -75.020154, 40.041826 ], [ -75.02011, 40.041881 ], [ -75.020083, 40.041954 ], [ -75.020087, 40.042119 ], [ -75.020038, 40.042379 ], [ -75.020025, 40.042465 ], [ -75.020014, 40.04252 ], [ -75.019994, 40.042621 ], [ -75.019985, 40.042713 ], [ -75.019981, 40.042801 ], [ -75.019989, 40.042919 ], [ -75.020006, 40.04309 ], [ -75.02002, 40.043158 ], [ -75.020045, 40.04321 ], [ -75.020066, 40.043239 ], [ -75.020094, 40.043268 ], [ -75.020122, 40.043301 ], [ -75.020154, 40.043341 ], [ -75.020174, 40.04337 ], [ -75.020185, 40.043393 ], [ -75.020192, 40.04342 ], [ -75.020195, 40.043454 ], [ -75.020187, 40.043475 ], [ -75.020179, 40.043487 ], [ -75.020179, 40.043487 ] ] } },
{ "type": "Feature", "properties": { "cls": "separated", "highway": "cycleway", "name": null }, "geometry": { "type": "LineString", "coordinates": [ [ -75.020243, 40.041787 ], [ -75.020201, 40.041715 ], [ -75.020138, 40.041611 ], [ -75.020017, 40.041465 ], [ -75.019818, 40.041251 ], [ -75.019706, 40.041124 ], [ -75.019705, 40.041123 ] ] } },
{ "type": "Feature", "properties": { "cls": "separated", "highway": "cycleway", "name": "Pennypack Trail" }, "geometry": { "type": "LineString", "coordinates": [ [ -75.019689, 40.043664 ], [ -75.019696, 40.043683 ] ] } },
{ "type": "Feature", "properties": { "cls": "separated", "highway": "cycleway", "name": "Pennypack Trail" }, "geometry": { "type": "LineString", "coordinates": [ [ -75.019696, 40.043683 ], [ -75.019701, 40.043698 ], [ -75.019735, 40.043803 ], [ -75.019782, 40.043933 ], [ -75.019807, 40.044044 ], [ -75.01982, 40.044152 ], [ -75.019832, 40.04439 ], [ -75.019882, 40.044499 ], [ -75.019967, 40.044596 ], [ -75.020009, 40.044689 ], [ -75.019982, 40.044764 ], [ -75.019901, 40.044866 ], [ -75.019734, 40.045082 ], [ -75.019706, 40.045172 ], [ -75.019701, 40.045248 ], [ -75.019683, 40.045332 ], [ -75.019639, 40.045473 ], [ -75.019558, 40.045732 ], [ -75.019537, 40.045844 ], [ -75.019526, 40.045944 ], [ -75.019538, 40.046056 ], [ -75.019579, 40.046143 ], [ -75.019647, 40.046231 ], [ -75.019695, 40.046316 ], [ -75.01971, 40.046367 ], [ -75.01969, 40.046455 ], [ -75.019654, 40.046533 ], [ -75.019606, 40.046614 ], [ -75.019583, 40.04668 ], [ -75.019581, 40.046741 ], [ -75.019617, 40.046917 ], [ -75.019618, 40.047041 ], [ -75.019631, 40.047127 ], [ -75.019665, 40.04722 ], [ -75.019672, 40.047272 ], [ -75.019696, 40.047489 ], [ -75.019716, 40.047759 ], [ -75.019716, 40.047905 ], [ -75.019708, 40.04807 ], [ -75.019718, 40.048184 ], [ -75.019735, 40.048327 ], [ -75.019734, 40.048447 ], [ -75.019708, 40.04852 ], [ -75.019646, 40.048587 ], [ -75.019555, 40.048638 ], [ -75.01953, 40.048649 ], [ -75.019486, 40.048668 ], [ -75.019291, 40.04875 ], [ -75.019193, 40.048795 ], [ -75.019161, 40.04881 ] ] } },
{ "type": "Feature", "properties": { "cls": "separated", "highway": "cycleway", "name": "Pennypack Trail" }, "geometry": { "type": "LineString", "coordinates": [ [ -75.019161, 40.04881 ], [ -75.018881, 40.049012 ] ] } },
{ "type": "Feature", "properties": { "cls": "separated", "highway": "cycleway", "name": "Pennypack Trail" }, "geometry": { "type": "LineString", "coordinates": [ [ -75.018881, 40.049012 ], [ -75.018861, 40.049022 ], [ -75.018839, 40.049027 ], [ -75.018652, 40.04906 ], [ -75.018513, 40.049129 ], [ -75.018377, 40.049211 ], [ -75.01831, 40.049272 ], [ -75.018275, 40.049317 ], [ -75.018223, 40.049373 ], [ -75.018178, 40.049439 ], [ -75.01813, 40.049579 ], [ -75.018053, 40.049755 ], [ -75.018009, 40.049903 ], [ -75.01797, 40.050056 ], [ -75.01796, 40.050277 ], [ -75.017949, 40.050628 ], [ -75.017876, 40.050778 ], [ -75.01781, 40.050912 ], [ -75.017783, 40.051019 ], [ -75.017757, 40.051125 ], [ -75.017759, 40.051206 ], [ -75.017797, 40.051334 ], [ -75.017919, 40.051441 ], [ -75.018215, 40.051619 ], [ -75.018592, 40.051817 ], [ -75.018796, 40.051901 ], [ -75.018934, 40.051952 ], [ -75.019002, 40.051973 ], [ -75.019091, 40.051988 ], [ -75.019239, 40.051987 ], [ -75.019543, 40.051968 ], [ -75.019707, 40.051962 ], [ -75.019879, 40.051922 ], [ -75.020105, 40.051852 ], [ -75.020458, 40.051619 ], [ -75.020626, 40.051537 ], [ -75.020997, 40.051408 ], [ -75.021316, 40.051304 ], [ -75.021676, 40.051189 ], [ -75.021877, 40.051115 ], [ -75.022254, 40.05081 ], [ -75.022464, 40.050661 ], [ -75.022685, 40.05056 ], [ -75.023129, 40.050396 ], [ -75.023422, 40.050258 ], [ -75.023616, 40.050144 ], [ -75.023895, 40.050031 ], [ -75.02408, 40.049981 ], [ -75.024192, 40.049943 ], [ -75.024548, 40.04981 ], [ -75.025126, 40.04957 ], [ -75.025491, 40.049442 ], [ -75.025952, 40.049302 ], [ -75.02628, 40.049226 ] ] } },
{ "type": "Feature", "properties": { "cls": "separated", "highway": "cycleway", "name": "Pennypack Trail" }, "geometry": { "type": "LineString", "coordinates": [ [ -75.038232, 40.052902 ], [ -75.038315, 40.052869 ], [ -75.038446, 40.052833 ], [ -75.038577, 40.052764 ], [ -75.038647, 40.052707 ], [ -75.038758, 40.05257 ], [ -75.038963, 40.05225 ], [ -75.038991, 40.05219 ], [ -75.039003, 40.052148 ], [ -75.039019, 40.051958 ], [ -75.039091, 40.051807 ], [ -75.039165, 40.051712 ], [ -75.039237, 40.051628 ], [ -75.039285, 40.051529 ], [ -75.039313, 40.05144 ], [ -75.039366, 40.051322 ], [ -75.039404, 40.051243 ], [ -75.039435, 40.051164 ], [ -75.039443, 40.051124 ], [ -75.039469, 40.050948 ], [ -75.03948, 40.050846 ], [ -75.039487, 40.050784 ], [ -75.039503, 40.050752 ], [ -75.03954, 40.050702 ], [ -75.039563, 40.050642 ], [ -75.039567, 40.050586 ], [ -75.039573, 40.050478 ], [ -75.039569, 40.050193 ], [ -75.039538, 40.050017 ], [ -75.039513, 40.049922 ], [ -75.039493, 40.049854 ], [ -75.03949, 40.049744 ], [ -75.039494, 40.049642 ], [ -75.039498, 40.0495 ], [ -75.039512, 40.049439 ], [ -75.039511, 40.049298 ], [ -75.039535, 40.049152 ], [ -75.039507, 40.048927 ], [ -75.03948, 40.048873 ], [ -75.039439, 40.048833 ], [ -75.039242, 40.04873 ], [ -75.038922, 40.048588 ], [ -75.038704, 40.048502 ], [ -75.038579, 40.048439 ], [ -75.038364, 40.04831 ], [ -75.038201, 40.048218 ], [ -75.038051, 40.048188 ], [ -75.037921, 40.048129 ], [ -75.037869, 40.048054 ], [ -75.037801, 40.047971 ], [ -75.037797, 40.047966 ], [ -75.037498, 40.047736 ], [ -75.037352, 40.047604 ], [ -75.037243, 40.047529 ], [ -75.03713, 40.04748 ], [ -75.036934, 40.047261 ], [ -75.036811, 40.047161 ], [ -75.036666, 40.047055 ], [ -75.036515, 40.046931 ], [ -75.036347, 40.046812 ], [ -75.036163, 40.046709 ], [ -75.035938, 40.04659 ], [ -75.035857, 40.046548 ], [ -75.035687, 40.046448 ], [ -75.035469, 40.046332 ], [ -75.03533, 40.046267 ], [ -75.035226, 40.046242 ], [ -75.035117, 40.04623 ], [ -75.035029, 40.046229 ], [ -75.034873, 40.046239 ], [ -75.034696, 40.046249 ], [ -75.034554, 40.046268 ], [ -75.034427, 40.046311 ], [ -75.034268, 40.046388 ], [ -75.034128, 40.046472 ], [ -75.034011, 40.046571 ], [ -75.03383, 40.046729 ], [ -75.033746, 40.046815 ], [ -75.033688, 40.04689 ], [ -75.033614, 40.047017 ], [ -75.033558, 40.047136 ], [ -75.033524, 40.047352 ], [ -75.033489, 40.047617 ], [ -75.03349, 40.047698 ], [ -75.033539, 40.047811 ], [ -75.033573, 40.047873 ], [ -75.033575, 40.047931 ], [ -75.033558, 40.047969 ], [ -75.033511, 40.048041 ], [ -75.033455, 40.04812 ], [ -75.033373, 40.048174 ], [ -75.033303, 40.04824 ], [ -75.033204, 40.048344 ], [ -75.033185, 40.048395 ], [ -75.033188, 40.048477 ], [ -75.033211, 40.048572 ] ] } },
{ "type": "Feature", "properties": { "cls": "separated", "highway": "cycleway", "name": "Pennypack Trail" }, "geometry": { "type": "LineString", "coordinates": [ [ -75.038232, 40.052902 ], [ -75.038152, 40.052869 ], [ -75.037959, 40.052838 ], [ -75.037543, 40.052789 ], [ -75.037442, 40.052775 ], [ -75.037341, 40.05276 ], [ -75.037206, 40.052735 ], [ -75.037099, 40.052705 ], [ -75.037006, 40.052654 ], [ -75.0369, 40.052595 ], [ -75.036828, 40.05254 ], [ -75.036744, 40.052474 ], [ -75.03664, 40.052362 ], [ -75.036588, 40.052301 ], [ -75.036473, 40.052168 ], [ -75.036439, 40.052102 ], [ -75.036429, 40.052056 ], [ -75.036438, 40.051925 ], [ -75.036447, 40.051854 ], [ -75.036444, 40.051753 ], [ -75.036415, 40.051627 ], [ -75.036382, 40.051565 ], [ -75.036331, 40.051487 ], [ -75.036276, 40.051425 ], [ -75.036198, 40.051356 ], [ -75.036059, 40.051252 ], [ -75.036035, 40.051231 ] ] } },
{ "type": "Feature", "properties": { "cls": "painted", "highway": "secondary", "name": "Rhawn Street" }, "geometry": { "type": "LineString", "coordinates": [ [ -75.039506, 40.05276 ], [ -75.038572, 40.052255 ] ] } },
{ "type": "Feature", "properties": { "cls": "separated", "highway": "cycleway", "name": "Pennypack Trail" }, "geometry": { "type": "LineString", "coordinates": [ [ -75.036056, 40.057804 ], [ -75.036039, 40.05765 ], [ -75.036024, 40.057608 ], [ -75.035988, 40.057472 ], [ -75.035926, 40.057182 ], [ -75.035929, 40.05705 ], [ -75.035971, 40.056949 ], [ -75.036036, 40.056788 ], [ -75.036141, 40.056641 ], [ -75.036381, 40.056421 ], [ -75.036529, 40.056308 ], [ -75.036644, 40.056249 ], [ -75.03674, 40.056175 ], [ -75.037029, 40.055819 ], [ -75.037163, 40.055651 ], [ -75.037209, 40.055574 ], [ -75.037301, 40.055412 ], [ -75.037384, 40.055256 ], [ -75.037443, 40.055074 ], [ -75.037539, 40.054804 ], [ -75.037586, 40.054596 ], [ -75.037642, 40.054319 ], [ -75.037903, 40.053969 ], [ -75.038002, 40.053846 ], [ -75.038083, 40.053775 ], [ -75.038147, 40.053725 ], [ -75.038192, 40.053635 ], [ -75.038252, 40.053458 ], [ -75.038281, 40.053328 ], [ -75.038293, 40.053164 ], [ -75.038265, 40.053074 ], [ -75.038242, 40.052982 ], [ -75.038232, 40.052902 ] ] } },
{ "type": "Feature", "properties": { "cls": "separated", "highway": "cycleway", "name": null }, "geometry": { "type": "LineString", "coordinates": [ [ -75.032927, 40.049783 ], [ -75.033033, 40.049842 ] ] } },
{ "type": "Feature", "properties": { "cls": "separated", "highway": "cycleway", "name": "Pennypack Trail" }, "geometry": { "type": "LineString", "coordinates": [ [ -75.032296, 40.050262 ], [ -75.032003, 40.050086 ] ] } },
{ "type": "Feature", "properties": { "cls": "separated", "highway": "cycleway", "name": "Pennypack Trail" }, "geometry": { "type": "LineString", "coordinates": [ [ -75.032296, 40.050262 ], [ -75.032365, 40.050294 ] ] } },
{ "type": "Feature", "properties": { "cls": "separated", "highway": "cycleway", "name": null }, "geometry": { "type": "LineString", "coordinates": [ [ -75.032509, 40.050262 ], [ -75.032522, 40.050347 ] ] } },
{ "type": "Feature", "properties": { "cls": "separated", "highway": "cycleway", "name": "Pennypack Trail" }, "geometry": { "type": "LineString", "coordinates": [ [ -75.032365, 40.050294 ], [ -75.032522, 40.050347 ], [ -75.032597, 40.050373 ], [ -75.032826, 40.050451 ], [ -75.032911, 40.050477 ], [ -75.033039, 40.050508 ], [ -75.033188, 40.050497 ], [ -75.033262, 40.050494 ], [ -75.033345, 40.0505 ], [ -75.033395, 40.050515 ], [ -75.033546, 40.050565 ], [ -75.033655, 40.050597 ], [ -75.033759, 40.05064 ], [ -75.033821, 40.050675 ], [ -75.033875, 40.050715 ], [ -75.033963, 40.050761 ], [ -75.034046, 40.050791 ], [ -75.034135, 40.050807 ], [ -75.034263, 40.050812 ], [ -75.034351, 40.050807 ], [ -75.034661, 40.050786 ], [ -75.03488, 40.050779 ], [ -75.035022, 40.0508 ], [ -75.035176, 40.050836 ], [ -75.035226, 40.050861 ], [ -75.035282, 40.050898 ], [ -75.035337, 40.050928 ], [ -75.035384, 40.050948 ], [ -75.035501, 40.050975 ], [ -75.035667, 40.051023 ], [ -75.035717, 40.051039 ], [ -75.035776, 40.051069 ], [ -75.035791, 40.051076 ], [ -75.035818, 40.051087 ] ] } },
{ "type": "Feature", "properties": { "cls": "painted", "highway": "secondary", "name": "Rhawn Street" }, "geometry": { "type": "MultiLineString", "coordinates": [ [ [ -75.038572, 40.052255 ], [ -75.038571, 40.052255 ] ], [ [ -75.033355, 40.049436 ], [ -75.033329, 40.049422 ] ] ] } },
{ "type": "Feature", "properties": { "cls": "shared", "highway": "cycleway", "name": null }, "geometry": { "type": "LineString", "coordinates": [ [ -75.035818, 40.058017 ], [ -75.035696, 40.058016 ], [ -75.035549, 40.058014 ], [ -75.035362, 40.057983 ], [ -75.035215, 40.05794 ], [ -75.035159, 40.0579 ], [ -75.035149, 40.057881 ], [ -75.035161, 40.057832 ], [ -75.035222, 40.057795 ], [ -75.035372, 40.057745 ] ] } },
{ "type": "Feature", "properties": { "cls": "separated", "highway": "cycleway", "name": "Pennypack Trail" }, "geometry": { "type": "LineString", "coordinates": [ [ -75.034926, 40.061451 ], [ -75.035083, 40.061146 ], [ -75.035186, 40.061034 ], [ -75.035266, 40.060918 ], [ -75.035307, 40.060831 ], [ -75.035339, 40.060668 ], [ -75.03534, 40.060663 ], [ -75.035331, 40.060471 ], [ -75.035323, 40.060346 ], [ -75.035331, 40.060218 ], [ -75.035362, 40.060046 ], [ -75.035399, 40.059914 ], [ -75.035468, 40.059683 ], [ -75.035579, 40.059445 ], [ -75.035699, 40.059252 ], [ -75.035753, 40.059097 ], [ -75.035777, 40.058917 ], [ -75.035733, 40.058732 ], [ -75.035689, 40.058573 ], [ -75.035672, 40.058467 ], [ -75.035661, 40.058391 ], [ -75.03568, 40.058264 ], [ -75.03575, 40.058099 ], [ -75.035818, 40.058017 ], [ -75.035897, 40.057995 ], [ -75.036009, 40.057949 ], [ -75.036066, 40.057899 ], [ -75.036056, 40.057804 ] ] } },
{ "type": "Feature", "properties": { "cls": "separated", "highway": "cycleway", "name": null }, "geometry": { "type": "LineString", "coordinates": [ [ -75.034926, 40.061451 ], [ -75.034693, 40.061259 ], [ -75.034668, 40.061237 ], [ -75.034447, 40.061008 ], [ -75.034126, 40.060686 ], [ -75.033891, 40.060452 ] ] } },
{ "type": "Feature", "properties": { "cls": "separated", "highway": "cycleway", "name": "Pennypack Trail" }, "geometry": { "type": "LineString", "coordinates": [ [ -75.034957, 40.061486 ], [ -75.034926, 40.061451 ] ] } },
{ "type": "Feature", "properties": { "cls": "separated", "highway": "cycleway", "name": "Pennypack Trail" }, "geometry": { "type": "LineString", "coordinates": [ [ -75.034957, 40.061486 ], [ -75.035251, 40.061778 ] ] } },
{ "type": "Feature", "properties": { "cls": "separated", "highway": "cycleway", "name": "Pennypack Trail" }, "geometry": { "type": "LineString", "coordinates": [ [ -75.035251, 40.061778 ], [ -75.035286, 40.061812 ] ] } },
{ "type": "Feature", "properties": { "cls": "separated", "highway": "cycleway", "name": "Pennypack Trail" }, "geometry": { "type": "LineString", "coordinates": [ [ -75.041122, 40.066224 ], [ -75.040931, 40.066161 ], [ -75.040842, 40.066127 ], [ -75.040783, 40.066096 ], [ -75.040448, 40.065897 ], [ -75.040185, 40.065748 ], [ -75.039884, 40.065576 ], [ -75.039675, 40.065466 ], [ -75.039321, 40.065218 ], [ -75.039164, 40.06512 ], [ -75.038994, 40.064968 ], [ -75.038777, 40.064845 ], [ -75.038528, 40.064675 ], [ -75.038329, 40.064513 ], [ -75.038073, 40.0643 ], [ -75.037834, 40.064112 ], [ -75.037643, 40.063955 ], [ -75.037475, 40.06382 ], [ -75.037025, 40.063449 ], [ -75.036732, 40.063225 ], [ -75.036525, 40.06303 ], [ -75.036214, 40.062737 ], [ -75.035482, 40.062017 ], [ -75.035286, 40.061812 ] ] } },
{ "type": "Feature", "properties": { "cls": "separated", "highway": "cycleway", "name": "Pennypack Trail" }, "geometry": { "type": "LineString", "coordinates": [ [ -75.040252, 40.07263 ], [ -75.040243, 40.0726 ], [ -75.04024, 40.072571 ], [ -75.040247, 40.072543 ], [ -75.04026, 40.072514 ], [ -75.040283, 40.072483 ], [ -75.040314, 40.072456 ], [ -75.040358, 40.07243 ], [ -75.040428, 40.072393 ], [ -75.040473, 40.072373 ], [ -75.040535, 40.072352 ], [ -75.04059, 40.072338 ], [ -75.040647, 40.072323 ], [ -75.040733, 40.072303 ], [ -75.040784, 40.072288 ], [ -75.040847, 40.072268 ], [ -75.040919, 40.072244 ], [ -75.040998, 40.072216 ], [ -75.041065, 40.07219 ], [ -75.041127, 40.072163 ], [ -75.04118, 40.072137 ], [ -75.041226, 40.072111 ], [ -75.041258, 40.072088 ], [ -75.041287, 40.072066 ], [ -75.041316, 40.072037 ], [ -75.041351, 40.072002 ], [ -75.041377, 40.071976 ], [ -75.04141, 40.071953 ], [ -75.041444, 40.071933 ], [ -75.041486, 40.071914 ], [ -75.041526, 40.071901 ], [ -75.041566, 40.071883 ], [ -75.041606, 40.071859 ], [ -75.041651, 40.071829 ], [ -75.041693, 40.071797 ], [ -75.04174, 40.071758 ], [ -75.041848, 40.071677 ], [ -75.041884, 40.071649 ], [ -75.04192, 40.07162 ], [ -75.041959, 40.071584 ], [ -75.041994, 40.071549 ], [ -75.04203, 40.07151 ], [ -75.042079, 40.07146 ], [ -75.042111, 40.071422 ], [ -75.042154, 40.071371 ], [ -75.042182, 40.071331 ], [ -75.042219, 40.071272 ], [ -75.042253, 40.07121 ], [ -75.042295, 40.071139 ], [ -75.042338, 40.071066 ], [ -75.04237, 40.071011 ], [ -75.042412, 40.07093 ], [ -75.042452, 40.070855 ], [ -75.042481, 40.070805 ], [ -75.042508, 40.070764 ], [ -75.042541, 40.070718 ], [ -75.04259, 40.070656 ], [ -75.042622, 40.070612 ], [ -75.042657, 40.070554 ], [ -75.042699, 40.07048 ], [ -75.042728, 40.070421 ], [ -75.042754, 40.070373 ], [ -75.042777, 40.070335 ], [ -75.042829, 40.070261 ], [ -75.042882, 40.07018 ], [ -75.042923, 40.070114 ], [ -75.042958, 40.070055 ], [ -75.043009, 40.069971 ], [ -75.043086, 40.06984 ], [ -75.043141, 40.069753 ], [ -75.043187, 40.069686 ], [ -75.043204, 40.069658 ], [ -75.043219, 40.069625 ], [ -75.043231, 40.069588 ], [ -75.043242, 40.069547 ], [ -75.043249, 40.069506 ], [ -75.043254, 40.069461 ], [ -75.043256, 40.069417 ], [ -75.043254, 40.069364 ], [ -75.04325, 40.069317 ], [ -75.043243, 40.069267 ], [ -75.04323, 40.069202 ], [ -75.043216, 40.069144 ], [ -75.043189, 40.069043 ], [ -75.043163, 40.068955 ], [ -75.043154, 40.068903 ], [ -75.043145, 40.068841 ], [ -75.043134, 40.068758 ], [ -75.043126, 40.068669 ], [ -75.043117, 40.068582 ], [ -75.043109, 40.068493 ], [ -75.043106, 40.068423 ], [ -75.043099, 40.068347 ], [ -75.043088, 40.068213 ], [ -75.043081, 40.068141 ], [ -75.043073, 40.068088 ], [ -75.043066, 40.068043 ], [ -75.04306, 40.067979 ], [ -75.043052, 40.067896 ], [ -75.043044, 40.067828 ], [ -75.043031, 40.067738 ], [ -75.043016, 40.067648 ], [ -75.043001, 40.067571 ], [ -75.042991, 40.067526 ], [ -75.04298, 40.067478 ], [ -75.042963, 40.067427 ], [ -75.042938, 40.067357 ], [ -75.042907, 40.067287 ], [ -75.042881, 40.067231 ], [ -75.042847, 40.067156 ], [ -75.042811, 40.067072 ], [ -75.042783, 40.067008 ], [ -75.042759, 40.066962 ], [ -75.042736, 40.066924 ], [ -75.042702, 40.066877 ], [ -75.042678, 40.066848 ], [ -75.042655, 40.066826 ], [ -75.042633, 40.066809 ], [ -75.042615, 40.066796 ], [ -75.042573, 40.066769 ], [ -75.042488, 40.06672 ], [ -75.042407, 40.066682 ], [ -75.042307, 40.066638 ], [ -75.042181, 40.066587 ], [ -75.042048, 40.066533 ], [ -75.041943, 40.066495 ], [ -75.041851, 40.066463 ], [ -75.041763, 40.066434 ], [ -75.041644, 40.066397 ], [ -75.041445, 40.066333 ], [ -75.041122, 40.066224 ] ] } },
{ "type": "Feature", "properties": { "cls": "separated", "highway": "cycleway", "name": null }, "geometry": { "type": "LineString", "coordinates": [ [ -75.040292, 40.073048 ], [ -75.040268, 40.073062 ] ] } },
{ "type": "Feature", "properties": { "cls": "separated", "highway": "cycleway", "name": "Pennypack Trail" }, "geometry": { "type": "LineString", "coordinates": [ [ -75.043235, 40.074942 ], [ -75.043182, 40.074922 ], [ -75.043144, 40.074905 ], [ -75.043088, 40.074879 ], [ -75.043042, 40.074862 ], [ -75.042956, 40.074834 ], [ -75.042893, 40.074813 ], [ -75.042842, 40.074792 ], [ -75.042793, 40.074774 ], [ -75.04275, 40.074763 ], [ -75.042692, 40.074751 ], [ -75.042643, 40.07474 ], [ -75.042575, 40.074726 ], [ -75.042522, 40.074714 ], [ -75.042468, 40.074703 ], [ -75.042425, 40.074693 ], [ -75.042394, 40.074681 ], [ -75.042361, 40.074664 ], [ -75.042324, 40.074644 ], [ -75.042297, 40.074627 ], [ -75.042279, 40.074609 ], [ -75.042266, 40.074588 ], [ -75.04226, 40.074566 ], [ -75.042259, 40.074531 ], [ -75.042264, 40.074504 ], [ -75.042264, 40.074472 ], [ -75.042259, 40.074445 ], [ -75.04225, 40.074418 ], [ -75.04223, 40.07438 ], [ -75.042202, 40.074345 ], [ -75.042163, 40.074308 ], [ -75.042118, 40.074275 ], [ -75.042076, 40.074247 ], [ -75.042023, 40.074215 ], [ -75.041978, 40.074196 ], [ -75.041937, 40.074179 ], [ -75.04189, 40.074166 ], [ -75.04184, 40.074156 ], [ -75.041773, 40.074147 ], [ -75.041717, 40.07414 ], [ -75.041674, 40.074133 ], [ -75.041646, 40.074126 ], [ -75.041621, 40.074117 ], [ -75.041591, 40.074101 ], [ -75.041557, 40.074079 ], [ -75.041527, 40.074056 ], [ -75.04145, 40.073994 ], [ -75.041389, 40.073948 ], [ -75.041303, 40.073889 ], [ -75.041217, 40.07383 ], [ -75.041134, 40.073773 ], [ -75.041085, 40.073738 ], [ -75.041052, 40.073719 ], [ -75.041027, 40.073709 ], [ -75.041, 40.073701 ], [ -75.040957, 40.073696 ], [ -75.0409, 40.073693 ], [ -75.040854, 40.073692 ], [ -75.040817, 40.07369 ], [ -75.040785, 40.073686 ], [ -75.04076, 40.07368 ], [ -75.040738, 40.07367 ], [ -75.040722, 40.073655 ], [ -75.040707, 40.073636 ], [ -75.040661, 40.073575 ], [ -75.04061, 40.073503 ], [ -75.040566, 40.073436 ], [ -75.040516, 40.073366 ], [ -75.040439, 40.07325 ], [ -75.040385, 40.073172 ], [ -75.04034, 40.073109 ], [ -75.040292, 40.073048 ], [ -75.040301, 40.073031 ], [ -75.040311, 40.073 ], [ -75.040318, 40.072978 ], [ -75.040321, 40.072954 ], [ -75.04032, 40.072934 ], [ -75.040315, 40.072892 ], [ -75.040301, 40.072797 ], [ -75.040294, 40.072756 ], [ -75.04029, 40.072733 ], [ -75.040282, 40.072705 ], [ -75.040265, 40.072668 ], [ -75.040252, 40.07263 ] ] } },
{ "type": "Feature", "properties": { "cls": "separated", "highway": "cycleway", "name": "Pennypack Trail" }, "geometry": { "type": "LineString", "coordinates": [ [ -75.043702, 40.075097 ], [ -75.043235, 40.074942 ] ] } },
{ "type": "Feature", "properties": { "cls": "separated", "highway": "cycleway", "name": "Pennypack Trail" }, "geometry": { "type": "LineString", "coordinates": [ [ -75.043702, 40.075097 ], [ -75.043745, 40.075116 ], [ -75.04377, 40.075131 ], [ -75.0438, 40.075156 ], [ -75.043842, 40.075196 ], [ -75.043877, 40.075232 ], [ -75.043903, 40.075266 ], [ -75.043927, 40.075298 ], [ -75.043966, 40.075359 ], [ -75.044011, 40.07543 ], [ -75.044053, 40.075492 ], [ -75.044081, 40.075531 ], [ -75.044111, 40.075569 ], [ -75.044134, 40.075593 ], [ -75.044178, 40.075637 ], [ -75.044233, 40.075692 ], [ -75.044266, 40.075731 ], [ -75.044287, 40.075764 ], [ -75.044315, 40.075807 ], [ -75.044353, 40.075874 ], [ -75.044375, 40.075919 ], [ -75.044396, 40.075965 ], [ -75.044418, 40.076022 ], [ -75.044433, 40.076073 ], [ -75.044446, 40.076128 ], [ -75.044455, 40.076186 ], [ -75.044459, 40.076239 ], [ -75.044461, 40.076293 ], [ -75.044467, 40.076333 ], [ -75.044479, 40.07636 ], [ -75.044497, 40.07639 ], [ -75.044519, 40.076419 ], [ -75.044556, 40.076451 ], [ -75.044643, 40.076511 ], [ -75.044717, 40.076568 ], [ -75.044809, 40.076657 ], [ -75.044859, 40.07672 ] ] } },
{ "type": "Feature", "properties": { "cls": "painted", "highway": "primary", "name": "Bustleton Avenue" }, "geometry": { "type": "LineString", "coordinates": [ [ -75.044766, 40.076384 ], [ -75.044319, 40.076908 ] ] } },
{ "type": "Feature", "properties": { "cls": "separated", "highway": "cycleway", "name": "Pennypack Trail" }, "geometry": { "type": "LineString", "coordinates": [ [ -75.064066, 40.074618 ], [ -75.064049, 40.074591 ] ] } },
{ "type": "Feature", "properties": { "cls": "separated", "highway": "cycleway", "name": "Pennypack Trail" }, "geometry": { "type": "LineString", "coordinates": [ [ -75.064145, 40.074751 ], [ -75.064066, 40.074618 ] ] } },
{ "type": "Feature", "properties": { "cls": "separated", "highway": "cycleway", "name": "Pennypack Trail" }, "geometry": { "type": "LineString", "coordinates": [ [ -75.054429, 40.075731 ], [ -75.054471, 40.07574 ], [ -75.054541, 40.075759 ], [ -75.054631, 40.075786 ], [ -75.054668, 40.075802 ], [ -75.054696, 40.07582 ], [ -75.054727, 40.075851 ] ] } },
{ "type": "Feature", "properties": { "cls": "separated", "highway": "cycleway", "name": "Pennypack Trail" }, "geometry": { "type": "LineString", "coordinates": [ [ -75.055635, 40.076774 ], [ -75.055642, 40.076787 ], [ -75.055657, 40.076825 ], [ -75.055679, 40.076862 ], [ -75.055693, 40.076888 ], [ -75.055716, 40.076914 ], [ -75.055742, 40.076938 ], [ -75.055772, 40.076958 ], [ -75.055807, 40.076974 ], [ -75.055854, 40.076994 ], [ -75.055901, 40.077014 ], [ -75.055981, 40.077056 ], [ -75.056046, 40.077089 ], [ -75.056145, 40.07714 ], [ -75.056207, 40.077172 ], [ -75.056279, 40.077212 ], [ -75.056355, 40.077259 ], [ -75.056444, 40.077305 ], [ -75.056518, 40.077344 ], [ -75.056587, 40.077374 ], [ -75.056649, 40.077396 ], [ -75.056734, 40.077421 ], [ -75.056788, 40.077435 ], [ -75.056845, 40.077443 ], [ -75.05691, 40.077451 ], [ -75.056969, 40.077458 ], [ -75.057026, 40.077465 ], [ -75.057088, 40.077475 ], [ -75.057152, 40.077485 ], [ -75.057218, 40.077492 ], [ -75.057298, 40.077495 ], [ -75.057333, 40.077493 ], [ -75.05737, 40.077487 ], [ -75.057402, 40.077478 ], [ -75.057443, 40.077461 ], [ -75.057475, 40.077442 ], [ -75.057502, 40.077421 ], [ -75.057549, 40.077377 ], [ -75.057605, 40.077327 ], [ -75.057649, 40.077286 ], [ -75.057673, 40.077257 ], [ -75.057696, 40.077219 ], [ -75.057725, 40.077162 ], [ -75.057747, 40.077107 ], [ -75.057777, 40.077033 ], [ -75.057803, 40.076979 ], [ -75.057822, 40.076951 ], [ -75.057847, 40.076921 ], [ -75.057894, 40.076873 ], [ -75.057929, 40.076839 ], [ -75.057982, 40.076792 ], [ -75.058027, 40.076745 ], [ -75.058055, 40.07671 ], [ -75.058072, 40.076689 ], [ -75.058085, 40.076663 ], [ -75.058092, 40.076637 ], [ -75.058104, 40.076558 ], [ -75.058109, 40.076495 ], [ -75.058112, 40.076436 ], [ -75.058116, 40.07639 ], [ -75.058122, 40.076345 ], [ -75.058129, 40.076318 ], [ -75.058143, 40.07628 ], [ -75.058171, 40.076223 ], [ -75.058196, 40.076181 ], [ -75.058233, 40.07613 ], [ -75.058269, 40.076079 ], [ -75.058293, 40.07604 ], [ -75.058322, 40.075992 ], [ -75.058345, 40.075936 ], [ -75.058366, 40.075882 ], [ -75.058389, 40.075834 ], [ -75.058406, 40.075789 ], [ -75.058416, 40.075739 ], [ -75.058429, 40.075692 ], [ -75.058452, 40.075643 ], [ -75.058485, 40.075584 ], [ -75.058515, 40.07553 ], [ -75.058541, 40.075472 ], [ -75.05857, 40.075423 ], [ -75.058597, 40.075393 ], [ -75.058634, 40.075361 ], [ -75.058689, 40.075331 ], [ -75.05879, 40.075286 ], [ -75.058868, 40.075257 ], [ -75.058938, 40.075228 ], [ -75.058999, 40.075199 ], [ -75.059058, 40.075164 ], [ -75.059126, 40.075122 ], [ -75.059179, 40.075095 ], [ -75.059208, 40.075085 ], [ -75.059244, 40.075078 ], [ -75.059323, 40.075072 ], [ -75.059399, 40.075062 ], [ -75.059465, 40.075047 ], [ -75.059537, 40.075029 ], [ -75.059596, 40.075011 ], [ -75.059657, 40.074991 ], [ -75.059774, 40.074956 ], [ -75.059859, 40.074934 ], [ -75.059903, 40.074925 ], [ -75.05997, 40.074914 ], [ -75.060045, 40.074903 ], [ -75.060126, 40.074884 ], [ -75.060237, 40.074858 ], [ -75.06034, 40.074838 ], [ -75.060434, 40.074822 ], [ -75.06048, 40.074816 ], [ -75.060536, 40.074813 ], [ -75.060617, 40.074815 ], [ -75.06072, 40.074817 ], [ -75.060797, 40.074815 ], [ -75.060877, 40.07481 ], [ -75.060964, 40.074802 ], [ -75.061054, 40.074798 ], [ -75.061145, 40.074796 ], [ -75.061307, 40.074793 ], [ -75.061494, 40.07479 ], [ -75.061566, 40.074787 ], [ -75.061644, 40.074782 ], [ -75.061732, 40.074773 ], [ -75.061804, 40.074762 ], [ -75.061856, 40.074753 ], [ -75.062029, 40.074714 ], [ -75.062243, 40.074667 ], [ -75.062373, 40.074637 ], [ -75.062422, 40.074624 ], [ -75.062466, 40.07461 ], [ -75.062507, 40.074593 ], [ -75.062585, 40.074555 ], [ -75.062715, 40.074493 ], [ -75.062831, 40.074446 ], [ -75.062929, 40.074413 ], [ -75.063007, 40.074388 ], [ -75.063115, 40.074356 ], [ -75.063221, 40.07433 ], [ -75.063292, 40.074317 ], [ -75.063374, 40.074308 ], [ -75.063434, 40.074306 ], [ -75.063485, 40.07431 ], [ -75.063541, 40.074323 ], [ -75.063605, 40.074343 ], [ -75.063669, 40.074367 ], [ -75.063745, 40.0744 ], [ -75.063881, 40.07447 ], [ -75.063947, 40.074506 ], [ -75.063984, 40.07453 ], [ -75.06403, 40.074568 ], [ -75.064049, 40.074591 ] ] } },
{ "type": "Feature", "properties": { "cls": "separated", "highway": "cycleway", "name": "Pennypack Trail" }, "geometry": { "type": "LineString", "coordinates": [ [ -75.054727, 40.075851 ], [ -75.054788, 40.07591 ], [ -75.05484, 40.075959 ], [ -75.054889, 40.075998 ], [ -75.054933, 40.076032 ], [ -75.055002, 40.076086 ], [ -75.055066, 40.07613 ], [ -75.055149, 40.076183 ], [ -75.055209, 40.076221 ], [ -75.055239, 40.076244 ], [ -75.055253, 40.07626 ], [ -75.055262, 40.076276 ], [ -75.055276, 40.076307 ], [ -75.055318, 40.076405 ], [ -75.055335, 40.076452 ], [ -75.05535, 40.076494 ], [ -75.055362, 40.07652 ], [ -75.055378, 40.076546 ], [ -75.055406, 40.076576 ], [ -75.055434, 40.076598 ], [ -75.055473, 40.076631 ], [ -75.055582, 40.07671 ], [ -75.055605, 40.076733 ], [ -75.055623, 40.076756 ], [ -75.055635, 40.076774 ] ] } },
{ "type": "Feature", "properties": { "cls": "separated", "highway": "cycleway", "name": "Pennypack Trail" }, "geometry": { "type": "LineString", "coordinates": [ [ -75.063761, 40.076152 ], [ -75.063724, 40.076189 ], [ -75.063654, 40.07626 ], [ -75.063601, 40.076314 ], [ -75.063547, 40.076363 ], [ -75.063482, 40.076421 ], [ -75.063397, 40.076498 ], [ -75.063308, 40.076588 ], [ -75.063249, 40.076648 ], [ -75.063192, 40.07671 ], [ -75.063108, 40.076801 ], [ -75.063028, 40.076892 ], [ -75.06299, 40.076951 ], [ -75.062964, 40.076987 ], [ -75.062925, 40.077035 ], [ -75.062886, 40.077076 ], [ -75.062847, 40.077113 ], [ -75.062809, 40.077148 ], [ -75.062764, 40.07718 ], [ -75.062727, 40.077202 ], [ -75.06268, 40.077225 ], [ -75.062616, 40.077252 ], [ -75.06255, 40.077281 ], [ -75.062465, 40.077317 ], [ -75.062377, 40.077357 ], [ -75.062306, 40.077392 ], [ -75.062231, 40.077426 ], [ -75.062175, 40.077452 ], [ -75.062128, 40.077474 ], [ -75.06209, 40.077494 ], [ -75.062046, 40.07752 ], [ -75.061999, 40.077554 ], [ -75.061956, 40.077594 ], [ -75.061937, 40.077612 ], [ -75.061923, 40.077635 ], [ -75.061912, 40.077663 ], [ -75.061902, 40.077699 ], [ -75.061898, 40.077734 ], [ -75.061899, 40.077774 ], [ -75.061905, 40.077827 ], [ -75.061923, 40.077907 ], [ -75.061943, 40.077974 ], [ -75.061965, 40.07803 ], [ -75.062017, 40.078145 ], [ -75.062042, 40.078205 ], [ -75.062067, 40.078259 ], [ -75.062088, 40.078296 ], [ -75.062112, 40.078328 ], [ -75.06214, 40.078361 ], [ -75.062168, 40.078389 ], [ -75.062193, 40.078409 ], [ -75.06224, 40.07844 ], [ -75.062339, 40.078499 ], [ -75.062388, 40.078534 ], [ -75.062416, 40.078556 ], [ -75.06244, 40.078577 ], [ -75.062454, 40.078596 ], [ -75.062469, 40.078624 ], [ -75.06248, 40.078655 ], [ -75.062491, 40.078687 ], [ -75.062499, 40.078716 ], [ -75.062502, 40.078745 ], [ -75.0625, 40.078778 ], [ -75.062493, 40.078809 ], [ -75.062484, 40.078831 ], [ -75.062466, 40.078858 ], [ -75.06244, 40.078891 ], [ -75.062403, 40.078932 ], [ -75.06237, 40.078969 ], [ -75.062321, 40.079017 ], [ -75.062288, 40.079055 ], [ -75.062267, 40.079088 ], [ -75.062242, 40.079141 ], [ -75.062216, 40.079192 ], [ -75.062185, 40.079251 ], [ -75.062158, 40.07929 ], [ -75.062118, 40.079342 ], [ -75.062052, 40.079422 ], [ -75.061986, 40.079501 ], [ -75.061961, 40.079527 ], [ -75.061913, 40.07957 ], [ -75.061871, 40.079603 ], [ -75.061832, 40.079629 ], [ -75.061781, 40.07966 ], [ -75.06174, 40.07968 ], [ -75.061702, 40.079697 ], [ -75.061655, 40.079712 ], [ -75.061596, 40.079726 ], [ -75.061501, 40.079743 ], [ -75.061413, 40.079761 ], [ -75.061354, 40.079775 ], [ -75.061269, 40.079797 ], [ -75.061187, 40.079823 ], [ -75.061072, 40.079862 ], [ -75.060982, 40.079897 ], [ -75.060937, 40.079917 ], [ -75.060869, 40.079957 ], [ -75.060765, 40.080025 ], [ -75.060635, 40.080111 ], [ -75.060533, 40.080173 ], [ -75.060469, 40.080217 ], [ -75.060429, 40.080242 ], [ -75.060399, 40.080257 ], [ -75.060346, 40.080284 ], [ -75.060265, 40.080317 ], [ -75.060147, 40.080362 ], [ -75.060025, 40.080411 ], [ -75.059937, 40.080449 ], [ -75.059855, 40.080492 ], [ -75.059804, 40.080521 ], [ -75.059766, 40.08055 ], [ -75.059729, 40.08059 ], [ -75.059673, 40.080653 ], [ -75.059624, 40.080707 ], [ -75.059574, 40.080746 ], [ -75.05952, 40.080777 ], [ -75.05944, 40.080826 ], [ -75.059404, 40.080852 ], [ -75.059365, 40.080886 ], [ -75.059342, 40.080918 ], [ -75.059329, 40.080955 ], [ -75.059286, 40.081177 ], [ -75.059273, 40.081247 ], [ -75.05925, 40.081302 ], [ -75.059208, 40.081334 ], [ -75.05902, 40.081389 ], [ -75.058868, 40.081464 ], [ -75.05875, 40.081545 ], [ -75.058676, 40.081598 ], [ -75.058491, 40.081731 ], [ -75.058387, 40.081771 ], [ -75.058157, 40.081847 ], [ -75.057971, 40.081912 ], [ -75.057908, 40.081941 ], [ -75.057844, 40.08199 ], [ -75.057651, 40.08217 ], [ -75.057613, 40.08222 ], [ -75.057591, 40.082269 ], [ -75.057587, 40.082298 ], [ -75.057592, 40.082329 ], [ -75.057614, 40.082373 ], [ -75.057641, 40.082413 ], [ -75.057747, 40.082528 ], [ -75.057814, 40.082607 ], [ -75.05787, 40.082658 ], [ -75.05792, 40.082701 ], [ -75.057962, 40.082728 ], [ -75.058015, 40.082749 ], [ -75.058088, 40.082771 ], [ -75.05814, 40.082789 ], [ -75.058175, 40.082814 ], [ -75.058217, 40.08284 ], [ -75.058262, 40.082865 ], [ -75.058296, 40.082877 ], [ -75.058371, 40.08289 ], [ -75.058441, 40.082894 ], [ -75.058506, 40.082898 ], [ -75.058644, 40.082885 ], [ -75.058771, 40.082869 ], [ -75.058831, 40.082865 ], [ -75.05894, 40.082858 ], [ -75.059017, 40.082848 ], [ -75.059077, 40.082838 ], [ -75.059195, 40.082833 ], [ -75.059294, 40.082837 ], [ -75.059374, 40.082855 ], [ -75.059456, 40.082895 ], [ -75.059571, 40.082979 ], [ -75.059657, 40.083084 ], [ -75.059701, 40.083147 ], [ -75.059729, 40.083209 ], [ -75.059744, 40.08327 ], [ -75.059744, 40.083321 ], [ -75.059741, 40.08338 ], [ -75.05973, 40.083438 ], [ -75.059692, 40.083531 ], [ -75.05964, 40.083664 ], [ -75.059589, 40.08381 ], [ -75.059575, 40.083866 ], [ -75.059574, 40.083914 ], [ -75.059569, 40.084049 ], [ -75.059592, 40.084316 ], [ -75.059605, 40.084393 ], [ -75.059623, 40.084452 ], [ -75.059647, 40.084503 ], [ -75.059678, 40.084586 ], [ -75.059688, 40.084628 ], [ -75.059698, 40.084689 ], [ -75.059699, 40.084768 ], [ -75.059712, 40.084906 ], [ -75.05973, 40.085016 ], [ -75.059742, 40.085045 ], [ -75.059765, 40.085084 ], [ -75.059821, 40.085172 ], [ -75.059937, 40.085332 ], [ -75.060013, 40.085438 ], [ -75.060081, 40.085537 ], [ -75.060121, 40.085591 ], [ -75.06014, 40.085613 ] ] } },
{ "type": "Feature", "properties": { "cls": "shared", "highway": "cycleway", "name": "Pennypack Park Trail" }, "geometry": { "type": "LineString", "coordinates": [ [ -75.045045, 40.076645 ], [ -75.045075, 40.07662 ], [ -75.045151, 40.076566 ], [ -75.04521, 40.076493 ], [ -75.045296, 40.076339 ], [ -75.045405, 40.076155 ], [ -75.045496, 40.076 ], [ -75.045563, 40.075889 ], [ -75.045677, 40.075705 ], [ -75.045772, 40.075586 ], [ -75.04585, 40.075494 ], [ -75.045931, 40.075444 ], [ -75.045976, 40.075428 ], [ -75.046066, 40.075443 ], [ -75.046133, 40.075479 ], [ -75.046276, 40.075578 ], [ -75.046374, 40.075663 ], [ -75.046423, 40.075721 ], [ -75.046471, 40.075778 ], [ -75.046542, 40.075849 ], [ -75.046639, 40.075841 ] ] } },
{ "type": "Feature", "properties": { "cls": "separated", "highway": "cycleway", "name": "Pennypack Trail" }, "geometry": { "type": "LineString", "coordinates": [ [ -75.044859, 40.07672 ], [ -75.044909, 40.076801 ], [ -75.044972, 40.076891 ], [ -75.045028, 40.076972 ], [ -75.045076, 40.077038 ], [ -75.045128, 40.07712 ], [ -75.045165, 40.077186 ], [ -75.045222, 40.077288 ], [ -75.04526, 40.077359 ], [ -75.045301, 40.077434 ], [ -75.045332, 40.077483 ], [ -75.045371, 40.077529 ], [ -75.045408, 40.077564 ], [ -75.045461, 40.077609 ], [ -75.045539, 40.077667 ], [ -75.045602, 40.077708 ], [ -75.045643, 40.077736 ], [ -75.045722, 40.077786 ], [ -75.045819, 40.077845 ], [ -75.045905, 40.077895 ], [ -75.045972, 40.077933 ], [ -75.04605, 40.077973 ], [ -75.046114, 40.078 ], [ -75.046175, 40.078023 ], [ -75.046257, 40.078046 ], [ -75.046347, 40.078068 ], [ -75.046501, 40.078103 ], [ -75.046665, 40.078147 ], [ -75.046753, 40.078169 ], [ -75.046842, 40.078191 ], [ -75.046959, 40.078216 ], [ -75.04705, 40.078232 ], [ -75.047224, 40.078259 ], [ -75.047378, 40.078288 ], [ -75.047476, 40.078305 ], [ -75.047557, 40.078316 ], [ -75.047642, 40.078325 ], [ -75.047718, 40.078328 ], [ -75.04779, 40.078329 ], [ -75.047868, 40.078328 ], [ -75.048024, 40.078325 ], [ -75.04813, 40.078321 ], [ -75.048228, 40.078322 ], [ -75.048351, 40.078324 ], [ -75.048442, 40.078329 ], [ -75.048521, 40.078334 ], [ -75.048615, 40.078347 ], [ -75.048706, 40.078363 ], [ -75.048779, 40.078373 ], [ -75.048842, 40.078379 ], [ -75.048923, 40.078382 ], [ -75.048995, 40.078384 ], [ -75.049191, 40.078383 ], [ -75.049308, 40.078384 ], [ -75.049419, 40.078387 ], [ -75.049486, 40.078392 ], [ -75.049548, 40.078399 ], [ -75.049642, 40.078413 ], [ -75.049716, 40.078421 ], [ -75.049809, 40.078429 ], [ -75.049879, 40.078432 ], [ -75.049975, 40.078432 ], [ -75.050107, 40.078429 ], [ -75.05021, 40.078426 ], [ -75.050292, 40.078421 ], [ -75.050357, 40.078411 ], [ -75.050418, 40.078399 ], [ -75.050494, 40.078378 ], [ -75.050604, 40.078345 ], [ -75.05069, 40.078318 ], [ -75.050764, 40.078291 ], [ -75.050858, 40.078249 ], [ -75.050971, 40.078196 ], [ -75.051075, 40.078146 ], [ -75.05114, 40.07811 ], [ -75.051212, 40.078068 ], [ -75.051299, 40.078009 ], [ -75.051379, 40.077952 ], [ -75.051438, 40.077905 ], [ -75.051472, 40.077876 ], [ -75.051506, 40.077838 ], [ -75.051546, 40.077789 ], [ -75.051592, 40.077724 ], [ -75.05164, 40.077666 ], [ -75.051697, 40.077612 ], [ -75.051776, 40.077545 ], [ -75.051828, 40.077506 ], [ -75.05187, 40.077481 ], [ -75.051906, 40.077461 ], [ -75.051958, 40.077436 ], [ -75.052004, 40.077417 ], [ -75.052049, 40.077403 ], [ -75.052095, 40.077391 ], [ -75.052142, 40.077384 ], [ -75.052192, 40.077379 ], [ -75.052236, 40.077378 ], [ -75.052302, 40.077381 ], [ -75.05243, 40.077388 ], [ -75.052492, 40.077392 ], [ -75.052527, 40.07739 ], [ -75.052557, 40.077385 ], [ -75.052594, 40.077376 ], [ -75.052658, 40.077358 ], [ -75.052696, 40.077347 ], [ -75.052738, 40.077338 ], [ -75.052777, 40.077331 ], [ -75.052816, 40.077326 ], [ -75.052947, 40.077308 ], [ -75.053036, 40.077295 ], [ -75.053108, 40.077284 ], [ -75.053181, 40.077268 ], [ -75.053227, 40.077254 ], [ -75.053268, 40.077238 ], [ -75.053318, 40.077211 ], [ -75.053371, 40.07718 ], [ -75.053413, 40.077153 ], [ -75.053451, 40.077124 ], [ -75.053494, 40.077086 ], [ -75.053526, 40.077053 ], [ -75.053557, 40.077014 ], [ -75.053583, 40.076976 ], [ -75.053621, 40.076916 ], [ -75.053645, 40.076872 ], [ -75.053665, 40.076823 ], [ -75.053677, 40.076786 ], [ -75.053689, 40.076733 ], [ -75.05371, 40.076606 ], [ -75.053722, 40.076539 ], [ -75.05373, 40.076478 ], [ -75.053734, 40.076429 ], [ -75.053735, 40.076377 ], [ -75.053734, 40.07633 ], [ -75.053729, 40.076285 ], [ -75.053718, 40.076203 ], [ -75.05371, 40.076146 ], [ -75.053709, 40.07611 ], [ -75.053712, 40.076079 ], [ -75.05372, 40.076055 ], [ -75.053734, 40.076033 ], [ -75.053759, 40.076004 ], [ -75.053805, 40.075962 ], [ -75.053839, 40.075932 ], [ -75.053867, 40.075914 ], [ -75.053895, 40.075899 ], [ -75.053945, 40.075882 ], [ -75.053994, 40.075865 ], [ -75.054053, 40.075839 ], [ -75.054123, 40.075803 ], [ -75.05417, 40.075776 ], [ -75.05421, 40.075758 ], [ -75.054243, 40.075747 ], [ -75.054275, 40.075741 ], [ -75.054333, 40.075736 ], [ -75.054399, 40.075731 ], [ -75.054429, 40.075731 ] ] } },
{ "type": "Feature", "properties": { "cls": "separated", "highway": "cycleway", "name": "Pennypack Trail" }, "geometry": { "type": "LineString", "coordinates": [ [ -75.064145, 40.074751 ], [ -75.064162, 40.074807 ], [ -75.064176, 40.074853 ], [ -75.064188, 40.07491 ], [ -75.064205, 40.074982 ], [ -75.064219, 40.075025 ], [ -75.064234, 40.075063 ], [ -75.064252, 40.0751 ], [ -75.064263, 40.075132 ], [ -75.064267, 40.075163 ], [ -75.064266, 40.075198 ], [ -75.064259, 40.075234 ], [ -75.064245, 40.075288 ], [ -75.064226, 40.075348 ], [ -75.06421, 40.075403 ], [ -75.064204, 40.075433 ], [ -75.064203, 40.075464 ], [ -75.064208, 40.075503 ], [ -75.064212, 40.075533 ], [ -75.064211, 40.075562 ], [ -75.064202, 40.075589 ], [ -75.064189, 40.075613 ], [ -75.064169, 40.075643 ], [ -75.064135, 40.075687 ], [ -75.064053, 40.075781 ], [ -75.06401, 40.075833 ], [ -75.06397, 40.075886 ], [ -75.06393, 40.075944 ], [ -75.063894, 40.076001 ], [ -75.063871, 40.076031 ], [ -75.063847, 40.076058 ] ] } },
{ "type": "Feature", "properties": { "cls": "separated", "highway": "cycleway", "name": "Pennypack Trail" }, "geometry": { "type": "LineString", "coordinates": [ [ -75.063847, 40.076058 ], [ -75.063761, 40.076152 ] ] } },
{ "type": "Feature", "properties": { "cls": "painted", "highway": "secondary", "name": "Verree Road" }, "geometry": { "type": "LineString", "coordinates": [ [ -75.060299, 40.085843 ], [ -75.06021, 40.085904 ] ] } },
{ "type": "Feature", "properties": { "cls": "separated", "highway": "cycleway", "name": "Pennypack Trail" }, "geometry": { "type": "LineString", "coordinates": [ [ -75.066815, 40.085877 ], [ -75.06676, 40.085855 ], [ -75.066567, 40.085767 ], [ -75.066418, 40.085722 ], [ -75.066291, 40.085701 ], [ -75.066151, 40.085672 ], [ -75.065997, 40.085663 ], [ -75.06588, 40.085653 ], [ -75.065803, 40.085643 ], [ -75.065608, 40.085659 ], [ -75.064852, 40.085605 ], [ -75.064638, 40.085593 ], [ -75.064493, 40.085602 ], [ -75.064177, 40.085657 ], [ -75.064047, 40.085708 ], [ -75.063879, 40.085805 ], [ -75.063726, 40.085927 ], [ -75.063663, 40.085988 ], [ -75.063559, 40.086099 ] ] } },
{ "type": "Feature", "properties": { "cls": "separated", "highway": "cycleway", "name": "Pennypack Trail" }, "geometry": { "type": "LineString", "coordinates": [ [ -75.06879, 40.087069 ], [ -75.068774, 40.08702 ], [ -75.068752, 40.086956 ], [ -75.068738, 40.086919 ], [ -75.068719, 40.086878 ], [ -75.068672, 40.086804 ], [ -75.068625, 40.086726 ], [ -75.0686, 40.086681 ], [ -75.068573, 40.086641 ], [ -75.068553, 40.086617 ], [ -75.068529, 40.086589 ], [ -75.068496, 40.086572 ], [ -75.068448, 40.086554 ], [ -75.068348, 40.086519 ], [ -75.068222, 40.086475 ], [ -75.068126, 40.086438 ], [ -75.068036, 40.086405 ], [ -75.067937, 40.086368 ], [ -75.06784, 40.086335 ], [ -75.067752, 40.086306 ], [ -75.067689, 40.086285 ], [ -75.067606, 40.086256 ], [ -75.067532, 40.086226 ], [ -75.067456, 40.086194 ], [ -75.06739, 40.086162 ], [ -75.067322, 40.086132 ], [ -75.067279, 40.086115 ], [ -75.067229, 40.08609 ], [ -75.067139, 40.086047 ], [ -75.067096, 40.08602 ], [ -75.067058, 40.085998 ], [ -75.066979, 40.085947 ], [ -75.066931, 40.085921 ], [ -75.066882, 40.085901 ], [ -75.066815, 40.085877 ] ] } },
{ "type": "Feature", "properties": { "cls": "separated", "highway": "cycleway", "name": "Pennypack Trail" }, "geometry": { "type": "LineString", "coordinates": [ [ -75.063559, 40.086099 ], [ -75.063542, 40.086117 ], [ -75.063428, 40.086281 ], [ -75.06333, 40.086415 ], [ -75.063252, 40.086507 ], [ -75.06317, 40.086609 ], [ -75.063102, 40.086692 ], [ -75.062999, 40.086797 ], [ -75.062912, 40.086899 ], [ -75.062872, 40.086948 ], [ -75.062818, 40.08704 ], [ -75.062741, 40.087182 ], [ -75.062713, 40.087226 ], [ -75.062683, 40.087255 ], [ -75.062646, 40.087278 ], [ -75.062604, 40.087294 ], [ -75.062472, 40.087317 ], [ -75.06233, 40.087332 ], [ -75.06225, 40.087341 ], [ -75.062196, 40.087355 ], [ -75.06214, 40.087372 ], [ -75.062042, 40.087413 ], [ -75.06196, 40.08744 ], [ -75.061898, 40.087452 ], [ -75.061848, 40.087455 ], [ -75.061806, 40.087452 ], [ -75.061765, 40.087443 ], [ -75.061709, 40.087425 ], [ -75.061647, 40.087398 ], [ -75.061589, 40.087362 ], [ -75.061542, 40.087321 ], [ -75.061512, 40.087292 ], [ -75.061499, 40.087271 ], [ -75.061492, 40.087234 ], [ -75.061495, 40.087208 ], [ -75.061529, 40.086932 ], [ -75.061541, 40.086828 ], [ -75.06155, 40.086687 ], [ -75.061542, 40.086622 ], [ -75.061527, 40.086578 ], [ -75.061473, 40.086496 ], [ -75.06141, 40.086433 ], [ -75.061317, 40.086348 ] ] } },
{ "type": "Feature", "properties": { "cls": "separated", "highway": "cycleway", "name": "Pennypack Trail" }, "geometry": { "type": "LineString", "coordinates": [ [ -75.06879, 40.087069 ], [ -75.068833, 40.087236 ] ] } },
{ "type": "Feature", "properties": { "cls": "shared", "highway": "cycleway", "name": null }, "geometry": { "type": "MultiLineString", "coordinates": [ [ [ -75.071811, 40.086425 ], [ -75.071958, 40.086451 ], [ -75.072123, 40.086473 ], [ -75.072324, 40.086505 ], [ -75.072399, 40.08651 ] ], [ [ -75.073134, 40.086623 ], [ -75.073151, 40.08667 ], [ -75.073182, 40.086712 ], [ -75.073295, 40.086776 ], [ -75.073415, 40.086889 ], [ -75.07347, 40.086935 ], [ -75.073519, 40.086972 ], [ -75.07356, 40.087094 ], [ -75.073574, 40.087167 ], [ -75.073555, 40.0872 ], [ -75.073521, 40.087238 ], [ -75.073508, 40.087266 ], [ -75.073464, 40.087326 ], [ -75.073447, 40.087364 ], [ -75.07344, 40.087399 ], [ -75.073433, 40.087438 ], [ -75.073333, 40.087472 ], [ -75.073237, 40.087483 ], [ -75.073237, 40.087513 ], [ -75.073223, 40.087547 ], [ -75.07315, 40.087634 ], [ -75.072901, 40.087716 ], [ -75.072802, 40.087751 ], [ -75.072678, 40.0878 ], [ -75.072636, 40.087836 ], [ -75.072613, 40.087885 ], [ -75.072636, 40.087962 ], [ -75.072595, 40.08804 ], [ -75.072539, 40.088103 ], [ -75.072391, 40.08819 ], [ -75.072268, 40.088247 ], [ -75.07216, 40.088304 ], [ -75.072005, 40.088347 ], [ -75.071835, 40.08839 ], [ -75.071726, 40.088437 ], [ -75.071588, 40.088476 ], [ -75.071499, 40.088515 ], [ -75.071385, 40.088565 ], [ -75.071342, 40.088582 ], [ -75.071312, 40.088602 ], [ -75.071285, 40.088626 ], [ -75.071269, 40.088647 ], [ -75.071248, 40.088659 ], [ -75.071238, 40.08868 ], [ -75.071224, 40.088694 ], [ -75.07121, 40.088707 ], [ -75.071183, 40.088717 ], [ -75.071147, 40.088728 ], [ -75.07114, 40.088745 ], [ -75.071143, 40.088777 ], [ -75.071144, 40.088811 ], [ -75.0711, 40.088867 ], [ -75.071036, 40.088927 ], [ -75.070984, 40.088965 ], [ -75.070916, 40.089002 ], [ -75.070842, 40.089053 ], [ -75.070792, 40.089089 ], [ -75.070751, 40.089122 ], [ -75.070718, 40.089137 ], [ -75.070668, 40.089151 ], [ -75.07061, 40.089155 ], [ -75.070519, 40.089159 ], [ -75.070346, 40.089195 ], [ -75.070266, 40.089205 ], [ -75.070196, 40.089214 ], [ -75.07015, 40.089229 ], [ -75.070121, 40.08924 ], [ -75.070081, 40.089265 ], [ -75.07004, 40.089286 ], [ -75.069997, 40.089301 ], [ -75.06994, 40.089327 ], [ -75.069913, 40.089345 ], [ -75.069884, 40.089364 ], [ -75.069855, 40.089377 ], [ -75.069822, 40.089385 ], [ -75.06978, 40.08939 ], [ -75.069735, 40.089402 ], [ -75.069682, 40.089426 ], [ -75.069642, 40.089447 ], [ -75.069608, 40.08946 ], [ -75.069574, 40.089468 ], [ -75.069542, 40.08947 ], [ -75.069515, 40.089467 ], [ -75.069466, 40.089458 ], [ -75.069432, 40.089453 ], [ -75.069408, 40.089443 ], [ -75.069389, 40.08943 ], [ -75.069369, 40.089414 ], [ -75.06935, 40.089382 ], [ -75.069333, 40.08935 ], [ -75.069316, 40.089328 ], [ -75.069289, 40.089306 ], [ -75.069261, 40.089285 ], [ -75.06924, 40.089267 ], [ -75.069223, 40.089249 ], [ -75.069211, 40.089226 ], [ -75.069195, 40.089193 ], [ -75.069186, 40.089173 ], [ -75.069166, 40.089145 ], [ -75.06914, 40.089122 ], [ -75.069124, 40.089102 ], [ -75.069109, 40.089087 ], [ -75.069083, 40.089078 ], [ -75.069052, 40.089069 ], [ -75.069028, 40.08907 ], [ -75.069008, 40.089083 ], [ -75.068994, 40.089102 ], [ -75.068979, 40.089127 ], [ -75.068958, 40.089147 ], [ -75.068926, 40.089168 ] ] ] } },
{ "type": "Feature", "properties": { "cls": "separated", "highway": "cycleway", "name": "Pennypack Trail" }, "geometry": { "type": "LineString", "coordinates": [ [ -75.069781, 40.089733 ], [ -75.069714, 40.089709 ], [ -75.069677, 40.089691 ], [ -75.069635, 40.089667 ], [ -75.06958, 40.089645 ], [ -75.06951, 40.08962 ], [ -75.069443, 40.089597 ], [ -75.069388, 40.089573 ], [ -75.069327, 40.089542 ], [ -75.069288, 40.089517 ], [ -75.069241, 40.089481 ], [ -75.069187, 40.089432 ], [ -75.069125, 40.089373 ], [ -75.069076, 40.089326 ], [ -75.069026, 40.089276 ], [ -75.068996, 40.089249 ], [ -75.068962, 40.089214 ], [ -75.068926, 40.089168 ], [ -75.068895, 40.089126 ], [ -75.068866, 40.089077 ], [ -75.068837, 40.089038 ], [ -75.068825, 40.08901 ], [ -75.06882, 40.088985 ], [ -75.068809, 40.088933 ], [ -75.06881, 40.088894 ], [ -75.068809, 40.088856 ], [ -75.068801, 40.088819 ], [ -75.068782, 40.088772 ], [ -75.068757, 40.088709 ], [ -75.068716, 40.08862 ], [ -75.068692, 40.088562 ], [ -75.068669, 40.08851 ], [ -75.06866, 40.08847 ], [ -75.068658, 40.088437 ], [ -75.068663, 40.088391 ], [ -75.068673, 40.088325 ], [ -75.068685, 40.088232 ], [ -75.068688, 40.088177 ], [ -75.068689, 40.088112 ], [ -75.068685, 40.088067 ], [ -75.068675, 40.088007 ], [ -75.06867, 40.087963 ], [ -75.068665, 40.087907 ], [ -75.068662, 40.087842 ], [ -75.068663, 40.087794 ], [ -75.068674, 40.087751 ], [ -75.068688, 40.087715 ], [ -75.068708, 40.087685 ], [ -75.068743, 40.087637 ], [ -75.068772, 40.087607 ], [ -75.068806, 40.087562 ], [ -75.068821, 40.087536 ], [ -75.068834, 40.087507 ], [ -75.068843, 40.087469 ], [ -75.068848, 40.087431 ], [ -75.068851, 40.087394 ], [ -75.068853, 40.087357 ], [ -75.068851, 40.087326 ], [ -75.068842, 40.087279 ], [ -75.068833, 40.087236 ] ] } },
{ "type": "Feature", "properties": { "cls": "separated", "highway": "cycleway", "name": "Pennypack Trail" }, "geometry": { "type": "LineString", "coordinates": [ [ -75.069911, 40.089768 ], [ -75.069831, 40.089744 ], [ -75.069781, 40.089733 ] ] } },
{ "type": "Feature", "properties": { "cls": "shared", "highway": "cycleway", "name": "Pennypack Creek Trail" }, "geometry": { "type": "LineString", "coordinates": [ [ -75.069964, 40.089759 ], [ -75.069947, 40.089745 ], [ -75.069911, 40.089768 ] ] } },
{ "type": "Feature", "properties": { "cls": "shared", "highway": "cycleway", "name": null }, "geometry": { "type": "LineString", "coordinates": [ [ -75.06997, 40.089762 ], [ -75.069964, 40.089759 ] ] } },
{ "type": "Feature", "properties": { "cls": "separated", "highway": "cycleway", "name": null }, "geometry": { "type": "LineString", "coordinates": [ [ -75.061307, 40.086339 ], [ -75.061388, 40.086292 ], [ -75.061468, 40.086234 ], [ -75.061589, 40.086128 ], [ -75.061667, 40.086023 ], [ -75.061692, 40.085927 ], [ -75.06171, 40.085792 ], [ -75.061727, 40.085693 ], [ -75.061757, 40.085597 ], [ -75.06183, 40.085493 ], [ -75.061849, 40.085443 ], [ -75.061837, 40.085365 ], [ -75.061805, 40.085319 ] ] } },
{ "type": "Feature", "properties": { "cls": "separated", "highway": "cycleway", "name": "Pennypack Trail" }, "geometry": { "type": "LineString", "coordinates": [ [ -75.060987, 40.086072 ], [ -75.06079, 40.086108 ], [ -75.06069, 40.086114 ], [ -75.060521, 40.08612 ], [ -75.060423, 40.086121 ], [ -75.060339, 40.086115 ], [ -75.06028, 40.086095 ], [ -75.060223, 40.086065 ], [ -75.060196, 40.086033 ], [ -75.060108, 40.085871 ], [ -75.060098, 40.085842 ], [ -75.060098, 40.085805 ], [ -75.06012, 40.085745 ], [ -75.060135, 40.085703 ], [ -75.060147, 40.085667 ], [ -75.060146, 40.085639 ], [ -75.06014, 40.085613 ] ] } },
{ "type": "Feature", "properties": { "cls": "painted", "highway": "secondary", "name": "Verree Road" }, "geometry": { "type": "LineString", "coordinates": [ [ -75.06021, 40.085904 ], [ -75.059817, 40.086175 ] ] } },
{ "type": "Feature", "properties": { "cls": "separated", "highway": "cycleway", "name": "Pennypack Trail" }, "geometry": { "type": "LineString", "coordinates": [ [ -75.061307, 40.086339 ], [ -75.061148, 40.086205 ], [ -75.060987, 40.086072 ] ] } },
{ "type": "Feature", "properties": { "cls": "separated", "highway": "cycleway", "name": "Pennypack Trail" }, "geometry": { "type": "LineString", "coordinates": [ [ -75.061317, 40.086348 ], [ -75.061307, 40.086339 ] ] } },
{ "type": "Feature", "properties": { "cls": "painted", "highway": "secondary", "name": "Verree Road" }, "geometry": { "type": "LineString", "coordinates": [ [ -75.059817, 40.086175 ], [ -75.059767, 40.086208 ] ] } },
{ "type": "Feature", "properties": { "cls": "shared", "highway": "cycleway", "name": "Pennypack Park Trail" }, "geometry": { "type": "LineString", "coordinates": [ [ -75.044859, 40.07672 ], [ -75.044926, 40.076695 ], [ -75.044991, 40.07667 ], [ -75.045045, 40.076645 ] ] } },
{ "type": "Feature", "properties": { "cls": "painted", "highway": "primary", "name": "Bustleton Avenue" }, "geometry": { "type": "LineString", "coordinates": [ [ -75.044402, 40.076977 ], [ -75.044842, 40.076449 ] ] } }
]
}
