{
"type": "FeatureCollection",
"name": "130-madrid-manzanares-park",
"crs": { "type": "name", "properties": { "name": "urn:ogc:def:crs:OGC:1.3:CRS84" } },
"xy_coordinate_resolution": 1e-06,
"features": [
{ "type": "Feature", "properties": { "cls": "shared", "highway": "cycleway", "name": null }, "geometry": { "type": "LineString", "coordinates": [ [ -3.663021, 40.341398 ], [ -3.66302, 40.341396 ] ] } },
{ "type": "Feature", "properties": { "cls": "shared", "highway": "cycleway", "name": null }, "geometry": { "type": "LineString", "coordinates": [ [ -3.663829, 40.341302 ], [ -3.663617, 40.341343 ], [ -3.663569, 40.341379 ], [ -3.66352, 40.341393 ] ] } },
{ "type": "Feature", "properties": { "cls": "shared", "highway": "cycleway", "name": null }, "geometry": { "type": "LineString", "coordinates": [ [ -3.66352, 40.341393 ], [ -3.663136, 40.341392 ] ] } },
{ "type": "Feature", "properties": { "cls": "shared", "highway": "cycleway", "name": null }, "geometry": { "type": "LineString", "coordinates": [ [ -3.663021, 40.341398 ], [ -3.663115, 40.341392 ], [ -3.663136, 40.341392 ] ] } },
{ "type": "Feature", "properties": { "cls": "shared", "highway": "cycleway", "name": null }, "geometry": { "type": "LineString", "coordinates": [ [ -3.663876, 40.343025 ], [ -3.66388, 40.343003 ], [ -3.663881, 40.342949 ], [ -3.663892, 40.342898 ], [ -3.663924, 40.342773 ], [ -3.663912, 40.342728 ], [ -3.663853, 40.342649 ], [ -3.663614, 40.342435 ], [ -3.663558, 40.342385 ], [ -3.663361, 40.342039 ], [ -3.663205, 40.341745 ], [ -3.663162, 40.341716 ], [ -3.663068, 40.341515 ], [ -3.663051, 40.341481 ], [ -3.663036, 40.341443 ], [ -3.663028, 40.34142 ], [ -3.663021, 40.341398 ] ] } },
{ "type": "Feature", "properties": { "cls": "shared", "highway": "cycleway", "name": null }, "geometry": { "type": "LineString", "coordinates": [ [ -3.666474, 40.344174 ], [ -3.666481, 40.344121 ], [ -3.666471, 40.344075 ], [ -3.666435, 40.344057 ], [ -3.666285, 40.34407 ], [ -3.666196, 40.344048 ], [ -3.665819, 40.343824 ], [ -3.665515, 40.343582 ], [ -3.665218, 40.343349 ], [ -3.664905, 40.343094 ], [ -3.664736, 40.342973 ], [ -3.664612, 40.342841 ], [ -3.664359, 40.342438 ], [ -3.664221, 40.342274 ], [ -3.664103, 40.342043 ], [ -3.664079, 40.341822 ], [ -3.664077, 40.34172 ], [ -3.664028, 40.341367 ], [ -3.663994, 40.341324 ], [ -3.663924, 40.341301 ], [ -3.663829, 40.341302 ] ] } },
{ "type": "Feature", "properties": { "cls": "separated", "highway": "cycleway", "name": null }, "geometry": { "type": "LineString", "coordinates": [ [ -3.663876, 40.343025 ], [ -3.663887, 40.343111 ], [ -3.66396, 40.343373 ], [ -3.664119, 40.343695 ], [ -3.664145, 40.343784 ], [ -3.664155, 40.343835 ], [ -3.66413, 40.343924 ], [ -3.664251, 40.344034 ], [ -3.664342, 40.344153 ], [ -3.664426, 40.344285 ], [ -3.664465, 40.3443 ], [ -3.664533, 40.344325 ] ] } },
{ "type": "Feature", "properties": { "cls": "separated", "highway": "cycleway", "name": null }, "geometry": { "type": "LineString", "coordinates": [ [ -3.664677, 40.344324 ], [ -3.664533, 40.344325 ] ] } },
{ "type": "Feature", "properties": { "cls": "separated", "highway": "cycleway", "name": null }, "geometry": { "type": "LineString", "coordinates": [ [ -3.668762, 40.346675 ], [ -3.668825, 40.34668 ] ] } },
{ "type": "Feature", "properties": { "cls": "separated", "highway": "cycleway", "name": null }, "geometry": { "type": "LineString", "coordinates": [ [ -3.668825, 40.34668 ], [ -3.668926, 40.346696 ], [ -3.669312, 40.346707 ] ] } },
{ "type": "Feature", "properties": { "cls": "separated", "highway": "cycleway", "name": null }, "geometry": { "type": "LineString", "coordinates": [ [ -3.669312, 40.346707 ], [ -3.669411, 40.346711 ] ] } },
{ "type": "Feature", "properties": { "cls": "separated", "highway": "cycleway", "name": null }, "geometry": { "type": "LineString", "coordinates": [ [ -3.668762, 40.346675 ], [ -3.66875, 40.346742 ], [ -3.668686, 40.347104 ], [ -3.668646, 40.347331 ], [ -3.668714, 40.34758 ], [ -3.668827, 40.347833 ], [ -3.668931, 40.348135 ], [ -3.669084, 40.348433 ], [ -3.669135, 40.348606 ], [ -3.669145, 40.348763 ], [ -3.669139, 40.348834 ], [ -3.669129, 40.348904 ], [ -3.669114, 40.348979 ], [ -3.66911, 40.349074 ], [ -3.669095, 40.349147 ], [ -3.66909, 40.349204 ], [ -3.669053, 40.349275 ], [ -3.668978, 40.349352 ], [ -3.668869, 40.349441 ], [ -3.668825, 40.349489 ], [ -3.668806, 40.349536 ], [ -3.668842, 40.349574 ], [ -3.668902, 40.349604 ], [ -3.668986, 40.349656 ], [ -3.66909, 40.349714 ], [ -3.669212, 40.349778 ], [ -3.669342, 40.349826 ], [ -3.669499, 40.349869 ], [ -3.669664, 40.349919 ], [ -3.669772, 40.349949 ], [ -3.669792, 40.349955 ], [ -3.669863, 40.349962 ], [ -3.669973, 40.349926 ], [ -3.670082, 40.349873 ], [ -3.670178, 40.349818 ], [ -3.670231, 40.349793 ], [ -3.670335, 40.349776 ], [ -3.67049, 40.349816 ], [ -3.671305, 40.350029 ], [ -3.671849, 40.350197 ], [ -3.672222, 40.350351 ], [ -3.672549, 40.350518 ], [ -3.672813, 40.350702 ], [ -3.672943, 40.350886 ], [ -3.67301, 40.351126 ], [ -3.673126, 40.35167 ], [ -3.673289, 40.351906 ], [ -3.673388, 40.352128 ], [ -3.673413, 40.35224 ], [ -3.673497, 40.352695 ], [ -3.673552, 40.352908 ], [ -3.67366, 40.353094 ], [ -3.673799, 40.353255 ], [ -3.673977, 40.353386 ], [ -3.674415, 40.3536 ], [ -3.674797, 40.353778 ], [ -3.675103, 40.353865 ], [ -3.675531, 40.353964 ], [ -3.675692, 40.354031 ], [ -3.675809, 40.35408 ], [ -3.675908, 40.354147 ], [ -3.676055, 40.354323 ], [ -3.676192, 40.354561 ] ] } },
{ "type": "Feature", "properties": { "cls": "separated", "highway": "cycleway", "name": null }, "geometry": { "type": "LineString", "coordinates": [ [ -3.669411, 40.346711 ], [ -3.669357, 40.346961 ], [ -3.669312, 40.347425 ], [ -3.66944, 40.347848 ], [ -3.669493, 40.348005 ], [ -3.669637, 40.348354 ], [ -3.66993, 40.348854 ], [ -3.670001, 40.348958 ], [ -3.670136, 40.349084 ], [ -3.670289, 40.349193 ], [ -3.670552, 40.349345 ], [ -3.671154, 40.349501 ], [ -3.671648, 40.349645 ], [ -3.672469, 40.349944 ], [ -3.67288, 40.350168 ], [ -3.673147, 40.350352 ], [ -3.673252, 40.350431 ], [ -3.673492, 40.350753 ], [ -3.673687, 40.351161 ], [ -3.673884, 40.35158 ], [ -3.673928, 40.351715 ], [ -3.674046, 40.352409 ], [ -3.674075, 40.352545 ], [ -3.67413, 40.352797 ], [ -3.674247, 40.352968 ], [ -3.674587, 40.353171 ], [ -3.674705, 40.353242 ], [ -3.675145, 40.353409 ], [ -3.675699, 40.353556 ], [ -3.675925, 40.353623 ], [ -3.676215, 40.353741 ], [ -3.676352, 40.353826 ], [ -3.676628, 40.354023 ], [ -3.676698, 40.35411 ], [ -3.676754, 40.354239 ], [ -3.676811, 40.354443 ], [ -3.677161, 40.35566 ], [ -3.677525, 40.356769 ], [ -3.677667, 40.357022 ], [ -3.677852, 40.357216 ], [ -3.678032, 40.357344 ], [ -3.6786, 40.357532 ], [ -3.678849, 40.357629 ], [ -3.678869, 40.357707 ] ] } },
{ "type": "Feature", "properties": { "cls": "separated", "highway": "cycleway", "name": null }, "geometry": { "type": "LineString", "coordinates": [ [ -3.676192, 40.354561 ], [ -3.676274, 40.354842 ], [ -3.676329, 40.354957 ], [ -3.676404, 40.355114 ], [ -3.676488, 40.355382 ], [ -3.676534, 40.355559 ], [ -3.67664, 40.355925 ], [ -3.676658, 40.355989 ], [ -3.676818, 40.356577 ], [ -3.676986, 40.356954 ], [ -3.67714, 40.35721 ], [ -3.677359, 40.357479 ], [ -3.677421, 40.35754 ], [ -3.677582, 40.357702 ], [ -3.677816, 40.357858 ], [ -3.678034, 40.357933 ], [ -3.678191, 40.357983 ], [ -3.678311, 40.358033 ], [ -3.678354, 40.35805 ], [ -3.678509, 40.358072 ] ] } },
{ "type": "Feature", "properties": { "cls": "shared", "highway": "cycleway", "name": null }, "geometry": { "type": "LineString", "coordinates": [ [ -3.666371, 40.344516 ], [ -3.666474, 40.344174 ] ] } },
{ "type": "Feature", "properties": { "cls": "shared", "highway": "cycleway", "name": null }, "geometry": { "type": "LineString", "coordinates": [ [ -3.666355, 40.344562 ], [ -3.666371, 40.344516 ] ] } },
{ "type": "Feature", "properties": { "cls": "separated", "highway": "cycleway", "name": null }, "geometry": { "type": "LineString", "coordinates": [ [ -3.664677, 40.344324 ], [ -3.664786, 40.344293 ], [ -3.664938, 40.344276 ], [ -3.665192, 40.344348 ], [ -3.665471, 40.344404 ], [ -3.665752, 40.344442 ], [ -3.665947, 40.344492 ], [ -3.666162, 40.344552 ], [ -3.666355, 40.344562 ], [ -3.666507, 40.34457 ], [ -3.666731, 40.344613 ], [ -3.667275, 40.344763 ], [ -3.667569, 40.344784 ], [ -3.667934, 40.344857 ], [ -3.668398, 40.344967 ], [ -3.668682, 40.345053 ], [ -3.668879, 40.345148 ], [ -3.669057, 40.345294 ], [ -3.669136, 40.345416 ], [ -3.66915, 40.345547 ], [ -3.669108, 40.345662 ], [ -3.668968, 40.345886 ], [ -3.668872, 40.346114 ], [ -3.668788, 40.346411 ], [ -3.668762, 40.346675 ] ] } },
{ "type": "Feature", "properties": { "cls": "separated", "highway": "cycleway", "name": "Anillo Verde Ciclista" }, "geometry": { "type": "LineString", "coordinates": [ [ -3.680352, 40.371015 ], [ -3.680326, 40.371021 ], [ -3.680299, 40.371021 ], [ -3.680275, 40.371009 ], [ -3.680224, 40.370889 ], [ -3.680186, 40.370862 ], [ -3.680161, 40.370807 ], [ -3.680161, 40.370771 ], [ -3.680155, 40.370747 ], [ -3.67981, 40.369923 ], [ -3.679657, 40.369641 ], [ -3.679489, 40.369364 ], [ -3.679419, 40.369282 ], [ -3.679418, 40.369281 ] ] } },
{ "type": "Feature", "properties": { "cls": "separated", "highway": "cycleway", "name": null }, "geometry": { "type": "LineString", "coordinates": [ [ -3.688759, 40.373813 ], [ -3.688819, 40.373937 ], [ -3.688953, 40.374431 ], [ -3.689025, 40.374779 ], [ -3.689066, 40.374975 ], [ -3.689223, 40.375765 ], [ -3.689424, 40.376731 ], [ -3.689617, 40.377312 ], [ -3.689812, 40.377724 ] ] } },
{ "type": "Feature", "properties": { "cls": "separated", "highway": "footway", "name": null }, "geometry": { "type": "LineString", "coordinates": [ [ -3.688135, 40.380458 ], [ -3.687937, 40.380322 ], [ -3.687669, 40.380136 ], [ -3.687248, 40.379802 ], [ -3.686532, 40.379185 ], [ -3.686411, 40.379052 ], [ -3.685642, 40.378209 ], [ -3.685447, 40.377854 ], [ -3.685326, 40.377305 ], [ -3.685283, 40.377138 ], [ -3.685207, 40.376988 ], [ -3.685131, 40.37683 ], [ -3.685013, 40.37666 ], [ -3.684829, 40.376381 ], [ -3.684594, 40.376021 ], [ -3.684349, 40.375644 ], [ -3.683974, 40.375065 ], [ -3.683519, 40.374361 ], [ -3.683462, 40.374316 ] ] } },
{ "type": "Feature", "properties": { "cls": "separated", "highway": "cycleway", "name": "Anillo Verde Ciclista" }, "geometry": { "type": "LineString", "coordinates": [ [ -3.689877, 40.37771 ], [ -3.689812, 40.377724 ] ] } },
{ "type": "Feature", "properties": { "cls": "shared", "highway": "cycleway", "name": null }, "geometry": { "type": "LineString", "coordinates": [ [ -3.678869, 40.357707 ], [ -3.678947, 40.357751 ] ] } },
{ "type": "Feature", "properties": { "cls": "shared", "highway": "cycleway", "name": null }, "geometry": { "type": "LineString", "coordinates": [ [ -3.682463, 40.361855 ], [ -3.682484, 40.361899 ] ] } },
{ "type": "Feature", "properties": { "cls": "separated", "highway": "cycleway", "name": null }, "geometry": { "type": "LineString", "coordinates": [ [ -3.684819, 40.364761 ], [ -3.684819, 40.364731 ], [ -3.684827, 40.364679 ], [ -3.684865, 40.36461 ], [ -3.684923, 40.364556 ], [ -3.685057, 40.364436 ], [ -3.685108, 40.364386 ], [ -3.685135, 40.364346 ], [ -3.685146, 40.364315 ], [ -3.68514, 40.364269 ], [ -3.685127, 40.364244 ], [ -3.685132, 40.364238 ] ] } },
{ "type": "Feature", "properties": { "cls": "separated", "highway": "cycleway", "name": null }, "geometry": { "type": "LineString", "coordinates": [ [ -3.684827, 40.364679 ], [ -3.684791, 40.364711 ], [ -3.684757, 40.364738 ] ] } },
{ "type": "Feature", "properties": { "cls": "separated", "highway": "cycleway", "name": null }, "geometry": { "type": "LineString", "coordinates": [ [ -3.682484, 40.361899 ], [ -3.682569, 40.362151 ], [ -3.682639, 40.362333 ], [ -3.682799, 40.362756 ], [ -3.682998, 40.363269 ], [ -3.683207, 40.36386 ], [ -3.683343, 40.364324 ], [ -3.68341, 40.364715 ], [ -3.683333, 40.364985 ], [ -3.683216, 40.365286 ], [ -3.683111, 40.365496 ], [ -3.682857, 40.365805 ], [ -3.682598, 40.366024 ], [ -3.682265, 40.366274 ], [ -3.68213, 40.366399 ], [ -3.682079, 40.366734 ], [ -3.682076, 40.367012 ], [ -3.682111, 40.367506 ], [ -3.682189, 40.367826 ], [ -3.682365, 40.368381 ], [ -3.682562, 40.368864 ], [ -3.682576, 40.36897 ] ] } },
{ "type": "Feature", "properties": { "cls": "separated", "highway": "cycleway", "name": "Anillo Verde Ciclista" }, "geometry": { "type": "LineString", "coordinates": [ [ -3.680538, 40.370972 ], [ -3.680502, 40.370981 ], [ -3.680391, 40.371007 ], [ -3.680352, 40.371015 ] ] } },
{ "type": "Feature", "properties": { "cls": "separated", "highway": "cycleway", "name": null }, "geometry": { "type": "LineString", "coordinates": [ [ -3.682576, 40.36897 ], [ -3.68258, 40.369384 ], [ -3.682552, 40.369844 ], [ -3.682602, 40.370073 ], [ -3.682682, 40.370279 ], [ -3.6828, 40.370398 ], [ -3.68285, 40.370448 ], [ -3.682922, 40.370507 ], [ -3.683152, 40.370696 ], [ -3.683375, 40.370815 ], [ -3.683719, 40.370921 ], [ -3.684061, 40.371005 ], [ -3.684304, 40.37111 ], [ -3.684484, 40.371188 ], [ -3.684556, 40.371219 ], [ -3.685, 40.371322 ], [ -3.685551, 40.371462 ], [ -3.685866, 40.371551 ], [ -3.686084, 40.371683 ], [ -3.686333, 40.371863 ], [ -3.686529, 40.372053 ], [ -3.686696, 40.372315 ], [ -3.686854, 40.372675 ], [ -3.687036, 40.373132 ], [ -3.687121, 40.373315 ], [ -3.687212, 40.373474 ], [ -3.687304, 40.373566 ], [ -3.687596, 40.373869 ] ] } },
{ "type": "Feature", "properties": { "cls": "separated", "highway": "cycleway", "name": "Anillo Verde Ciclista" }, "geometry": { "type": "LineString", "coordinates": [ [ -3.682657, 40.373813 ], [ -3.682679, 40.373773 ], [ -3.682678, 40.37372 ], [ -3.682609, 40.373686 ], [ -3.682534, 40.373649 ], [ -3.682154, 40.373477 ], [ -3.682052, 40.373412 ], [ -3.681797, 40.373112 ], [ -3.681477, 40.372847 ], [ -3.681402, 40.372759 ], [ -3.681282, 40.372613 ], [ -3.681134, 40.372313 ], [ -3.680904, 40.371628 ], [ -3.680639, 40.370949 ], [ -3.680596, 40.37096 ], [ -3.680538, 40.370972 ] ] } },
{ "type": "Feature", "properties": { "cls": "painted", "highway": "service", "name": null }, "geometry": { "type": "LineString", "coordinates": [ [ -3.683057, 40.374021 ], [ -3.682695, 40.373841 ], [ -3.682657, 40.373813 ] ] } },
{ "type": "Feature", "properties": { "cls": "separated", "highway": "cycleway", "name": null }, "geometry": { "type": "GeometryCollection", "geometries": [ { "type": "LineString", "coordinates": [ [ -3.682052, 40.373412 ], [ -3.682049, 40.37345 ], [ -3.682057, 40.373501 ], [ -3.682071, 40.373532 ], [ -3.682094, 40.373584 ] ] }, { "type": "LineString", "coordinates": [ [ -3.682123, 40.373649 ], [ -3.682188, 40.37382 ] ] }, { "type": "Point", "coordinates": [ -3.682231, 40.373962 ] } ] } },
{ "type": "Feature", "properties": { "cls": "separated", "highway": "cycleway", "name": null }, "geometry": { "type": "LineString", "coordinates": [ [ -3.690486, 40.378672 ], [ -3.690539, 40.378661 ] ] } },
{ "type": "Feature", "properties": { "cls": "separated", "highway": "cycleway", "name": null }, "geometry": { "type": "LineString", "coordinates": [ [ -3.689812, 40.377724 ], [ -3.689975, 40.378002 ], [ -3.690486, 40.378672 ], [ -3.690834, 40.379141 ], [ -3.690932, 40.379281 ], [ -3.691036, 40.379456 ], [ -3.691074, 40.379601 ], [ -3.691103, 40.3797 ] ] } },
{ "type": "Feature", "properties": { "cls": "separated", "highway": "cycleway", "name": null }, "geometry": { "type": "LineString", "coordinates": [ [ -3.691255, 40.380266 ], [ -3.691301, 40.380069 ], [ -3.691337, 40.379928 ], [ -3.691354, 40.379864 ] ] } },
{ "type": "Feature", "properties": { "cls": "separated", "highway": "cycleway", "name": null }, "geometry": { "type": "LineString", "coordinates": [ [ -3.691103, 40.3797 ], [ -3.691183, 40.379994 ], [ -3.691212, 40.380102 ], [ -3.691255, 40.380266 ], [ -3.691257, 40.38039 ], [ -3.69126, 40.380404 ] ] } },
{ "type": "Feature", "properties": { "cls": "separated", "highway": "cycleway", "name": null }, "geometry": { "type": "LineString", "coordinates": [ [ -3.691103, 40.3797 ], [ -3.691089, 40.379747 ], [ -3.691045, 40.379886 ], [ -3.690948, 40.380067 ], [ -3.690766, 40.380309 ], [ -3.690513, 40.380555 ], [ -3.690198, 40.380771 ], [ -3.690033, 40.380835 ], [ -3.689729, 40.380877 ], [ -3.68951, 40.380862 ], [ -3.689402, 40.380842 ], [ -3.689222, 40.380798 ] ] } },
{ "type": "Feature", "properties": { "cls": "separated", "highway": "path", "name": null }, "geometry": { "type": "LineString", "coordinates": [ [ -3.688513, 40.380615 ], [ -3.688396, 40.380573 ], [ -3.688135, 40.380458 ] ] } },
{ "type": "Feature", "properties": { "cls": "separated", "highway": "path", "name": null }, "geometry": { "type": "LineString", "coordinates": [ [ -3.689222, 40.380798 ], [ -3.688827, 40.380704 ], [ -3.688513, 40.380615 ] ] } },
{ "type": "Feature", "properties": { "cls": "shared", "highway": "cycleway", "name": null }, "geometry": { "type": "LineString", "coordinates": [ [ -3.690033, 40.380835 ], [ -3.690036, 40.38092 ], [ -3.690017, 40.381 ], [ -3.689974, 40.381043 ], [ -3.689893, 40.381068 ], [ -3.689467, 40.381093 ], [ -3.689427, 40.381102 ], [ -3.689408, 40.381113 ] ] } }
]
}
