{
"type": "FeatureCollection",
"name": "131-claremont-claremont-hills-wilderness-park",
"crs": { "type": "name", "properties": { "name": "urn:ogc:def:crs:OGC:1.3:CRS84" } },
"xy_coordinate_resolution": 1e-06,
"features": [
{ "type": "Feature", "properties": { "cls": "shared", "highway": "cycleway", "name": "Thompson Creek Trail" }, "geometry": { "type": "LineString", "coordinates": [ [ -117.70746, 34.138726 ], [ -117.707473, 34.138726 ], [ -117.70752, 34.138724 ], [ -117.707562, 34.138712 ], [ -117.707662, 34.138671 ], [ -117.707766, 34.138623 ], [ -117.707886, 34.138559 ], [ -117.708077, 34.138438 ], [ -117.708195, 34.138361 ], [ -117.708261, 34.138317 ], [ -117.708319, 34.138284 ], [ -117.708369, 34.138251 ], [ -117.708417, 34.13823 ], [ -117.708454, 34.138221 ], [ -117.708505, 34.138218 ], [ -117.70855, 34.138209 ], [ -117.708601, 34.138194 ], [ -117.708717, 34.138149 ], [ -117.708854, 34.138092 ], [ -117.708958, 34.138051 ], [ -117.709035, 34.138028 ], [ -117.709102, 34.138009 ], [ -117.709161, 34.137996 ], [ -117.709239, 34.137986 ], [ -117.70933, 34.137978 ], [ -117.709457, 34.137963 ], [ -117.709598, 34.137942 ], [ -117.70972, 34.137921 ], [ -117.709928, 34.137884 ], [ -117.710215, 34.137829 ], [ -117.71066, 34.137742 ], [ -117.711277, 34.137624 ], [ -117.711847, 34.137509 ], [ -117.712201, 34.13744 ], [ -117.713237, 34.137237 ], [ -117.713471, 34.137187 ], [ -117.713589, 34.13716 ], [ -117.713697, 34.137129 ], [ -117.713805, 34.137096 ], [ -117.713906, 34.137061 ], [ -117.714022, 34.137015 ], [ -117.714139, 34.136966 ], [ -117.714241, 34.136918 ], [ -117.714367, 34.136857 ], [ -117.714483, 34.136792 ], [ -117.714569, 34.136737 ], [ -117.714668, 34.136672 ], [ -117.714741, 34.136621 ], [ -117.714805, 34.136568 ], [ -117.714931, 34.13647 ], [ -117.715169, 34.136272 ], [ -117.715264, 34.136192 ] ] } },
{ "type": "Feature", "properties": { "cls": "shared", "highway": "footway", "name": null }, "geometry": { "type": "LineString", "coordinates": [ [ -117.707431, 34.142098 ], [ -117.707425, 34.142069 ], [ -117.707434, 34.14203 ], [ -117.707471, 34.141956 ], [ -117.707481, 34.141906 ], [ -117.707482, 34.141852 ], [ -117.707477, 34.14162 ], [ -117.707479, 34.141325 ], [ -117.707477, 34.141086 ], [ -117.707475, 34.140817 ], [ -117.707476, 34.140588 ], [ -117.707468, 34.140547 ], [ -117.707453, 34.140519 ], [ -117.707428, 34.140498 ] ] } }
]
}
