{
"type": "FeatureCollection",
"name": "132-hanover-eilenriede",
"crs": { "type": "name", "properties": { "name": "urn:ogc:def:crs:OGC:1.3:CRS84" } },
"xy_coordinate_resolution": 1e-06,
"features": [
{ "type": "Feature", "properties": { "cls": "separated", "highway": "cycleway", "name": null }, "geometry": { "type": "LineString", "coordinates": [ [ 9.766014, 52.382046 ], [ 9.765956, 52.382009 ], [ 9.76122, 52.38007 ], [ 9.761157, 52.380056 ], [ 9.759433, 52.379332 ], [ 9.757455, 52.37852 ], [ 9.756121, 52.37791 ] ] } },
{ "type": "Feature", "properties": { "cls": "separated", "highway": "path", "name": null }, "geometry": { "type": "Point", "coordinates": [ 9.755838, 52.377784 ] } },
{ "type": "Feature", "properties": { "cls": "separated", "highway": "path", "name": null }, "geometry": { "type": "LineString", "coordinates": [ [ 9.755898, 52.377812 ], [ 9.755838, 52.377784 ] ] } },
{ "type": "Feature", "properties": { "cls": "separated", "highway": "cycleway", "name": null }, "geometry": { "type": "LineString", "coordinates": [ [ 9.756121, 52.37791 ], [ 9.755898, 52.377812 ] ] } },
{ "type": "Feature", "properties": { "cls": "shared", "highway": "path", "name": null }, "geometry": { "type": "LineString", "coordinates": [ [ 9.754774, 52.37924 ], [ 9.754632, 52.379019 ], [ 9.753392, 52.377841 ] ] } },
{ "type": "Feature", "properties": { "cls": "shared", "highway": "cycleway", "name": null }, "geometry": { "type": "LineString", "coordinates": [ [ 9.756121, 52.37791 ], [ 9.756048, 52.378024 ], [ 9.755641, 52.378632 ], [ 9.755239, 52.379203 ], [ 9.755079, 52.379263 ], [ 9.754801, 52.379338 ], [ 9.754635, 52.37939 ], [ 9.754551, 52.379416 ], [ 9.754496, 52.379422 ] ] } },
{ "type": "Feature", "properties": { "cls": "shared", "highway": "path", "name": null }, "geometry": { "type": "LineString", "coordinates": [ [ 9.759433, 52.379332 ], [ 9.759397, 52.379365 ], [ 9.759231, 52.379519 ] ] } },
{ "type": "Feature", "properties": { "cls": "shared", "highway": "path", "name": null }, "geometry": { "type": "LineString", "coordinates": [ [ 9.759231, 52.379519 ], [ 9.75893, 52.379808 ], [ 9.75871, 52.380124 ] ] } },
{ "type": "Feature", "properties": { "cls": "shared", "highway": "path", "name": null }, "geometry": { "type": "LineString", "coordinates": [ [ 9.75871, 52.380124 ], [ 9.758666, 52.380194 ] ] } },
{ "type": "Feature", "properties": { "cls": "shared", "highway": "path", "name": null }, "geometry": { "type": "LineString", "coordinates": [ [ 9.758666, 52.380194 ], [ 9.758645, 52.380243 ], [ 9.758615, 52.380324 ] ] } },
{ "type": "Feature", "properties": { "cls": "separated", "highway": "cycleway", "name": null }, "geometry": { "type": "LineString", "coordinates": [ [ 9.757466, 52.382368 ], [ 9.757483, 52.382319 ], [ 9.75749, 52.382275 ], [ 9.757487, 52.382222 ], [ 9.757467, 52.382186 ], [ 9.757441, 52.382153 ], [ 9.757409, 52.382121 ], [ 9.757381, 52.382099 ], [ 9.757324, 52.382062 ], [ 9.757266, 52.382024 ], [ 9.757178, 52.381972 ], [ 9.75711, 52.381927 ], [ 9.756896, 52.381736 ], [ 9.756762, 52.381597 ], [ 9.755879, 52.380635 ], [ 9.754881, 52.379569 ], [ 9.754801, 52.379338 ], [ 9.754774, 52.37924 ] ] } },
{ "type": "Feature", "properties": { "cls": "shared", "highway": "path", "name": null }, "geometry": { "type": "LineString", "coordinates": [ [ 9.758615, 52.380324 ], [ 9.758559, 52.380502 ], [ 9.758531, 52.380612 ], [ 9.758411, 52.380882 ], [ 9.758339, 52.381023 ], [ 9.758274, 52.381128 ], [ 9.758123, 52.381279 ], [ 9.758046, 52.381374 ], [ 9.757885, 52.381506 ], [ 9.75785, 52.381535 ], [ 9.757633, 52.381688 ], [ 9.757461, 52.381767 ] ] } },
{ "type": "Feature", "properties": { "cls": "shared", "highway": "path", "name": null }, "geometry": { "type": "LineString", "coordinates": [ [ 9.757461, 52.381767 ], [ 9.757424, 52.381784 ], [ 9.757376, 52.381806 ] ] } },
{ "type": "Feature", "properties": { "cls": "separated", "highway": "path", "name": null }, "geometry": { "type": "Point", "coordinates": [ 9.766068, 52.381976 ] } },
{ "type": "Feature", "properties": { "cls": "separated", "highway": "tertiary", "name": "Adenauerallee" }, "geometry": { "type": "Point", "coordinates": [ 9.766196, 52.382031 ] } },
{ "type": "Feature", "properties": { "cls": "separated", "highway": "path", "name": null }, "geometry": { "type": "LineString", "coordinates": [ [ 9.766014, 52.382046 ], [ 9.766068, 52.381976 ] ] } },
{ "type": "Feature", "properties": { "cls": "shared", "highway": "path", "name": null }, "geometry": { "type": "LineString", "coordinates": [ [ 9.765986, 52.382099 ], [ 9.766014, 52.382046 ] ] } },
{ "type": "Feature", "properties": { "cls": "separated", "highway": "path", "name": null }, "geometry": { "type": "LineString", "coordinates": [ [ 9.766307, 52.382083 ], [ 9.766253, 52.382151 ] ] } },
{ "type": "Feature", "properties": { "cls": "shared", "highway": "path", "name": null }, "geometry": { "type": "LineString", "coordinates": [ [ 9.766253, 52.382151 ], [ 9.766128, 52.382124 ], [ 9.765986, 52.382099 ] ] } },
{ "type": "Feature", "properties": { "cls": "separated", "highway": "cycleway", "name": null }, "geometry": { "type": "LineString", "coordinates": [ [ 9.766253, 52.382151 ], [ 9.76619, 52.38221 ], [ 9.766144, 52.382309 ] ] } },
{ "type": "Feature", "properties": { "cls": "shared", "highway": "path", "name": null }, "geometry": { "type": "LineString", "coordinates": [ [ 9.76648, 52.382329 ], [ 9.766303, 52.382269 ] ] } },
{ "type": "Feature", "properties": { "cls": "separated", "highway": "cycleway", "name": null }, "geometry": { "type": "LineString", "coordinates": [ [ 9.765759, 52.382575 ], [ 9.765956, 52.382162 ], [ 9.765986, 52.382099 ] ] } },
{ "type": "Feature", "properties": { "cls": "shared", "highway": "path", "name": null }, "geometry": { "type": "LineString", "coordinates": [ [ 9.766144, 52.382309 ], [ 9.76599, 52.382617 ] ] } },
{ "type": "Feature", "properties": { "cls": "separated", "highway": "cycleway", "name": null }, "geometry": { "type": "LineString", "coordinates": [ [ 9.765695, 52.3827 ], [ 9.765759, 52.382575 ] ] } },
{ "type": "Feature", "properties": { "cls": "shared", "highway": "path", "name": null }, "geometry": { "type": "LineString", "coordinates": [ [ 9.76599, 52.382617 ], [ 9.765935, 52.382729 ] ] } },
{ "type": "Feature", "properties": { "cls": "separated", "highway": "cycleway", "name": null }, "geometry": { "type": "LineString", "coordinates": [ [ 9.765124, 52.38337 ], [ 9.765146, 52.383344 ], [ 9.765314, 52.383145 ], [ 9.765624, 52.382837 ], [ 9.765695, 52.3827 ] ] } },
{ "type": "Feature", "properties": { "cls": "separated", "highway": "cycleway", "name": null }, "geometry": { "type": "LineString", "coordinates": [ [ 9.758178, 52.382908 ], [ 9.758385, 52.382927 ], [ 9.758624, 52.383046 ], [ 9.758963, 52.383202 ], [ 9.75913, 52.383265 ], [ 9.759354, 52.383315 ], [ 9.759565, 52.383361 ], [ 9.759765, 52.383442 ], [ 9.760479, 52.383753 ], [ 9.76067, 52.383786 ], [ 9.760711, 52.383794 ] ] } },
{ "type": "Feature", "properties": { "cls": "separated", "highway": "cycleway", "name": null }, "geometry": { "type": "LineString", "coordinates": [ [ 9.760844, 52.383823 ], [ 9.761386, 52.383939 ], [ 9.761866, 52.38398 ], [ 9.762232, 52.383967 ], [ 9.762611, 52.383911 ], [ 9.763086, 52.383747 ], [ 9.763357, 52.383574 ], [ 9.763478, 52.383538 ], [ 9.76368, 52.383476 ], [ 9.764109, 52.383416 ], [ 9.765027, 52.383368 ], [ 9.765124, 52.38337 ] ] } },
{ "type": "Feature", "properties": { "cls": "shared", "highway": "cycleway", "name": null }, "geometry": { "type": "LineString", "coordinates": [ [ 9.764693, 52.383984 ], [ 9.764713, 52.38396 ], [ 9.764905, 52.383729 ], [ 9.765101, 52.383401 ], [ 9.765124, 52.38337 ] ] } },
{ "type": "Feature", "properties": { "cls": "separated", "highway": "cycleway", "name": null }, "geometry": { "type": "LineString", "coordinates": [ [ 9.760711, 52.383794 ], [ 9.760844, 52.383823 ] ] } },
{ "type": "Feature", "properties": { "cls": "shared", "highway": "cycleway", "name": null }, "geometry": { "type": "LineString", "coordinates": [ [ 9.765949, 52.384672 ], [ 9.76616, 52.384492 ], [ 9.76632, 52.384312 ], [ 9.766543, 52.383937 ], [ 9.766747, 52.383627 ], [ 9.76694, 52.383462 ], [ 9.767348, 52.383119 ] ] } },
{ "type": "Feature", "properties": { "cls": "shared", "highway": "path", "name": null }, "geometry": { "type": "LineString", "coordinates": [ [ 9.757376, 52.381806 ], [ 9.75711, 52.381927 ], [ 9.756973, 52.38199 ], [ 9.756952, 52.382 ], [ 9.756834, 52.382053 ] ] } },
{ "type": "Feature", "properties": { "cls": "separated", "highway": "cycleway", "name": null }, "geometry": { "type": "LineString", "coordinates": [ [ 9.757134, 52.382576 ], [ 9.757199, 52.382554 ], [ 9.75726, 52.38253 ], [ 9.757337, 52.382495 ], [ 9.757386, 52.382465 ], [ 9.757429, 52.382425 ], [ 9.757466, 52.382368 ] ] } },
{ "type": "Feature", "properties": { "cls": "separated", "highway": "cycleway", "name": null }, "geometry": { "type": "LineString", "coordinates": [ [ 9.757088, 52.382534 ], [ 9.757134, 52.382576 ] ] } },
{ "type": "Feature", "properties": { "cls": "separated", "highway": "cycleway", "name": null }, "geometry": { "type": "LineString", "coordinates": [ [ 9.757053, 52.382634 ], [ 9.757384, 52.382745 ], [ 9.757559, 52.382829 ], [ 9.757754, 52.382869 ], [ 9.758076, 52.382898 ] ] } },
{ "type": "Feature", "properties": { "cls": "separated", "highway": "cycleway", "name": null }, "geometry": { "type": "LineString", "coordinates": [ [ 9.758076, 52.382898 ], [ 9.758178, 52.382908 ] ] } },
{ "type": "Feature", "properties": { "cls": "separated", "highway": "cycleway", "name": null }, "geometry": { "type": "LineString", "coordinates": [ [ 9.754193, 52.386227 ], [ 9.754903, 52.385347 ], [ 9.755081, 52.38511 ], [ 9.755214, 52.384992 ], [ 9.755257, 52.384954 ], [ 9.755304, 52.384901 ], [ 9.755384, 52.384813 ], [ 9.755668, 52.384301 ], [ 9.756644, 52.383126 ], [ 9.757053, 52.382634 ], [ 9.757134, 52.382576 ] ] } },
{ "type": "Feature", "properties": { "cls": "separated", "highway": "cycleway", "name": null }, "geometry": { "type": "LineString", "coordinates": [ [ 9.754442, 52.389417 ], [ 9.754478, 52.3894 ], [ 9.75481, 52.389238 ], [ 9.754955, 52.389174 ], [ 9.755092, 52.389127 ], [ 9.755489, 52.389013 ], [ 9.756029, 52.38889 ], [ 9.756315, 52.388851 ], [ 9.756403, 52.388841 ], [ 9.757175, 52.388754 ] ] } },
{ "type": "Feature", "properties": { "cls": "separated", "highway": "path", "name": null }, "geometry": { "type": "LineString", "coordinates": [ [ 9.757233, 52.388899 ], [ 9.756347, 52.389011 ], [ 9.756039, 52.389059 ], [ 9.755942, 52.389074 ], [ 9.7558, 52.389117 ], [ 9.755676, 52.389154 ], [ 9.755234, 52.3894 ] ] } },
{ "type": "Feature", "properties": { "cls": "shared", "highway": "path", "name": "Stadtparkweg" }, "geometry": { "type": "LineString", "coordinates": [ [ 9.777377, 52.373144 ], [ 9.777246, 52.373132 ] ] } },
{ "type": "Feature", "properties": { "cls": "shared", "highway": "path", "name": "Peter-Hübotter-Brücke" }, "geometry": { "type": "LineString", "coordinates": [ [ 9.777446, 52.373145 ], [ 9.777377, 52.373144 ] ] } },
{ "type": "Feature", "properties": { "cls": "separated", "highway": "path", "name": "Stadtparkweg" }, "geometry": { "type": "LineString", "coordinates": [ [ 9.778762, 52.373213 ], [ 9.77895, 52.373205 ], [ 9.779161, 52.373188 ], [ 9.779396, 52.373189 ], [ 9.779618, 52.373197 ], [ 9.782044, 52.37333 ], [ 9.78218, 52.37333 ], [ 9.782364, 52.373313 ], [ 9.782446, 52.373302 ], [ 9.782556, 52.373287 ] ] } },
{ "type": "Feature", "properties": { "cls": "shared", "highway": "path", "name": "Stadtparkweg" }, "geometry": { "type": "Point", "coordinates": [ 9.782556, 52.373287 ] } },
{ "type": "Feature", "properties": { "cls": "shared", "highway": "path", "name": null }, "geometry": { "type": "LineString", "coordinates": [ [ 9.782568, 52.373555 ], [ 9.782446, 52.373302 ] ] } },
{ "type": "Feature", "properties": { "cls": "shared", "highway": "cycleway", "name": null }, "geometry": { "type": "LineString", "coordinates": [ [ 9.782464, 52.373805 ], [ 9.782568, 52.373555 ] ] } },
{ "type": "Feature", "properties": { "cls": "shared", "highway": "cycleway", "name": null }, "geometry": { "type": "LineString", "coordinates": [ [ 9.777377, 52.373144 ], [ 9.777363, 52.373223 ], [ 9.777366, 52.373292 ], [ 9.777453, 52.373551 ], [ 9.777544, 52.373773 ], [ 9.777633, 52.374096 ], [ 9.777619, 52.374323 ], [ 9.777524, 52.374572 ], [ 9.777263, 52.375082 ], [ 9.777216, 52.375322 ], [ 9.777252, 52.375644 ], [ 9.777234, 52.375999 ], [ 9.776832, 52.376696 ], [ 9.775988, 52.378048 ] ] } },
{ "type": "Feature", "properties": { "cls": "separated", "highway": "cycleway", "name": null }, "geometry": { "type": "LineString", "coordinates": [ [ 9.775854, 52.378058 ], [ 9.775863, 52.378059 ], [ 9.775988, 52.378048 ] ] } },
{ "type": "Feature", "properties": { "cls": "shared", "highway": "path", "name": null }, "geometry": { "type": "LineString", "coordinates": [ [ 9.767743, 52.382856 ], [ 9.767255, 52.382651 ], [ 9.76648, 52.382329 ] ] } },
{ "type": "Feature", "properties": { "cls": "shared", "highway": "path", "name": null }, "geometry": { "type": "LineString", "coordinates": [ [ 9.767743, 52.382856 ], [ 9.767823, 52.382808 ], [ 9.767888, 52.382767 ] ] } },
{ "type": "Feature", "properties": { "cls": "separated", "highway": "residential", "name": "Crappiusstraße" }, "geometry": { "type": "Point", "coordinates": [ 9.78627, 52.377287 ] } },
{ "type": "Feature", "properties": { "cls": "separated", "highway": "cycleway", "name": "Ludolf-Ahrens-Straße" }, "geometry": { "type": "Point", "coordinates": [ 9.786954, 52.378401 ] } },
{ "type": "Feature", "properties": { "cls": "shared", "highway": "cycleway", "name": null }, "geometry": { "type": "LineString", "coordinates": [ [ 9.790535, 52.384988 ], [ 9.790527, 52.384896 ], [ 9.790472, 52.384658 ], [ 9.789958, 52.383829 ], [ 9.789628, 52.383374 ], [ 9.789454, 52.383041 ], [ 9.789173, 52.382707 ], [ 9.788994, 52.382358 ], [ 9.788527, 52.381777 ], [ 9.788409, 52.381579 ], [ 9.788064, 52.380931 ], [ 9.787646, 52.38031 ], [ 9.786861, 52.379254 ], [ 9.786336, 52.378558 ], [ 9.785712, 52.377909 ], [ 9.785205, 52.37743 ], [ 9.785061, 52.377331 ], [ 9.784319, 52.376947 ], [ 9.784231, 52.376857 ], [ 9.78418, 52.376774 ], [ 9.784096, 52.376479 ], [ 9.783879, 52.376007 ], [ 9.783704, 52.375739 ], [ 9.78354, 52.375558 ], [ 9.783051, 52.375085 ], [ 9.782979, 52.374977 ], [ 9.782953, 52.374807 ], [ 9.782822, 52.37439 ], [ 9.782655, 52.37412 ], [ 9.782521, 52.373957 ], [ 9.782464, 52.373805 ] ] } },
{ "type": "Feature", "properties": { "cls": "separated", "highway": "cycleway", "name": "Klaterfeldweg" }, "geometry": { "type": "Point", "coordinates": [ 9.789339, 52.381352 ] } },
{ "type": "Feature", "properties": { "cls": "separated", "highway": "cycleway", "name": null }, "geometry": { "type": "LineString", "coordinates": [ [ 9.790541, 52.385006 ], [ 9.790535, 52.384988 ] ] } },
{ "type": "Feature", "properties": { "cls": "shared", "highway": "cycleway", "name": null }, "geometry": { "type": "LineString", "coordinates": [ [ 9.788896, 52.388225 ], [ 9.788963, 52.388058 ], [ 9.789035, 52.387878 ], [ 9.789404, 52.387166 ], [ 9.78956, 52.386942 ], [ 9.789988, 52.386409 ], [ 9.790232, 52.386165 ], [ 9.790401, 52.385857 ], [ 9.790567, 52.385471 ], [ 9.79055, 52.385038 ], [ 9.790541, 52.385006 ] ] } },
{ "type": "Feature", "properties": { "cls": "separated", "highway": "cycleway", "name": null }, "geometry": { "type": "LineString", "coordinates": [ [ 9.788963, 52.388058 ], [ 9.788822, 52.388171 ], [ 9.788604, 52.388237 ] ] } },
{ "type": "Feature", "properties": { "cls": "shared", "highway": "cycleway", "name": null }, "geometry": { "type": "LineString", "coordinates": [ [ 9.782464, 52.373805 ], [ 9.782223, 52.374035 ], [ 9.781848, 52.374417 ], [ 9.781668, 52.374637 ], [ 9.781598, 52.374759 ], [ 9.781479, 52.375004 ], [ 9.781445, 52.375086 ], [ 9.781307, 52.375341 ], [ 9.781238, 52.375578 ], [ 9.781222, 52.375994 ], [ 9.78117, 52.376169 ], [ 9.781087, 52.376406 ], [ 9.781049, 52.376593 ], [ 9.78104, 52.37675 ], [ 9.781043, 52.37686 ], [ 9.780938, 52.377079 ], [ 9.780803, 52.377227 ], [ 9.780415, 52.377538 ] ] } },
{ "type": "Feature", "properties": { "cls": "shared", "highway": "cycleway", "name": null }, "geometry": { "type": "LineString", "coordinates": [ [ 9.780415, 52.377538 ], [ 9.780424, 52.377712 ] ] } },
{ "type": "Feature", "properties": { "cls": "shared", "highway": "cycleway", "name": null }, "geometry": { "type": "LineString", "coordinates": [ [ 9.775988, 52.378048 ], [ 9.776953, 52.378069 ], [ 9.777252, 52.378085 ], [ 9.777863, 52.378118 ], [ 9.778544, 52.37813 ], [ 9.778952, 52.378143 ], [ 9.779468, 52.37823 ] ] } },
{ "type": "Feature", "properties": { "cls": "shared", "highway": "cycleway", "name": null }, "geometry": { "type": "LineString", "coordinates": [ [ 9.77543, 52.379508 ], [ 9.775447, 52.379283 ], [ 9.77539, 52.379096 ], [ 9.775496, 52.378869 ], [ 9.775988, 52.378048 ] ] } },
{ "type": "Feature", "properties": { "cls": "separated", "highway": "cycleway", "name": null }, "geometry": { "type": "LineString", "coordinates": [ [ 9.77974, 52.378447 ], [ 9.779504, 52.378829 ], [ 9.778996, 52.379288 ], [ 9.77888, 52.379347 ], [ 9.778745, 52.379369 ], [ 9.777822, 52.379375 ], [ 9.776237, 52.37939 ], [ 9.776039, 52.379359 ], [ 9.775839, 52.379323 ] ] } },
{ "type": "Feature", "properties": { "cls": "shared", "highway": "cycleway", "name": null }, "geometry": { "type": "LineString", "coordinates": [ [ 9.775839, 52.379323 ], [ 9.775447, 52.379283 ] ] } },
{ "type": "Feature", "properties": { "cls": "shared", "highway": "cycleway", "name": null }, "geometry": { "type": "LineString", "coordinates": [ [ 9.77543, 52.379508 ], [ 9.775483, 52.379446 ], [ 9.775628, 52.379377 ], [ 9.775839, 52.379323 ] ] } },
{ "type": "Feature", "properties": { "cls": "shared", "highway": "cycleway", "name": null }, "geometry": { "type": "LineString", "coordinates": [ [ 9.77543, 52.379508 ], [ 9.775314, 52.379796 ], [ 9.775311, 52.379802 ], [ 9.774727, 52.380782 ], [ 9.774256, 52.381519 ], [ 9.773985, 52.38182 ], [ 9.773868, 52.381978 ], [ 9.773752, 52.382327 ], [ 9.773547, 52.382658 ] ] } },
{ "type": "Feature", "properties": { "cls": "separated", "highway": "cycleway", "name": null }, "geometry": { "type": "Point", "coordinates": [ 9.782021, 52.388794 ] } },
{ "type": "Feature", "properties": { "cls": "shared", "highway": "cycleway", "name": null }, "geometry": { "type": "LineString", "coordinates": [ [ 9.785304, 52.388634 ], [ 9.784737, 52.388406 ], [ 9.784448, 52.388301 ], [ 9.782723, 52.388328 ], [ 9.782203, 52.388439 ], [ 9.782018, 52.38855 ] ] } },
{ "type": "Feature", "properties": { "cls": "shared", "highway": "cycleway", "name": null }, "geometry": { "type": "LineString", "coordinates": [ [ 9.767614, 52.382941 ], [ 9.767743, 52.382856 ] ] } },
{ "type": "Feature", "properties": { "cls": "shared", "highway": "cycleway", "name": null }, "geometry": { "type": "LineString", "coordinates": [ [ 9.76742, 52.383067 ], [ 9.767614, 52.382941 ] ] } },
{ "type": "Feature", "properties": { "cls": "shared", "highway": "cycleway", "name": null }, "geometry": { "type": "LineString", "coordinates": [ [ 9.767376, 52.383098 ], [ 9.76742, 52.383067 ] ] } },
{ "type": "Feature", "properties": { "cls": "separated", "highway": "cycleway", "name": null }, "geometry": { "type": "LineString", "coordinates": [ [ 9.767348, 52.383119 ], [ 9.767376, 52.383098 ] ] } },
{ "type": "Feature", "properties": { "cls": "separated", "highway": "cycleway", "name": null }, "geometry": { "type": "LineString", "coordinates": [ [ 9.77024, 52.383817 ], [ 9.770157, 52.383859 ], [ 9.76978, 52.384048 ] ] } },
{ "type": "Feature", "properties": { "cls": "shared", "highway": "cycleway", "name": null }, "geometry": { "type": "LineString", "coordinates": [ [ 9.76978, 52.384048 ], [ 9.769508, 52.38422 ] ] } },
{ "type": "Feature", "properties": { "cls": "shared", "highway": "cycleway", "name": null }, "geometry": { "type": "LineString", "coordinates": [ [ 9.769508, 52.38422 ], [ 9.769469, 52.384235 ] ] } },
{ "type": "Feature", "properties": { "cls": "shared", "highway": "cycleway", "name": null }, "geometry": { "type": "LineString", "coordinates": [ [ 9.769469, 52.384235 ], [ 9.769424, 52.384257 ], [ 9.767836, 52.384464 ], [ 9.76723, 52.384539 ], [ 9.765949, 52.384672 ] ] } },
{ "type": "Feature", "properties": { "cls": "shared", "highway": "cycleway", "name": "Alte Rennstrecke" }, "geometry": { "type": "MultiLineString", "coordinates": [ [ [ 9.776217, 52.391616 ], [ 9.776164, 52.391621 ], [ 9.774004, 52.391904 ], [ 9.773235, 52.392009 ], [ 9.77293, 52.392035 ], [ 9.772596, 52.39204 ], [ 9.77215, 52.391968 ], [ 9.770858, 52.391661 ] ], [ [ 9.770858, 52.391661 ], [ 9.770555, 52.391608 ] ], [ [ 9.770555, 52.391608 ], [ 9.770358, 52.391573 ] ], [ [ 9.770358, 52.391573 ], [ 9.769755, 52.391497 ], [ 9.769479, 52.391448 ], [ 9.769308, 52.391414 ], [ 9.768602, 52.391268 ], [ 9.767845, 52.391138 ], [ 9.767331, 52.391087 ], [ 9.76693, 52.391062 ], [ 9.766519, 52.39106 ], [ 9.765621, 52.391095 ], [ 9.765262, 52.391107 ], [ 9.764578, 52.391081 ], [ 9.764383, 52.391072 ], [ 9.763739, 52.391035 ], [ 9.763009, 52.391023 ], [ 9.762289, 52.391044 ], [ 9.761629, 52.391068 ], [ 9.761422, 52.391073 ], [ 9.759934, 52.391085 ], [ 9.759344, 52.391084 ], [ 9.759068, 52.391035 ], [ 9.758541, 52.390911 ] ] ] } },
{ "type": "Feature", "properties": { "cls": "shared", "highway": "cycleway", "name": null }, "geometry": { "type": "LineString", "coordinates": [ [ 9.769755, 52.391497 ], [ 9.770215, 52.392105 ], [ 9.770417, 52.392433 ], [ 9.77056, 52.392748 ], [ 9.770603, 52.39288 ], [ 9.770634, 52.393131 ], [ 9.770653, 52.39325 ], [ 9.770868, 52.393681 ], [ 9.771071, 52.394002 ], [ 9.771157, 52.394212 ], [ 9.771342, 52.394467 ], [ 9.771551, 52.394709 ], [ 9.77163, 52.394976 ], [ 9.771678, 52.39519 ] ] } },
{ "type": "Feature", "properties": { "cls": "separated", "highway": "cycleway", "name": null }, "geometry": { "type": "LineString", "coordinates": [ [ 9.770391, 52.394554 ], [ 9.770543, 52.394648 ], [ 9.770998, 52.394945 ], [ 9.771246, 52.39505 ], [ 9.771678, 52.39519 ], [ 9.772358, 52.395413 ] ] } },
{ "type": "Feature", "properties": { "cls": "shared", "highway": "cycleway", "name": null }, "geometry": { "type": "LineString", "coordinates": [ [ 9.773913, 52.395808 ], [ 9.774143, 52.395821 ], [ 9.774328, 52.395819 ] ] } },
{ "type": "Feature", "properties": { "cls": "separated", "highway": "cycleway", "name": null }, "geometry": { "type": "LineString", "coordinates": [ [ 9.772358, 52.395413 ], [ 9.772405, 52.395427 ], [ 9.77274, 52.395527 ], [ 9.773913, 52.395808 ], [ 9.774842, 52.396035 ], [ 9.775431, 52.39622 ] ] } },
{ "type": "Feature", "properties": { "cls": "shared", "highway": "cycleway", "name": null }, "geometry": { "type": "LineString", "coordinates": [ [ 9.774328, 52.395819 ], [ 9.774514, 52.395809 ] ] } },
{ "type": "Feature", "properties": { "cls": "shared", "highway": "cycleway", "name": null }, "geometry": { "type": "LineString", "coordinates": [ [ 9.790036, 52.388215 ], [ 9.789983, 52.388211 ], [ 9.789834, 52.388211 ], [ 9.788896, 52.388225 ] ] } },
{ "type": "Feature", "properties": { "cls": "separated", "highway": "cycleway", "name": null }, "geometry": { "type": "LineString", "coordinates": [ [ 9.790112, 52.388231 ], [ 9.790036, 52.388215 ] ] } },
{ "type": "Feature", "properties": { "cls": "separated", "highway": "cycleway", "name": null }, "geometry": { "type": "LineString", "coordinates": [ [ 9.790182, 52.388244 ], [ 9.790112, 52.388231 ] ] } },
{ "type": "Feature", "properties": { "cls": "shared", "highway": "cycleway", "name": null }, "geometry": { "type": "LineString", "coordinates": [ [ 9.788896, 52.388225 ], [ 9.788604, 52.388237 ], [ 9.787123, 52.388235 ], [ 9.786929, 52.388288 ], [ 9.786828, 52.388372 ] ] } },
{ "type": "Feature", "properties": { "cls": "shared", "highway": "cycleway", "name": null }, "geometry": { "type": "LineString", "coordinates": [ [ 9.786828, 52.388372 ], [ 9.786768, 52.388473 ] ] } },
{ "type": "Feature", "properties": { "cls": "separated", "highway": "path", "name": null }, "geometry": { "type": "LineString", "coordinates": [ [ 9.78556, 52.389187 ], [ 9.785639, 52.389261 ], [ 9.785793, 52.389426 ], [ 9.785935, 52.389646 ], [ 9.786037, 52.389827 ], [ 9.786068, 52.389977 ], [ 9.786064, 52.390108 ], [ 9.786017, 52.390235 ], [ 9.785904, 52.390359 ], [ 9.785756, 52.39049 ], [ 9.785638, 52.390533 ] ] } },
{ "type": "Feature", "properties": { "cls": "shared", "highway": "path", "name": null }, "geometry": { "type": "LineString", "coordinates": [ [ 9.785638, 52.390533 ], [ 9.785604, 52.390553 ] ] } },
{ "type": "Feature", "properties": { "cls": "shared", "highway": "path", "name": null }, "geometry": { "type": "MultiLineString", "coordinates": [ [ [ 9.789556, 52.391812 ], [ 9.789631, 52.391635 ] ], [ [ 9.789631, 52.391635 ], [ 9.789682, 52.391388 ] ], [ [ 9.789682, 52.391388 ], [ 9.789705, 52.391251 ] ], [ [ 9.789705, 52.391251 ], [ 9.789676, 52.391141 ] ] ] } },
{ "type": "Feature", "properties": { "cls": "shared", "highway": "path", "name": null }, "geometry": { "type": "Point", "coordinates": [ 9.789556, 52.391812 ] } },
{ "type": "Feature", "properties": { "cls": "shared", "highway": "cycleway", "name": null }, "geometry": { "type": "LineString", "coordinates": [ [ 9.785532, 52.388718 ], [ 9.785304, 52.388634 ] ] } },
{ "type": "Feature", "properties": { "cls": "shared", "highway": "path", "name": null }, "geometry": { "type": "LineString", "coordinates": [ [ 9.785625, 52.389034 ], [ 9.785614, 52.389063 ], [ 9.78556, 52.389187 ] ] } },
{ "type": "Feature", "properties": { "cls": "separated", "highway": "cycleway", "name": null }, "geometry": { "type": "LineString", "coordinates": [ [ 9.782021, 52.388794 ], [ 9.782548, 52.388898 ], [ 9.783506, 52.389161 ], [ 9.783955, 52.38932 ], [ 9.784175, 52.389436 ], [ 9.784362, 52.389568 ], [ 9.784567, 52.389743 ], [ 9.784779, 52.389906 ], [ 9.785432, 52.390412 ], [ 9.785604, 52.390553 ] ] } },
{ "type": "Feature", "properties": { "cls": "shared", "highway": "path", "name": null }, "geometry": { "type": "MultiLineString", "coordinates": [ [ [ 9.785604, 52.390553 ], [ 9.785502, 52.390691 ] ], [ [ 9.784561, 52.391133 ], [ 9.784512, 52.391129 ] ] ] } },
{ "type": "Feature", "properties": { "cls": "shared", "highway": "cycleway", "name": "Alte Rennstrecke" }, "geometry": { "type": "LineString", "coordinates": [ [ 9.784026, 52.391204 ], [ 9.78354, 52.391345 ], [ 9.78332, 52.39139 ] ] } },
{ "type": "Feature", "properties": { "cls": "shared", "highway": "cycleway", "name": "Alte Rennstrecke" }, "geometry": { "type": "MultiLineString", "coordinates": [ [ [ 9.78332, 52.39139 ], [ 9.783148, 52.391398 ], [ 9.782173, 52.391339 ], [ 9.781574, 52.391286 ], [ 9.78057, 52.391166 ], [ 9.77986, 52.391126 ], [ 9.779333, 52.391134 ], [ 9.77864, 52.39121 ], [ 9.777955, 52.391294 ], [ 9.777475, 52.391387 ], [ 9.776954, 52.391507 ] ], [ [ 9.776954, 52.391507 ], [ 9.776939, 52.39151 ] ], [ [ 9.776939, 52.39151 ], [ 9.776847, 52.391525 ] ], [ [ 9.776847, 52.391525 ], [ 9.7768, 52.391533 ] ], [ [ 9.7768, 52.391533 ], [ 9.776762, 52.391539 ], [ 9.776337, 52.391604 ] ] ] } },
{ "type": "Feature", "properties": { "cls": "shared", "highway": "cycleway", "name": "Alte Rennstrecke" }, "geometry": { "type": "LineString", "coordinates": [ [ 9.776337, 52.391604 ], [ 9.776217, 52.391616 ] ] } },
{ "type": "Feature", "properties": { "cls": "shared", "highway": "cycleway", "name": null }, "geometry": { "type": "LineString", "coordinates": [ [ 9.775844, 52.395706 ], [ 9.776823, 52.39558 ], [ 9.777964, 52.395215 ], [ 9.77869, 52.394846 ], [ 9.77885, 52.394753 ], [ 9.779326, 52.394403 ], [ 9.779765, 52.393933 ], [ 9.780102, 52.393316 ], [ 9.780194, 52.393068 ], [ 9.780294, 52.392856 ], [ 9.780466, 52.392646 ], [ 9.781243, 52.392049 ], [ 9.781713, 52.391869 ], [ 9.782222, 52.391727 ], [ 9.782793, 52.391597 ], [ 9.78332, 52.39139 ] ] } },
{ "type": "Feature", "properties": { "cls": "shared", "highway": "cycleway", "name": null }, "geometry": { "type": "LineString", "coordinates": [ [ 9.774514, 52.395809 ], [ 9.77528, 52.395765 ], [ 9.775844, 52.395706 ] ] } },
{ "type": "Feature", "properties": { "cls": "shared", "highway": "cycleway", "name": null }, "geometry": { "type": "LineString", "coordinates": [ [ 9.778183, 52.396741 ], [ 9.777964, 52.395215 ] ] } },
{ "type": "Feature", "properties": { "cls": "separated", "highway": "cycleway", "name": null }, "geometry": { "type": "LineString", "coordinates": [ [ 9.775431, 52.39622 ], [ 9.775861, 52.396368 ] ] } },
{ "type": "Feature", "properties": { "cls": "separated", "highway": "cycleway", "name": null }, "geometry": { "type": "LineString", "coordinates": [ [ 9.775692, 52.396664 ], [ 9.775686, 52.39658 ], [ 9.775861, 52.396368 ] ] } },
{ "type": "Feature", "properties": { "cls": "shared", "highway": "cycleway", "name": null }, "geometry": { "type": "LineString", "coordinates": [ [ 9.778183, 52.396741 ], [ 9.77817, 52.396757 ] ] } },
{ "type": "Feature", "properties": { "cls": "shared", "highway": "cycleway", "name": null }, "geometry": { "type": "LineString", "coordinates": [ [ 9.77817, 52.396757 ], [ 9.778141, 52.396791 ] ] } },
{ "type": "Feature", "properties": { "cls": "shared", "highway": "path", "name": null }, "geometry": { "type": "LineString", "coordinates": [ [ 9.778141, 52.396791 ], [ 9.778139, 52.396803 ], [ 9.777923, 52.397038 ], [ 9.777808, 52.397184 ], [ 9.77779, 52.3973 ], [ 9.777748, 52.397345 ] ] } },
{ "type": "Feature", "properties": { "cls": "separated", "highway": "cycleway", "name": null }, "geometry": { "type": "LineString", "coordinates": [ [ 9.781002, 52.398232 ], [ 9.780577, 52.397845 ], [ 9.779712, 52.397579 ], [ 9.777923, 52.397038 ], [ 9.77672, 52.396668 ], [ 9.775861, 52.396368 ] ] } },
{ "type": "Feature", "properties": { "cls": "separated", "highway": "cycleway", "name": null }, "geometry": { "type": "LineString", "coordinates": [ [ 9.781024, 52.398325 ], [ 9.781002, 52.398232 ] ] } },
{ "type": "Feature", "properties": { "cls": "separated", "highway": "path", "name": null }, "geometry": { "type": "LineString", "coordinates": [ [ 9.781002, 52.398232 ], [ 9.781042, 52.398245 ] ] } },
{ "type": "Feature", "properties": { "cls": "separated", "highway": "tertiary", "name": "Walderseestraße" }, "geometry": { "type": "Point", "coordinates": [ 9.781024, 52.398325 ] } },
{ "type": "Feature", "properties": { "cls": "painted", "highway": "tertiary", "name": "Wedekindstraße" }, "geometry": { "type": "Point", "coordinates": [ 9.75395, 52.386162 ] } },
{ "type": "Feature", "properties": { "cls": "separated", "highway": "cycleway", "name": null }, "geometry": { "type": "LineString", "coordinates": [ [ 9.752978, 52.387807 ], [ 9.753031, 52.387668 ], [ 9.754193, 52.386227 ] ] } },
{ "type": "Feature", "properties": { "cls": "separated", "highway": "path", "name": null }, "geometry": { "type": "Point", "coordinates": [ 9.752709, 52.387787 ] } },
{ "type": "Feature", "properties": { "cls": "separated", "highway": "path", "name": null }, "geometry": { "type": "LineString", "coordinates": [ [ 9.752709, 52.387787 ], [ 9.752807, 52.387794 ] ] } },
{ "type": "Feature", "properties": { "cls": "shared", "highway": "path", "name": null }, "geometry": { "type": "LineString", "coordinates": [ [ 9.752807, 52.387794 ], [ 9.752978, 52.387807 ] ] } },
{ "type": "Feature", "properties": { "cls": "separated", "highway": "cycleway", "name": null }, "geometry": { "type": "LineString", "coordinates": [ [ 9.752978, 52.387807 ], [ 9.752989, 52.388155 ], [ 9.753054, 52.388396 ], [ 9.753158, 52.388599 ], [ 9.753291, 52.388756 ], [ 9.754358, 52.389371 ] ] } },
{ "type": "Feature", "properties": { "cls": "advisory", "highway": "tertiary", "name": "Burckhardtstraße" }, "geometry": { "type": "Point", "coordinates": [ 9.754335, 52.389521 ] } },
{ "type": "Feature", "properties": { "cls": "shared", "highway": "cycleway", "name": null }, "geometry": { "type": "LineString", "coordinates": [ [ 9.765949, 52.384672 ], [ 9.764957, 52.385135 ], [ 9.764675, 52.385279 ], [ 9.764139, 52.385703 ], [ 9.763734, 52.386089 ] ] } },
{ "type": "Feature", "properties": { "cls": "shared", "highway": "path", "name": null }, "geometry": { "type": "LineString", "coordinates": [ [ 9.765935, 52.382729 ], [ 9.765907, 52.382787 ], [ 9.765689, 52.383221 ], [ 9.765589, 52.383407 ], [ 9.765465, 52.383588 ], [ 9.765215, 52.383836 ], [ 9.764867, 52.384163 ], [ 9.764011, 52.384979 ], [ 9.763331, 52.385622 ], [ 9.762458, 52.386499 ], [ 9.761791, 52.387149 ], [ 9.761227, 52.387736 ], [ 9.760625, 52.388118 ], [ 9.76015, 52.388344 ], [ 9.759799, 52.388472 ], [ 9.75942, 52.38858 ], [ 9.759111, 52.388647 ], [ 9.758708, 52.388717 ], [ 9.758303, 52.388768 ], [ 9.75735, 52.388885 ], [ 9.757233, 52.388899 ] ] } },
{ "type": "Feature", "properties": { "cls": "separated", "highway": "cycleway", "name": null }, "geometry": { "type": "LineString", "coordinates": [ [ 9.757175, 52.388754 ], [ 9.758007, 52.38867 ], [ 9.758471, 52.388602 ], [ 9.759122, 52.388477 ], [ 9.75968, 52.388319 ], [ 9.76013, 52.388104 ], [ 9.760394, 52.387966 ], [ 9.76043, 52.387943 ], [ 9.760605, 52.38783 ], [ 9.76087, 52.387619 ], [ 9.761202, 52.387373 ], [ 9.761614, 52.386998 ], [ 9.761884, 52.386729 ], [ 9.762229, 52.386406 ], [ 9.7625, 52.386049 ], [ 9.762637, 52.385766 ], [ 9.762789, 52.38553 ], [ 9.76288, 52.385433 ], [ 9.76316, 52.385133 ], [ 9.763863, 52.384563 ], [ 9.764328, 52.384273 ], [ 9.764662, 52.384009 ], [ 9.764693, 52.383984 ] ] } },
{ "type": "Feature", "properties": { "cls": "shared", "highway": "cycleway", "name": null }, "geometry": { "type": "LineString", "coordinates": [ [ 9.763734, 52.386089 ], [ 9.762928, 52.387276 ], [ 9.762519, 52.387708 ], [ 9.762173, 52.387949 ], [ 9.761286, 52.388319 ], [ 9.76065, 52.388597 ], [ 9.759195, 52.389399 ], [ 9.758865, 52.389551 ], [ 9.758631, 52.389851 ] ] } },
{ "type": "Feature", "properties": { "cls": "shared", "highway": "path", "name": null }, "geometry": { "type": "LineString", "coordinates": [ [ 9.76496, 52.393279 ], [ 9.764877, 52.393669 ], [ 9.764871, 52.39369 ], [ 9.764845, 52.393731 ] ] } },
{ "type": "Feature", "properties": { "cls": "separated", "highway": "cycleway", "name": null }, "geometry": { "type": "LineString", "coordinates": [ [ 9.762339, 52.392442 ], [ 9.763517, 52.392968 ], [ 9.764241, 52.393206 ], [ 9.764602, 52.393252 ], [ 9.76496, 52.393279 ], [ 9.765329, 52.393318 ], [ 9.765805, 52.393337 ], [ 9.766124, 52.393379 ], [ 9.766723, 52.393536 ], [ 9.76751, 52.393642 ], [ 9.767772, 52.393696 ], [ 9.768404, 52.393821 ], [ 9.76894, 52.393958 ], [ 9.769424, 52.394113 ], [ 9.769785, 52.394256 ], [ 9.770094, 52.394412 ], [ 9.770391, 52.394554 ] ] } },
{ "type": "Feature", "properties": { "cls": "shared", "highway": "path", "name": null }, "geometry": { "type": "LineString", "coordinates": [ [ 9.765291, 52.393808 ], [ 9.765417, 52.393779 ], [ 9.765805, 52.393337 ] ] } },
{ "type": "Feature", "properties": { "cls": "separated", "highway": "path", "name": null }, "geometry": { "type": "LineString", "coordinates": [ [ 9.754499, 52.389451 ], [ 9.754442, 52.389417 ], [ 9.754358, 52.389371 ] ] } },
{ "type": "Feature", "properties": { "cls": "separated", "highway": "cycleway", "name": null }, "geometry": { "type": "LineString", "coordinates": [ [ 9.754335, 52.389521 ], [ 9.754442, 52.389417 ] ] } },
{ "type": "Feature", "properties": { "cls": "separated", "highway": "path", "name": null }, "geometry": { "type": "LineString", "coordinates": [ [ 9.754716, 52.389579 ], [ 9.754499, 52.389451 ] ] } },
{ "type": "Feature", "properties": { "cls": "separated", "highway": "cycleway", "name": null }, "geometry": { "type": "Point", "coordinates": [ 9.75458, 52.389667 ] } },
{ "type": "Feature", "properties": { "cls": "advisory", "highway": "tertiary", "name": "Burckhardtstraße" }, "geometry": { "type": "Point", "coordinates": [ 9.75458, 52.389667 ] } },
{ "type": "Feature", "properties": { "cls": "shared", "highway": "path", "name": null }, "geometry": { "type": "LineString", "coordinates": [ [ 9.755884, 52.390237 ], [ 9.756371, 52.390484 ], [ 9.756481, 52.390537 ] ] } },
{ "type": "Feature", "properties": { "cls": "shared", "highway": "cycleway", "name": null }, "geometry": { "type": "LineString", "coordinates": [ [ 9.758551, 52.390817 ], [ 9.758543, 52.390712 ], [ 9.758525, 52.39036 ], [ 9.758538, 52.390135 ], [ 9.758588, 52.390003 ], [ 9.758631, 52.389851 ] ] } },
{ "type": "Feature", "properties": { "cls": "separated", "highway": "cycleway", "name": null }, "geometry": { "type": "LineString", "coordinates": [ [ 9.756425, 52.390607 ], [ 9.756268, 52.390598 ] ] } },
{ "type": "Feature", "properties": { "cls": "shared", "highway": "path", "name": null }, "geometry": { "type": "LineString", "coordinates": [ [ 9.757862, 52.390799 ], [ 9.757519, 52.39073 ], [ 9.756925, 52.390611 ], [ 9.756481, 52.390537 ] ] } },
{ "type": "Feature", "properties": { "cls": "shared", "highway": "cycleway", "name": "Alte Rennstrecke" }, "geometry": { "type": "LineString", "coordinates": [ [ 9.758541, 52.390911 ], [ 9.757862, 52.390799 ] ] } },
{ "type": "Feature", "properties": { "cls": "shared", "highway": "cycleway", "name": null }, "geometry": { "type": "LineString", "coordinates": [ [ 9.758541, 52.390911 ], [ 9.758551, 52.390817 ] ] } },
{ "type": "Feature", "properties": { "cls": "shared", "highway": "path", "name": null }, "geometry": { "type": "LineString", "coordinates": [ [ 9.758344, 52.391575 ], [ 9.758369, 52.39152 ], [ 9.758216, 52.391489 ], [ 9.758339, 52.391254 ], [ 9.758541, 52.390911 ] ] } },
{ "type": "Feature", "properties": { "cls": "separated", "highway": "cycleway", "name": null }, "geometry": { "type": "LineString", "coordinates": [ [ 9.756481, 52.390537 ], [ 9.756823, 52.39065 ], [ 9.757133, 52.390775 ], [ 9.757582, 52.391002 ], [ 9.758339, 52.391254 ], [ 9.758792, 52.391309 ], [ 9.759342, 52.391363 ], [ 9.760022, 52.391464 ], [ 9.760665, 52.391689 ], [ 9.761028, 52.391852 ], [ 9.761283, 52.391979 ], [ 9.761816, 52.39222 ], [ 9.762339, 52.392442 ] ] } }
]
}
