{
"type": "FeatureCollection",
"name": "133-chorzow-silesian-park",
"crs": { "type": "name", "properties": { "name": "urn:ogc:def:crs:OGC:1.3:CRS84" } },
"xy_coordinate_resolution": 1e-06,
"features": [
{ "type": "Feature", "properties": { "cls": "shared", "highway": "path", "name": null }, "geometry": { "type": "LineString", "coordinates": [ [ 18.986003, 50.276354 ], [ 18.986014, 50.276371 ], [ 18.98602, 50.276385 ], [ 18.986023, 50.276415 ] ] } },
{ "type": "Feature", "properties": { "cls": "shared", "highway": "pedestrian", "name": "Aleja Spacerowa" }, "geometry": { "type": "LineString", "coordinates": [ [ 18.977674, 50.281772 ], [ 18.977792, 50.281698 ], [ 18.97794, 50.281598 ], [ 18.980268, 50.280166 ], [ 18.982867, 50.278475 ], [ 18.984545, 50.277377 ], [ 18.984807, 50.277226 ] ] } },
{ "type": "Feature", "properties": { "cls": "shared", "highway": "footway", "name": null }, "geometry": { "type": "MultiLineString", "coordinates": [ [ [ 18.980799, 50.279397 ], [ 18.979938, 50.279956 ], [ 18.979704, 50.280103 ] ], [ [ 18.97611, 50.282353 ], [ 18.97598, 50.282435 ], [ 18.975853, 50.282515 ], [ 18.975742, 50.282584 ], [ 18.97563, 50.282655 ], [ 18.975516, 50.282727 ], [ 18.975387, 50.282808 ] ] ] } },
{ "type": "Feature", "properties": { "cls": "shared", "highway": "pedestrian", "name": "Aleja Spacerowa" }, "geometry": { "type": "LineString", "coordinates": [ [ 18.977293, 50.282016 ], [ 18.977418, 50.281938 ], [ 18.977674, 50.281772 ] ] } },
{ "type": "Feature", "properties": { "cls": "separated", "highway": "path", "name": "Promenada generała Jerzego Ziętka" }, "geometry": { "type": "LineString", "coordinates": [ [ 18.978682, 50.287319 ], [ 18.978741, 50.287217 ], [ 18.978793, 50.287135 ], [ 18.979021, 50.286794 ], [ 18.979168, 50.2866 ], [ 18.979284, 50.286463 ], [ 18.979381, 50.286354 ], [ 18.979545, 50.286186 ], [ 18.979646, 50.28609 ], [ 18.979755, 50.285988 ], [ 18.980003, 50.285773 ], [ 18.98004, 50.285743 ], [ 18.980091, 50.285702 ], [ 18.980186, 50.285627 ], [ 18.980204, 50.285616 ] ] } },
{ "type": "Feature", "properties": { "cls": "separated", "highway": "cycleway", "name": "Aleja Wiązowa" }, "geometry": { "type": "LineString", "coordinates": [ [ 18.976535, 50.286771 ], [ 18.978388, 50.287244 ], [ 18.978682, 50.287319 ] ] } },
{ "type": "Feature", "properties": { "cls": "separated", "highway": "path", "name": "Promenada generała Jerzego Ziętka" }, "geometry": { "type": "LineString", "coordinates": [ [ 18.977481, 50.290794 ], [ 18.977484, 50.290756 ], [ 18.977493, 50.290693 ], [ 18.977523, 50.290482 ], [ 18.977572, 50.290239 ], [ 18.977601, 50.290101 ], [ 18.977633, 50.289935 ], [ 18.977639, 50.289912 ], [ 18.977682, 50.289744 ], [ 18.977694, 50.289698 ], [ 18.977782, 50.289387 ], [ 18.977876, 50.289087 ], [ 18.977883, 50.289063 ], [ 18.977889, 50.289047 ], [ 18.97792, 50.288959 ], [ 18.977954, 50.288848 ], [ 18.97799, 50.28876 ], [ 18.977999, 50.288738 ], [ 18.978145, 50.288396 ], [ 18.978258, 50.288129 ], [ 18.978363, 50.28791 ], [ 18.97845, 50.28774 ], [ 18.97863, 50.287413 ], [ 18.978663, 50.287353 ], [ 18.978682, 50.287319 ] ] } },
{ "type": "Feature", "properties": { "cls": "separated", "highway": "path", "name": "Aleja Harcerska" }, "geometry": { "type": "LineString", "coordinates": [ [ 18.977469, 50.290887 ], [ 18.977409, 50.290884 ], [ 18.977079, 50.290866 ], [ 18.976969, 50.290859 ], [ 18.976663, 50.290843 ], [ 18.97654, 50.290836 ], [ 18.976071, 50.290809 ], [ 18.975594, 50.290783 ] ] } },
{ "type": "Feature", "properties": { "cls": "shared", "highway": "pedestrian", "name": "Aleja Leśna" }, "geometry": { "type": "LineString", "coordinates": [ [ 18.994034, 50.278147 ], [ 18.994069, 50.278168 ], [ 18.99418, 50.278235 ] ] } },
{ "type": "Feature", "properties": { "cls": "separated", "highway": "cycleway", "name": "Promenada Generała Jerzego Ziętka" }, "geometry": { "type": "LineString", "coordinates": [ [ 18.990963, 50.280301 ], [ 18.990993, 50.280282 ], [ 18.991862, 50.279722 ], [ 18.991952, 50.279664 ], [ 18.992459, 50.279339 ], [ 18.992546, 50.279284 ], [ 18.99304, 50.278967 ], [ 18.993135, 50.278905 ], [ 18.993635, 50.278585 ], [ 18.993736, 50.27852 ], [ 18.99418, 50.278235 ] ] } },
{ "type": "Feature", "properties": { "cls": "shared", "highway": "pedestrian", "name": "Aleja Leśna" }, "geometry": { "type": "LineString", "coordinates": [ [ 18.99418, 50.278235 ], [ 18.994253, 50.278281 ], [ 18.996151, 50.279508 ], [ 18.997089, 50.280113 ], [ 18.997515, 50.280389 ], [ 18.997578, 50.280429 ], [ 18.999039, 50.281358 ], [ 18.999764, 50.281822 ], [ 19.000128, 50.282057 ], [ 19.000499, 50.282292 ], [ 19.000772, 50.282455 ], [ 19.000791, 50.28248 ] ] } },
{ "type": "Feature", "properties": { "cls": "shared", "highway": "pedestrian", "name": "Aleja Leśna" }, "geometry": { "type": "LineString", "coordinates": [ [ 19.000791, 50.28248 ], [ 19.000972, 50.282713 ], [ 19.000945, 50.282912 ], [ 19.00052, 50.283499 ], [ 18.999415, 50.285029 ], [ 18.999369, 50.285145 ], [ 18.999243, 50.285594 ], [ 18.999131, 50.286522 ], [ 18.999095, 50.286603 ] ] } },
{ "type": "Feature", "properties": { "cls": "shared", "highway": "pedestrian", "name": "Aleja Leśna" }, "geometry": { "type": "LineString", "coordinates": [ [ 18.999095, 50.286603 ], [ 18.998932, 50.28694 ], [ 18.998825, 50.287078 ], [ 18.998725, 50.287187 ], [ 18.998302, 50.287438 ], [ 18.997705, 50.287804 ], [ 18.997599, 50.287907 ], [ 18.997549, 50.28799 ], [ 18.997508, 50.288121 ], [ 18.997499, 50.288271 ], [ 18.99754, 50.28848 ], [ 18.997752, 50.288876 ], [ 18.998758, 50.29032 ], [ 18.998808, 50.2904 ], [ 18.998861, 50.2905 ], [ 18.998906, 50.290599 ], [ 18.998927, 50.290653 ], [ 18.998941, 50.290704 ], [ 18.998949, 50.290757 ], [ 18.998956, 50.290826 ], [ 18.998957, 50.290894 ], [ 18.998944, 50.291051 ], [ 18.998925, 50.291122 ] ] } },
{ "type": "Feature", "properties": { "cls": "shared", "highway": "pedestrian", "name": "Aleja Leśna" }, "geometry": { "type": "LineString", "coordinates": [ [ 18.998925, 50.291122 ], [ 18.998899, 50.291221 ], [ 18.998854, 50.291305 ], [ 18.998793, 50.291383 ], [ 18.998728, 50.29144 ], [ 18.998661, 50.291492 ], [ 18.9986, 50.291541 ], [ 18.998546, 50.291585 ], [ 18.998439, 50.291671 ] ] } },
{ "type": "Feature", "properties": { "cls": "separated", "highway": "path", "name": null }, "geometry": { "type": "LineString", "coordinates": [ [ 18.985776, 50.276495 ], [ 18.985796, 50.276509 ], [ 18.985844, 50.276543 ], [ 18.985875, 50.276569 ], [ 18.985896, 50.27659 ], [ 18.985916, 50.276616 ], [ 18.985928, 50.276636 ], [ 18.98595, 50.276683 ], [ 18.985971, 50.276731 ] ] } },
{ "type": "Feature", "properties": { "cls": "shared", "highway": "path", "name": null }, "geometry": { "type": "LineString", "coordinates": [ [ 18.986023, 50.276415 ], [ 18.986044, 50.276716 ], [ 18.986024, 50.276757 ], [ 18.985976, 50.276803 ] ] } },
{ "type": "Feature", "properties": { "cls": "shared", "highway": "pedestrian", "name": "Promenada Generała Jerzego Ziętka" }, "geometry": { "type": "LineString", "coordinates": [ [ 18.990451, 50.280626 ], [ 18.990493, 50.2806 ], [ 18.990704, 50.280467 ], [ 18.990924, 50.280326 ], [ 18.990963, 50.280301 ] ] } },
{ "type": "Feature", "properties": { "cls": "separated", "highway": "cycleway", "name": "Promenada generała Jerzego Ziętka" }, "geometry": { "type": "LineString", "coordinates": [ [ 18.987233, 50.28271 ], [ 18.987265, 50.282688 ], [ 18.987481, 50.282534 ], [ 18.987672, 50.282409 ], [ 18.987723, 50.282376 ], [ 18.987759, 50.282352 ], [ 18.988258, 50.282031 ], [ 18.988287, 50.282012 ], [ 18.988352, 50.28197 ], [ 18.988847, 50.281649 ], [ 18.988902, 50.281614 ], [ 18.98895, 50.281583 ], [ 18.989436, 50.281268 ], [ 18.989485, 50.281236 ], [ 18.989492, 50.281232 ], [ 18.989538, 50.281201 ], [ 18.990451, 50.280626 ] ] } },
{ "type": "Feature", "properties": { "cls": "shared", "highway": "pedestrian", "name": "Promenada generała Jerzego Ziętka" }, "geometry": { "type": "LineString", "coordinates": [ [ 18.987099, 50.282847 ], [ 18.987233, 50.28271 ] ] } },
{ "type": "Feature", "properties": { "cls": "shared", "highway": "pedestrian", "name": "Aleja Fali" }, "geometry": { "type": "LineString", "coordinates": [ [ 18.982549, 50.286573 ], [ 18.982666, 50.286592 ], [ 18.982761, 50.286595 ], [ 18.982926, 50.286596 ], [ 18.983145, 50.286596 ], [ 18.98336, 50.286595 ], [ 18.983471, 50.286587 ], [ 18.983564, 50.286576 ], [ 18.98368, 50.286558 ], [ 18.983772, 50.286538 ], [ 18.983868, 50.28651 ], [ 18.983982, 50.286463 ], [ 18.984067, 50.28642 ], [ 18.98414, 50.286378 ], [ 18.984192, 50.286341 ], [ 18.984254, 50.286282 ], [ 18.984299, 50.286217 ], [ 18.98435, 50.28613 ], [ 18.984464, 50.28589 ], [ 18.98465, 50.28539 ], [ 18.984795, 50.285113 ], [ 18.985173, 50.284595 ], [ 18.985726, 50.283996 ], [ 18.985962, 50.283692 ], [ 18.986001, 50.283643 ], [ 18.986234, 50.28342 ], [ 18.986452, 50.283284 ], [ 18.986889, 50.283015 ], [ 18.98698, 50.28295 ], [ 18.987051, 50.282893 ], [ 18.987099, 50.282847 ] ] } },
{ "type": "Feature", "properties": { "cls": "separated", "highway": "cycleway", "name": "Wycieczkowa" }, "geometry": { "type": "LineString", "coordinates": [ [ 18.978673, 50.294101 ], [ 18.978757, 50.294083 ], [ 18.978864, 50.294069 ], [ 18.978972, 50.29407 ], [ 18.979051, 50.294084 ], [ 18.979182, 50.294124 ], [ 18.979288, 50.294174 ], [ 18.97941, 50.294222 ], [ 18.979494, 50.294277 ], [ 18.979558, 50.29434 ], [ 18.979588, 50.2944 ], [ 18.979623, 50.294474 ], [ 18.979663, 50.294534 ], [ 18.979728, 50.294598 ], [ 18.979825, 50.294674 ], [ 18.979931, 50.29473 ], [ 18.980108, 50.294801 ], [ 18.980299, 50.294878 ], [ 18.980311, 50.294883 ], [ 18.980874, 50.295042 ], [ 18.980994, 50.295111 ], [ 18.981024, 50.295136 ], [ 18.98103, 50.295141 ], [ 18.98125, 50.295422 ], [ 18.981295, 50.295468 ], [ 18.981385, 50.295555 ], [ 18.981488, 50.295634 ], [ 18.981597, 50.295702 ], [ 18.981705, 50.295751 ], [ 18.9819, 50.295823 ], [ 18.982396, 50.295936 ], [ 18.982734, 50.296024 ], [ 18.983037, 50.296126 ], [ 18.983253, 50.296224 ], [ 18.983328, 50.296256 ] ] } },
{ "type": "Feature", "properties": { "cls": "separated", "highway": "pedestrian", "name": "Aleja Leśna" }, "geometry": { "type": "LineString", "coordinates": [ [ 18.982812, 50.296888 ], [ 18.982883, 50.296915 ], [ 18.982991, 50.296935 ], [ 18.98316, 50.296954 ], [ 18.984024, 50.297039 ], [ 18.984226, 50.297064 ], [ 18.984461, 50.297101 ], [ 18.984991, 50.297181 ], [ 18.985732, 50.297312 ], [ 18.986042, 50.297327 ], [ 18.986375, 50.297288 ], [ 18.986635, 50.297225 ], [ 18.986907, 50.297094 ], [ 18.987128, 50.296954 ], [ 18.987457, 50.296702 ], [ 18.989111, 50.295433 ], [ 18.989339, 50.29533 ], [ 18.989715, 50.295252 ], [ 18.992226, 50.295092 ] ] } },
{ "type": "Feature", "properties": { "cls": "separated", "highway": "pedestrian", "name": "Aleja Leśna" }, "geometry": { "type": "LineString", "coordinates": [ [ 18.998068, 50.294919 ], [ 18.998247, 50.294401 ], [ 18.99833, 50.293612 ], [ 18.998382, 50.293155 ], [ 18.99841, 50.292961 ], [ 18.998504, 50.292734 ], [ 18.998585, 50.292636 ], [ 18.998841, 50.292477 ], [ 18.999277, 50.292242 ], [ 18.999332, 50.292214 ] ] } },
{ "type": "Feature", "properties": { "cls": "separated", "highway": "pedestrian", "name": "Aleja Leśna" }, "geometry": { "type": "LineString", "coordinates": [ [ 18.99321, 50.295047 ], [ 18.993422, 50.295027 ], [ 18.993619, 50.294996 ], [ 18.993865, 50.294927 ], [ 18.993988, 50.294893 ], [ 18.99403, 50.294884 ] ] } },
{ "type": "Feature", "properties": { "cls": "separated", "highway": "pedestrian", "name": "Aleja Leśna" }, "geometry": { "type": "MultiLineString", "coordinates": [ [ [ 18.994576, 50.294845 ], [ 18.994699, 50.294848 ], [ 18.994703, 50.294849 ] ], [ [ 18.994994, 50.294903 ], [ 18.995179, 50.294938 ], [ 18.996431, 50.2952 ], [ 18.996692, 50.295229 ], [ 18.997014, 50.29522 ], [ 18.997166, 50.295207 ], [ 18.997352, 50.295195 ], [ 18.997681, 50.295164 ], [ 18.997864, 50.295141 ], [ 18.997952, 50.295093 ], [ 18.998068, 50.294919 ] ] ] } },
{ "type": "Feature", "properties": { "cls": "separated", "highway": "pedestrian", "name": "Aleja Leśna" }, "geometry": { "type": "LineString", "coordinates": [ [ 18.992226, 50.295092 ], [ 18.99321, 50.295047 ] ] } },
{ "type": "Feature", "properties": { "cls": "separated", "highway": "cycleway", "name": null }, "geometry": { "type": "LineString", "coordinates": [ [ 19.004341, 50.295351 ], [ 19.004372, 50.295278 ], [ 19.004376, 50.29527 ] ] } },
{ "type": "Feature", "properties": { "cls": "separated", "highway": "cycleway", "name": null }, "geometry": { "type": "LineString", "coordinates": [ [ 19.00438, 50.295352 ], [ 19.004341, 50.295351 ], [ 19.004319, 50.295399 ], [ 19.004306, 50.295411 ] ] } },
{ "type": "Feature", "properties": { "cls": "shared", "highway": "pedestrian", "name": "Aleja Spacerowa" }, "geometry": { "type": "LineString", "coordinates": [ [ 18.976051, 50.282858 ], [ 18.976085, 50.282823 ], [ 18.97612, 50.282798 ], [ 18.976471, 50.282555 ], [ 18.977293, 50.282016 ] ] } },
{ "type": "Feature", "properties": { "cls": "separated", "highway": "cycleway", "name": null }, "geometry": { "type": "LineString", "coordinates": [ [ 18.974797, 50.286324 ], [ 18.97485, 50.286239 ], [ 18.974871, 50.28623 ], [ 18.974897, 50.286228 ], [ 18.974933, 50.286232 ], [ 18.974967, 50.286241 ], [ 18.974994, 50.286252 ], [ 18.975018, 50.28627 ], [ 18.975043, 50.286292 ], [ 18.975143, 50.286389 ], [ 18.975196, 50.286427 ] ] } },
{ "type": "Feature", "properties": { "cls": "separated", "highway": "cycleway", "name": "Aleja Wiązowa" }, "geometry": { "type": "LineString", "coordinates": [ [ 18.974797, 50.286324 ], [ 18.975196, 50.286427 ], [ 18.976535, 50.286771 ] ] } },
{ "type": "Feature", "properties": { "cls": "shared", "highway": "path", "name": null }, "geometry": { "type": "LineString", "coordinates": [ [ 18.974235, 50.290437 ], [ 18.974203, 50.290424 ], [ 18.974171, 50.290411 ] ] } },
{ "type": "Feature", "properties": { "cls": "separated", "highway": "cycleway", "name": null }, "geometry": { "type": "LineString", "coordinates": [ [ 18.974235, 50.290437 ], [ 18.974276, 50.290471 ], [ 18.974284, 50.290479 ], [ 18.97429, 50.290488 ], [ 18.974294, 50.290499 ], [ 18.974336, 50.29059 ] ] } },
{ "type": "Feature", "properties": { "cls": "separated", "highway": "cycleway", "name": null }, "geometry": { "type": "LineString", "coordinates": [ [ 18.974336, 50.29059 ], [ 18.974335, 50.290617 ], [ 18.974334, 50.290644 ] ] } },
{ "type": "Feature", "properties": { "cls": "separated", "highway": "path", "name": null }, "geometry": { "type": "LineString", "coordinates": [ [ 18.972439, 50.290209 ], [ 18.972623, 50.290228 ] ] } },
{ "type": "Feature", "properties": { "cls": "separated", "highway": "cycleway", "name": null }, "geometry": { "type": "LineString", "coordinates": [ [ 18.97231, 50.29024 ], [ 18.972323, 50.290234 ], [ 18.972339, 50.290226 ], [ 18.972352, 50.290221 ], [ 18.972364, 50.290217 ], [ 18.972393, 50.290211 ], [ 18.97242, 50.290209 ], [ 18.972439, 50.290209 ] ] } },
{ "type": "Feature", "properties": { "cls": "separated", "highway": "path", "name": null }, "geometry": { "type": "LineString", "coordinates": [ [ 18.972623, 50.290228 ], [ 18.972775, 50.290252 ], [ 18.972939, 50.290277 ], [ 18.972992, 50.290282 ], [ 18.973053, 50.290286 ] ] } },
{ "type": "Feature", "properties": { "cls": "separated", "highway": "cycleway", "name": null }, "geometry": { "type": "LineString", "coordinates": [ [ 18.972272, 50.29026 ], [ 18.972291, 50.29025 ], [ 18.97231, 50.29024 ] ] } },
{ "type": "Feature", "properties": { "cls": "separated", "highway": "cycleway", "name": null }, "geometry": { "type": "LineString", "coordinates": [ [ 18.97224, 50.290276 ], [ 18.972272, 50.29026 ] ] } },
{ "type": "Feature", "properties": { "cls": "separated", "highway": "cycleway", "name": null }, "geometry": { "type": "LineString", "coordinates": [ [ 18.972185, 50.290306 ], [ 18.972213, 50.290291 ], [ 18.97224, 50.290276 ] ] } },
{ "type": "Feature", "properties": { "cls": "separated", "highway": "path", "name": null }, "geometry": { "type": "LineString", "coordinates": [ [ 18.973053, 50.290286 ], [ 18.973085, 50.290288 ], [ 18.973244, 50.290297 ], [ 18.973383, 50.290306 ], [ 18.973687, 50.290321 ], [ 18.97388, 50.290333 ], [ 18.973935, 50.290337 ], [ 18.973967, 50.290341 ], [ 18.974012, 50.290351 ], [ 18.974048, 50.290362 ], [ 18.974171, 50.290411 ] ] } },
{ "type": "Feature", "properties": { "cls": "separated", "highway": "cycleway", "name": null }, "geometry": { "type": "LineString", "coordinates": [ [ 18.971983, 50.290463 ], [ 18.971994, 50.290446 ], [ 18.972008, 50.290428 ], [ 18.972017, 50.290418 ], [ 18.972029, 50.290409 ], [ 18.972106, 50.290359 ], [ 18.972145, 50.290333 ], [ 18.972185, 50.290306 ] ] } },
{ "type": "Feature", "properties": { "cls": "separated", "highway": "cycleway", "name": null }, "geometry": { "type": "LineString", "coordinates": [ [ 18.971973, 50.290518 ], [ 18.971978, 50.29049 ], [ 18.971983, 50.290463 ] ] } },
{ "type": "Feature", "properties": { "cls": "separated", "highway": "cycleway", "name": null }, "geometry": { "type": "LineString", "coordinates": [ [ 18.971967, 50.290553 ], [ 18.971973, 50.290518 ] ] } },
{ "type": "Feature", "properties": { "cls": "separated", "highway": "cycleway", "name": null }, "geometry": { "type": "LineString", "coordinates": [ [ 18.971957, 50.290608 ], [ 18.971962, 50.29058 ], [ 18.971967, 50.290553 ] ] } },
{ "type": "Feature", "properties": { "cls": "separated", "highway": "path", "name": null }, "geometry": { "type": "LineString", "coordinates": [ [ 18.970528, 50.290579 ], [ 18.970427, 50.290573 ], [ 18.970326, 50.290568 ] ] } },
{ "type": "Feature", "properties": { "cls": "separated", "highway": "path", "name": null }, "geometry": { "type": "LineString", "coordinates": [ [ 18.971969, 50.290658 ], [ 18.97171, 50.290643 ], [ 18.971255, 50.290618 ], [ 18.970528, 50.290579 ] ] } },
{ "type": "Feature", "properties": { "cls": "separated", "highway": "cycleway", "name": null }, "geometry": { "type": "LineString", "coordinates": [ [ 18.971969, 50.290658 ], [ 18.971957, 50.290608 ] ] } },
{ "type": "Feature", "properties": { "cls": "separated", "highway": "path", "name": null }, "geometry": { "type": "LineString", "coordinates": [ [ 18.974006, 50.290693 ], [ 18.973987, 50.290692 ], [ 18.973956, 50.290693 ], [ 18.973891, 50.290697 ], [ 18.973832, 50.290699 ], [ 18.973775, 50.290696 ], [ 18.97365, 50.290688 ], [ 18.973353, 50.290671 ], [ 18.973307, 50.290669 ], [ 18.973279, 50.290676 ], [ 18.973246, 50.290693 ], [ 18.973186, 50.290733 ] ] } },
{ "type": "Feature", "properties": { "cls": "separated", "highway": "path", "name": null }, "geometry": { "type": "LineString", "coordinates": [ [ 18.972184, 50.290714 ], [ 18.97203, 50.290672 ], [ 18.972013, 50.290667 ], [ 18.971995, 50.290659 ], [ 18.971969, 50.290658 ] ] } },
{ "type": "Feature", "properties": { "cls": "separated", "highway": "cycleway", "name": null }, "geometry": { "type": "LineString", "coordinates": [ [ 18.974334, 50.290644 ], [ 18.974331, 50.29068 ], [ 18.97433, 50.290686 ], [ 18.974331, 50.290691 ], [ 18.974334, 50.290696 ], [ 18.974337, 50.290701 ], [ 18.974342, 50.290707 ], [ 18.974347, 50.290712 ] ] } },
{ "type": "Feature", "properties": { "cls": "separated", "highway": "path", "name": "Aleja Harcerska" }, "geometry": { "type": "LineString", "coordinates": [ [ 18.975477, 50.290776 ], [ 18.974767, 50.290736 ], [ 18.974347, 50.290712 ], [ 18.974181, 50.290703 ], [ 18.974006, 50.290693 ] ] } },
{ "type": "Feature", "properties": { "cls": "separated", "highway": "path", "name": "Aleja Harcerska" }, "geometry": { "type": "LineString", "coordinates": [ [ 18.975594, 50.290783 ], [ 18.975535, 50.29078 ], [ 18.975477, 50.290776 ] ] } },
{ "type": "Feature", "properties": { "cls": "separated", "highway": "cycleway", "name": null }, "geometry": { "type": "LineString", "coordinates": [ [ 18.975929, 50.291681 ], [ 18.975914, 50.291662 ], [ 18.975903, 50.29164 ], [ 18.975897, 50.291615 ], [ 18.975886, 50.29159 ] ] } },
{ "type": "Feature", "properties": { "cls": "separated", "highway": "cycleway", "name": null }, "geometry": { "type": "LineString", "coordinates": [ [ 18.975969, 50.291683 ], [ 18.975995, 50.291701 ], [ 18.976026, 50.291715 ], [ 18.976064, 50.291729 ], [ 18.976114, 50.291734 ], [ 18.97615, 50.291715 ], [ 18.976166, 50.291686 ], [ 18.976165, 50.291661 ], [ 18.976159, 50.291635 ] ] } },
{ "type": "Feature", "properties": { "cls": "separated", "highway": "cycleway", "name": null }, "geometry": { "type": "LineString", "coordinates": [ [ 18.975685, 50.291635 ], [ 18.975748, 50.291614 ], [ 18.975886, 50.29159 ], [ 18.975969, 50.291573 ], [ 18.976048, 50.291567 ], [ 18.976115, 50.291571 ], [ 18.976153, 50.291585 ], [ 18.976172, 50.291606 ], [ 18.976175, 50.291623 ], [ 18.976159, 50.291635 ], [ 18.976131, 50.291626 ], [ 18.976102, 50.291625 ], [ 18.976069, 50.291636 ], [ 18.976001, 50.291671 ], [ 18.975969, 50.291683 ], [ 18.975929, 50.291681 ], [ 18.975872, 50.291712 ], [ 18.975858, 50.291727 ], [ 18.975858, 50.291743 ], [ 18.97587, 50.291764 ], [ 18.975875, 50.291782 ], [ 18.975865, 50.291796 ], [ 18.975847, 50.291804 ], [ 18.975778, 50.291814 ], [ 18.97575, 50.291809 ], [ 18.975727, 50.291796 ], [ 18.975701, 50.291771 ], [ 18.975667, 50.291733 ], [ 18.975685, 50.291635 ] ] } },
{ "type": "Feature", "properties": { "cls": "separated", "highway": "cycleway", "name": null }, "geometry": { "type": "LineString", "coordinates": [ [ 18.976462, 50.291768 ], [ 18.976437, 50.291768 ], [ 18.976415, 50.291768 ], [ 18.976398, 50.291769 ], [ 18.976382, 50.291771 ], [ 18.976368, 50.291775 ], [ 18.976358, 50.291778 ], [ 18.97635, 50.291782 ], [ 18.976345, 50.291785 ], [ 18.976339, 50.291788 ], [ 18.976333, 50.291793 ], [ 18.976327, 50.291801 ], [ 18.976322, 50.291808 ], [ 18.976319, 50.291813 ], [ 18.976318, 50.291819 ], [ 18.976317, 50.29183 ], [ 18.976317, 50.29185 ], [ 18.976321, 50.291987 ], [ 18.976323, 50.292051 ], [ 18.976323, 50.292058 ], [ 18.976324, 50.292077 ] ] } },
{ "type": "Feature", "properties": { "cls": "separated", "highway": "cycleway", "name": null }, "geometry": { "type": "LineString", "coordinates": [ [ 18.976372, 50.291987 ], [ 18.976321, 50.291987 ] ] } },
{ "type": "Feature", "properties": { "cls": "separated", "highway": "cycleway", "name": null }, "geometry": { "type": "LineString", "coordinates": [ [ 18.976324, 50.292077 ], [ 18.976339, 50.292091 ], [ 18.976355, 50.292101 ] ] } },
{ "type": "Feature", "properties": { "cls": "separated", "highway": "cycleway", "name": null }, "geometry": { "type": "LineString", "coordinates": [ [ 18.976313, 50.292115 ], [ 18.976319, 50.292096 ], [ 18.976324, 50.292077 ] ] } },
{ "type": "Feature", "properties": { "cls": "separated", "highway": "path", "name": "Aleja Harcerska" }, "geometry": { "type": "LineString", "coordinates": [ [ 18.980756, 50.291059 ], [ 18.980745, 50.291059 ], [ 18.98013, 50.291028 ], [ 18.979958, 50.29102 ], [ 18.979612, 50.291002 ], [ 18.978459, 50.290942 ], [ 18.978102, 50.290923 ], [ 18.977781, 50.290905 ], [ 18.977524, 50.29089 ], [ 18.977469, 50.290887 ] ] } },
{ "type": "Feature", "properties": { "cls": "separated", "highway": "cycleway", "name": null }, "geometry": { "type": "LineString", "coordinates": [ [ 18.976576, 50.291758 ], [ 18.976614, 50.291763 ] ] } },
{ "type": "Feature", "properties": { "cls": "separated", "highway": "cycleway", "name": null }, "geometry": { "type": "LineString", "coordinates": [ [ 18.976462, 50.291768 ], [ 18.976487, 50.291758 ], [ 18.976511, 50.291751 ] ] } },
{ "type": "Feature", "properties": { "cls": "separated", "highway": "cycleway", "name": null }, "geometry": { "type": "LineString", "coordinates": [ [ 18.976614, 50.291763 ], [ 18.976594, 50.291772 ], [ 18.976579, 50.291782 ] ] } },
{ "type": "Feature", "properties": { "cls": "separated", "highway": "cycleway", "name": null }, "geometry": { "type": "LineString", "coordinates": [ [ 18.976511, 50.291751 ], [ 18.976528, 50.291745 ], [ 18.976548, 50.291745 ], [ 18.976564, 50.29175 ], [ 18.976576, 50.291758 ], [ 18.976579, 50.291768 ], [ 18.976579, 50.291782 ], [ 18.976577, 50.291795 ], [ 18.976569, 50.291807 ], [ 18.976557, 50.291814 ], [ 18.976538, 50.291816 ], [ 18.97652, 50.291814 ], [ 18.976508, 50.291807 ], [ 18.976499, 50.291793 ], [ 18.976499, 50.291775 ], [ 18.976503, 50.291759 ], [ 18.976511, 50.291751 ] ] } },
{ "type": "Feature", "properties": { "cls": "separated", "highway": "cycleway", "name": null }, "geometry": { "type": "LineString", "coordinates": [ [ 18.976499, 50.291793 ], [ 18.976484, 50.291778 ], [ 18.976462, 50.291768 ] ] } },
{ "type": "Feature", "properties": { "cls": "separated", "highway": "cycleway", "name": null }, "geometry": { "type": "LineString", "coordinates": [ [ 18.976544, 50.291997 ], [ 18.976533, 50.291921 ], [ 18.97654, 50.291848 ], [ 18.976538, 50.291816 ] ] } },
{ "type": "Feature", "properties": { "cls": "separated", "highway": "cycleway", "name": null }, "geometry": { "type": "LineString", "coordinates": [ [ 18.97638, 50.291923 ], [ 18.976374, 50.291913 ], [ 18.976373, 50.291902 ], [ 18.976377, 50.291892 ], [ 18.976387, 50.291883 ], [ 18.976401, 50.291876 ], [ 18.976417, 50.291873 ], [ 18.976434, 50.291874 ], [ 18.976449, 50.291878 ], [ 18.976462, 50.291885 ], [ 18.976471, 50.291894 ], [ 18.976474, 50.291904 ], [ 18.976472, 50.291915 ], [ 18.976465, 50.291924 ], [ 18.976453, 50.291932 ], [ 18.97644, 50.291938 ], [ 18.976422, 50.291946 ], [ 18.976404, 50.291937 ], [ 18.976391, 50.291931 ], [ 18.97638, 50.291923 ] ] } },
{ "type": "Feature", "properties": { "cls": "separated", "highway": "cycleway", "name": null }, "geometry": { "type": "LineString", "coordinates": [ [ 18.97639, 50.291961 ], [ 18.976403, 50.291954 ], [ 18.976422, 50.291946 ], [ 18.976442, 50.291954 ], [ 18.976455, 50.29196 ], [ 18.976467, 50.291968 ], [ 18.976474, 50.291978 ], [ 18.976475, 50.291989 ], [ 18.976471, 50.292 ], [ 18.976461, 50.292009 ], [ 18.976447, 50.292016 ], [ 18.976433, 50.292019 ], [ 18.976418, 50.29202 ], [ 18.976403, 50.292017 ], [ 18.976391, 50.292012 ], [ 18.976381, 50.292005 ], [ 18.976374, 50.291996 ], [ 18.976372, 50.291987 ], [ 18.976374, 50.291977 ], [ 18.97638, 50.291969 ], [ 18.97639, 50.291961 ] ] } },
{ "type": "Feature", "properties": { "cls": "separated", "highway": "cycleway", "name": null }, "geometry": { "type": "LineString", "coordinates": [ [ 18.97642, 50.292127 ], [ 18.976495, 50.292126 ], [ 18.97653, 50.292123 ], [ 18.976582, 50.292123 ], [ 18.976628, 50.292123 ], [ 18.976734, 50.292123 ], [ 18.976764, 50.292123 ], [ 18.976834, 50.292122 ], [ 18.976859, 50.292122 ] ] } },
{ "type": "Feature", "properties": { "cls": "separated", "highway": "cycleway", "name": null }, "geometry": { "type": "LineString", "coordinates": [ [ 18.976562, 50.292277 ], [ 18.976542, 50.29225 ], [ 18.976533, 50.292233 ], [ 18.976527, 50.292216 ], [ 18.976525, 50.292189 ], [ 18.976525, 50.292171 ], [ 18.976525, 50.292142 ], [ 18.97653, 50.292123 ], [ 18.976535, 50.292108 ], [ 18.976534, 50.292084 ], [ 18.976534, 50.292076 ], [ 18.976533, 50.292066 ], [ 18.976544, 50.291997 ] ] } },
{ "type": "Feature", "properties": { "cls": "separated", "highway": "cycleway", "name": null }, "geometry": { "type": "LineString", "coordinates": [ [ 18.976544, 50.291997 ], [ 18.976582, 50.292057 ], [ 18.976584, 50.292076 ], [ 18.976585, 50.292107 ], [ 18.976582, 50.292123 ], [ 18.976578, 50.292142 ], [ 18.976573, 50.292161 ], [ 18.976572, 50.29217 ], [ 18.976572, 50.29218 ], [ 18.976571, 50.292232 ], [ 18.976562, 50.292277 ] ] } },
{ "type": "Feature", "properties": { "cls": "separated", "highway": "cycleway", "name": null }, "geometry": { "type": "LineString", "coordinates": [ [ 18.976362, 50.292267 ], [ 18.976456, 50.292267 ], [ 18.976464, 50.292279 ], [ 18.976467, 50.292397 ], [ 18.976467, 50.292405 ], [ 18.976467, 50.292418 ], [ 18.976454, 50.292426 ], [ 18.976383, 50.292428 ], [ 18.976359, 50.292421 ] ] } },
{ "type": "Feature", "properties": { "cls": "separated", "highway": "cycleway", "name": null }, "geometry": { "type": "LineString", "coordinates": [ [ 18.976567, 50.292448 ], [ 18.976567, 50.292443 ], [ 18.976567, 50.292424 ], [ 18.976567, 50.292404 ], [ 18.976562, 50.292277 ] ] } },
{ "type": "Feature", "properties": { "cls": "separated", "highway": "cycleway", "name": null }, "geometry": { "type": "LineString", "coordinates": [ [ 18.976467, 50.292397 ], [ 18.976372, 50.2924 ] ] } },
{ "type": "Feature", "properties": { "cls": "separated", "highway": "cycleway", "name": null }, "geometry": { "type": "LineString", "coordinates": [ [ 18.976399, 50.293021 ], [ 18.976423, 50.2931 ], [ 18.976427, 50.29311 ], [ 18.976435, 50.293127 ], [ 18.976444, 50.293134 ], [ 18.976453, 50.293138 ], [ 18.976463, 50.293143 ], [ 18.976474, 50.293145 ], [ 18.976485, 50.293146 ], [ 18.976503, 50.293146 ], [ 18.976547, 50.293145 ], [ 18.976753, 50.293141 ], [ 18.976772, 50.293137 ], [ 18.976785, 50.293131 ], [ 18.976799, 50.293121 ], [ 18.976803, 50.293113 ], [ 18.976806, 50.293103 ], [ 18.976807, 50.293093 ], [ 18.976808, 50.293082 ], [ 18.976809, 50.293049 ], [ 18.976811, 50.29298 ], [ 18.976797, 50.292824 ], [ 18.976856, 50.292167 ], [ 18.976859, 50.292122 ], [ 18.976856, 50.292029 ], [ 18.976792, 50.291825 ], [ 18.976788, 50.291811 ], [ 18.97678, 50.291799 ], [ 18.976766, 50.291789 ], [ 18.976751, 50.291779 ], [ 18.976724, 50.291769 ], [ 18.976694, 50.291764 ], [ 18.976614, 50.291763 ] ] } },
{ "type": "Feature", "properties": { "cls": "separated", "highway": "cycleway", "name": null }, "geometry": { "type": "LineString", "coordinates": [ [ 18.976571, 50.292624 ], [ 18.976521, 50.292596 ], [ 18.976493, 50.292567 ], [ 18.976489, 50.292539 ], [ 18.976493, 50.292493 ], [ 18.976501, 50.292481 ], [ 18.976526, 50.292462 ], [ 18.976567, 50.292448 ] ] } },
{ "type": "Feature", "properties": { "cls": "separated", "highway": "cycleway", "name": null }, "geometry": { "type": "LineString", "coordinates": [ [ 18.976567, 50.292448 ], [ 18.976593, 50.292468 ], [ 18.976616, 50.292485 ], [ 18.97662, 50.292531 ], [ 18.976619, 50.292579 ], [ 18.976619, 50.292621 ], [ 18.976606, 50.292637 ], [ 18.976572, 50.29266 ] ] } },
{ "type": "Feature", "properties": { "cls": "separated", "highway": "cycleway", "name": null }, "geometry": { "type": "LineString", "coordinates": [ [ 18.976575, 50.29274 ], [ 18.976573, 50.292712 ], [ 18.976572, 50.292701 ], [ 18.976572, 50.29266 ], [ 18.976571, 50.292624 ], [ 18.976567, 50.292448 ] ] } },
{ "type": "Feature", "properties": { "cls": "separated", "highway": "cycleway", "name": null }, "geometry": { "type": "LineString", "coordinates": [ [ 18.976331, 50.292508 ], [ 18.976374, 50.292556 ], [ 18.976461, 50.292717 ], [ 18.976478, 50.292732 ], [ 18.976496, 50.292739 ], [ 18.976517, 50.292741 ], [ 18.976549, 50.292741 ], [ 18.976575, 50.29274 ] ] } },
{ "type": "Feature", "properties": { "cls": "shared", "highway": "path", "name": null }, "geometry": { "type": "LineString", "coordinates": [ [ 18.972258, 50.290736 ], [ 18.972221, 50.290725 ], [ 18.972184, 50.290714 ] ] } },
{ "type": "Feature", "properties": { "cls": "shared", "highway": "path", "name": null }, "geometry": { "type": "LineString", "coordinates": [ [ 18.973186, 50.290733 ], [ 18.973149, 50.290749 ], [ 18.973111, 50.290762 ], [ 18.97307, 50.290772 ], [ 18.973027, 50.290779 ] ] } },
{ "type": "Feature", "properties": { "cls": "shared", "highway": "path", "name": null }, "geometry": { "type": "LineString", "coordinates": [ [ 18.973027, 50.290779 ], [ 18.972983, 50.290783 ], [ 18.972937, 50.290785 ], [ 18.97289, 50.290783 ], [ 18.972533, 50.290762 ], [ 18.972352, 50.290752 ], [ 18.972329, 50.29075 ], [ 18.972306, 50.290746 ], [ 18.972258, 50.290736 ] ] } },
{ "type": "Feature", "properties": { "cls": "separated", "highway": "cycleway", "name": null }, "geometry": { "type": "LineString", "coordinates": [ [ 18.976376, 50.29211 ], [ 18.976394, 50.292118 ], [ 18.97642, 50.292127 ] ] } },
{ "type": "Feature", "properties": { "cls": "separated", "highway": "cycleway", "name": null }, "geometry": { "type": "LineString", "coordinates": [ [ 18.976378, 50.292139 ], [ 18.97637, 50.292144 ], [ 18.976359, 50.292148 ], [ 18.976347, 50.292149 ], [ 18.976335, 50.292148 ], [ 18.976324, 50.292144 ], [ 18.976316, 50.292138 ], [ 18.976311, 50.292131 ], [ 18.97631, 50.292123 ], [ 18.976313, 50.292115 ], [ 18.976319, 50.292109 ], [ 18.976326, 50.292105 ], [ 18.976335, 50.292102 ], [ 18.976345, 50.292101 ], [ 18.976355, 50.292101 ], [ 18.976367, 50.292104 ], [ 18.976376, 50.29211 ], [ 18.976381, 50.292115 ], [ 18.976384, 50.292121 ], [ 18.976385, 50.292127 ], [ 18.976382, 50.292133 ], [ 18.976378, 50.292139 ] ] } },
{ "type": "Feature", "properties": { "cls": "separated", "highway": "cycleway", "name": null }, "geometry": { "type": "LineString", "coordinates": [ [ 18.97642, 50.292127 ], [ 18.976395, 50.292131 ], [ 18.976378, 50.292139 ] ] } },
{ "type": "Feature", "properties": { "cls": "separated", "highway": "cycleway", "name": null }, "geometry": { "type": "LineString", "coordinates": [ [ 18.976322, 50.292179 ], [ 18.976316, 50.292138 ] ] } },
{ "type": "Feature", "properties": { "cls": "separated", "highway": "cycleway", "name": null }, "geometry": { "type": "LineString", "coordinates": [ [ 18.976359, 50.292148 ], [ 18.976345, 50.292159 ], [ 18.976322, 50.292179 ] ] } },
{ "type": "Feature", "properties": { "cls": "separated", "highway": "cycleway", "name": null }, "geometry": { "type": "LineString", "coordinates": [ [ 18.976324, 50.292244 ], [ 18.976362, 50.292267 ], [ 18.97637, 50.29229 ], [ 18.976372, 50.2924 ], [ 18.976369, 50.292409 ], [ 18.976359, 50.292421 ], [ 18.976329, 50.292422 ] ] } },
{ "type": "Feature", "properties": { "cls": "separated", "highway": "cycleway", "name": null }, "geometry": { "type": "LineString", "coordinates": [ [ 18.976322, 50.292179 ], [ 18.976324, 50.292244 ], [ 18.976329, 50.292422 ], [ 18.976329, 50.292429 ], [ 18.976331, 50.292508 ], [ 18.976336, 50.292754 ], [ 18.976338, 50.292814 ], [ 18.976346, 50.292847 ], [ 18.976372, 50.292936 ] ] } },
{ "type": "Feature", "properties": { "cls": "separated", "highway": "cycleway", "name": null }, "geometry": { "type": "LineString", "coordinates": [ [ 18.975849, 50.293128 ], [ 18.975822, 50.293129 ], [ 18.975795, 50.293127 ], [ 18.975763, 50.293121 ], [ 18.975732, 50.293113 ], [ 18.975707, 50.293103 ], [ 18.975684, 50.293091 ], [ 18.975672, 50.293082 ], [ 18.975662, 50.293073 ], [ 18.97565, 50.293059 ], [ 18.975645, 50.293051 ], [ 18.975641, 50.293044 ], [ 18.97564, 50.293035 ], [ 18.975639, 50.293026 ], [ 18.975643, 50.293017 ], [ 18.97565, 50.293011 ], [ 18.975659, 50.293006 ], [ 18.975669, 50.293004 ], [ 18.97568, 50.293003 ], [ 18.975693, 50.293003 ], [ 18.975705, 50.293006 ], [ 18.975747, 50.293022 ], [ 18.975787, 50.293039 ], [ 18.975867, 50.293072 ], [ 18.975879, 50.29308 ], [ 18.975887, 50.293089 ], [ 18.97589, 50.293098 ], [ 18.975886, 50.293109 ], [ 18.975879, 50.293119 ], [ 18.975874, 50.293123 ], [ 18.975867, 50.293126 ], [ 18.975859, 50.293128 ], [ 18.975849, 50.293128 ] ] } },
{ "type": "Feature", "properties": { "cls": "separated", "highway": "path", "name": null }, "geometry": { "type": "LineString", "coordinates": [ [ 18.968358, 50.287416 ], [ 18.968347, 50.287409 ] ] } },
{ "type": "Feature", "properties": { "cls": "separated", "highway": "path", "name": null }, "geometry": { "type": "LineString", "coordinates": [ [ 18.96837, 50.287424 ], [ 18.968358, 50.287416 ] ] } },
{ "type": "Feature", "properties": { "cls": "separated", "highway": "cycleway", "name": null }, "geometry": { "type": "LineString", "coordinates": [ [ 18.968536, 50.287566 ], [ 18.968514, 50.287524 ], [ 18.968465, 50.287484 ], [ 18.96837, 50.287424 ] ] } },
{ "type": "Feature", "properties": { "cls": "separated", "highway": "cycleway", "name": null }, "geometry": { "type": "LineString", "coordinates": [ [ 18.96863, 50.290184 ], [ 18.96865, 50.290194 ] ] } },
{ "type": "Feature", "properties": { "cls": "separated", "highway": "cycleway", "name": null }, "geometry": { "type": "LineString", "coordinates": [ [ 18.96865, 50.290194 ], [ 18.968716, 50.290222 ], [ 18.968756, 50.290239 ], [ 18.968787, 50.290254 ], [ 18.968798, 50.290262 ], [ 18.968815, 50.290277 ] ] } },
{ "type": "Feature", "properties": { "cls": "separated", "highway": "path", "name": null }, "geometry": { "type": "LineString", "coordinates": [ [ 18.968815, 50.290277 ], [ 18.968828, 50.29029 ] ] } },
{ "type": "Feature", "properties": { "cls": "separated", "highway": "path", "name": null }, "geometry": { "type": "LineString", "coordinates": [ [ 18.968823, 50.290345 ], [ 18.968826, 50.290318 ], [ 18.968828, 50.29029 ] ] } },
{ "type": "Feature", "properties": { "cls": "shared", "highway": "path", "name": null }, "geometry": { "type": "LineString", "coordinates": [ [ 18.968818, 50.29038 ], [ 18.968823, 50.290345 ] ] } },
{ "type": "Feature", "properties": { "cls": "separated", "highway": "path", "name": null }, "geometry": { "type": "LineString", "coordinates": [ [ 18.968811, 50.290435 ], [ 18.968815, 50.290407 ], [ 18.968818, 50.29038 ] ] } },
{ "type": "Feature", "properties": { "cls": "separated", "highway": "path", "name": null }, "geometry": { "type": "LineString", "coordinates": [ [ 18.968811, 50.290435 ], [ 18.968806, 50.290485 ] ] } },
{ "type": "Feature", "properties": { "cls": "shared", "highway": "path", "name": null }, "geometry": { "type": "LineString", "coordinates": [ [ 18.968806, 50.290485 ], [ 18.968765, 50.290493 ] ] } },
{ "type": "Feature", "properties": { "cls": "separated", "highway": "path", "name": null }, "geometry": { "type": "LineString", "coordinates": [ [ 18.970326, 50.290568 ], [ 18.96989, 50.290543 ], [ 18.969732, 50.290535 ], [ 18.969605, 50.290529 ], [ 18.969445, 50.29052 ], [ 18.969395, 50.290517 ], [ 18.969315, 50.290513 ], [ 18.969238, 50.290508 ], [ 18.969158, 50.290504 ], [ 18.969099, 50.2905 ], [ 18.968806, 50.290485 ] ] } },
{ "type": "Feature", "properties": { "cls": "shared", "highway": "path", "name": null }, "geometry": { "type": "LineString", "coordinates": [ [ 18.968765, 50.290493 ], [ 18.968731, 50.290492 ], [ 18.968656, 50.290488 ], [ 18.968637, 50.290508 ] ] } },
{ "type": "Feature", "properties": { "cls": "separated", "highway": "cycleway", "name": null }, "geometry": { "type": "LineString", "coordinates": [ [ 18.976688, 50.292697 ], [ 18.976688, 50.292746 ], [ 18.976688, 50.292789 ] ] } },
{ "type": "Feature", "properties": { "cls": "separated", "highway": "cycleway", "name": null }, "geometry": { "type": "LineString", "coordinates": [ [ 18.976575, 50.29274 ], [ 18.976601, 50.292746 ], [ 18.976605, 50.292746 ], [ 18.976617, 50.292746 ], [ 18.976631, 50.292746 ], [ 18.976688, 50.292746 ] ] } },
{ "type": "Feature", "properties": { "cls": "separated", "highway": "cycleway", "name": null }, "geometry": { "type": "LineString", "coordinates": [ [ 18.97658, 50.293099 ], [ 18.976577, 50.292879 ], [ 18.976577, 50.292851 ], [ 18.976576, 50.292831 ], [ 18.976576, 50.292813 ], [ 18.976575, 50.29274 ] ] } },
{ "type": "Feature", "properties": { "cls": "separated", "highway": "cycleway", "name": null }, "geometry": { "type": "LineString", "coordinates": [ [ 18.976372, 50.292936 ], [ 18.976399, 50.293021 ] ] } },
{ "type": "Feature", "properties": { "cls": "separated", "highway": "cycleway", "name": "Wycieczkowa" }, "geometry": { "type": "LineString", "coordinates": [ [ 18.978527, 50.294089 ], [ 18.978579, 50.294106 ], [ 18.978606, 50.294107 ], [ 18.978621, 50.294108 ], [ 18.978673, 50.294101 ] ] } }
]
}
