{
"type": "FeatureCollection",
"name": "136-birmingham-red-mountain-park",
"crs": { "type": "name", "properties": { "name": "urn:ogc:def:crs:OGC:1.3:CRS84" } },
"xy_coordinate_resolution": 1e-06,
"features": [
{ "type": "Feature", "properties": { "cls": "shared", "highway": "cycleway", "name": null }, "geometry": { "type": "LineString", "coordinates": [ [ -86.861879, 33.444722 ], [ -86.861787, 33.444729 ], [ -86.861838, 33.444772 ], [ -86.86203, 33.444841 ], [ -86.862125, 33.444934 ], [ -86.862264, 33.445166 ], [ -86.862313, 33.445246 ] ] } },
{ "type": "Feature", "properties": { "cls": "shared", "highway": "cycleway", "name": "Eureka Mines Trail" }, "geometry": { "type": "LineString", "coordinates": [ [ -86.862313, 33.445246 ], [ -86.862321, 33.445272 ], [ -86.862317, 33.445355 ], [ -86.862217, 33.445482 ], [ -86.862216, 33.445697 ], [ -86.862248, 33.445907 ], [ -86.86227, 33.445972 ], [ -86.862392, 33.446331 ], [ -86.862441, 33.446611 ], [ -86.862518, 33.446808 ], [ -86.862682, 33.447378 ], [ -86.86277, 33.447546 ], [ -86.862759, 33.447611 ], [ -86.862717, 33.44764 ] ] } },
{ "type": "Feature", "properties": { "cls": "shared", "highway": "cycleway", "name": "BMRR South Trail" }, "geometry": { "type": "LineString", "coordinates": [ [ -86.853452, 33.458172 ], [ -86.853354, 33.457945 ], [ -86.853221, 33.457635 ], [ -86.853158, 33.457474 ], [ -86.853081, 33.457265 ], [ -86.853008, 33.456971 ], [ -86.85299, 33.45674 ], [ -86.853026, 33.456555 ], [ -86.853064, 33.456435 ], [ -86.85316, 33.456215 ], [ -86.853302, 33.455994 ], [ -86.85344, 33.455824 ], [ -86.853554, 33.455705 ], [ -86.853699, 33.455598 ], [ -86.854031, 33.455437 ], [ -86.854844, 33.455039 ], [ -86.855008, 33.454959 ], [ -86.85529, 33.454842 ], [ -86.855346, 33.454818 ], [ -86.855358, 33.454813 ], [ -86.855371, 33.45482 ], [ -86.855413, 33.454849 ], [ -86.855485, 33.454887 ], [ -86.855559, 33.454911 ], [ -86.85563, 33.454917 ], [ -86.855724, 33.454906 ], [ -86.8558, 33.454897 ], [ -86.855804, 33.45486 ], [ -86.855809, 33.454825 ], [ -86.855843, 33.454627 ], [ -86.855947, 33.454374 ], [ -86.856014, 33.454272 ], [ -86.856273, 33.453934 ], [ -86.856594, 33.453588 ], [ -86.857411, 33.452978 ], [ -86.858309, 33.452381 ], [ -86.858449, 33.452271 ], [ -86.858773, 33.451937 ], [ -86.859095, 33.451775 ], [ -86.859668, 33.451419 ], [ -86.860004, 33.451279 ], [ -86.860086, 33.451225 ], [ -86.860111, 33.451208 ], [ -86.860414, 33.450997 ], [ -86.860625, 33.450858 ], [ -86.860848, 33.450734 ], [ -86.861449, 33.450401 ], [ -86.861882, 33.45012 ], [ -86.863783, 33.448969 ], [ -86.864755, 33.448381 ], [ -86.86521, 33.44808 ], [ -86.865289, 33.448032 ], [ -86.865385, 33.447977 ], [ -86.865712, 33.447744 ], [ -86.866046, 33.447526 ], [ -86.866286, 33.447375 ], [ -86.86647, 33.447267 ], [ -86.866532, 33.44723 ], [ -86.868424, 33.44603 ], [ -86.86926, 33.445539 ], [ -86.870225, 33.444973 ], [ -86.871459, 33.444194 ], [ -86.871571, 33.444123 ], [ -86.872571, 33.443508 ], [ -86.873058, 33.443226 ], [ -86.87334, 33.443034 ], [ -86.873557, 33.442904 ], [ -86.873924, 33.442683 ], [ -86.87447, 33.442382 ], [ -86.874617, 33.442314 ], [ -86.875079, 33.442099 ], [ -86.876041, 33.44179 ], [ -86.876802, 33.44158 ], [ -86.877253, 33.441455 ], [ -86.877695, 33.441294 ], [ -86.878446, 33.441018 ], [ -86.878726, 33.44091 ], [ -86.878834, 33.440883 ], [ -86.87889, 33.440865 ], [ -86.878931, 33.440852 ], [ -86.879147, 33.440642 ], [ -86.879459, 33.440488 ], [ -86.881117, 33.439741 ], [ -86.88122, 33.439695 ], [ -86.881355, 33.439594 ], [ -86.881406, 33.43951 ], [ -86.881415, 33.439431 ], [ -86.88137, 33.43925 ], [ -86.881366, 33.439152 ], [ -86.881387, 33.439066 ], [ -86.881425, 33.439003 ], [ -86.881548, 33.438893 ], [ -86.881702, 33.438798 ], [ -86.882236, 33.438565 ], [ -86.882374, 33.438483 ], [ -86.882541, 33.438356 ], [ -86.883038, 33.437889 ], [ -86.883612, 33.43744 ], [ -86.883812, 33.437254 ], [ -86.884173, 33.436962 ], [ -86.88447, 33.436655 ], [ -86.884673, 33.436495 ] ] } },
{ "type": "Feature", "properties": { "cls": "shared", "highway": "cycleway", "name": "L&N Trail" }, "geometry": { "type": "LineString", "coordinates": [ [ -86.866046, 33.447526 ], [ -86.865444, 33.447712 ], [ -86.86515, 33.447803 ], [ -86.865076, 33.447816 ], [ -86.864795, 33.447863 ], [ -86.864732, 33.447874 ], [ -86.864435, 33.447879 ], [ -86.864293, 33.447882 ], [ -86.863969, 33.447855 ], [ -86.863264, 33.447739 ], [ -86.863084, 33.447691 ], [ -86.862843, 33.447649 ], [ -86.862785, 33.447644 ], [ -86.862717, 33.44764 ], [ -86.862667, 33.447636 ], [ -86.862631, 33.447634 ], [ -86.862538, 33.447628 ], [ -86.862445, 33.447623 ], [ -86.862343, 33.447616 ], [ -86.862093, 33.447601 ], [ -86.861996, 33.447595 ], [ -86.861623, 33.447621 ], [ -86.861481, 33.447651 ], [ -86.861095, 33.44777 ], [ -86.861021, 33.447804 ], [ -86.860898, 33.44786 ] ] } },
{ "type": "Feature", "properties": { "cls": "shared", "highway": "footway", "name": "Skyhy Ridge Walk" }, "geometry": { "type": "LineString", "coordinates": [ [ -86.861966, 33.453941 ], [ -86.862237, 33.453809 ], [ -86.862398, 33.453693 ], [ -86.862625, 33.453565 ], [ -86.862912, 33.453435 ], [ -86.863709, 33.453289 ], [ -86.863897, 33.453243 ], [ -86.864102, 33.453153 ], [ -86.864235, 33.453064 ], [ -86.864344, 33.453015 ], [ -86.864787, 33.452865 ], [ -86.865, 33.452765 ], [ -86.865271, 33.452593 ], [ -86.865657, 33.452318 ], [ -86.865922, 33.452184 ], [ -86.866312, 33.452066 ], [ -86.866394, 33.45203 ], [ -86.866567, 33.451888 ], [ -86.866643, 33.451803 ], [ -86.866789, 33.45158 ], [ -86.867122, 33.451334 ], [ -86.867378, 33.451217 ], [ -86.867579, 33.451168 ], [ -86.867736, 33.451111 ], [ -86.868342, 33.45084 ], [ -86.868475, 33.450767 ], [ -86.868691, 33.450618 ], [ -86.868816, 33.450569 ], [ -86.869063, 33.45038 ], [ -86.869339, 33.450214 ], [ -86.869443, 33.450151 ], [ -86.869492, 33.450106 ], [ -86.869552, 33.450062 ], [ -86.869626, 33.449964 ], [ -86.869727, 33.449886 ], [ -86.86986, 33.449817 ] ] } },
{ "type": "Feature", "properties": { "cls": "shared", "highway": "cycleway", "name": "Ishkooda Connector" }, "geometry": { "type": "LineString", "coordinates": [ [ -86.864522, 33.453851 ], [ -86.864412, 33.453849 ], [ -86.864304, 33.453867 ], [ -86.863893, 33.454036 ], [ -86.863596, 33.454125 ], [ -86.862724, 33.454455 ], [ -86.862147, 33.454628 ], [ -86.861689, 33.454786 ], [ -86.861244, 33.454873 ], [ -86.861133, 33.454857 ], [ -86.86109, 33.454826 ], [ -86.861059, 33.45474 ], [ -86.861078, 33.454673 ], [ -86.86112, 33.454614 ], [ -86.861218, 33.454534 ], [ -86.861457, 33.454387 ], [ -86.861905, 33.454048 ], [ -86.861951, 33.453991 ], [ -86.861966, 33.453941 ], [ -86.861912, 33.453897 ], [ -86.861851, 33.45389 ], [ -86.861769, 33.453917 ], [ -86.86154, 33.454052 ], [ -86.861403, 33.454125 ], [ -86.861254, 33.454163 ], [ -86.861172, 33.454166 ], [ -86.861119, 33.45416 ], [ -86.860953, 33.453946 ], [ -86.860903, 33.453815 ], [ -86.860892, 33.453714 ], [ -86.860918, 33.453578 ], [ -86.860916, 33.453357 ], [ -86.860861, 33.453203 ], [ -86.86083, 33.45313 ], [ -86.860821, 33.452833 ], [ -86.860865, 33.452628 ], [ -86.860893, 33.452428 ], [ -86.860803, 33.452261 ], [ -86.860562, 33.451922 ], [ -86.860502, 33.451812 ], [ -86.860493, 33.451738 ], [ -86.860516, 33.451611 ], [ -86.860851, 33.451235 ], [ -86.861232, 33.450786 ], [ -86.861354, 33.450648 ], [ -86.861449, 33.450401 ] ] } },
{ "type": "Feature", "properties": { "cls": "shared", "highway": "cycleway", "name": "#10 Mine Trail" }, "geometry": { "type": "LineString", "coordinates": [ [ -86.885299, 33.437288 ], [ -86.885254, 33.43737 ], [ -86.885119, 33.437496 ], [ -86.884845, 33.437838 ], [ -86.884818, 33.437957 ], [ -86.884829, 33.438027 ], [ -86.884883, 33.438142 ], [ -86.885052, 33.438294 ], [ -86.885234, 33.438527 ], [ -86.885319, 33.43871 ], [ -86.885489, 33.439223 ], [ -86.885542, 33.439385 ], [ -86.885678, 33.439514 ], [ -86.885852, 33.43955 ] ] } },
{ "type": "Feature", "properties": { "cls": "shared", "highway": "cycleway", "name": null }, "geometry": { "type": "LineString", "coordinates": [ [ -86.879622, 33.441289 ], [ -86.879541, 33.441242 ], [ -86.879403, 33.441132 ], [ -86.879236, 33.441022 ], [ -86.879128, 33.440955 ], [ -86.878931, 33.440852 ] ] } },
{ "type": "Feature", "properties": { "cls": "shared", "highway": "cycleway", "name": "Wenonah Connector" }, "geometry": { "type": "LineString", "coordinates": [ [ -86.885052, 33.438294 ], [ -86.885272, 33.43798 ], [ -86.885357, 33.437913 ], [ -86.885472, 33.437868 ], [ -86.885546, 33.437859 ], [ -86.88566, 33.437871 ], [ -86.885799, 33.437936 ], [ -86.886019, 33.438078 ], [ -86.886375, 33.438379 ], [ -86.88645, 33.438406 ], [ -86.886528, 33.438403 ], [ -86.886578, 33.438376 ], [ -86.886629, 33.438319 ], [ -86.886791, 33.438058 ], [ -86.88695, 33.437946 ], [ -86.887257, 33.437827 ], [ -86.887555, 33.437785 ], [ -86.887624, 33.437748 ], [ -86.887735, 33.437644 ], [ -86.88792, 33.437428 ], [ -86.888088, 33.43734 ], [ -86.888214, 33.437304 ], [ -86.888754, 33.437209 ], [ -86.88881, 33.437245 ], [ -86.888825, 33.437322 ], [ -86.888822, 33.437549 ], [ -86.88886, 33.437688 ], [ -86.88891, 33.437775 ], [ -86.889167, 33.43802 ], [ -86.889191, 33.438082 ], [ -86.889173, 33.438233 ], [ -86.889203, 33.438343 ], [ -86.889275, 33.438404 ], [ -86.88928, 33.438492 ], [ -86.888977, 33.438947 ], [ -86.888654, 33.439301 ], [ -86.888504, 33.439465 ], [ -86.888209, 33.439753 ], [ -86.887879, 33.440031 ], [ -86.887711, 33.440149 ], [ -86.887534, 33.440261 ], [ -86.887215, 33.440421 ], [ -86.886951, 33.440526 ], [ -86.886616, 33.440686 ], [ -86.886334, 33.440837 ], [ -86.886099, 33.440993 ], [ -86.885973, 33.441137 ], [ -86.88569, 33.441489 ], [ -86.8851, 33.442211 ], [ -86.884149, 33.443186 ], [ -86.882866, 33.444389 ], [ -86.882202, 33.445011 ], [ -86.88129, 33.445789 ] ] } },
{ "type": "Feature", "properties": { "cls": "shared", "highway": "cycleway", "name": "Redding Trail" }, "geometry": { "type": "LineString", "coordinates": [ [ -86.869779, 33.450188 ], [ -86.869802, 33.450074 ], [ -86.869815, 33.449932 ], [ -86.86986, 33.449817 ], [ -86.869912, 33.44941 ], [ -86.869919, 33.449212 ], [ -86.869924, 33.44917 ], [ -86.869951, 33.449134 ], [ -86.869995, 33.449112 ], [ -86.870126, 33.44908 ], [ -86.870378, 33.449074 ], [ -86.870539, 33.44907 ], [ -86.870673, 33.449027 ], [ -86.871046, 33.448855 ], [ -86.871178, 33.448753 ], [ -86.871339, 33.448628 ], [ -86.871386, 33.448592 ], [ -86.871484, 33.448542 ], [ -86.871586, 33.448511 ], [ -86.871685, 33.448511 ], [ -86.871883, 33.448539 ], [ -86.872303, 33.448521 ], [ -86.872415, 33.448459 ], [ -86.872473, 33.448413 ], [ -86.872564, 33.448282 ], [ -86.87272, 33.447984 ], [ -86.872991, 33.447711 ], [ -86.873153, 33.447501 ], [ -86.87329, 33.44728 ], [ -86.873351, 33.447219 ], [ -86.873457, 33.447159 ], [ -86.873883, 33.446982 ], [ -86.874292, 33.446757 ], [ -86.874415, 33.446658 ], [ -86.874478, 33.446567 ], [ -86.874665, 33.446181 ], [ -86.874761, 33.446044 ], [ -86.874873, 33.445904 ], [ -86.875, 33.445783 ], [ -86.875111, 33.445702 ], [ -86.8753, 33.445588 ], [ -86.875468, 33.445538 ], [ -86.875971, 33.44549 ], [ -86.876369, 33.44549 ], [ -86.876521, 33.445461 ], [ -86.876646, 33.445412 ], [ -86.876931, 33.445256 ], [ -86.877156, 33.44518 ], [ -86.877422, 33.445119 ], [ -86.877577, 33.445123 ], [ -86.877697, 33.445082 ], [ -86.877806, 33.444977 ], [ -86.877888, 33.444899 ], [ -86.877975, 33.444816 ], [ -86.878049, 33.444781 ], [ -86.878161, 33.444757 ], [ -86.878362, 33.44474 ], [ -86.87862, 33.44462 ], [ -86.878841, 33.444557 ], [ -86.87914, 33.44444 ], [ -86.879272, 33.444367 ], [ -86.879641, 33.44407 ], [ -86.879705, 33.44397 ], [ -86.879766, 33.443811 ], [ -86.87999, 33.443551 ], [ -86.88001, 33.443515 ], [ -86.880057, 33.443431 ], [ -86.880118, 33.4432 ], [ -86.880132, 33.443058 ], [ -86.880116, 33.442915 ], [ -86.880104, 33.442814 ], [ -86.880122, 33.442767 ], [ -86.880175, 33.442715 ], [ -86.88023, 33.44269 ], [ -86.880355, 33.442686 ], [ -86.880583, 33.442733 ], [ -86.880708, 33.44275 ], [ -86.880809, 33.442718 ], [ -86.880831, 33.442706 ], [ -86.880861, 33.442643 ], [ -86.880862, 33.44229 ], [ -86.880963, 33.441748 ], [ -86.881157, 33.441367 ], [ -86.881211, 33.441194 ], [ -86.881308, 33.440555 ], [ -86.881354, 33.440401 ], [ -86.881443, 33.44022 ], [ -86.881536, 33.440013 ], [ -86.881601, 33.439923 ], [ -86.881724, 33.439676 ], [ -86.881751, 33.439623 ], [ -86.881894, 33.439442 ], [ -86.881942, 33.4394 ], [ -86.882084, 33.439273 ], [ -86.882208, 33.439186 ], [ -86.882339, 33.439095 ], [ -86.882651, 33.438904 ], [ -86.884298, 33.437898 ], [ -86.884907, 33.437514 ], [ -86.885073, 33.437408 ], [ -86.885299, 33.437288 ] ] } },
{ "type": "Feature", "properties": { "cls": "shared", "highway": "footway", "name": "Skyhy Ridge Walk" }, "geometry": { "type": "LineString", "coordinates": [ [ -86.885852, 33.43955 ], [ -86.885912, 33.439596 ], [ -86.886503, 33.44006 ], [ -86.886423, 33.440099 ], [ -86.886387, 33.440096 ], [ -86.886332, 33.440138 ], [ -86.886266, 33.440178 ], [ -86.88623, 33.440202 ], [ -86.886206, 33.4402 ], [ -86.886147, 33.440244 ], [ -86.886096, 33.440271 ], [ -86.886046, 33.440286 ], [ -86.886019, 33.440308 ], [ -86.885975, 33.440325 ], [ -86.88593, 33.440338 ], [ -86.885903, 33.440343 ], [ -86.885857, 33.44036 ], [ -86.885828, 33.440351 ], [ -86.885804, 33.440357 ], [ -86.885759, 33.440363 ], [ -86.885735, 33.440374 ], [ -86.885682, 33.44039 ], [ -86.885658, 33.440398 ], [ -86.885623, 33.440426 ], [ -86.885587, 33.440452 ], [ -86.885563, 33.440469 ], [ -86.885517, 33.440491 ], [ -86.885492, 33.440501 ], [ -86.885452, 33.440532 ], [ -86.885419, 33.440556 ], [ -86.885369, 33.44058 ], [ -86.885329, 33.4406 ], [ -86.885314, 33.44061 ], [ -86.88526, 33.440661 ], [ -86.885244, 33.440673 ], [ -86.885197, 33.440695 ], [ -86.885151, 33.440715 ], [ -86.885128, 33.440713 ], [ -86.885082, 33.440713 ], [ -86.885057, 33.440714 ], [ -86.885031, 33.440744 ], [ -86.885012, 33.440775 ], [ -86.884963, 33.440817 ], [ -86.884876, 33.440876 ], [ -86.884784, 33.440935 ], [ -86.884709, 33.440975 ], [ -86.884674, 33.441012 ], [ -86.884624, 33.441079 ], [ -86.884598, 33.441152 ], [ -86.884588, 33.441181 ], [ -86.884599, 33.441211 ], [ -86.884599, 33.441247 ], [ -86.884607, 33.441291 ], [ -86.884612, 33.441329 ], [ -86.884618, 33.441355 ], [ -86.884601, 33.441382 ], [ -86.884556, 33.441414 ], [ -86.884512, 33.441446 ], [ -86.884461, 33.441469 ], [ -86.884433, 33.44148 ], [ -86.88438, 33.441471 ], [ -86.884334, 33.44146 ], [ -86.884277, 33.441471 ], [ -86.884225, 33.441486 ], [ -86.88419, 33.441505 ], [ -86.884118, 33.44152 ], [ -86.884081, 33.441544 ], [ -86.884054, 33.441565 ], [ -86.884025, 33.441571 ], [ -86.883963, 33.441613 ], [ -86.883879, 33.44166 ], [ -86.883801, 33.441725 ], [ -86.883738, 33.441797 ], [ -86.883686, 33.441852 ], [ -86.883701, 33.441942 ], [ -86.883704, 33.441986 ], [ -86.883686, 33.442057 ], [ -86.883711, 33.442107 ], [ -86.883722, 33.442155 ], [ -86.883686, 33.442203 ], [ -86.883633, 33.442251 ], [ -86.883552, 33.442313 ], [ -86.88346, 33.442395 ], [ -86.88343, 33.442426 ], [ -86.883357, 33.442482 ], [ -86.883235, 33.442562 ], [ -86.883136, 33.442634 ], [ -86.883042, 33.442704 ], [ -86.882943, 33.442763 ], [ -86.88289, 33.442809 ], [ -86.882844, 33.442863 ], [ -86.882766, 33.442914 ], [ -86.882664, 33.442973 ], [ -86.882582, 33.443015 ], [ -86.882481, 33.443095 ], [ -86.882359, 33.443206 ], [ -86.882269, 33.44329 ], [ -86.882127, 33.443402 ], [ -86.882053, 33.443464 ], [ -86.881924, 33.443492 ], [ -86.881763, 33.443494 ], [ -86.881632, 33.443482 ], [ -86.881506, 33.443483 ], [ -86.881381, 33.443472 ], [ -86.881311, 33.443475 ], [ -86.881189, 33.443497 ], [ -86.881046, 33.4436 ], [ -86.880858, 33.443797 ], [ -86.880698, 33.44387 ], [ -86.880516, 33.443927 ], [ -86.880386, 33.444013 ], [ -86.880254, 33.4441 ], [ -86.880094, 33.444218 ], [ -86.87999, 33.444284 ], [ -86.879886, 33.444318 ], [ -86.879886, 33.444361 ], [ -86.879854, 33.444382 ], [ -86.879791, 33.444406 ], [ -86.879763, 33.44444 ], [ -86.879688, 33.444479 ], [ -86.879618, 33.444532 ], [ -86.879565, 33.444583 ], [ -86.879516, 33.444596 ], [ -86.879467, 33.44463 ], [ -86.879345, 33.444742 ], [ -86.87925, 33.444796 ], [ -86.879177, 33.44483 ], [ -86.879066, 33.444908 ], [ -86.878981, 33.444937 ], [ -86.878906, 33.445013 ], [ -86.878787, 33.445154 ], [ -86.878569, 33.445289 ], [ -86.878455, 33.445344 ], [ -86.878323, 33.445448 ], [ -86.87818, 33.445489 ], [ -86.878043, 33.445576 ], [ -86.877818, 33.44571 ], [ -86.877596, 33.445833 ], [ -86.877213, 33.445954 ], [ -86.877056, 33.446015 ], [ -86.876724, 33.446061 ], [ -86.876267, 33.446083 ], [ -86.876137, 33.446131 ], [ -86.875696, 33.446227 ], [ -86.875284, 33.446462 ], [ -86.875089, 33.44689 ], [ -86.875066, 33.447026 ], [ -86.874971, 33.447062 ], [ -86.874915, 33.447154 ], [ -86.874864, 33.447215 ], [ -86.874804, 33.447242 ], [ -86.874782, 33.447325 ], [ -86.874733, 33.447398 ], [ -86.874641, 33.447463 ], [ -86.874563, 33.447534 ], [ -86.874524, 33.447567 ], [ -86.874471, 33.447605 ], [ -86.874386, 33.44764 ], [ -86.874344, 33.447753 ], [ -86.874312, 33.447847 ], [ -86.874227, 33.447909 ], [ -86.874149, 33.447942 ], [ -86.874092, 33.447986 ], [ -86.874043, 33.448007 ], [ -86.873993, 33.447992 ], [ -86.873951, 33.448036 ], [ -86.873933, 33.448081 ], [ -86.873919, 33.448163 ], [ -86.873914, 33.448191 ], [ -86.873859, 33.448257 ], [ -86.873816, 33.448322 ], [ -86.873777, 33.448362 ], [ -86.873758, 33.448401 ], [ -86.873751, 33.448449 ], [ -86.873719, 33.44848 ], [ -86.873675, 33.448508 ], [ -86.873647, 33.448513 ], [ -86.873588, 33.448497 ], [ -86.873523, 33.448488 ], [ -86.873494, 33.448492 ], [ -86.873438, 33.448539 ], [ -86.873351, 33.448579 ], [ -86.873262, 33.448597 ], [ -86.873216, 33.448613 ], [ -86.873128, 33.448662 ], [ -86.873026, 33.448721 ], [ -86.872863, 33.448748 ], [ -86.872767, 33.448723 ], [ -86.872716, 33.44879 ], [ -86.872684, 33.44886 ], [ -86.872606, 33.448913 ], [ -86.872505, 33.448937 ], [ -86.87244, 33.448944 ], [ -86.872349, 33.448937 ], [ -86.872249, 33.448977 ], [ -86.87216, 33.44903 ], [ -86.872073, 33.449072 ], [ -86.872001, 33.449094 ], [ -86.871963, 33.449132 ], [ -86.87191, 33.449171 ], [ -86.871784, 33.449223 ], [ -86.871693, 33.449239 ], [ -86.871615, 33.449291 ], [ -86.871583, 33.449291 ], [ -86.871546, 33.449312 ], [ -86.871481, 33.449337 ], [ -86.871392, 33.449364 ], [ -86.871351, 33.44939 ], [ -86.871288, 33.449401 ], [ -86.871163, 33.449441 ], [ -86.871053, 33.449468 ], [ -86.870971, 33.449482 ], [ -86.87078, 33.449509 ], [ -86.870664, 33.449538 ], [ -86.87054, 33.449574 ], [ -86.870451, 33.449562 ], [ -86.870306, 33.44958 ], [ -86.870172, 33.449595 ], [ -86.870059, 33.44963 ], [ -86.869979, 33.449671 ], [ -86.869945, 33.449726 ], [ -86.869904, 33.449786 ], [ -86.86986, 33.449817 ] ] } },
{ "type": "Feature", "properties": { "cls": "shared", "highway": "cycleway", "name": "BMRR North Trail" }, "geometry": { "type": "LineString", "coordinates": [ [ -86.887017, 33.441593 ], [ -86.886919, 33.441644 ], [ -86.886594, 33.441812 ], [ -86.886311, 33.442036 ], [ -86.886233, 33.442098 ], [ -86.886162, 33.442174 ], [ -86.885988, 33.442385 ], [ -86.885488, 33.443065 ], [ -86.885011, 33.443505 ], [ -86.884202, 33.444007 ], [ -86.883038, 33.444701 ], [ -86.88129, 33.445789 ], [ -86.880909, 33.446048 ], [ -86.880567, 33.446209 ], [ -86.880241, 33.446311 ], [ -86.879847, 33.446393 ], [ -86.878699, 33.446521 ], [ -86.878613, 33.446534 ], [ -86.878325, 33.446537 ], [ -86.876902, 33.446554 ], [ -86.876484, 33.446657 ], [ -86.87618, 33.446777 ], [ -86.875905, 33.446922 ], [ -86.875738, 33.447042 ], [ -86.875554, 33.447195 ], [ -86.875397, 33.447399 ], [ -86.875215, 33.447763 ], [ -86.875002, 33.448289 ], [ -86.874859, 33.44858 ], [ -86.874613, 33.448846 ], [ -86.874397, 33.449032 ], [ -86.874086, 33.449206 ], [ -86.873794, 33.449331 ], [ -86.8735, 33.44941 ], [ -86.871729, 33.449642 ], [ -86.870798, 33.449742 ], [ -86.870194, 33.449901 ], [ -86.869779, 33.450188 ], [ -86.869737, 33.450217 ], [ -86.869678, 33.450258 ], [ -86.868968, 33.450797 ], [ -86.867492, 33.451618 ], [ -86.866767, 33.452172 ], [ -86.865466, 33.453257 ], [ -86.864522, 33.453851 ], [ -86.864248, 33.454014 ], [ -86.863777, 33.454265 ], [ -86.863342, 33.454452 ], [ -86.862383, 33.454838 ], [ -86.861496, 33.455199 ], [ -86.861194, 33.455302 ], [ -86.86087, 33.455407 ], [ -86.860481, 33.45547 ], [ -86.860143, 33.455478 ], [ -86.85984, 33.455531 ], [ -86.859647, 33.455578 ], [ -86.859403, 33.455652 ], [ -86.859157, 33.455729 ], [ -86.859041, 33.455789 ], [ -86.858851, 33.456052 ], [ -86.858643, 33.456342 ], [ -86.858246, 33.456955 ], [ -86.858007, 33.457268 ], [ -86.857713, 33.457537 ], [ -86.857409, 33.457774 ], [ -86.857019, 33.457993 ], [ -86.856662, 33.458234 ], [ -86.85638, 33.458476 ], [ -86.855771, 33.458758 ], [ -86.855629, 33.458849 ], [ -86.855487, 33.458912 ], [ -86.855065, 33.459049 ], [ -86.854799, 33.459189 ], [ -86.854678, 33.459313 ], [ -86.85457, 33.459389 ], [ -86.854451, 33.459445 ], [ -86.85437, 33.459528 ], [ -86.854297, 33.459631 ], [ -86.854119, 33.459776 ], [ -86.853797, 33.460031 ], [ -86.853426, 33.460197 ], [ -86.853196, 33.460228 ], [ -86.852974, 33.460238 ], [ -86.852913, 33.460212 ], [ -86.852858, 33.460164 ], [ -86.852829, 33.460086 ], [ -86.852795, 33.459886 ] ] } }
]
}
