{
"type": "FeatureCollection",
"name": "137-des-moines-water-works-park",
"crs": { "type": "name", "properties": { "name": "urn:ogc:def:crs:OGC:1.3:CRS84" } },
"xy_coordinate_resolution": 1e-06,
"features": [
{ "type": "Feature", "properties": { "cls": "shared", "highway": "path", "name": "Squirrel's Nest Mountain Bike Trail" }, "geometry": { "type": "LineString", "coordinates": [ [ -93.68981, 41.567605 ], [ -93.689818, 41.567717 ], [ -93.689847, 41.567785 ], [ -93.689795, 41.567852 ], [ -93.689699, 41.567859 ], [ -93.689597, 41.567797 ], [ -93.689485, 41.567743 ], [ -93.689341, 41.56778 ], [ -93.689217, 41.567811 ], [ -93.689099, 41.567824 ], [ -93.688924, 41.567826 ], [ -93.688815, 41.567807 ], [ -93.688699, 41.567824 ], [ -93.688614, 41.567782 ], [ -93.688505, 41.567749 ], [ -93.68823, 41.567758 ], [ -93.688117, 41.567776 ], [ -93.688044, 41.567803 ], [ -93.687813, 41.567929 ], [ -93.687644, 41.567964 ], [ -93.687556, 41.568015 ], [ -93.687396, 41.568074 ], [ -93.687354, 41.568129 ], [ -93.687281, 41.568223 ], [ -93.687213, 41.568273 ], [ -93.687163, 41.568349 ], [ -93.687186, 41.568431 ], [ -93.686999, 41.568377 ], [ -93.686758, 41.56836 ], [ -93.686639, 41.568339 ], [ -93.686509, 41.568349 ], [ -93.686319, 41.568364 ], [ -93.685968, 41.568346 ], [ -93.685674, 41.568324 ], [ -93.685378, 41.568321 ], [ -93.68509, 41.568279 ], [ -93.684789, 41.568219 ], [ -93.684384, 41.568348 ], [ -93.684278, 41.568381 ], [ -93.683441, 41.568378 ], [ -93.683573, 41.568311 ], [ -93.683774, 41.568277 ], [ -93.683816, 41.568224 ], [ -93.683802, 41.56817 ], [ -93.683832, 41.56812 ], [ -93.683948, 41.568115 ], [ -93.684064, 41.568114 ], [ -93.684126, 41.568075 ], [ -93.6842, 41.567958 ], [ -93.68429, 41.567919 ], [ -93.684672, 41.567844 ], [ -93.684762, 41.567797 ], [ -93.684794, 41.567714 ], [ -93.684852, 41.567667 ], [ -93.68521, 41.567532 ], [ -93.685281, 41.567486 ], [ -93.68536, 41.567425 ], [ -93.685433, 41.567314 ], [ -93.685593, 41.567231 ], [ -93.685718, 41.567122 ], [ -93.685789, 41.567037 ], [ -93.685771, 41.566947 ], [ -93.685796, 41.566913 ], [ -93.685859, 41.566878 ], [ -93.686048, 41.566824 ], [ -93.686205, 41.566732 ], [ -93.686319, 41.566607 ], [ -93.686294, 41.566508 ], [ -93.686326, 41.566441 ], [ -93.686424, 41.566381 ], [ -93.686444, 41.566264 ], [ -93.686511, 41.566191 ], [ -93.686832, 41.565923 ], [ -93.686855, 41.565877 ], [ -93.686857, 41.565813 ], [ -93.686833, 41.565735 ], [ -93.686904, 41.565667 ], [ -93.687043, 41.565592 ], [ -93.687113, 41.56552 ], [ -93.68717, 41.565356 ], [ -93.687273, 41.565267 ], [ -93.687404, 41.565169 ], [ -93.687468, 41.565033 ], [ -93.68757, 41.564985 ], [ -93.687759, 41.564904 ], [ -93.688001, 41.564708 ], [ -93.688069, 41.564627 ], [ -93.688141, 41.564461 ], [ -93.688243, 41.564389 ], [ -93.688498, 41.564259 ], [ -93.688799, 41.564019 ], [ -93.688894, 41.563967 ], [ -93.689016, 41.563936 ], [ -93.689118, 41.563941 ], [ -93.689328, 41.564064 ], [ -93.689463, 41.564108 ], [ -93.689659, 41.56417 ], [ -93.689757, 41.56422 ], [ -93.689839, 41.564284 ], [ -93.689889, 41.564353 ], [ -93.689914, 41.564423 ], [ -93.689921, 41.564532 ], [ -93.68996, 41.564696 ], [ -93.689954, 41.564888 ], [ -93.689972, 41.565051 ], [ -93.689921, 41.565172 ], [ -93.689925, 41.565319 ], [ -93.689951, 41.565428 ], [ -93.689981, 41.565542 ], [ -93.689997, 41.565656 ], [ -93.689964, 41.565772 ], [ -93.689963, 41.565861 ], [ -93.690104, 41.56642 ], [ -93.690126, 41.56671 ], [ -93.690088, 41.566851 ], [ -93.690131, 41.566938 ], [ -93.690098, 41.567059 ], [ -93.69011, 41.567253 ], [ -93.69011, 41.567386 ], [ -93.690093, 41.567446 ], [ -93.69001, 41.567492 ], [ -93.689986, 41.567499 ] ] } },
{ "type": "Feature", "properties": { "cls": "shared", "highway": "path", "name": "Purgatory Trail" }, "geometry": { "type": "LineString", "coordinates": [ [ -93.689986, 41.567499 ], [ -93.689911, 41.567454 ], [ -93.689845, 41.567336 ], [ -93.689858, 41.567243 ], [ -93.689812, 41.567142 ], [ -93.689714, 41.567047 ], [ -93.689634, 41.566999 ], [ -93.689504, 41.567045 ], [ -93.689359, 41.567161 ], [ -93.689284, 41.567259 ], [ -93.689178, 41.56731 ], [ -93.689018, 41.567329 ], [ -93.688917, 41.567307 ], [ -93.688822, 41.567263 ], [ -93.688812, 41.567162 ], [ -93.688825, 41.567076 ], [ -93.68881, 41.566929 ], [ -93.688793, 41.566852 ], [ -93.688737, 41.566795 ], [ -93.688647, 41.566789 ], [ -93.688579, 41.566748 ], [ -93.68857, 41.566708 ], [ -93.688623, 41.566682 ], [ -93.688703, 41.566688 ], [ -93.688774, 41.566667 ], [ -93.688845, 41.56661 ], [ -93.688793, 41.56653 ], [ -93.68867, 41.566475 ], [ -93.688641, 41.566428 ], [ -93.688564, 41.566434 ], [ -93.688483, 41.566387 ], [ -93.688456, 41.566307 ], [ -93.68849, 41.566242 ], [ -93.688562, 41.566257 ], [ -93.688778, 41.566318 ], [ -93.68884, 41.566375 ], [ -93.688913, 41.566388 ], [ -93.689068, 41.566397 ], [ -93.689139, 41.566417 ], [ -93.689267, 41.566379 ], [ -93.689248, 41.566315 ], [ -93.689166, 41.566272 ], [ -93.689038, 41.566233 ], [ -93.688487, 41.566153 ], [ -93.688358, 41.566146 ], [ -93.68833, 41.566189 ], [ -93.688311, 41.56625 ], [ -93.688295, 41.566331 ], [ -93.688316, 41.566495 ], [ -93.6883, 41.566575 ], [ -93.68833, 41.566676 ], [ -93.688324, 41.566884 ], [ -93.688287, 41.566913 ], [ -93.688233, 41.566927 ], [ -93.688182, 41.566913 ], [ -93.688155, 41.566874 ], [ -93.688147, 41.566832 ], [ -93.68819, 41.56675 ], [ -93.688228, 41.566652 ], [ -93.688124, 41.566524 ], [ -93.688119, 41.566432 ], [ -93.68807, 41.566367 ], [ -93.687985, 41.566333 ], [ -93.687908, 41.566371 ], [ -93.6879, 41.566433 ], [ -93.687973, 41.566491 ], [ -93.688003, 41.566573 ], [ -93.688011, 41.566608 ], [ -93.687992, 41.566736 ], [ -93.688008, 41.566949 ], [ -93.688032, 41.566987 ], [ -93.688165, 41.567068 ], [ -93.688243, 41.567146 ], [ -93.688222, 41.567287 ], [ -93.688262, 41.567423 ], [ -93.688244, 41.567458 ], [ -93.688199, 41.567457 ], [ -93.688174, 41.567428 ], [ -93.688115, 41.567371 ], [ -93.688101, 41.567299 ], [ -93.688016, 41.567218 ], [ -93.68791, 41.567067 ], [ -93.687843, 41.566948 ], [ -93.687858, 41.566833 ], [ -93.687817, 41.566794 ], [ -93.687799, 41.566748 ], [ -93.68774, 41.566679 ], [ -93.687661, 41.566692 ], [ -93.687626, 41.566757 ], [ -93.68764, 41.566893 ], [ -93.687642, 41.567 ], [ -93.687619, 41.567058 ], [ -93.687653, 41.567094 ], [ -93.687779, 41.567099 ], [ -93.687852, 41.567165 ], [ -93.687893, 41.567247 ], [ -93.687965, 41.567402 ], [ -93.687984, 41.567462 ], [ -93.687962, 41.567501 ], [ -93.687917, 41.567519 ], [ -93.687829, 41.567475 ], [ -93.687792, 41.567407 ], [ -93.687751, 41.56734 ], [ -93.687675, 41.567296 ], [ -93.687544, 41.567226 ], [ -93.687461, 41.567125 ], [ -93.687371, 41.567059 ], [ -93.687298, 41.567063 ], [ -93.687249, 41.5671 ], [ -93.687259, 41.56717 ], [ -93.687326, 41.567204 ], [ -93.687382, 41.567252 ], [ -93.687419, 41.567338 ], [ -93.687425, 41.567402 ], [ -93.687478, 41.567477 ], [ -93.687565, 41.567489 ], [ -93.687667, 41.567529 ], [ -93.687702, 41.567565 ], [ -93.687715, 41.567607 ], [ -93.687675, 41.567635 ], [ -93.687563, 41.567657 ], [ -93.687455, 41.567657 ], [ -93.687235, 41.567619 ], [ -93.687152, 41.567557 ], [ -93.687077, 41.567424 ], [ -93.687007, 41.567358 ], [ -93.686934, 41.56729 ], [ -93.686814, 41.567284 ], [ -93.686774, 41.567314 ], [ -93.686722, 41.567402 ], [ -93.686746, 41.567472 ], [ -93.686829, 41.567536 ], [ -93.686978, 41.567597 ], [ -93.687035, 41.567688 ], [ -93.687134, 41.567736 ], [ -93.687174, 41.567803 ], [ -93.687148, 41.567831 ], [ -93.68709, 41.567835 ], [ -93.686997, 41.567843 ], [ -93.686898, 41.567798 ], [ -93.686814, 41.567737 ], [ -93.686761, 41.567665 ], [ -93.686662, 41.56762 ], [ -93.686618, 41.567537 ], [ -93.686517, 41.567452 ], [ -93.686498, 41.567379 ], [ -93.686533, 41.567304 ], [ -93.686578, 41.567252 ], [ -93.686632, 41.567177 ], [ -93.686853, 41.567 ], [ -93.686981, 41.566953 ], [ -93.687133, 41.566934 ], [ -93.687351, 41.566834 ], [ -93.687434, 41.566774 ], [ -93.687496, 41.566656 ], [ -93.687498, 41.566616 ], [ -93.687619, 41.566475 ], [ -93.68765, 41.56638 ], [ -93.687737, 41.566332 ], [ -93.687788, 41.566249 ], [ -93.687835, 41.56618 ], [ -93.687919, 41.566103 ], [ -93.688096, 41.566071 ], [ -93.688168, 41.566039 ], [ -93.68826, 41.565962 ], [ -93.688338, 41.565896 ], [ -93.688434, 41.56586 ], [ -93.68853, 41.565805 ], [ -93.688724, 41.565935 ], [ -93.68878, 41.565943 ], [ -93.688893, 41.565923 ], [ -93.688971, 41.565865 ], [ -93.689007, 41.565742 ], [ -93.689025, 41.56567 ], [ -93.689031, 41.565609 ], [ -93.689101, 41.56559 ], [ -93.689197, 41.565615 ], [ -93.689266, 41.56565 ], [ -93.689313, 41.565764 ], [ -93.689324, 41.565825 ], [ -93.68943, 41.565941 ], [ -93.689577, 41.566033 ], [ -93.689629, 41.566127 ], [ -93.689614, 41.5662 ], [ -93.689617, 41.56625 ], [ -93.689656, 41.566282 ], [ -93.689725, 41.566276 ], [ -93.68976, 41.56621 ], [ -93.689733, 41.566136 ], [ -93.689692, 41.565967 ], [ -93.689574, 41.565763 ], [ -93.689553, 41.565689 ], [ -93.689514, 41.565647 ], [ -93.689504, 41.565576 ], [ -93.689314, 41.565286 ], [ -93.68924, 41.565213 ], [ -93.689111, 41.565179 ], [ -93.689036, 41.565205 ], [ -93.689004, 41.565263 ], [ -93.689, 41.565312 ], [ -93.688883, 41.565387 ], [ -93.688634, 41.565487 ], [ -93.688477, 41.565506 ], [ -93.688388, 41.565489 ], [ -93.688252, 41.565441 ], [ -93.688136, 41.565442 ], [ -93.688029, 41.565566 ], [ -93.688048, 41.565692 ], [ -93.687925, 41.565861 ], [ -93.687834, 41.565929 ], [ -93.687732, 41.56608 ], [ -93.687654, 41.566136 ], [ -93.687367, 41.566252 ], [ -93.687289, 41.566327 ], [ -93.687298, 41.566414 ], [ -93.687293, 41.5665 ], [ -93.687211, 41.566571 ], [ -93.68712, 41.566612 ], [ -93.687002, 41.566628 ], [ -93.686915, 41.566624 ], [ -93.686862, 41.566598 ], [ -93.686735, 41.566626 ], [ -93.686574, 41.566698 ], [ -93.686413, 41.566821 ], [ -93.686226, 41.566881 ], [ -93.68613, 41.566979 ], [ -93.686095, 41.567013 ], [ -93.686038, 41.56713 ], [ -93.685854, 41.567294 ], [ -93.685793, 41.567362 ], [ -93.685776, 41.56742 ], [ -93.685813, 41.56747 ], [ -93.685933, 41.567509 ], [ -93.686149, 41.567533 ], [ -93.686248, 41.56759 ], [ -93.68628, 41.567721 ], [ -93.686324, 41.567788 ], [ -93.686427, 41.567837 ], [ -93.686577, 41.567832 ], [ -93.686647, 41.567866 ], [ -93.686874, 41.568059 ], [ -93.687002, 41.568115 ], [ -93.687101, 41.568131 ], [ -93.687189, 41.568051 ], [ -93.687255, 41.567968 ], [ -93.687323, 41.567912 ], [ -93.687454, 41.567874 ], [ -93.687577, 41.567854 ], [ -93.687691, 41.567831 ], [ -93.68775, 41.567775 ], [ -93.687834, 41.567708 ], [ -93.687969, 41.567686 ], [ -93.688002, 41.567655 ], [ -93.68818, 41.567594 ], [ -93.68833, 41.56765 ], [ -93.688459, 41.567644 ], [ -93.688508, 41.567616 ], [ -93.688601, 41.567603 ], [ -93.688699, 41.567667 ], [ -93.688821, 41.567696 ], [ -93.688888, 41.567645 ], [ -93.689016, 41.567595 ], [ -93.68907, 41.567613 ], [ -93.68922, 41.567661 ], [ -93.689279, 41.567661 ], [ -93.6895, 41.567608 ], [ -93.689568, 41.567569 ], [ -93.689644, 41.567546 ], [ -93.68981, 41.567605 ] ] } },
{ "type": "Feature", "properties": { "cls": "shared", "highway": "path", "name": "Rhythm Mountain Bike Trail" }, "geometry": { "type": "LineString", "coordinates": [ [ -93.680617, 41.568276 ], [ -93.680455, 41.568259 ], [ -93.680376, 41.568253 ], [ -93.68028, 41.568232 ], [ -93.67999, 41.568172 ], [ -93.67961, 41.568083 ], [ -93.679387, 41.567996 ], [ -93.679334, 41.567925 ], [ -93.679245, 41.567913 ], [ -93.679072, 41.567904 ], [ -93.678917, 41.567885 ], [ -93.678783, 41.567787 ], [ -93.67868, 41.567747 ], [ -93.678579, 41.567735 ], [ -93.678354, 41.567609 ], [ -93.678238, 41.567568 ], [ -93.678094, 41.567553 ], [ -93.677843, 41.567472 ], [ -93.677674, 41.567406 ], [ -93.677572, 41.567415 ], [ -93.67748, 41.567393 ], [ -93.67739, 41.567303 ], [ -93.677232, 41.56722 ], [ -93.677095, 41.567197 ], [ -93.676935, 41.567222 ], [ -93.676839, 41.567206 ], [ -93.676834, 41.567153 ], [ -93.676886, 41.567073 ], [ -93.677138, 41.566876 ], [ -93.677153, 41.566805 ], [ -93.677127, 41.566734 ], [ -93.677004, 41.566653 ], [ -93.677006, 41.566489 ], [ -93.677219, 41.56604 ], [ -93.677655, 41.565708 ], [ -93.677771, 41.56561 ], [ -93.67797, 41.565684 ], [ -93.678083, 41.565815 ], [ -93.678189, 41.565919 ], [ -93.678308, 41.565927 ], [ -93.678539, 41.566017 ], [ -93.678758, 41.566134 ], [ -93.678798, 41.566272 ], [ -93.678866, 41.566337 ], [ -93.679039, 41.566378 ], [ -93.679268, 41.566537 ], [ -93.679389, 41.566731 ], [ -93.679511, 41.566815 ], [ -93.679591, 41.566892 ], [ -93.679592, 41.566975 ], [ -93.67971, 41.567164 ], [ -93.679701, 41.567256 ], [ -93.679731, 41.567374 ], [ -93.679813, 41.567489 ], [ -93.679829, 41.567611 ], [ -93.679921, 41.567671 ], [ -93.680109, 41.56772 ], [ -93.680206, 41.567819 ], [ -93.680347, 41.567875 ], [ -93.680415, 41.567968 ], [ -93.680455, 41.568096 ], [ -93.680531, 41.568156 ], [ -93.680617, 41.568276 ] ] } },
{ "type": "Feature", "properties": { "cls": "shared", "highway": "path", "name": "Squirrel's Nest Mountain Bike Trail" }, "geometry": { "type": "LineString", "coordinates": [ [ -93.689986, 41.567499 ], [ -93.689888, 41.567565 ], [ -93.68981, 41.567605 ] ] } },
{ "type": "Feature", "properties": { "cls": "shared", "highway": "path", "name": "Yard Sale" }, "geometry": { "type": "LineString", "coordinates": [ [ -93.687163, 41.568349 ], [ -93.6874, 41.568428 ], [ -93.687534, 41.568431 ], [ -93.687673, 41.568391 ], [ -93.687776, 41.568384 ], [ -93.687973, 41.568448 ], [ -93.688085, 41.568458 ], [ -93.688345, 41.568414 ], [ -93.688551, 41.568451 ], [ -93.688802, 41.568505 ], [ -93.689044, 41.568461 ], [ -93.689152, 41.568468 ], [ -93.689255, 41.568474 ], [ -93.689429, 41.568434 ], [ -93.689564, 41.568441 ], [ -93.689747, 41.568501 ], [ -93.689913, 41.568464 ], [ -93.690074, 41.568384 ], [ -93.690207, 41.568246 ], [ -93.690142, 41.568063 ], [ -93.690115, 41.567905 ], [ -93.690088, 41.567818 ], [ -93.690059, 41.567814 ], [ -93.690034, 41.567828 ], [ -93.689969, 41.567943 ], [ -93.689855, 41.568076 ], [ -93.689627, 41.568109 ], [ -93.689479, 41.568056 ], [ -93.689308, 41.567972 ], [ -93.689134, 41.567955 ], [ -93.688928, 41.568015 ], [ -93.688802, 41.568106 ], [ -93.688623, 41.568149 ], [ -93.688475, 41.568166 ], [ -93.68843, 41.568129 ], [ -93.688516, 41.568082 ], [ -93.688628, 41.568015 ], [ -93.688628, 41.567955 ], [ -93.688565, 41.567918 ], [ -93.688471, 41.567945 ], [ -93.688377, 41.567995 ], [ -93.688269, 41.568076 ], [ -93.68813, 41.568059 ], [ -93.687973, 41.568066 ], [ -93.687812, 41.568136 ], [ -93.687655, 41.56818 ], [ -93.687354, 41.568129 ] ] } },
{ "type": "Feature", "properties": { "cls": "shared", "highway": "path", "name": null }, "geometry": { "type": "LineString", "coordinates": [ [ -93.684126, 41.568075 ], [ -93.684185, 41.568208 ], [ -93.684302, 41.568289 ], [ -93.684384, 41.568348 ] ] } },
{ "type": "Feature", "properties": { "cls": "shared", "highway": "path", "name": null }, "geometry": { "type": "LineString", "coordinates": [ [ -93.680617, 41.568276 ], [ -93.680858, 41.568338 ], [ -93.681014, 41.568384 ], [ -93.681156, 41.568392 ], [ -93.681397, 41.568391 ], [ -93.681618, 41.56841 ], [ -93.681904, 41.568476 ], [ -93.683137, 41.568466 ], [ -93.683335, 41.568403 ], [ -93.683441, 41.568378 ] ] } },
{ "type": "Feature", "properties": { "cls": "shared", "highway": "cycleway", "name": "Great Western Trail" }, "geometry": { "type": "LineString", "coordinates": [ [ -93.676469, 41.55726 ], [ -93.676503, 41.557339 ], [ -93.676696, 41.557811 ], [ -93.676734, 41.557905 ], [ -93.676756, 41.558005 ], [ -93.676762, 41.558153 ], [ -93.676763, 41.558202 ], [ -93.676744, 41.558265 ], [ -93.676708, 41.558318 ], [ -93.676676, 41.558344 ] ] } },
{ "type": "Feature", "properties": { "cls": "shared", "highway": "cycleway", "name": "Great Western Trail" }, "geometry": { "type": "LineString", "coordinates": [ [ -93.676676, 41.558344 ], [ -93.676643, 41.558372 ] ] } },
{ "type": "Feature", "properties": { "cls": "shared", "highway": "cycleway", "name": "Great Western Trail" }, "geometry": { "type": "LineString", "coordinates": [ [ -93.676643, 41.558372 ], [ -93.676633, 41.558388 ], [ -93.676628, 41.558403 ], [ -93.676623, 41.558442 ], [ -93.67663, 41.558477 ], [ -93.676651, 41.558548 ], [ -93.67667, 41.558622 ], [ -93.676679, 41.558685 ], [ -93.676683, 41.558729 ], [ -93.676689, 41.558858 ], [ -93.676687, 41.559 ], [ -93.676681, 41.559174 ] ] } },
{ "type": "Feature", "properties": { "cls": "shared", "highway": "cycleway", "name": "Bill Riley Trail" }, "geometry": { "type": "LineString", "coordinates": [ [ -93.663959, 41.565698 ], [ -93.663927, 41.56557 ], [ -93.66391, 41.565502 ], [ -93.663896, 41.565443 ], [ -93.663824, 41.565373 ], [ -93.66357, 41.565317 ], [ -93.663304, 41.565285 ], [ -93.663098, 41.565277 ], [ -93.662798, 41.565293 ], [ -93.662592, 41.565285 ], [ -93.662257, 41.565253 ], [ -93.661965, 41.56518 ], [ -93.661682, 41.565092 ], [ -93.66139, 41.56498 ], [ -93.661056, 41.564875 ], [ -93.660849, 41.564843 ], [ -93.660489, 41.564875 ], [ -93.660137, 41.564923 ], [ -93.659708, 41.56498 ], [ -93.659058, 41.565084 ], [ -93.658634, 41.565199 ], [ -93.658591, 41.565203 ], [ -93.658509, 41.565212 ], [ -93.658371, 41.565159 ], [ -93.65836, 41.565151 ] ] } },
{ "type": "Feature", "properties": { "cls": "shared", "highway": "cycleway", "name": "Bill Riley Trail" }, "geometry": { "type": "LineString", "coordinates": [ [ -93.66416, 41.566471 ], [ -93.663959, 41.565698 ] ] } },
{ "type": "Feature", "properties": { "cls": "shared", "highway": "cycleway", "name": "Bill Riley Trail" }, "geometry": { "type": "LineString", "coordinates": [ [ -93.664194, 41.56663 ], [ -93.66416, 41.566471 ] ] } },
{ "type": "Feature", "properties": { "cls": "shared", "highway": "cycleway", "name": "Bill Riley Trail" }, "geometry": { "type": "LineString", "coordinates": [ [ -93.679162, 41.568589 ], [ -93.67916, 41.568569 ], [ -93.679103, 41.568531 ], [ -93.679001, 41.568514 ], [ -93.678869, 41.568498 ], [ -93.678719, 41.568449 ], [ -93.678542, 41.56838 ], [ -93.678377, 41.568313 ], [ -93.678233, 41.568295 ], [ -93.678093, 41.568329 ], [ -93.677928, 41.568356 ], [ -93.677804, 41.568332 ], [ -93.677638, 41.568338 ], [ -93.67754, 41.56835 ], [ -93.677128, 41.568476 ], [ -93.676459, 41.568673 ], [ -93.675249, 41.569044 ], [ -93.67504, 41.569099 ], [ -93.674404, 41.569245 ], [ -93.674026, 41.569322 ], [ -93.673822, 41.569363 ], [ -93.67364, 41.569389 ], [ -93.673416, 41.569399 ], [ -93.673237, 41.569399 ], [ -93.67303, 41.569411 ], [ -93.672725, 41.569458 ], [ -93.672091, 41.569568 ], [ -93.671982, 41.569591 ], [ -93.671748, 41.569639 ], [ -93.671287, 41.569736 ], [ -93.670976, 41.569783 ], [ -93.670621, 41.569805 ], [ -93.670289, 41.569815 ], [ -93.669875, 41.56983 ], [ -93.669586, 41.569819 ], [ -93.669371, 41.569809 ], [ -93.66918, 41.569827 ], [ -93.66893, 41.56987 ], [ -93.668768, 41.569894 ], [ -93.668518, 41.569895 ], [ -93.668134, 41.569895 ], [ -93.667786, 41.569899 ], [ -93.667513, 41.569899 ], [ -93.667219, 41.569921 ], [ -93.666931, 41.569937 ], [ -93.666746, 41.569943 ], [ -93.666587, 41.569933 ], [ -93.666378, 41.569923 ], [ -93.666269, 41.569928 ], [ -93.666175, 41.569933 ], [ -93.666, 41.569941 ], [ -93.665844, 41.569925 ], [ -93.665564, 41.569901 ], [ -93.665198, 41.569877 ], [ -93.664983, 41.569873 ], [ -93.664781, 41.56986 ], [ -93.664642, 41.569822 ], [ -93.664532, 41.569721 ], [ -93.664481, 41.569553 ], [ -93.664473, 41.569367 ], [ -93.664498, 41.569161 ], [ -93.664536, 41.568831 ], [ -93.664536, 41.568566 ], [ -93.664494, 41.568279 ], [ -93.664431, 41.568102 ], [ -93.664346, 41.567942 ], [ -93.664258, 41.567849 ], [ -93.66419, 41.567752 ], [ -93.664161, 41.567626 ], [ -93.664163, 41.567403 ], [ -93.664179, 41.567181 ], [ -93.664189, 41.567025 ], [ -93.664199, 41.566868 ], [ -93.664201, 41.566778 ], [ -93.664202, 41.566714 ], [ -93.664194, 41.56663 ] ] } },
{ "type": "Feature", "properties": { "cls": "shared", "highway": "path", "name": null }, "geometry": { "type": "LineString", "coordinates": [ [ -93.664536, 41.568831 ], [ -93.664366, 41.56885 ], [ -93.663986, 41.568898 ], [ -93.6637, 41.56893 ], [ -93.663488, 41.568939 ], [ -93.663274, 41.568935 ], [ -93.662972, 41.568928 ], [ -93.662754, 41.568922 ], [ -93.662594, 41.568934 ], [ -93.662485, 41.568951 ], [ -93.662282, 41.569004 ], [ -93.662087, 41.56908 ], [ -93.661852, 41.569182 ], [ -93.661614, 41.569273 ], [ -93.661462, 41.569319 ], [ -93.661181, 41.569389 ], [ -93.660833, 41.569476 ], [ -93.660595, 41.569547 ], [ -93.660283, 41.569666 ], [ -93.660147, 41.569735 ], [ -93.660031, 41.569791 ], [ -93.659954, 41.569843 ] ] } },
{ "type": "Feature", "properties": { "cls": "shared", "highway": "cycleway", "name": null }, "geometry": { "type": "LineString", "coordinates": [ [ -93.646191, 41.570014 ], [ -93.646117, 41.570014 ], [ -93.646097, 41.57004 ], [ -93.646069, 41.57006 ], [ -93.646034, 41.570075 ], [ -93.645996, 41.570081 ], [ -93.645958, 41.57008 ], [ -93.645922, 41.570071 ], [ -93.645891, 41.570056 ], [ -93.645866, 41.570036 ], [ -93.645858, 41.570024 ], [ -93.645832, 41.569989 ], [ -93.645802, 41.569964 ], [ -93.645766, 41.569944 ], [ -93.645725, 41.569931 ], [ -93.645681, 41.569924 ], [ -93.645636, 41.569925 ], [ -93.645591, 41.569934 ], [ -93.645551, 41.56995 ], [ -93.645516, 41.569972 ], [ -93.645471, 41.569996 ], [ -93.645406, 41.57002 ], [ -93.645333, 41.570033 ], [ -93.645268, 41.570038 ], [ -93.645136, 41.570032 ] ] } },
{ "type": "Feature", "properties": { "cls": "shared", "highway": "cycleway", "name": "Ruan Connector" }, "geometry": { "type": "LineString", "coordinates": [ [ -93.645074, 41.570031 ], [ -93.645136, 41.570032 ] ] } },
{ "type": "Feature", "properties": { "cls": "shared", "highway": "cycleway", "name": null }, "geometry": { "type": "LineString", "coordinates": [ [ -93.648989, 41.570335 ], [ -93.648911, 41.570291 ], [ -93.648885, 41.57028 ], [ -93.648806, 41.570251 ], [ -93.648733, 41.570228 ], [ -93.648691, 41.57022 ], [ -93.648647, 41.570216 ], [ -93.648585, 41.570216 ], [ -93.648559, 41.570217 ], [ -93.648486, 41.570225 ], [ -93.648403, 41.570242 ], [ -93.648333, 41.570252 ], [ -93.648304, 41.570252 ], [ -93.648268, 41.570251 ], [ -93.648175, 41.57024 ], [ -93.648099, 41.570229 ], [ -93.64805, 41.570215 ], [ -93.647984, 41.570189 ], [ -93.647925, 41.570155 ], [ -93.647832, 41.570093 ], [ -93.647811, 41.57008 ], [ -93.647754, 41.570057 ], [ -93.647688, 41.570037 ], [ -93.647614, 41.570024 ], [ -93.647532, 41.570018 ], [ -93.647458, 41.570024 ], [ -93.647383, 41.570036 ], [ -93.647312, 41.570059 ], [ -93.647253, 41.570085 ], [ -93.64721, 41.570108 ], [ -93.647155, 41.570145 ], [ -93.647107, 41.570175 ], [ -93.647054, 41.570197 ], [ -93.646994, 41.570213 ], [ -93.64694, 41.570213 ], [ -93.646861, 41.570209 ], [ -93.646806, 41.570192 ], [ -93.646759, 41.570168 ], [ -93.646707, 41.570133 ], [ -93.6467, 41.570127 ], [ -93.646662, 41.570092 ], [ -93.646614, 41.57006 ], [ -93.646542, 41.570029 ], [ -93.64649, 41.570017 ], [ -93.646377, 41.57001 ], [ -93.64628, 41.570012 ], [ -93.646191, 41.570014 ] ] } },
{ "type": "Feature", "properties": { "cls": "shared", "highway": "cycleway", "name": "Kruidenier Trail" }, "geometry": { "type": "LineString", "coordinates": [ [ -93.645033, 41.573607 ], [ -93.645087, 41.573615 ], [ -93.645167, 41.573604 ], [ -93.645177, 41.573597 ], [ -93.645179, 41.573542 ] ] } },
{ "type": "Feature", "properties": { "cls": "shared", "highway": "cycleway", "name": "Meredith Trail" }, "geometry": { "type": "LineString", "coordinates": [ [ -93.642031, 41.580578 ], [ -93.642126, 41.580537 ], [ -93.642224, 41.580494 ], [ -93.642495, 41.580368 ], [ -93.642588, 41.58031 ], [ -93.642712, 41.580214 ], [ -93.642845, 41.580111 ], [ -93.642947, 41.580031 ], [ -93.643048, 41.579954 ], [ -93.643144, 41.579873 ], [ -93.643228, 41.579785 ], [ -93.643291, 41.5797 ], [ -93.643338, 41.579618 ], [ -93.64338, 41.579522 ], [ -93.643398, 41.57945 ], [ -93.643412, 41.579359 ], [ -93.643424, 41.579252 ], [ -93.643438, 41.579107 ], [ -93.643453, 41.578953 ], [ -93.64347, 41.578869 ], [ -93.643512, 41.578754 ], [ -93.643558, 41.578667 ], [ -93.643604, 41.578604 ], [ -93.643673, 41.578521 ], [ -93.643752, 41.578434 ], [ -93.643839, 41.578336 ], [ -93.643924, 41.578238 ], [ -93.64399, 41.57816 ], [ -93.644047, 41.578071 ], [ -93.644088, 41.57799 ], [ -93.644108, 41.577936 ], [ -93.644111, 41.577877 ], [ -93.644109, 41.577797 ], [ -93.644119, 41.577752 ], [ -93.644148, 41.577679 ], [ -93.644201, 41.577549 ], [ -93.644241, 41.577437 ], [ -93.644267, 41.577313 ], [ -93.644288, 41.577225 ], [ -93.644322, 41.577057 ], [ -93.644347, 41.576945 ], [ -93.64437, 41.576866 ], [ -93.644406, 41.576789 ], [ -93.644468, 41.576669 ], [ -93.644526, 41.576564 ], [ -93.644568, 41.576464 ], [ -93.644578, 41.576378 ], [ -93.644586, 41.57622 ], [ -93.644604, 41.576129 ], [ -93.644642, 41.575998 ], [ -93.644659, 41.575888 ], [ -93.644674, 41.575707 ], [ -93.644683, 41.57562 ], [ -93.644694, 41.5755 ], [ -93.644688, 41.575285 ], [ -93.644684, 41.575098 ], [ -93.644681, 41.574949 ], [ -93.644655, 41.574721 ], [ -93.644629, 41.574522 ], [ -93.644599, 41.574416 ], [ -93.644574, 41.57436 ] ] } },
{ "type": "Feature", "properties": { "cls": "shared", "highway": "cycleway", "name": "Meredith Trail Service Spur" }, "geometry": { "type": "LineString", "coordinates": [ [ -93.64338, 41.579522 ], [ -93.643464, 41.579557 ], [ -93.643479, 41.579571 ], [ -93.643491, 41.579586 ], [ -93.643499, 41.579608 ], [ -93.643498, 41.579648 ], [ -93.64349, 41.57979 ], [ -93.643491, 41.57987 ], [ -93.643509, 41.579952 ], [ -93.643523, 41.580042 ], [ -93.643512, 41.580212 ], [ -93.643487, 41.58033 ], [ -93.643456, 41.580461 ], [ -93.643406, 41.580611 ], [ -93.64337, 41.5807 ], [ -93.643322, 41.580781 ], [ -93.643277, 41.580854 ], [ -93.643222, 41.580928 ], [ -93.64318, 41.580974 ], [ -93.64313, 41.581023 ], [ -93.643082, 41.581074 ], [ -93.643113, 41.581106 ] ] } },
{ "type": "Feature", "properties": { "cls": "shared", "highway": "cycleway", "name": "Meredith Trail Service Spur" }, "geometry": { "type": "LineString", "coordinates": [ [ -93.643164, 41.581157 ], [ -93.643215, 41.581209 ] ] } },
{ "type": "Feature", "properties": { "cls": "shared", "highway": "cycleway", "name": "Meredith Trail Service Spur" }, "geometry": { "type": "LineString", "coordinates": [ [ -93.643215, 41.581209 ], [ -93.643237, 41.581232 ], [ -93.643262, 41.581257 ] ] } },
{ "type": "Feature", "properties": { "cls": "shared", "highway": "cycleway", "name": "Meredith Trail" }, "geometry": { "type": "LineString", "coordinates": [ [ -93.641111, 41.580967 ], [ -93.642031, 41.580578 ] ] } },
{ "type": "Feature", "properties": { "cls": "shared", "highway": "cycleway", "name": "Meredith Trail Service Spur" }, "geometry": { "type": "LineString", "coordinates": [ [ -93.643113, 41.581106 ], [ -93.643139, 41.581132 ], [ -93.643164, 41.581157 ] ] } },
{ "type": "Feature", "properties": { "cls": "shared", "highway": "cycleway", "name": "Meredith Trail Service Spur" }, "geometry": { "type": "LineString", "coordinates": [ [ -93.643262, 41.581257 ], [ -93.643274, 41.581269 ], [ -93.643237, 41.581289 ], [ -93.643194, 41.581321 ], [ -93.643136, 41.581377 ], [ -93.642983, 41.581529 ] ] } },
{ "type": "Feature", "properties": { "cls": "shared", "highway": "cycleway", "name": null }, "geometry": { "type": "LineString", "coordinates": [ [ -93.642983, 41.581529 ], [ -93.642838, 41.581668 ], [ -93.642711, 41.58179 ], [ -93.64258, 41.581912 ], [ -93.642393, 41.58209 ], [ -93.642295, 41.582183 ], [ -93.642246, 41.582231 ] ] } }
]
}
