{
"type": "FeatureCollection",
"name": "138-vienna-prater",
"crs": { "type": "name", "properties": { "name": "urn:ogc:def:crs:OGC:1.3:CRS84" } },
"xy_coordinate_resolution": 1e-06,
"features": [
{ "type": "Feature", "properties": { "cls": "painted", "highway": "residential", "name": "Rustenschacherallee" }, "geometry": { "type": "LineString", "coordinates": [ [ 16.409852, 48.20141 ], [ 16.410029, 48.201348 ], [ 16.410141, 48.201305 ] ] } },
{ "type": "Feature", "properties": { "cls": "painted", "highway": "residential", "name": "Rustenschacherallee" }, "geometry": { "type": "LineString", "coordinates": [ [ 16.406345, 48.203214 ], [ 16.407063, 48.202954 ], [ 16.407642, 48.202691 ], [ 16.408266, 48.202371 ], [ 16.409373, 48.201667 ], [ 16.409852, 48.20141 ] ] } },
{ "type": "Feature", "properties": { "cls": "shared", "highway": "cycleway", "name": null }, "geometry": { "type": "LineString", "coordinates": [ [ 16.415032, 48.200052 ], [ 16.415047, 48.200076 ] ] } },
{ "type": "Feature", "properties": { "cls": "shared", "highway": "cycleway", "name": null }, "geometry": { "type": "LineString", "coordinates": [ [ 16.415047, 48.200076 ], [ 16.415072, 48.200116 ] ] } },
{ "type": "Feature", "properties": { "cls": "painted", "highway": "residential", "name": "Rustenschacherallee" }, "geometry": { "type": "LineString", "coordinates": [ [ 16.410141, 48.201305 ], [ 16.410335, 48.201261 ], [ 16.410531, 48.201229 ], [ 16.410925, 48.201182 ], [ 16.411317, 48.201167 ], [ 16.411647, 48.20117 ], [ 16.411969, 48.201191 ], [ 16.412215, 48.201224 ], [ 16.412458, 48.201279 ], [ 16.41263, 48.201329 ], [ 16.4129, 48.20145 ], [ 16.413136, 48.201566 ], [ 16.413378, 48.201722 ], [ 16.413684, 48.201945 ], [ 16.413851, 48.202045 ], [ 16.413939, 48.202086 ] ] } },
{ "type": "Feature", "properties": { "cls": "shared", "highway": "cycleway", "name": null }, "geometry": { "type": "LineString", "coordinates": [ [ 16.415072, 48.200116 ], [ 16.415487, 48.200779 ], [ 16.415542, 48.200878 ], [ 16.415628, 48.201065 ], [ 16.415759, 48.201426 ], [ 16.415815, 48.201686 ], [ 16.415833, 48.20177 ], [ 16.415881, 48.202013 ], [ 16.415919, 48.202414 ], [ 16.415915, 48.202959 ], [ 16.416005, 48.203476 ], [ 16.416091, 48.203698 ], [ 16.416198, 48.203886 ], [ 16.416249, 48.203977 ] ] } },
{ "type": "Feature", "properties": { "cls": "painted", "highway": "residential", "name": "Lusthausstraße" }, "geometry": { "type": "LineString", "coordinates": [ [ 16.413939, 48.202086 ], [ 16.414173, 48.202133 ], [ 16.414384, 48.202152 ], [ 16.414576, 48.202142 ], [ 16.414748, 48.202117 ], [ 16.414932, 48.202076 ], [ 16.415053, 48.202038 ], [ 16.415121, 48.202004 ] ] } },
{ "type": "Feature", "properties": { "cls": "shared", "highway": "cycleway", "name": null }, "geometry": { "type": "LineString", "coordinates": [ [ 16.416249, 48.203977 ], [ 16.416342, 48.204098 ], [ 16.416456, 48.204209 ], [ 16.416511, 48.204255 ], [ 16.41661, 48.204333 ] ] } },
{ "type": "Feature", "properties": { "cls": "separated", "highway": "cycleway", "name": "Oswald-Thomas-Platz" }, "geometry": { "type": "LineString", "coordinates": [ [ 16.393736, 48.21633 ], [ 16.393775, 48.216435 ] ] } },
{ "type": "Feature", "properties": { "cls": "separated", "highway": "cycleway", "name": "Oswald-Thomas-Platz" }, "geometry": { "type": "LineString", "coordinates": [ [ 16.393775, 48.216435 ], [ 16.393779, 48.216506 ], [ 16.393748, 48.216557 ], [ 16.393753, 48.21663 ] ] } },
{ "type": "Feature", "properties": { "cls": "separated", "highway": "residential", "name": "Hauptallee" }, "geometry": { "type": "LineString", "coordinates": [ [ 16.392944, 48.216739 ], [ 16.393065, 48.216682 ] ] } },
{ "type": "Feature", "properties": { "cls": "sharrow", "highway": "residential", "name": "Hauptallee" }, "geometry": { "type": "LineString", "coordinates": [ [ 16.393065, 48.216682 ], [ 16.393057, 48.216794 ] ] } },
{ "type": "Feature", "properties": { "cls": "separated", "highway": "cycleway", "name": null }, "geometry": { "type": "LineString", "coordinates": [ [ 16.393753, 48.21663 ], [ 16.393686, 48.216684 ], [ 16.393379, 48.216903 ] ] } },
{ "type": "Feature", "properties": { "cls": "separated", "highway": "cycleway", "name": null }, "geometry": { "type": "LineString", "coordinates": [ [ 16.392817, 48.216758 ], [ 16.392845, 48.216744 ], [ 16.392944, 48.216739 ] ] } },
{ "type": "Feature", "properties": { "cls": "sharrow", "highway": "residential", "name": "Hauptallee" }, "geometry": { "type": "LineString", "coordinates": [ [ 16.393057, 48.216794 ], [ 16.39305, 48.216928 ] ] } },
{ "type": "Feature", "properties": { "cls": "separated", "highway": "cycleway", "name": null }, "geometry": { "type": "LineString", "coordinates": [ [ 16.393379, 48.216903 ], [ 16.393291, 48.216962 ] ] } },
{ "type": "Feature", "properties": { "cls": "separated", "highway": "cycleway", "name": null }, "geometry": { "type": "LineString", "coordinates": [ [ 16.393291, 48.216962 ], [ 16.393192, 48.217028 ] ] } },
{ "type": "Feature", "properties": { "cls": "separated", "highway": "cycleway", "name": null }, "geometry": { "type": "LineString", "coordinates": [ [ 16.393192, 48.217028 ], [ 16.393189, 48.217029 ] ] } },
{ "type": "Feature", "properties": { "cls": "separated", "highway": "cycleway", "name": null }, "geometry": { "type": "LineString", "coordinates": [ [ 16.479604, 48.171693 ], [ 16.479503, 48.171586 ], [ 16.47938, 48.171454 ] ] } },
{ "type": "Feature", "properties": { "cls": "separated", "highway": "cycleway", "name": null }, "geometry": { "type": "LineString", "coordinates": [ [ 16.464017, 48.177269 ], [ 16.464135, 48.177534 ] ] } },
{ "type": "Feature", "properties": { "cls": "shared", "highway": "path", "name": "Heustadlsteg" }, "geometry": { "type": "LineString", "coordinates": [ [ 16.423709, 48.198075 ], [ 16.423353, 48.19783 ] ] } },
{ "type": "Feature", "properties": { "cls": "shared", "highway": "path", "name": "Heustadlsteg" }, "geometry": { "type": "LineString", "coordinates": [ [ 16.423861, 48.19818 ], [ 16.423709, 48.198075 ] ] } },
{ "type": "Feature", "properties": { "cls": "shared", "highway": "path", "name": null }, "geometry": { "type": "LineString", "coordinates": [ [ 16.423736, 48.198285 ], [ 16.423861, 48.19818 ] ] } },
{ "type": "Feature", "properties": { "cls": "shared", "highway": "cycleway", "name": null }, "geometry": { "type": "LineString", "coordinates": [ [ 16.423736, 48.198285 ], [ 16.423936, 48.198428 ], [ 16.425457, 48.199462 ], [ 16.425523, 48.199506 ], [ 16.425622, 48.199575 ] ] } },
{ "type": "Feature", "properties": { "cls": "separated", "highway": "cycleway", "name": null }, "geometry": { "type": "LineString", "coordinates": [ [ 16.425932, 48.199414 ], [ 16.426043, 48.19949 ], [ 16.42612, 48.199541 ], [ 16.427367, 48.200395 ], [ 16.427651, 48.200492 ], [ 16.427725, 48.20053 ], [ 16.427828, 48.200604 ], [ 16.42788, 48.200648 ], [ 16.427911, 48.200693 ], [ 16.427795, 48.200765 ], [ 16.427565, 48.200904 ] ] } },
{ "type": "Feature", "properties": { "cls": "separated", "highway": "cycleway", "name": "Grünlandgasse" }, "geometry": { "type": "LineString", "coordinates": [ [ 16.425622, 48.199575 ], [ 16.42574, 48.199655 ], [ 16.425815, 48.199706 ], [ 16.427565, 48.200904 ] ] } },
{ "type": "Feature", "properties": { "cls": "shared", "highway": "cycleway", "name": null }, "geometry": { "type": "LineString", "coordinates": [ [ 16.43178, 48.187068 ], [ 16.431833, 48.187052 ], [ 16.431946, 48.187217 ], [ 16.431979, 48.187206 ], [ 16.43186, 48.18703 ] ] } },
{ "type": "Feature", "properties": { "cls": "shared", "highway": "path", "name": null }, "geometry": { "type": "LineString", "coordinates": [ [ 16.423353, 48.19783 ], [ 16.423292, 48.197788 ], [ 16.423205, 48.197498 ] ] } },
{ "type": "Feature", "properties": { "cls": "shared", "highway": "path", "name": null }, "geometry": { "type": "LineString", "coordinates": [ [ 16.423292, 48.197788 ], [ 16.423045, 48.197763 ], [ 16.422975, 48.197747 ], [ 16.422903, 48.197718 ], [ 16.422768, 48.197627 ] ] } },
{ "type": "Feature", "properties": { "cls": "shared", "highway": "cycleway", "name": null }, "geometry": { "type": "LineString", "coordinates": [ [ 16.41661, 48.204333 ], [ 16.416717, 48.204405 ] ] } },
{ "type": "Feature", "properties": { "cls": "shared", "highway": "cycleway", "name": null }, "geometry": { "type": "LineString", "coordinates": [ [ 16.416717, 48.204405 ], [ 16.416758, 48.204436 ] ] } },
{ "type": "Feature", "properties": { "cls": "separated", "highway": "cycleway", "name": "Grünlandgasse" }, "geometry": { "type": "LineString", "coordinates": [ [ 16.427565, 48.200904 ], [ 16.427569, 48.200921 ], [ 16.427607, 48.201061 ], [ 16.427667, 48.201151 ], [ 16.427758, 48.201228 ], [ 16.428115, 48.201479 ], [ 16.428489, 48.201754 ], [ 16.428829, 48.201973 ] ] } }
]
}
