{
"type": "FeatureCollection",
"name": "142-lincoln-wilderness-park",
"crs": { "type": "name", "properties": { "name": "urn:ogc:def:crs:OGC:1.3:CRS84" } },
"xy_coordinate_resolution": 1e-06,
"features": [
{ "type": "Feature", "properties": { "cls": "shared", "highway": "path", "name": "Wilderness Park Trail" }, "geometry": { "type": "LineString", "coordinates": [ [ -96.691731, 40.706726 ], [ -96.691825, 40.706675 ], [ -96.691914, 40.706611 ], [ -96.69202, 40.706537 ], [ -96.692128, 40.706447 ], [ -96.692231, 40.70637 ], [ -96.692377, 40.70623 ], [ -96.692561, 40.706103 ], [ -96.692747, 40.705987 ], [ -96.692762, 40.705979 ] ] } },
{ "type": "Feature", "properties": { "cls": "shared", "highway": "path", "name": "Wilderness Park Trail" }, "geometry": { "type": "LineString", "coordinates": [ [ -96.691513, 40.70649 ], [ -96.691294, 40.706278 ] ] } },
{ "type": "Feature", "properties": { "cls": "shared", "highway": "path", "name": "Wilderness Park Trail" }, "geometry": { "type": "LineString", "coordinates": [ [ -96.694153, 40.708541 ], [ -96.694138, 40.708547 ], [ -96.694031, 40.708608 ], [ -96.693918, 40.708681 ], [ -96.6938, 40.708783 ], [ -96.69372, 40.708896 ], [ -96.693672, 40.709002 ], [ -96.693661, 40.709096 ], [ -96.693677, 40.709218 ], [ -96.693677, 40.709368 ], [ -96.693709, 40.709486 ], [ -96.693774, 40.70958 ], [ -96.693843, 40.709669 ], [ -96.693951, 40.709758 ], [ -96.694058, 40.709815 ], [ -96.694138, 40.709868 ], [ -96.694176, 40.709994 ], [ -96.69416, 40.71012 ], [ -96.694165, 40.710226 ], [ -96.694197, 40.710332 ], [ -96.694246, 40.710442 ], [ -96.69433, 40.710511 ], [ -96.694359, 40.710546 ], [ -96.694361, 40.710579 ], [ -96.694312, 40.710619 ], [ -96.694253, 40.710657 ], [ -96.694147, 40.710698 ], [ -96.69402, 40.710728 ], [ -96.693846, 40.710779 ], [ -96.693731, 40.710817 ], [ -96.693618, 40.710842 ], [ -96.693495, 40.710847 ], [ -96.693389, 40.710844 ], [ -96.693308, 40.71087 ], [ -96.693254, 40.710912 ], [ -96.69319, 40.710964 ], [ -96.693121, 40.711038 ], [ -96.693097, 40.711091 ], [ -96.69306, 40.711147 ], [ -96.692968, 40.711193 ], [ -96.692895, 40.711208 ], [ -96.692814, 40.711203 ], [ -96.692664, 40.711172 ], [ -96.692538, 40.711141 ], [ -96.692463, 40.711155 ], [ -96.692424, 40.711226 ], [ -96.692398, 40.711276 ], [ -96.692323, 40.711307 ], [ -96.692228, 40.711298 ], [ -96.692159, 40.711298 ], [ -96.6921, 40.711316 ], [ -96.692059, 40.711321 ], [ -96.692012, 40.711313 ], [ -96.691962, 40.711301 ], [ -96.69192, 40.711307 ], [ -96.691889, 40.711334 ], [ -96.69189, 40.711375 ], [ -96.691895, 40.711412 ], [ -96.691878, 40.711451 ], [ -96.691843, 40.711467 ], [ -96.691807, 40.711474 ], [ -96.691714, 40.711494 ], [ -96.691642, 40.711505 ], [ -96.69158, 40.711497 ], [ -96.691512, 40.711491 ], [ -96.69146, 40.711496 ], [ -96.691408, 40.711555 ], [ -96.691373, 40.711605 ], [ -96.691319, 40.711628 ], [ -96.691227, 40.71162 ], [ -96.691156, 40.71159 ], [ -96.691081, 40.711567 ], [ -96.691022, 40.711532 ], [ -96.691011, 40.711487 ], [ -96.691014, 40.711425 ], [ -96.691045, 40.711386 ], [ -96.691085, 40.711346 ], [ -96.691279, 40.711175 ], [ -96.691351, 40.711121 ], [ -96.691449, 40.711093 ], [ -96.691532, 40.71111 ], [ -96.691599, 40.711129 ], [ -96.691674, 40.711138 ], [ -96.691737, 40.711113 ], [ -96.691803, 40.711056 ], [ -96.691864, 40.710988 ], [ -96.691912, 40.710962 ], [ -96.692006, 40.710944 ], [ -96.692167, 40.710931 ], [ -96.692309, 40.71092 ], [ -96.692371, 40.710897 ], [ -96.692444, 40.710869 ], [ -96.692523, 40.710868 ], [ -96.692668, 40.71086 ], [ -96.692728, 40.710842 ], [ -96.692755, 40.710802 ], [ -96.692766, 40.710772 ], [ -96.692775, 40.71066 ], [ -96.69281, 40.71061 ], [ -96.692851, 40.710583 ], [ -96.692863, 40.710542 ], [ -96.69287, 40.710505 ], [ -96.692897, 40.710475 ], [ -96.692919, 40.710429 ], [ -96.692907, 40.710366 ], [ -96.692907, 40.710322 ], [ -96.692905, 40.710268 ], [ -96.692879, 40.710193 ], [ -96.692802, 40.710113 ], [ -96.692673, 40.710045 ], [ -96.692573, 40.709996 ], [ -96.692391, 40.709968 ], [ -96.692287, 40.70996 ], [ -96.692208, 40.709943 ], [ -96.69206, 40.709866 ], [ -96.691879, 40.709786 ], [ -96.691851, 40.709768 ], [ -96.691815, 40.709759 ], [ -96.691761, 40.709757 ], [ -96.691669, 40.709778 ], [ -96.691524, 40.709783 ], [ -96.691426, 40.709803 ], [ -96.691389, 40.709809 ], [ -96.691348, 40.70981 ], [ -96.691305, 40.709793 ], [ -96.691287, 40.709773 ], [ -96.691226, 40.709708 ], [ -96.691199, 40.709694 ], [ -96.691129, 40.709666 ], [ -96.691067, 40.709641 ], [ -96.691023, 40.709617 ], [ -96.690999, 40.709574 ], [ -96.691002, 40.709508 ], [ -96.690999, 40.709432 ], [ -96.690989, 40.709367 ], [ -96.69096, 40.709302 ], [ -96.690952, 40.709262 ], [ -96.690962, 40.709208 ], [ -96.690975, 40.709153 ], [ -96.690987, 40.709062 ], [ -96.690986, 40.709029 ], [ -96.690962, 40.708975 ], [ -96.69093, 40.708891 ], [ -96.690917, 40.70886 ], [ -96.690908, 40.708817 ], [ -96.690921, 40.708782 ], [ -96.690979, 40.708766 ], [ -96.69106, 40.708768 ], [ -96.691172, 40.708771 ], [ -96.691258, 40.708764 ], [ -96.691329, 40.708753 ], [ -96.691405, 40.70873 ], [ -96.691476, 40.708712 ], [ -96.691631, 40.708699 ], [ -96.691724, 40.708685 ], [ -96.691817, 40.70866 ], [ -96.691908, 40.708621 ], [ -96.691955, 40.708578 ], [ -96.692004, 40.70855 ], [ -96.692056, 40.708548 ], [ -96.692122, 40.708556 ], [ -96.692173, 40.708556 ], [ -96.692217, 40.708539 ], [ -96.692234, 40.708499 ], [ -96.692219, 40.708424 ], [ -96.692201, 40.708314 ], [ -96.692186, 40.70824 ], [ -96.692182, 40.708175 ], [ -96.692187, 40.708109 ], [ -96.692206, 40.708047 ], [ -96.692209, 40.707981 ], [ -96.692205, 40.707911 ], [ -96.692156, 40.707849 ], [ -96.69207, 40.707814 ], [ -96.69199, 40.707746 ], [ -96.691931, 40.707678 ], [ -96.691878, 40.707639 ], [ -96.691808, 40.707617 ], [ -96.691631, 40.707523 ], [ -96.691521, 40.707467 ], [ -96.691445, 40.70742 ], [ -96.691415, 40.707395 ], [ -96.691383, 40.707337 ], [ -96.691353, 40.707291 ], [ -96.691313, 40.70725 ], [ -96.691274, 40.707206 ], [ -96.691258, 40.707138 ], [ -96.691327, 40.707039 ], [ -96.69149, 40.706935 ], [ -96.691592, 40.706841 ], [ -96.691731, 40.706726 ], [ -96.691643, 40.706629 ], [ -96.691575, 40.706556 ], [ -96.691513, 40.70649 ] ] } },
{ "type": "Feature", "properties": { "cls": "shared", "highway": "path", "name": "Wilderness Park Trail" }, "geometry": { "type": "MultiLineString", "coordinates": [ [ [ -96.697116, 40.714122 ], [ -96.697069, 40.714036 ] ], [ [ -96.696955, 40.71383 ], [ -96.696922, 40.713805 ], [ -96.696771, 40.713723 ], [ -96.696743, 40.713713 ], [ -96.696666, 40.71371 ], [ -96.696605, 40.713719 ], [ -96.696512, 40.713722 ], [ -96.696419, 40.713735 ], [ -96.696307, 40.713727 ], [ -96.696247, 40.71372 ], [ -96.696212, 40.713726 ], [ -96.696166, 40.713751 ], [ -96.696123, 40.713811 ], [ -96.696086, 40.713875 ], [ -96.696028, 40.713933 ], [ -96.695974, 40.713968 ], [ -96.695862, 40.714019 ], [ -96.695745, 40.714049 ], [ -96.695624, 40.714071 ], [ -96.695492, 40.714099 ], [ -96.69538, 40.714139 ], [ -96.695313, 40.714168 ], [ -96.695238, 40.714197 ], [ -96.695193, 40.71421 ], [ -96.695164, 40.714207 ], [ -96.695144, 40.714199 ], [ -96.695128, 40.714176 ], [ -96.69512, 40.714154 ], [ -96.695092, 40.71413 ], [ -96.695046, 40.714111 ], [ -96.695008, 40.714104 ], [ -96.694968, 40.714107 ], [ -96.694908, 40.714123 ], [ -96.694866, 40.714134 ], [ -96.694832, 40.714139 ], [ -96.694804, 40.71413 ], [ -96.694767, 40.714114 ], [ -96.694745, 40.714088 ], [ -96.694716, 40.714047 ], [ -96.694681, 40.713998 ], [ -96.694631, 40.713903 ], [ -96.69457, 40.713827 ], [ -96.694514, 40.71377 ], [ -96.694433, 40.713705 ], [ -96.694331, 40.713639 ], [ -96.694065, 40.713418 ], [ -96.694012, 40.713335 ], [ -96.693956, 40.713311 ], [ -96.693925, 40.713298 ], [ -96.693887, 40.713275 ], [ -96.69386, 40.713253 ], [ -96.693843, 40.713205 ], [ -96.693837, 40.713155 ], [ -96.693828, 40.713065 ], [ -96.693824, 40.713031 ], [ -96.69382, 40.712965 ], [ -96.693841, 40.712837 ], [ -96.693854, 40.712754 ], [ -96.693859, 40.712719 ], [ -96.693853, 40.712688 ], [ -96.693794, 40.712617 ], [ -96.69378, 40.712553 ], [ -96.693781, 40.712502 ], [ -96.6938, 40.712446 ], [ -96.693831, 40.712395 ], [ -96.693849, 40.712359 ], [ -96.693879, 40.712326 ], [ -96.693923, 40.712302 ], [ -96.693972, 40.712288 ], [ -96.694027, 40.712274 ], [ -96.694064, 40.712262 ], [ -96.694097, 40.712247 ], [ -96.694123, 40.712223 ], [ -96.694163, 40.712186 ], [ -96.694204, 40.712159 ], [ -96.694248, 40.712145 ], [ -96.694309, 40.712139 ], [ -96.69439, 40.712132 ], [ -96.694458, 40.712121 ], [ -96.69449, 40.712113 ], [ -96.694525, 40.712097 ], [ -96.694553, 40.712074 ], [ -96.694637, 40.711994 ] ], [ [ -96.694742, 40.711903 ], [ -96.694761, 40.711886 ], [ -96.6948, 40.711841 ], [ -96.694823, 40.711799 ], [ -96.694845, 40.711781 ], [ -96.694889, 40.711756 ], [ -96.694954, 40.711728 ], [ -96.695017, 40.711696 ], [ -96.695077, 40.711654 ], [ -96.695144, 40.711606 ], [ -96.695182, 40.711564 ], [ -96.695252, 40.711493 ], [ -96.695327, 40.711474 ], [ -96.695411, 40.711493 ], [ -96.695465, 40.711515 ], [ -96.695528, 40.711539 ], [ -96.69559, 40.711548 ], [ -96.695654, 40.711565 ], [ -96.695702, 40.711611 ], [ -96.695712, 40.711676 ], [ -96.695701, 40.711711 ], [ -96.695662, 40.711769 ], [ -96.695641, 40.711828 ], [ -96.69565, 40.711866 ], [ -96.695671, 40.711898 ] ], [ [ -96.695757, 40.711994 ], [ -96.695766, 40.712002 ], [ -96.69584, 40.712027 ], [ -96.695925, 40.712044 ], [ -96.695969, 40.712043 ] ] ] } },
{ "type": "Feature", "properties": { "cls": "shared", "highway": "path", "name": "Wilderness Park Trail" }, "geometry": { "type": "LineString", "coordinates": [ [ -96.70178, 40.717036 ], [ -96.701795, 40.716962 ], [ -96.7018, 40.716916 ], [ -96.701792, 40.716744 ], [ -96.701797, 40.716576 ], [ -96.70184, 40.716445 ], [ -96.70192, 40.716362 ], [ -96.701939, 40.716208 ], [ -96.701982, 40.716043 ], [ -96.702076, 40.71595 ], [ -96.702253, 40.715893 ], [ -96.702446, 40.715739 ], [ -96.702545, 40.715519 ], [ -96.70258, 40.715384 ], [ -96.702556, 40.715201 ], [ -96.702511, 40.715055 ], [ -96.702476, 40.714899 ], [ -96.702476, 40.71476 ], [ -96.702502, 40.714514 ], [ -96.702502, 40.71434 ], [ -96.702468, 40.714274 ], [ -96.702398, 40.714204 ], [ -96.702398, 40.714116 ], [ -96.702401, 40.713918 ], [ -96.702368, 40.713756 ], [ -96.702368, 40.713634 ], [ -96.702422, 40.713509 ], [ -96.702492, 40.713437 ], [ -96.702653, 40.713367 ], [ -96.702728, 40.713285 ], [ -96.702728, 40.713189 ], [ -96.702688, 40.71302 ], [ -96.702585, 40.71287 ], [ -96.702486, 40.71263 ], [ -96.702406, 40.712464 ], [ -96.702374, 40.712304 ], [ -96.70235, 40.712139 ], [ -96.702347, 40.712043 ] ] } },
{ "type": "Feature", "properties": { "cls": "shared", "highway": "path", "name": "Wilderness Park Trail" }, "geometry": { "type": "LineString", "coordinates": [ [ -96.701247, 40.716865 ], [ -96.70119, 40.716868 ], [ -96.70113, 40.716875 ], [ -96.701075, 40.716885 ], [ -96.701045, 40.716885 ], [ -96.701009, 40.716878 ], [ -96.700981, 40.716862 ], [ -96.700965, 40.716844 ], [ -96.700953, 40.716816 ], [ -96.70095, 40.716785 ], [ -96.700958, 40.716731 ], [ -96.70097, 40.716615 ], [ -96.700969, 40.716366 ], [ -96.700963, 40.716255 ], [ -96.700952, 40.716108 ], [ -96.700965, 40.71605 ], [ -96.70097, 40.716027 ], [ -96.700967, 40.715998 ], [ -96.700944, 40.715952 ], [ -96.700866, 40.715846 ], [ -96.700793, 40.715763 ], [ -96.700718, 40.715687 ], [ -96.700641, 40.715626 ], [ -96.70058, 40.715595 ], [ -96.700481, 40.715553 ], [ -96.700357, 40.715499 ], [ -96.700273, 40.715462 ], [ -96.700204, 40.71543 ], [ -96.700163, 40.71542 ], [ -96.700106, 40.715421 ], [ -96.700054, 40.715427 ], [ -96.70001, 40.715426 ], [ -96.69994, 40.715422 ], [ -96.699902, 40.715422 ], [ -96.699826, 40.715436 ], [ -96.699789, 40.715453 ], [ -96.699663, 40.715499 ], [ -96.699573, 40.715522 ], [ -96.699512, 40.715531 ], [ -96.699401, 40.715534 ], [ -96.699249, 40.715523 ], [ -96.699093, 40.715511 ], [ -96.698965, 40.715504 ], [ -96.698912, 40.715506 ], [ -96.698866, 40.715514 ], [ -96.698819, 40.715516 ], [ -96.698776, 40.715507 ], [ -96.698737, 40.715486 ], [ -96.698699, 40.71544 ], [ -96.698671, 40.715343 ], [ -96.698662, 40.7153 ], [ -96.698652, 40.715264 ], [ -96.6986, 40.7152 ], [ -96.698503, 40.715109 ], [ -96.698464, 40.715081 ], [ -96.698441, 40.715059 ], [ -96.698423, 40.715031 ], [ -96.698419, 40.714988 ], [ -96.698427, 40.714945 ], [ -96.698438, 40.714895 ], [ -96.69844, 40.714849 ], [ -96.698449, 40.714819 ], [ -96.698474, 40.714792 ], [ -96.698514, 40.714767 ], [ -96.698544, 40.714754 ], [ -96.698569, 40.714727 ], [ -96.698571, 40.714704 ], [ -96.69857, 40.714658 ], [ -96.69857, 40.714619 ], [ -96.698558, 40.714578 ], [ -96.698544, 40.714531 ], [ -96.698548, 40.714515 ], [ -96.698561, 40.7145 ], [ -96.698572, 40.714484 ], [ -96.69857, 40.714456 ], [ -96.698579, 40.714438 ], [ -96.698591, 40.714413 ], [ -96.698589, 40.714375 ], [ -96.698563, 40.714342 ], [ -96.698525, 40.714318 ], [ -96.698495, 40.714306 ], [ -96.698455, 40.714289 ], [ -96.698428, 40.714272 ], [ -96.69842, 40.714262 ], [ -96.698421, 40.71425 ], [ -96.698423, 40.714238 ], [ -96.698412, 40.714224 ], [ -96.698401, 40.714211 ], [ -96.698402, 40.714197 ], [ -96.698414, 40.714162 ], [ -96.698419, 40.714132 ], [ -96.698413, 40.714086 ], [ -96.698404, 40.714062 ], [ -96.698383, 40.714047 ], [ -96.698336, 40.714031 ], [ -96.698273, 40.714025 ], [ -96.69819, 40.714024 ], [ -96.698128, 40.714028 ], [ -96.698094, 40.714033 ], [ -96.698027, 40.714039 ], [ -96.697951, 40.714043 ], [ -96.697874, 40.714044 ], [ -96.6978, 40.71404 ], [ -96.697704, 40.714041 ], [ -96.697664, 40.714041 ], [ -96.697622, 40.714047 ], [ -96.697593, 40.714055 ], [ -96.697541, 40.714072 ] ] } },
{ "type": "Feature", "properties": { "cls": "shared", "highway": "path", "name": "Wilderness Park Trail" }, "geometry": { "type": "LineString", "coordinates": [ [ -96.7018, 40.716916 ], [ -96.701899, 40.716795 ], [ -96.701987, 40.716749 ], [ -96.702079, 40.716692 ], [ -96.702119, 40.716641 ], [ -96.702537, 40.716649 ], [ -96.702773, 40.716664 ], [ -96.702889, 40.716732 ], [ -96.703055, 40.716815 ], [ -96.703157, 40.716925 ], [ -96.703256, 40.717023 ], [ -96.703311, 40.717096 ], [ -96.703354, 40.71715 ], [ -96.703415, 40.717204 ] ] } },
{ "type": "Feature", "properties": { "cls": "shared", "highway": "path", "name": null }, "geometry": { "type": "LineString", "coordinates": [ [ -96.701727, 40.717136 ], [ -96.701735, 40.71711 ], [ -96.70178, 40.717036 ] ] } },
{ "type": "Feature", "properties": { "cls": "shared", "highway": "path", "name": "Wilderness Park Trail" }, "geometry": { "type": "LineString", "coordinates": [ [ -96.707457, 40.712462 ], [ -96.707433, 40.712386 ] ] } },
{ "type": "Feature", "properties": { "cls": "shared", "highway": "path", "name": "Wilderness Park Trail" }, "geometry": { "type": "LineString", "coordinates": [ [ -96.707285, 40.712231 ], [ -96.707228, 40.712173 ], [ -96.707189, 40.712141 ], [ -96.707119, 40.712139 ], [ -96.707079, 40.712158 ], [ -96.707029, 40.712195 ], [ -96.706972, 40.712271 ], [ -96.70696, 40.712386 ], [ -96.706904, 40.712479 ], [ -96.706832, 40.712591 ], [ -96.706718, 40.712716 ] ] } },
{ "type": "Feature", "properties": { "cls": "shared", "highway": "path", "name": "Wilderness Park Trail" }, "geometry": { "type": "MultiLineString", "coordinates": [ [ [ -96.703191, 40.712601 ], [ -96.703173, 40.712629 ], [ -96.703161, 40.712658 ], [ -96.703161, 40.712687 ], [ -96.703169, 40.71273 ], [ -96.703192, 40.712762 ], [ -96.703202, 40.712784 ], [ -96.703199, 40.712807 ], [ -96.703184, 40.712829 ], [ -96.703163, 40.712846 ], [ -96.703143, 40.712864 ], [ -96.703142, 40.712902 ], [ -96.703159, 40.712935 ], [ -96.703209, 40.712988 ], [ -96.703231, 40.713019 ], [ -96.703279, 40.713085 ], [ -96.703322, 40.713155 ], [ -96.703336, 40.713207 ], [ -96.703334, 40.713267 ], [ -96.703331, 40.713348 ], [ -96.703327, 40.713385 ], [ -96.703316, 40.713417 ], [ -96.703308, 40.713452 ], [ -96.703312, 40.713476 ], [ -96.703331, 40.713501 ], [ -96.703368, 40.713567 ], [ -96.703386, 40.713596 ], [ -96.70342, 40.713615 ], [ -96.703472, 40.713618 ], [ -96.703566, 40.713624 ], [ -96.70368, 40.713636 ], [ -96.703816, 40.713651 ], [ -96.704025, 40.713666 ], [ -96.704163, 40.713675 ], [ -96.704324, 40.713678 ], [ -96.704441, 40.713664 ], [ -96.704527, 40.713654 ], [ -96.704631, 40.713645 ], [ -96.704704, 40.713651 ], [ -96.704751, 40.713676 ], [ -96.704811, 40.713762 ], [ -96.704857, 40.713825 ], [ -96.704909, 40.713898 ], [ -96.704953, 40.713958 ], [ -96.704994, 40.71399 ], [ -96.70505, 40.714004 ], [ -96.705106, 40.714008 ], [ -96.705151, 40.714004 ], [ -96.705189, 40.713993 ], [ -96.705226, 40.713975 ], [ -96.705307, 40.71395 ], [ -96.705347, 40.713953 ], [ -96.705386, 40.713971 ], [ -96.705439, 40.71401 ], [ -96.705503, 40.714039 ], [ -96.705558, 40.714039 ], [ -96.705612, 40.714017 ], [ -96.705646, 40.713974 ], [ -96.705655, 40.713904 ], [ -96.705671, 40.713843 ], [ -96.705705, 40.713805 ], [ -96.705793, 40.713775 ], [ -96.705882, 40.713747 ], [ -96.705925, 40.713723 ], [ -96.705973, 40.713686 ], [ -96.706049, 40.713655 ], [ -96.706112, 40.713651 ], [ -96.706178, 40.713662 ], [ -96.706261, 40.71369 ], [ -96.706348, 40.713701 ], [ -96.706427, 40.713706 ], [ -96.70655, 40.713697 ], [ -96.706684, 40.713671 ], [ -96.706735, 40.713651 ], [ -96.706777, 40.713633 ], [ -96.706806, 40.713604 ], [ -96.706805, 40.713561 ], [ -96.706801, 40.713521 ], [ -96.706782, 40.713473 ], [ -96.706773, 40.713424 ], [ -96.706779, 40.713376 ], [ -96.706811, 40.71332 ], [ -96.706868, 40.71326 ], [ -96.706896, 40.713228 ], [ -96.7069, 40.713187 ], [ -96.706811, 40.713073 ], [ -96.706787, 40.713019 ], [ -96.706789, 40.712935 ], [ -96.706791, 40.712893 ], [ -96.706785, 40.712811 ], [ -96.706768, 40.712757 ], [ -96.706718, 40.712716 ], [ -96.706617, 40.712687 ], [ -96.706552, 40.712646 ], [ -96.706504, 40.712625 ], [ -96.706463, 40.7126 ], [ -96.706389, 40.712595 ], [ -96.706239, 40.712605 ], [ -96.70608, 40.712611 ], [ -96.706012, 40.712616 ], [ -96.705964, 40.712608 ], [ -96.705925, 40.712591 ], [ -96.7059, 40.712553 ], [ -96.705853, 40.712536 ], [ -96.705786, 40.712541 ], [ -96.705693, 40.712569 ], [ -96.705596, 40.712626 ], [ -96.705527, 40.712653 ], [ -96.705455, 40.712653 ], [ -96.705396, 40.712623 ], [ -96.705349, 40.712559 ], [ -96.705308, 40.712514 ], [ -96.70526, 40.712507 ], [ -96.705208, 40.712516 ], [ -96.705179, 40.71254 ], [ -96.705175, 40.712588 ], [ -96.70519, 40.712633 ], [ -96.705199, 40.712674 ], [ -96.70519, 40.712721 ], [ -96.705156, 40.712774 ], [ -96.705099, 40.712809 ], [ -96.705005, 40.712858 ], [ -96.704889, 40.712917 ], [ -96.704711, 40.712962 ], [ -96.704562, 40.712959 ], [ -96.704367, 40.712936 ], [ -96.704147, 40.712908 ], [ -96.7039, 40.712861 ], [ -96.703626, 40.712806 ], [ -96.703377, 40.712735 ], [ -96.703272, 40.712678 ], [ -96.703194, 40.712607 ], [ -96.703191, 40.712601 ] ], [ [ -96.703191, 40.712601 ], [ -96.703101, 40.712495 ], [ -96.703009, 40.712423 ], [ -96.702932, 40.712318 ], [ -96.702851, 40.712238 ], [ -96.702722, 40.712133 ], [ -96.702636, 40.712057 ], [ -96.702633, 40.712042 ] ] ] } },
{ "type": "Feature", "properties": { "cls": "shared", "highway": "path", "name": "Wilderness Park Trail" }, "geometry": { "type": "LineString", "coordinates": [ [ -96.70475, 40.716462 ], [ -96.704621, 40.71641 ], [ -96.704523, 40.716354 ], [ -96.704509, 40.716253 ], [ -96.704502, 40.716129 ], [ -96.704507, 40.716048 ], [ -96.704528, 40.715976 ], [ -96.7046, 40.715834 ], [ -96.704721, 40.715737 ], [ -96.704908, 40.715655 ], [ -96.704954, 40.715616 ], [ -96.705013, 40.715533 ], [ -96.705029, 40.715438 ], [ -96.705032, 40.715356 ], [ -96.704986, 40.715248 ], [ -96.704986, 40.715215 ], [ -96.705021, 40.715174 ], [ -96.70512, 40.715096 ], [ -96.705279, 40.714984 ], [ -96.705632, 40.71484 ], [ -96.706308, 40.714332 ], [ -96.706389, 40.714319 ], [ -96.706502, 40.714282 ], [ -96.706577, 40.714229 ], [ -96.706714, 40.714189 ], [ -96.706877, 40.714182 ], [ -96.707025, 40.71414 ], [ -96.707159, 40.714053 ], [ -96.707285, 40.713906 ], [ -96.707392, 40.713767 ], [ -96.707451, 40.713639 ], [ -96.707481, 40.713522 ], [ -96.707502, 40.713439 ], [ -96.707525, 40.713287 ], [ -96.707518, 40.713142 ], [ -96.707469, 40.713009 ], [ -96.707451, 40.71294 ], [ -96.707453, 40.712865 ], [ -96.707456, 40.712812 ], [ -96.707467, 40.712708 ], [ -96.707461, 40.712627 ], [ -96.707469, 40.712527 ], [ -96.707457, 40.712462 ] ] } },
{ "type": "Feature", "properties": { "cls": "shared", "highway": "path", "name": "Wilderness Park Trail" }, "geometry": { "type": "LineString", "coordinates": [ [ -96.706259, 40.716157 ], [ -96.706228, 40.71611 ], [ -96.706203, 40.716069 ], [ -96.70618, 40.716041 ], [ -96.706162, 40.716024 ], [ -96.706137, 40.715996 ], [ -96.70611, 40.715969 ], [ -96.706103, 40.715961 ], [ -96.706099, 40.715951 ], [ -96.706099, 40.715943 ], [ -96.706099, 40.715937 ], [ -96.706102, 40.715928 ], [ -96.706108, 40.715916 ], [ -96.706121, 40.715902 ], [ -96.706142, 40.715886 ], [ -96.706166, 40.715868 ], [ -96.706232, 40.715809 ], [ -96.706303, 40.715752 ], [ -96.706315, 40.715741 ], [ -96.706334, 40.715726 ], [ -96.706348, 40.715715 ], [ -96.706373, 40.715703 ], [ -96.706396, 40.715693 ], [ -96.706424, 40.715689 ], [ -96.706461, 40.715688 ], [ -96.706494, 40.715691 ], [ -96.706526, 40.715697 ], [ -96.706565, 40.715705 ], [ -96.706626, 40.715716 ], [ -96.706659, 40.715718 ], [ -96.70669, 40.715721 ], [ -96.706708, 40.715722 ], [ -96.706744, 40.715717 ], [ -96.706773, 40.715712 ], [ -96.706793, 40.715711 ], [ -96.706826, 40.715712 ], [ -96.706854, 40.715715 ], [ -96.706873, 40.715718 ], [ -96.706904, 40.715725 ], [ -96.706927, 40.715733 ], [ -96.706951, 40.715745 ], [ -96.706972, 40.715754 ], [ -96.706999, 40.715759 ], [ -96.707035, 40.715763 ], [ -96.707095, 40.715765 ], [ -96.707157, 40.715761 ], [ -96.707241, 40.715752 ], [ -96.707303, 40.715734 ], [ -96.70733, 40.715719 ], [ -96.707357, 40.715698 ], [ -96.707383, 40.715677 ], [ -96.707397, 40.715666 ], [ -96.707437, 40.715645 ], [ -96.707458, 40.715634 ], [ -96.707482, 40.715624 ], [ -96.707566, 40.71559 ], [ -96.707612, 40.71558 ], [ -96.707629, 40.715578 ], [ -96.707643, 40.715577 ], [ -96.707659, 40.71558 ], [ -96.707673, 40.715585 ], [ -96.707779, 40.715622 ], [ -96.708048, 40.715727 ], [ -96.7081, 40.715746 ], [ -96.708112, 40.715749 ], [ -96.708124, 40.715751 ], [ -96.70815, 40.715752 ], [ -96.70817, 40.71575 ], [ -96.708187, 40.715748 ], [ -96.708202, 40.715743 ], [ -96.708212, 40.715738 ], [ -96.708226, 40.715727 ], [ -96.708239, 40.715714 ], [ -96.708248, 40.715694 ], [ -96.708298, 40.715548 ], [ -96.708299, 40.715541 ], [ -96.708297, 40.715532 ], [ -96.708243, 40.715419 ], [ -96.708213, 40.715371 ], [ -96.708114, 40.715252 ], [ -96.708059, 40.715179 ], [ -96.708033, 40.715139 ], [ -96.708027, 40.715122 ], [ -96.708021, 40.715108 ], [ -96.708021, 40.715098 ], [ -96.708022, 40.715088 ], [ -96.708027, 40.715065 ], [ -96.708052, 40.714984 ], [ -96.708059, 40.714966 ], [ -96.708062, 40.714956 ], [ -96.708065, 40.714946 ], [ -96.708066, 40.714937 ], [ -96.708066, 40.714925 ], [ -96.70806, 40.714805 ], [ -96.70806, 40.714795 ], [ -96.70806, 40.714786 ], [ -96.708061, 40.71478 ], [ -96.708063, 40.714771 ], [ -96.708087, 40.714654 ], [ -96.708089, 40.714647 ], [ -96.708089, 40.714641 ], [ -96.708089, 40.714631 ], [ -96.708089, 40.714622 ], [ -96.708089, 40.71461 ], [ -96.708087, 40.714598 ], [ -96.708085, 40.71459 ], [ -96.708081, 40.714575 ], [ -96.708054, 40.71452 ], [ -96.708005, 40.714429 ], [ -96.707971, 40.714371 ], [ -96.707882, 40.714238 ], [ -96.707848, 40.71419 ], [ -96.707843, 40.714182 ], [ -96.70784, 40.714173 ], [ -96.707829, 40.714148 ], [ -96.707812, 40.714109 ], [ -96.707807, 40.714091 ], [ -96.707801, 40.714053 ], [ -96.707767, 40.713844 ], [ -96.707737, 40.713667 ], [ -96.707735, 40.713656 ], [ -96.707731, 40.713642 ], [ -96.707728, 40.713632 ], [ -96.707722, 40.713619 ], [ -96.707713, 40.713607 ], [ -96.707706, 40.713597 ], [ -96.707691, 40.713583 ], [ -96.707674, 40.713571 ], [ -96.707656, 40.71356 ], [ -96.707637, 40.713552 ], [ -96.7076, 40.713542 ], [ -96.70756, 40.713533 ], [ -96.707522, 40.713528 ], [ -96.707481, 40.713522 ] ] } },
{ "type": "Feature", "properties": { "cls": "shared", "highway": "path", "name": "Wilderness Park Trail" }, "geometry": { "type": "LineString", "coordinates": [ [ -96.703939, 40.716968 ], [ -96.703945, 40.716948 ], [ -96.703949, 40.716935 ], [ -96.703961, 40.716922 ], [ -96.703982, 40.71691 ], [ -96.704028, 40.7169 ], [ -96.704125, 40.716894 ], [ -96.70419, 40.716886 ], [ -96.704243, 40.716872 ], [ -96.704268, 40.716864 ], [ -96.704343, 40.716829 ], [ -96.704378, 40.716812 ], [ -96.704413, 40.716803 ], [ -96.704443, 40.716798 ], [ -96.704463, 40.716791 ], [ -96.704512, 40.716786 ], [ -96.704607, 40.716744 ], [ -96.704678, 40.716699 ], [ -96.704685, 40.716651 ], [ -96.704691, 40.716613 ], [ -96.704692, 40.71657 ], [ -96.704707, 40.716527 ], [ -96.704727, 40.716479 ], [ -96.70475, 40.716462 ] ] } },
{ "type": "Feature", "properties": { "cls": "shared", "highway": "path", "name": "Wilderness Park Trail" }, "geometry": { "type": "LineString", "coordinates": [ [ -96.710436, 40.72515 ], [ -96.710246, 40.725055 ], [ -96.710147, 40.72498 ], [ -96.710096, 40.724915 ], [ -96.710044, 40.724844 ], [ -96.709921, 40.724793 ], [ -96.709793, 40.724796 ], [ -96.70967, 40.724798 ], [ -96.7096, 40.724746 ], [ -96.709535, 40.724707 ], [ -96.709503, 40.724681 ], [ -96.709433, 40.7246 ], [ -96.709396, 40.724533 ], [ -96.709326, 40.724446 ], [ -96.709243, 40.72437 ], [ -96.709221, 40.724313 ], [ -96.7092, 40.724227 ], [ -96.709259, 40.724083 ], [ -96.709541, 40.723538 ], [ -96.709559, 40.723365 ], [ -96.709592, 40.723256 ], [ -96.709635, 40.723132 ], [ -96.70972, 40.722821 ], [ -96.709747, 40.722749 ], [ -96.709747, 40.722721 ], [ -96.709747, 40.72268 ], [ -96.709685, 40.722608 ], [ -96.709635, 40.72253 ], [ -96.709608, 40.722441 ], [ -96.709608, 40.722343 ], [ -96.709599, 40.721878 ], [ -96.709602, 40.721795 ], [ -96.709632, 40.72175 ], [ -96.70965, 40.721707 ], [ -96.709656, 40.721671 ], [ -96.709656, 40.721621 ], [ -96.709629, 40.721558 ], [ -96.709471, 40.721333 ], [ -96.709335, 40.721145 ], [ -96.709251, 40.72099 ], [ -96.709162, 40.720802 ], [ -96.709133, 40.720602 ], [ -96.709125, 40.720472 ], [ -96.709074, 40.720347 ], [ -96.708991, 40.720207 ], [ -96.708897, 40.719961 ], [ -96.708835, 40.719656 ], [ -96.708811, 40.719502 ], [ -96.708787, 40.719408 ], [ -96.708722, 40.71934 ], [ -96.708618, 40.719281 ], [ -96.708401, 40.719235 ], [ -96.708315, 40.719183 ], [ -96.708269, 40.719128 ], [ -96.708269, 40.719037 ], [ -96.708304, 40.718942 ], [ -96.708443, 40.718927 ], [ -96.708508, 40.7189 ], [ -96.708569, 40.718857 ], [ -96.708575, 40.718767 ], [ -96.708535, 40.718613 ], [ -96.7085, 40.718512 ], [ -96.708449, 40.71839 ], [ -96.708395, 40.718308 ], [ -96.708304, 40.718219 ], [ -96.7082, 40.718167 ], [ -96.708138, 40.71809 ], [ -96.708106, 40.717967 ], [ -96.70814, 40.717899 ], [ -96.708234, 40.717808 ], [ -96.708291, 40.717735 ], [ -96.708293, 40.717619 ], [ -96.708269, 40.71756 ], [ -96.708135, 40.717509 ], [ -96.707979, 40.71741 ], [ -96.707921, 40.717324 ], [ -96.707864, 40.717224 ], [ -96.707827, 40.717113 ], [ -96.707795, 40.716976 ], [ -96.707765, 40.716843 ], [ -96.707719, 40.716731 ], [ -96.707658, 40.716662 ], [ -96.707585, 40.716599 ], [ -96.707537, 40.716502 ], [ -96.707486, 40.716426 ], [ -96.70729, 40.716336 ], [ -96.707178, 40.716272 ], [ -96.707049, 40.716168 ], [ -96.706979, 40.716092 ], [ -96.706888, 40.716034 ], [ -96.70677, 40.716017 ], [ -96.706604, 40.716027 ], [ -96.706381, 40.716116 ], [ -96.706259, 40.716157 ], [ -96.706118, 40.716205 ], [ -96.706031, 40.716214 ], [ -96.70594, 40.716245 ], [ -96.705884, 40.716263 ], [ -96.705838, 40.716277 ], [ -96.705784, 40.716297 ], [ -96.705587, 40.716376 ], [ -96.705539, 40.71639 ], [ -96.705511, 40.716397 ], [ -96.705474, 40.716406 ], [ -96.705435, 40.716411 ], [ -96.705375, 40.716411 ], [ -96.705306, 40.716417 ], [ -96.705189, 40.716423 ], [ -96.705134, 40.71643 ], [ -96.705068, 40.71644 ], [ -96.70499, 40.716446 ], [ -96.704871, 40.716457 ], [ -96.704824, 40.716459 ], [ -96.704797, 40.716462 ], [ -96.704774, 40.716462 ], [ -96.70475, 40.716462 ] ] } },
{ "type": "Feature", "properties": { "cls": "shared", "highway": "path", "name": "Wilderness Park Trail" }, "geometry": { "type": "LineString", "coordinates": [ [ -96.682781, 40.698473 ], [ -96.682855, 40.698519 ], [ -96.683, 40.698593 ], [ -96.68335, 40.698941 ], [ -96.683566, 40.69913 ], [ -96.683753, 40.699202 ], [ -96.68379, 40.699213 ], [ -96.683865, 40.699231 ], [ -96.683976, 40.69929 ] ] } },
{ "type": "Feature", "properties": { "cls": "shared", "highway": "path", "name": "Wilderness Park Trail" }, "geometry": { "type": "LineString", "coordinates": [ [ -96.686859, 40.700733 ], [ -96.687188, 40.700712 ], [ -96.687545, 40.700688 ], [ -96.688005, 40.700644 ], [ -96.688096, 40.70064 ], [ -96.68818, 40.700663 ], [ -96.688379, 40.700844 ], [ -96.688462, 40.700892 ], [ -96.688563, 40.700954 ], [ -96.688659, 40.701013 ], [ -96.688703, 40.701064 ], [ -96.688714, 40.701129 ], [ -96.688705, 40.701172 ], [ -96.688674, 40.701204 ], [ -96.688614, 40.701228 ], [ -96.68856, 40.701248 ], [ -96.688489, 40.701326 ], [ -96.688442, 40.70137 ], [ -96.688366, 40.701382 ], [ -96.688265, 40.701361 ], [ -96.688111, 40.701341 ], [ -96.687978, 40.701329 ], [ -96.687812, 40.701303 ], [ -96.687659, 40.701283 ], [ -96.687537, 40.701286 ], [ -96.687425, 40.701287 ], [ -96.687252, 40.701298 ] ] } },
{ "type": "Feature", "properties": { "cls": "shared", "highway": "footway", "name": "Wilderness Park Trail" }, "geometry": { "type": "MultiLineString", "coordinates": [ [ [ -96.691294, 40.706278 ], [ -96.69112, 40.706104 ], [ -96.691166, 40.706047 ], [ -96.691226, 40.706018 ], [ -96.691314, 40.706015 ], [ -96.691389, 40.706012 ], [ -96.691449, 40.705988 ], [ -96.691495, 40.705943 ], [ -96.691546, 40.705892 ], [ -96.69157, 40.705826 ], [ -96.691561, 40.705771 ], [ -96.691496, 40.705526 ], [ -96.691485, 40.705442 ], [ -96.691469, 40.705328 ], [ -96.691469, 40.705282 ], [ -96.691452, 40.705151 ], [ -96.691401, 40.705063 ], [ -96.691337, 40.704997 ], [ -96.691268, 40.704961 ], [ -96.691174, 40.704924 ], [ -96.690842, 40.704747 ], [ -96.690749, 40.704711 ], [ -96.690671, 40.704681 ], [ -96.69043, 40.704645 ], [ -96.690288, 40.704642 ], [ -96.690072, 40.704645 ], [ -96.689942, 40.704644 ], [ -96.689706, 40.704645 ], [ -96.689599, 40.70463 ], [ -96.689505, 40.704599 ], [ -96.689465, 40.704554 ], [ -96.689466, 40.704498 ], [ -96.689493, 40.704437 ], [ -96.689552, 40.704391 ], [ -96.689618, 40.704362 ], [ -96.689755, 40.704176 ], [ -96.689813, 40.704092 ], [ -96.689887, 40.704023 ], [ -96.689957, 40.703964 ], [ -96.689993, 40.703902 ], [ -96.690014, 40.703845 ], [ -96.689992, 40.703803 ], [ -96.689942, 40.703758 ], [ -96.689875, 40.703704 ], [ -96.689874, 40.703636 ], [ -96.689864, 40.70355 ], [ -96.689894, 40.703428 ], [ -96.68992, 40.703338 ], [ -96.689992, 40.703249 ], [ -96.690044, 40.703194 ], [ -96.690074, 40.703121 ], [ -96.6901, 40.703047 ], [ -96.690173, 40.702984 ], [ -96.690268, 40.702916 ], [ -96.690343, 40.702847 ], [ -96.690438, 40.70271 ], [ -96.690461, 40.702672 ], [ -96.690474, 40.702591 ], [ -96.690441, 40.702525 ], [ -96.690385, 40.702452 ], [ -96.69033, 40.702394 ] ], [ [ -96.690282, 40.702362 ], [ -96.690228, 40.702334 ], [ -96.690136, 40.702319 ], [ -96.690037, 40.70231 ], [ -96.689926, 40.702307 ], [ -96.689843, 40.702276 ], [ -96.689768, 40.702235 ], [ -96.689637, 40.702199 ], [ -96.68956, 40.702203 ], [ -96.689498, 40.702222 ], [ -96.689314, 40.702276 ], [ -96.689138, 40.702402 ], [ -96.688941, 40.70243 ], [ -96.688761, 40.702472 ], [ -96.688623, 40.702524 ], [ -96.688524, 40.702521 ], [ -96.688384, 40.702523 ], [ -96.688196, 40.702527 ], [ -96.688022, 40.702451 ], [ -96.687832, 40.702394 ], [ -96.687715, 40.702286 ], [ -96.687548, 40.702224 ], [ -96.687496, 40.702186 ], [ -96.687415, 40.702175 ], [ -96.687304, 40.702203 ], [ -96.687201, 40.702235 ], [ -96.687096, 40.702214 ], [ -96.687026, 40.702154 ], [ -96.687006, 40.702084 ], [ -96.686991, 40.701946 ], [ -96.686991, 40.70175 ], [ -96.686976, 40.70163 ], [ -96.686999, 40.701565 ], [ -96.687108, 40.701475 ], [ -96.687215, 40.701379 ], [ -96.687252, 40.701298 ], [ -96.687239, 40.701223 ], [ -96.687221, 40.701166 ], [ -96.68717, 40.701094 ], [ -96.687101, 40.701001 ], [ -96.686897, 40.700769 ], [ -96.686859, 40.700733 ], [ -96.686808, 40.70071 ], [ -96.686668, 40.700679 ], [ -96.686424, 40.700615 ], [ -96.68575, 40.7004 ], [ -96.685384, 40.700314 ], [ -96.685073, 40.700232 ], [ -96.684891, 40.700164 ], [ -96.684669, 40.70005 ], [ -96.684497, 40.699963 ], [ -96.684401, 40.699894 ], [ -96.684314, 40.699806 ], [ -96.684221, 40.699693 ], [ -96.684132, 40.6995 ], [ -96.684083, 40.699387 ], [ -96.683976, 40.69929 ] ] ] } },
{ "type": "Feature", "properties": { "cls": "shared", "highway": "path", "name": "Wilderness Park Trail" }, "geometry": { "type": "LineString", "coordinates": [ [ -96.683976, 40.69929 ], [ -96.683957, 40.699327 ], [ -96.683968, 40.699387 ], [ -96.684038, 40.699524 ], [ -96.684037, 40.69961 ], [ -96.684031, 40.699692 ], [ -96.684019, 40.699796 ], [ -96.684023, 40.699816 ], [ -96.684049, 40.69985 ], [ -96.684072, 40.699887 ], [ -96.684079, 40.699935 ], [ -96.684079, 40.699954 ], [ -96.684087, 40.700002 ], [ -96.684133, 40.700068 ], [ -96.684305, 40.700202 ], [ -96.684398, 40.700261 ], [ -96.68447, 40.700388 ], [ -96.68451, 40.700562 ], [ -96.684505, 40.700617 ], [ -96.684498, 40.700651 ], [ -96.684448, 40.700705 ], [ -96.684425, 40.700752 ], [ -96.684463, 40.700823 ], [ -96.684556, 40.700894 ], [ -96.684627, 40.700941 ], [ -96.684648, 40.700998 ], [ -96.684626, 40.701183 ], [ -96.684649, 40.701658 ], [ -96.684663, 40.701703 ], [ -96.684712, 40.701748 ], [ -96.684754, 40.701777 ], [ -96.684812, 40.701822 ], [ -96.684811, 40.701869 ], [ -96.684847, 40.702084 ], [ -96.684877, 40.702132 ], [ -96.684859, 40.702194 ], [ -96.684796, 40.702263 ], [ -96.684801, 40.702309 ], [ -96.684815, 40.702354 ], [ -96.684789, 40.702623 ], [ -96.684822, 40.702694 ], [ -96.684877, 40.702731 ], [ -96.684953, 40.702779 ], [ -96.684995, 40.702837 ], [ -96.68505, 40.702931 ], [ -96.685087, 40.702954 ], [ -96.685132, 40.702974 ], [ -96.685178, 40.702992 ], [ -96.685226, 40.703003 ], [ -96.685326, 40.702994 ], [ -96.68542, 40.702999 ], [ -96.685522, 40.703034 ], [ -96.685576, 40.703063 ], [ -96.685661, 40.703127 ], [ -96.68574, 40.703204 ], [ -96.685777, 40.703256 ], [ -96.685815, 40.703334 ], [ -96.685864, 40.703414 ], [ -96.685884, 40.703427 ], [ -96.685909, 40.703437 ], [ -96.685934, 40.703446 ], [ -96.685958, 40.703452 ], [ -96.685991, 40.703454 ], [ -96.686022, 40.703449 ], [ -96.686053, 40.703442 ], [ -96.686088, 40.703433 ], [ -96.686185, 40.703398 ], [ -96.686239, 40.703376 ], [ -96.686312, 40.703362 ], [ -96.686436, 40.703342 ], [ -96.686492, 40.703327 ], [ -96.686529, 40.7033 ], [ -96.686573, 40.703254 ], [ -96.686673, 40.703146 ], [ -96.686736, 40.703054 ], [ -96.686747, 40.703024 ], [ -96.686748, 40.702992 ], [ -96.686723, 40.702944 ], [ -96.686679, 40.702908 ], [ -96.686489, 40.702817 ], [ -96.686478, 40.702777 ], [ -96.686482, 40.702744 ], [ -96.686522, 40.7027 ], [ -96.686619, 40.702636 ], [ -96.686813, 40.702517 ], [ -96.686923, 40.702411 ], [ -96.686975, 40.702389 ], [ -96.687032, 40.702388 ], [ -96.687116, 40.702403 ], [ -96.687202, 40.702419 ], [ -96.687274, 40.702447 ], [ -96.687361, 40.702496 ], [ -96.687417, 40.702538 ], [ -96.687544, 40.702611 ], [ -96.687624, 40.702656 ], [ -96.687657, 40.702691 ], [ -96.687675, 40.702716 ], [ -96.687699, 40.702743 ], [ -96.687745, 40.702758 ], [ -96.687797, 40.702765 ], [ -96.687858, 40.702768 ], [ -96.687951, 40.702763 ], [ -96.688039, 40.702747 ], [ -96.688102, 40.702727 ], [ -96.688165, 40.702711 ], [ -96.688208, 40.702711 ], [ -96.688241, 40.702726 ], [ -96.688273, 40.702747 ], [ -96.688305, 40.702783 ], [ -96.688331, 40.702833 ], [ -96.688346, 40.702902 ], [ -96.688357, 40.702983 ], [ -96.688373, 40.703052 ], [ -96.688382, 40.703071 ], [ -96.688393, 40.703087 ], [ -96.688414, 40.703104 ], [ -96.688487, 40.703128 ], [ -96.68858, 40.703146 ], [ -96.688717, 40.703163 ], [ -96.6888, 40.703173 ], [ -96.688881, 40.703181 ], [ -96.688966, 40.703197 ], [ -96.689024, 40.703212 ], [ -96.689073, 40.703221 ], [ -96.689129, 40.70322 ], [ -96.689172, 40.703209 ], [ -96.689239, 40.703185 ], [ -96.689288, 40.703178 ], [ -96.689328, 40.703186 ], [ -96.689362, 40.703205 ], [ -96.689412, 40.703246 ], [ -96.68946, 40.70328 ], [ -96.689539, 40.703328 ], [ -96.689596, 40.703387 ], [ -96.68963, 40.703475 ], [ -96.689617, 40.703548 ], [ -96.689585, 40.703659 ], [ -96.689541, 40.703717 ], [ -96.689504, 40.703774 ], [ -96.689422, 40.703839 ], [ -96.689326, 40.703884 ], [ -96.689235, 40.70392 ], [ -96.68911, 40.703968 ], [ -96.689072, 40.703988 ], [ -96.689046, 40.703994 ], [ -96.689007, 40.703994 ], [ -96.688761, 40.703968 ], [ -96.688347, 40.703906 ], [ -96.688168, 40.703883 ], [ -96.688087, 40.703888 ], [ -96.688025, 40.70392 ], [ -96.688013, 40.703956 ], [ -96.688001, 40.704002 ], [ -96.687993, 40.704058 ], [ -96.688008, 40.704117 ], [ -96.688038, 40.704156 ], [ -96.688079, 40.704199 ], [ -96.688101, 40.704236 ], [ -96.688121, 40.704274 ], [ -96.688152, 40.704303 ], [ -96.688207, 40.704322 ], [ -96.688298, 40.704337 ], [ -96.688379, 40.704404 ], [ -96.688406, 40.704441 ], [ -96.688417, 40.704486 ], [ -96.688442, 40.704597 ], [ -96.688455, 40.704659 ], [ -96.688479, 40.704733 ], [ -96.688522, 40.704815 ], [ -96.688585, 40.70489 ], [ -96.688643, 40.704947 ], [ -96.688694, 40.705002 ], [ -96.688763, 40.705062 ], [ -96.688835, 40.705097 ], [ -96.688929, 40.705139 ], [ -96.689007, 40.705146 ], [ -96.689093, 40.705153 ], [ -96.689162, 40.705176 ], [ -96.689239, 40.705228 ], [ -96.689313, 40.705299 ], [ -96.689364, 40.705374 ], [ -96.689391, 40.705451 ], [ -96.689389, 40.705537 ], [ -96.689381, 40.705596 ], [ -96.689554, 40.706044 ], [ -96.6896, 40.706096 ], [ -96.689641, 40.706133 ], [ -96.689682, 40.70618 ], [ -96.689743, 40.706281 ], [ -96.689806, 40.706317 ], [ -96.68989, 40.706336 ], [ -96.690035, 40.706351 ], [ -96.690202, 40.706356 ], [ -96.690309, 40.706374 ], [ -96.690347, 40.706378 ], [ -96.690383, 40.706373 ], [ -96.690424, 40.706363 ], [ -96.690502, 40.706331 ], [ -96.69112, 40.706104 ] ] } },
{ "type": "Feature", "properties": { "cls": "shared", "highway": "path", "name": "Wilderness Park Trail" }, "geometry": { "type": "LineString", "coordinates": [ [ -96.702365, 40.717183 ], [ -96.702592, 40.717183 ], [ -96.702809, 40.71719 ], [ -96.702984, 40.717212 ], [ -96.703142, 40.717245 ], [ -96.703186, 40.717264 ], [ -96.703246, 40.717272 ], [ -96.70333, 40.717252 ], [ -96.703415, 40.717204 ], [ -96.703435, 40.717193 ] ] } },
{ "type": "Feature", "properties": { "cls": "shared", "highway": "path", "name": "Wilderness Park Trail" }, "geometry": { "type": "LineString", "coordinates": [ [ -96.702186, 40.722621 ], [ -96.702398, 40.722596 ], [ -96.702564, 40.722592 ], [ -96.702877, 40.72293 ], [ -96.703133, 40.723181 ], [ -96.703463, 40.723411 ], [ -96.703763, 40.72361 ], [ -96.704098, 40.723752 ], [ -96.704293, 40.723798 ], [ -96.704514, 40.72374 ], [ -96.704601, 40.723584 ], [ -96.704779, 40.723199 ], [ -96.70501, 40.722929 ], [ -96.705085, 40.722809 ], [ -96.705239, 40.722647 ], [ -96.705313, 40.722498 ], [ -96.705337, 40.722414 ], [ -96.705333, 40.722318 ], [ -96.705145, 40.722082 ], [ -96.704982, 40.721859 ], [ -96.704851, 40.721799 ], [ -96.704672, 40.721815 ], [ -96.704607, 40.721767 ], [ -96.70455, 40.721661 ], [ -96.704537, 40.72155 ], [ -96.704488, 40.721468 ], [ -96.704397, 40.721338 ], [ -96.704404, 40.721224 ], [ -96.704572, 40.721153 ], [ -96.704777, 40.721109 ], [ -96.704844, 40.721041 ], [ -96.704861, 40.720976 ], [ -96.704792, 40.720925 ], [ -96.704661, 40.720957 ], [ -96.70435, 40.720973 ], [ -96.704092, 40.720925 ], [ -96.703953, 40.720683 ], [ -96.703864, 40.720458 ], [ -96.70365, 40.720341 ], [ -96.703378, 40.720275 ], [ -96.703072, 40.72022 ], [ -96.702893, 40.720279 ], [ -96.702738, 40.720321 ], [ -96.702467, 40.720278 ], [ -96.702214, 40.720214 ], [ -96.701981, 40.720017 ], [ -96.701808, 40.719733 ], [ -96.701806, 40.719584 ], [ -96.701883, 40.719414 ], [ -96.702223, 40.719193 ], [ -96.702506, 40.718937 ], [ -96.702506, 40.718779 ], [ -96.70237, 40.718482 ], [ -96.701962, 40.718134 ], [ -96.701705, 40.717639 ], [ -96.701667, 40.717578 ], [ -96.701652, 40.717562 ] ] } },
{ "type": "Feature", "properties": { "cls": "shared", "highway": "path", "name": "Wilderness Park Trail" }, "geometry": { "type": "LineString", "coordinates": [ [ -96.709433, 40.7246 ], [ -96.709276, 40.724592 ], [ -96.709178, 40.724554 ], [ -96.70911, 40.724507 ], [ -96.709095, 40.724423 ], [ -96.709048, 40.724362 ], [ -96.70893, 40.72434 ], [ -96.708836, 40.724358 ], [ -96.708812, 40.724407 ], [ -96.70875, 40.724511 ], [ -96.708671, 40.724559 ], [ -96.708535, 40.724578 ], [ -96.708427, 40.724578 ], [ -96.708304, 40.724622 ], [ -96.708205, 40.724683 ], [ -96.708134, 40.724808 ], [ -96.708088, 40.724885 ], [ -96.707919, 40.724938 ], [ -96.707703, 40.724931 ], [ -96.707593, 40.724873 ], [ -96.707564, 40.724782 ], [ -96.707457, 40.724675 ], [ -96.707218, 40.724567 ], [ -96.707068, 40.724484 ], [ -96.707016, 40.724438 ], [ -96.70699, 40.724316 ], [ -96.706984, 40.72417 ], [ -96.706985, 40.723976 ], [ -96.706945, 40.723783 ], [ -96.706882, 40.723579 ], [ -96.706752, 40.723404 ], [ -96.706542, 40.723201 ], [ -96.706415, 40.723041 ], [ -96.706276, 40.722852 ], [ -96.706266, 40.722767 ], [ -96.70629, 40.722683 ], [ -96.706345, 40.722616 ], [ -96.706414, 40.722557 ], [ -96.706495, 40.722523 ], [ -96.706574, 40.722508 ], [ -96.706713, 40.722449 ], [ -96.706923, 40.722348 ], [ -96.707098, 40.722232 ], [ -96.707148, 40.722162 ], [ -96.707185, 40.722108 ], [ -96.707205, 40.721915 ], [ -96.707185, 40.721797 ], [ -96.707131, 40.721689 ], [ -96.707054, 40.721537 ], [ -96.70709, 40.721372 ], [ -96.707125, 40.721226 ], [ -96.707129, 40.721124 ], [ -96.707079, 40.721028 ], [ -96.706979, 40.721008 ], [ -96.706835, 40.721039 ], [ -96.706778, 40.721037 ], [ -96.706638, 40.720845 ], [ -96.706633, 40.720799 ], [ -96.706653, 40.720692 ], [ -96.706725, 40.720561 ], [ -96.706796, 40.720449 ], [ -96.70692, 40.720278 ], [ -96.707059, 40.720156 ], [ -96.707169, 40.720099 ], [ -96.707246, 40.720104 ], [ -96.70743, 40.720124 ], [ -96.707612, 40.720111 ], [ -96.707693, 40.720059 ], [ -96.707701, 40.719987 ], [ -96.707624, 40.719884 ], [ -96.707523, 40.719782 ], [ -96.707452, 40.719703 ], [ -96.707338, 40.71969 ], [ -96.707224, 40.719709 ], [ -96.707086, 40.719675 ], [ -96.706819, 40.719436 ], [ -96.706697, 40.719417 ], [ -96.706549, 40.719438 ], [ -96.706383, 40.719456 ], [ -96.706183, 40.719453 ], [ -96.706076, 40.719463 ], [ -96.705952, 40.719496 ], [ -96.705872, 40.719457 ], [ -96.705845, 40.71939 ], [ -96.705799, 40.719299 ], [ -96.705652, 40.719252 ], [ -96.705496, 40.719223 ], [ -96.705284, 40.719092 ], [ -96.705125, 40.718955 ], [ -96.705093, 40.718867 ], [ -96.705101, 40.718776 ], [ -96.705131, 40.718551 ], [ -96.705128, 40.718437 ], [ -96.705098, 40.718322 ], [ -96.705021, 40.718134 ], [ -96.705033, 40.718073 ], [ -96.70517, 40.717933 ], [ -96.705261, 40.717821 ], [ -96.705321, 40.717697 ], [ -96.705327, 40.717601 ], [ -96.705241, 40.717489 ], [ -96.704947, 40.717245 ], [ -96.704733, 40.717107 ], [ -96.704408, 40.717038 ], [ -96.70407, 40.716985 ], [ -96.703939, 40.716968 ] ] } },
{ "type": "Feature", "properties": { "cls": "shared", "highway": "path", "name": "Wilderness Park" }, "geometry": { "type": "LineString", "coordinates": [ [ -96.710436, 40.72515 ], [ -96.710473, 40.725171 ] ] } },
{ "type": "Feature", "properties": { "cls": "shared", "highway": "path", "name": "Wilderness Park Trail" }, "geometry": { "type": "LineString", "coordinates": [ [ -96.710577, 40.725228 ], [ -96.710473, 40.725171 ] ] } },
{ "type": "Feature", "properties": { "cls": "shared", "highway": "path", "name": "Wilderness Park Trail" }, "geometry": { "type": "LineString", "coordinates": [ [ -96.710577, 40.725228 ], [ -96.710641, 40.725263 ], [ -96.710655, 40.725285 ], [ -96.710657, 40.725315 ], [ -96.710646, 40.72533 ] ] } },
{ "type": "Feature", "properties": { "cls": "shared", "highway": "path", "name": "Wilderness Park Trail" }, "geometry": { "type": "MultiLineString", "coordinates": [ [ [ -96.714421, 40.741279 ], [ -96.714295, 40.741085 ] ], [ [ -96.714231, 40.740986 ], [ -96.7141, 40.740785 ], [ -96.713849, 40.740551 ], [ -96.713689, 40.740369 ], [ -96.713553, 40.740175 ], [ -96.71344, 40.739929 ], [ -96.713459, 40.739685 ], [ -96.71341, 40.739489 ], [ -96.713139, 40.7391 ], [ -96.712925, 40.738921 ], [ -96.712435, 40.738665 ], [ -96.712211, 40.738351 ], [ -96.711909, 40.738061 ], [ -96.711638, 40.737781 ], [ -96.711486, 40.737361 ], [ -96.711523, 40.737095 ], [ -96.711744, 40.736671 ], [ -96.711761, 40.7365 ], [ -96.711766, 40.736318 ], [ -96.711734, 40.736141 ], [ -96.711657, 40.735887 ], [ -96.711669, 40.735759 ], [ -96.711613, 40.735662 ], [ -96.711513, 40.735599 ], [ -96.711367, 40.735566 ], [ -96.711213, 40.735587 ], [ -96.711058, 40.73558 ], [ -96.710914, 40.735587 ], [ -96.710749, 40.735632 ], [ -96.710604, 40.735623 ], [ -96.710513, 40.735635 ], [ -96.710427, 40.735622 ], [ -96.71032, 40.735577 ], [ -96.710125, 40.735536 ], [ -96.709861, 40.735386 ], [ -96.709695, 40.735162 ], [ -96.709682, 40.734985 ], [ -96.709754, 40.734841 ], [ -96.709861, 40.73468 ], [ -96.710051, 40.734532 ], [ -96.7101, 40.734428 ], [ -96.709991, 40.734152 ], [ -96.709936, 40.73403 ], [ -96.709849, 40.733908 ], [ -96.709633, 40.733885 ], [ -96.709411, 40.733885 ], [ -96.709016, 40.733868 ], [ -96.708655, 40.733853 ], [ -96.708651, 40.73373 ], [ -96.708495, 40.733623 ], [ -96.708369, 40.733503 ], [ -96.70834, 40.733374 ], [ -96.708373, 40.733254 ], [ -96.708446, 40.733185 ], [ -96.708631, 40.73284 ], [ -96.708792, 40.732766 ], [ -96.708894, 40.732749 ], [ -96.709038, 40.732726 ], [ -96.709097, 40.732671 ], [ -96.709298, 40.732517 ], [ -96.709468, 40.732426 ], [ -96.709983, 40.732288 ], [ -96.710111, 40.73224 ], [ -96.71022, 40.732229 ], [ -96.710291, 40.732225 ], [ -96.710402, 40.732191 ], [ -96.710458, 40.73213 ], [ -96.710462, 40.73207 ], [ -96.710406, 40.731972 ], [ -96.71032, 40.731875 ], [ -96.710307, 40.731637 ], [ -96.71026, 40.73147 ], [ -96.710089, 40.731341 ], [ -96.710055, 40.731198 ], [ -96.710054, 40.731087 ], [ -96.709907, 40.731001 ], [ -96.709738, 40.730907 ], [ -96.709631, 40.730904 ], [ -96.709542, 40.730938 ], [ -96.709389, 40.730918 ], [ -96.70928, 40.730815 ], [ -96.70924, 40.730663 ], [ -96.709353, 40.730558 ], [ -96.709428, 40.730426 ], [ -96.709401, 40.730259 ], [ -96.70943, 40.73003 ], [ -96.709516, 40.729959 ], [ -96.709572, 40.729901 ], [ -96.709577, 40.729833 ], [ -96.709455, 40.729743 ], [ -96.709314, 40.729631 ], [ -96.709059, 40.729469 ], [ -96.70884, 40.729331 ], [ -96.708755, 40.729163 ], [ -96.708679, 40.728984 ], [ -96.708619, 40.728865 ], [ -96.70856, 40.728808 ], [ -96.708398, 40.72873 ], [ -96.708319, 40.728627 ], [ -96.708352, 40.728535 ], [ -96.708327, 40.728261 ], [ -96.708249, 40.72818 ], [ -96.708281, 40.727611 ], [ -96.707836, 40.72717 ], [ -96.7076, 40.726879 ], [ -96.707424, 40.726762 ], [ -96.707336, 40.726742 ], [ -96.707039, 40.726769 ], [ -96.706844, 40.72669 ], [ -96.706692, 40.726492 ], [ -96.706535, 40.726395 ], [ -96.706418, 40.726285 ], [ -96.706342, 40.726246 ], [ -96.706268, 40.726212 ], [ -96.706188, 40.726224 ], [ -96.705979, 40.726442 ], [ -96.705886, 40.726469 ], [ -96.705739, 40.726465 ], [ -96.705367, 40.72644 ], [ -96.705217, 40.726436 ], [ -96.704942, 40.726424 ], [ -96.704835, 40.726386 ], [ -96.704764, 40.72637 ], [ -96.704531, 40.726101 ], [ -96.704384, 40.726051 ], [ -96.704283, 40.726039 ], [ -96.704078, 40.725978 ], [ -96.703948, 40.725793 ] ], [ [ -96.703947, 40.725791 ], [ -96.703922, 40.725607 ], [ -96.703848, 40.725506 ], [ -96.70375, 40.725437 ] ] ] } },
{ "type": "Feature", "properties": { "cls": "shared", "highway": "path", "name": "Wilderness Park Trail" }, "geometry": { "type": "LineString", "coordinates": [ [ -96.708655, 40.733853 ], [ -96.708455, 40.733839 ], [ -96.708273, 40.733828 ] ] } },
{ "type": "Feature", "properties": { "cls": "shared", "highway": "path", "name": "Wilderness Park Trail" }, "geometry": { "type": "LineString", "coordinates": [ [ -96.711159, 40.728107 ], [ -96.711081, 40.726991 ], [ -96.710974, 40.726907 ], [ -96.710844, 40.72681 ], [ -96.710733, 40.726767 ], [ -96.710608, 40.726564 ], [ -96.710461, 40.726363 ], [ -96.710369, 40.726261 ], [ -96.710228, 40.726149 ], [ -96.710126, 40.726046 ], [ -96.710065, 40.725953 ], [ -96.710021, 40.725868 ], [ -96.710019, 40.725824 ], [ -96.710035, 40.72577 ], [ -96.710065, 40.725685 ], [ -96.710092, 40.725606 ], [ -96.710112, 40.725568 ], [ -96.710165, 40.725507 ], [ -96.710206, 40.725469 ], [ -96.710257, 40.72544 ], [ -96.710359, 40.725421 ], [ -96.710473, 40.725403 ], [ -96.710566, 40.725375 ], [ -96.710646, 40.72533 ] ] } },
{ "type": "Feature", "properties": { "cls": "shared", "highway": "path", "name": "Wilderness Park Trail" }, "geometry": { "type": "LineString", "coordinates": [ [ -96.711159, 40.728107 ], [ -96.711121, 40.728068 ], [ -96.711095, 40.728044 ], [ -96.711063, 40.728029 ], [ -96.711017, 40.728023 ], [ -96.710944, 40.728011 ], [ -96.71085, 40.727995 ], [ -96.710756, 40.72798 ], [ -96.710713, 40.727978 ], [ -96.710669, 40.727965 ], [ -96.710643, 40.727947 ], [ -96.710624, 40.72792 ], [ -96.710619, 40.72789 ], [ -96.710621, 40.727845 ], [ -96.710612, 40.727808 ], [ -96.710605, 40.727794 ], [ -96.710579, 40.727759 ], [ -96.710553, 40.727744 ], [ -96.71052, 40.727736 ], [ -96.710491, 40.727741 ], [ -96.710466, 40.727759 ], [ -96.710461, 40.72778 ], [ -96.71046, 40.727804 ], [ -96.710442, 40.727829 ], [ -96.710408, 40.727838 ], [ -96.710377, 40.727833 ], [ -96.710352, 40.727812 ], [ -96.710323, 40.727787 ], [ -96.710309, 40.727763 ], [ -96.710278, 40.727731 ], [ -96.710214, 40.727676 ], [ -96.710181, 40.727631 ], [ -96.710156, 40.727588 ], [ -96.710148, 40.727545 ], [ -96.710152, 40.727502 ], [ -96.710169, 40.727461 ], [ -96.710199, 40.72744 ], [ -96.710239, 40.727414 ], [ -96.710253, 40.727391 ], [ -96.710258, 40.727358 ], [ -96.710276, 40.727333 ], [ -96.710319, 40.727317 ], [ -96.710369, 40.7273 ], [ -96.710428, 40.727294 ], [ -96.710463, 40.727304 ], [ -96.710507, 40.727328 ], [ -96.710549, 40.727339 ], [ -96.710588, 40.727333 ], [ -96.710619, 40.727313 ], [ -96.710702, 40.727249 ], [ -96.71075, 40.727197 ], [ -96.710788, 40.727123 ], [ -96.710876, 40.726907 ], [ -96.710881, 40.726877 ], [ -96.710871, 40.726845 ], [ -96.710844, 40.72681 ], [ -96.710824, 40.726773 ], [ -96.710821, 40.726714 ], [ -96.71083, 40.726672 ], [ -96.710846, 40.726607 ], [ -96.710855, 40.726561 ], [ -96.710856, 40.726542 ], [ -96.710855, 40.72652 ], [ -96.710852, 40.726506 ], [ -96.710836, 40.726479 ], [ -96.710816, 40.726454 ], [ -96.710789, 40.726428 ], [ -96.710741, 40.726381 ], [ -96.710711, 40.726343 ], [ -96.710689, 40.726306 ], [ -96.71068, 40.726281 ], [ -96.710666, 40.726243 ], [ -96.710653, 40.726216 ], [ -96.710632, 40.726155 ], [ -96.710629, 40.72604 ], [ -96.710621, 40.726006 ], [ -96.710606, 40.72598 ], [ -96.710598, 40.725959 ], [ -96.710603, 40.725932 ], [ -96.710606, 40.72592 ], [ -96.710606, 40.725897 ], [ -96.7106, 40.72587 ], [ -96.710576, 40.725852 ], [ -96.710551, 40.725844 ], [ -96.710529, 40.725838 ], [ -96.71051, 40.725829 ], [ -96.71048, 40.725809 ], [ -96.710471, 40.725789 ], [ -96.710471, 40.725769 ], [ -96.710472, 40.725736 ], [ -96.710468, 40.725719 ], [ -96.710452, 40.725695 ], [ -96.710449, 40.725666 ], [ -96.710453, 40.72564 ], [ -96.710466, 40.72559 ], [ -96.710472, 40.725535 ], [ -96.710482, 40.725509 ], [ -96.710533, 40.725409 ], [ -96.710572, 40.725378 ], [ -96.710594, 40.725365 ], [ -96.71062, 40.725354 ], [ -96.710636, 40.72534 ], [ -96.710646, 40.72533 ] ] } },
{ "type": "Feature", "properties": { "cls": "shared", "highway": "path", "name": "Wilderness Park Trail" }, "geometry": { "type": "LineString", "coordinates": [ [ -96.711507, 40.728538 ], [ -96.711495, 40.728512 ], [ -96.711451, 40.728471 ], [ -96.711407, 40.728436 ], [ -96.711368, 40.728399 ], [ -96.711341, 40.728369 ], [ -96.711305, 40.728321 ], [ -96.711218, 40.728208 ], [ -96.711181, 40.728138 ], [ -96.711159, 40.728107 ] ] } },
{ "type": "Feature", "properties": { "cls": "shared", "highway": "path", "name": "Wilderness Park Trail" }, "geometry": { "type": "LineString", "coordinates": [ [ -96.713691, 40.736377 ], [ -96.713622, 40.736399 ], [ -96.713565, 40.736432 ], [ -96.71351, 40.736462 ], [ -96.713433, 40.736476 ], [ -96.713367, 40.736465 ], [ -96.713307, 40.736434 ], [ -96.713235, 40.736376 ], [ -96.71311, 40.736254 ], [ -96.713072, 40.736201 ], [ -96.713041, 40.736121 ], [ -96.713039, 40.736011 ], [ -96.713105, 40.735918 ], [ -96.71311, 40.735836 ], [ -96.713111, 40.735755 ], [ -96.713074, 40.735697 ], [ -96.712984, 40.735521 ], [ -96.712969, 40.735389 ], [ -96.712862, 40.735239 ], [ -96.712755, 40.735115 ], [ -96.712626, 40.735005 ], [ -96.7124, 40.734868 ], [ -96.712326, 40.734864 ], [ -96.712253, 40.734876 ], [ -96.712103, 40.734929 ], [ -96.711861, 40.734931 ], [ -96.711628, 40.734954 ], [ -96.711468, 40.734954 ], [ -96.711389, 40.734957 ], [ -96.711314, 40.734938 ], [ -96.711223, 40.734882 ], [ -96.711183, 40.734806 ], [ -96.711191, 40.734427 ], [ -96.711191, 40.734378 ], [ -96.711212, 40.734326 ], [ -96.71132, 40.734251 ], [ -96.71143, 40.734187 ], [ -96.71148, 40.734114 ], [ -96.711476, 40.733999 ], [ -96.711471, 40.733915 ], [ -96.711456, 40.733831 ], [ -96.711445, 40.733743 ], [ -96.711421, 40.733693 ], [ -96.711373, 40.733655 ], [ -96.71131, 40.733633 ], [ -96.711247, 40.733629 ], [ -96.711185, 40.733606 ], [ -96.711148, 40.733574 ], [ -96.711142, 40.733518 ], [ -96.711147, 40.733429 ], [ -96.711105, 40.733375 ], [ -96.71086, 40.73324 ], [ -96.710609, 40.733148 ], [ -96.710346, 40.733145 ], [ -96.710294, 40.733154 ], [ -96.71026, 40.733183 ], [ -96.710221, 40.733238 ], [ -96.710163, 40.733283 ], [ -96.710075, 40.733291 ], [ -96.709993, 40.73328 ], [ -96.70991, 40.733254 ], [ -96.709807, 40.733204 ], [ -96.709777, 40.733165 ], [ -96.709766, 40.733125 ], [ -96.709764, 40.733048 ], [ -96.709781, 40.733009 ], [ -96.709819, 40.732981 ], [ -96.709893, 40.732954 ], [ -96.710008, 40.732898 ], [ -96.710091, 40.732839 ], [ -96.71015, 40.73281 ], [ -96.710256, 40.7328 ], [ -96.710351, 40.732801 ], [ -96.71044, 40.732793 ], [ -96.710509, 40.732771 ], [ -96.710573, 40.732758 ], [ -96.710645, 40.732756 ], [ -96.710726, 40.732812 ], [ -96.710783, 40.732844 ], [ -96.710854, 40.732876 ], [ -96.710943, 40.732886 ], [ -96.711063, 40.73286 ], [ -96.711296, 40.732798 ], [ -96.711443, 40.732777 ], [ -96.711496, 40.732757 ], [ -96.711562, 40.732726 ], [ -96.711594, 40.732672 ], [ -96.71163, 40.732575 ], [ -96.71168, 40.732499 ], [ -96.711737, 40.732419 ], [ -96.711788, 40.732344 ], [ -96.711816, 40.732242 ], [ -96.711814, 40.73217 ], [ -96.711791, 40.732097 ], [ -96.711756, 40.732019 ], [ -96.71164, 40.731933 ], [ -96.711544, 40.731878 ], [ -96.711481, 40.731838 ], [ -96.711439, 40.731792 ], [ -96.711458, 40.73168 ], [ -96.711486, 40.731576 ], [ -96.711508, 40.731508 ], [ -96.711555, 40.731387 ], [ -96.711559, 40.731311 ], [ -96.711561, 40.731247 ], [ -96.711478, 40.731154 ], [ -96.711395, 40.731118 ], [ -96.711269, 40.731048 ], [ -96.711222, 40.730966 ], [ -96.711188, 40.7309 ], [ -96.711149, 40.73077 ], [ -96.711144, 40.730718 ], [ -96.711147, 40.730648 ], [ -96.711179, 40.730553 ], [ -96.711208, 40.730483 ], [ -96.711234, 40.730404 ], [ -96.711229, 40.73031 ], [ -96.711206, 40.730248 ], [ -96.711135, 40.730194 ], [ -96.711133, 40.730144 ], [ -96.711169, 40.730118 ], [ -96.711226, 40.730082 ], [ -96.711273, 40.730031 ], [ -96.711249, 40.729926 ], [ -96.711276, 40.729841 ], [ -96.711383, 40.729694 ], [ -96.711447, 40.729544 ], [ -96.711469, 40.729385 ], [ -96.711407, 40.729232 ], [ -96.711378, 40.728759 ], [ -96.711507, 40.728538 ] ] } },
{ "type": "Feature", "properties": { "cls": "shared", "highway": "path", "name": "Wilderness Park Trail" }, "geometry": { "type": "LineString", "coordinates": [ [ -96.713804, 40.736485 ], [ -96.713691, 40.736377 ], [ -96.713682, 40.736339 ], [ -96.713748, 40.736304 ], [ -96.713808, 40.736311 ], [ -96.713871, 40.736282 ], [ -96.713915, 40.736227 ], [ -96.71393, 40.736159 ], [ -96.713976, 40.73607 ], [ -96.713993, 40.736004 ], [ -96.713987, 40.735946 ], [ -96.713982, 40.735878 ], [ -96.713999, 40.7358 ], [ -96.714002, 40.735707 ], [ -96.713937, 40.735611 ], [ -96.713902, 40.735544 ], [ -96.713867, 40.735448 ], [ -96.713821, 40.73533 ], [ -96.71378, 40.735176 ], [ -96.7138, 40.73513 ], [ -96.713872, 40.735072 ], [ -96.713879, 40.735035 ], [ -96.713858, 40.734981 ], [ -96.713776, 40.734952 ], [ -96.71364, 40.734957 ], [ -96.713555, 40.73493 ], [ -96.713492, 40.73487 ], [ -96.713413, 40.734847 ], [ -96.71331, 40.73485 ], [ -96.713219, 40.73481 ], [ -96.713177, 40.734784 ], [ -96.713134, 40.734765 ], [ -96.71308, 40.734752 ], [ -96.713014, 40.734739 ], [ -96.712912, 40.734697 ], [ -96.71284, 40.734668 ], [ -96.712774, 40.734623 ], [ -96.712705, 40.734564 ], [ -96.712662, 40.734517 ], [ -96.712658, 40.734465 ], [ -96.712646, 40.73443 ], [ -96.712658, 40.734404 ], [ -96.712666, 40.734386 ], [ -96.712682, 40.73436 ], [ -96.712694, 40.734336 ], [ -96.712718, 40.7343 ], [ -96.712748, 40.734272 ], [ -96.712778, 40.734243 ], [ -96.712818, 40.734231 ], [ -96.712898, 40.734204 ], [ -96.712967, 40.734161 ], [ -96.713011, 40.734116 ], [ -96.713038, 40.734059 ], [ -96.713052, 40.734008 ], [ -96.713067, 40.733939 ], [ -96.713072, 40.733769 ], [ -96.713066, 40.733703 ], [ -96.713059, 40.733657 ], [ -96.713057, 40.733624 ], [ -96.713056, 40.733591 ], [ -96.71305, 40.73353 ], [ -96.713022, 40.733427 ], [ -96.713014, 40.733409 ], [ -96.712993, 40.733388 ], [ -96.71296, 40.733364 ], [ -96.712936, 40.733343 ], [ -96.712915, 40.733324 ], [ -96.712894, 40.733289 ], [ -96.71288, 40.733248 ], [ -96.712869, 40.733205 ], [ -96.712884, 40.733167 ], [ -96.712881, 40.733065 ], [ -96.71288, 40.733033 ], [ -96.71288, 40.733003 ], [ -96.712881, 40.732977 ], [ -96.712889, 40.732936 ], [ -96.712874, 40.732914 ], [ -96.712865, 40.732902 ], [ -96.712832, 40.732899 ], [ -96.712819, 40.7329 ], [ -96.7128, 40.732904 ], [ -96.712781, 40.732913 ], [ -96.712761, 40.732928 ], [ -96.712721, 40.732951 ], [ -96.712673, 40.732956 ], [ -96.712618, 40.732938 ], [ -96.71254, 40.732903 ], [ -96.712462, 40.732866 ], [ -96.712414, 40.732859 ], [ -96.712357, 40.732852 ], [ -96.712326, 40.732831 ], [ -96.712292, 40.732794 ], [ -96.712279, 40.73276 ], [ -96.71228, 40.73274 ], [ -96.71228, 40.732718 ], [ -96.712287, 40.732697 ], [ -96.712299, 40.732667 ], [ -96.712312, 40.732646 ], [ -96.712317, 40.732617 ], [ -96.712306, 40.732587 ], [ -96.7123, 40.732563 ], [ -96.712293, 40.73253 ], [ -96.712295, 40.732509 ], [ -96.7123, 40.732485 ], [ -96.712308, 40.732468 ], [ -96.712334, 40.732447 ], [ -96.71235, 40.732428 ], [ -96.712354, 40.732401 ], [ -96.712359, 40.732384 ], [ -96.712363, 40.732349 ], [ -96.712362, 40.732315 ], [ -96.712368, 40.732276 ], [ -96.71237, 40.732197 ], [ -96.71237, 40.732097 ], [ -96.712356, 40.732048 ], [ -96.712351, 40.731995 ], [ -96.712338, 40.731944 ], [ -96.71233, 40.731918 ], [ -96.71232, 40.731884 ], [ -96.712309, 40.731838 ], [ -96.7123, 40.731807 ], [ -96.712276, 40.731774 ], [ -96.712232, 40.73173 ], [ -96.712156, 40.731669 ], [ -96.712028, 40.731521 ], [ -96.711985, 40.731468 ], [ -96.711953, 40.731413 ], [ -96.71192, 40.731382 ], [ -96.711885, 40.731361 ], [ -96.711825, 40.731324 ], [ -96.711804, 40.731295 ], [ -96.711791, 40.731247 ], [ -96.71178, 40.731172 ], [ -96.711756, 40.731034 ], [ -96.711737, 40.730969 ], [ -96.711709, 40.730884 ], [ -96.711708, 40.730774 ], [ -96.71171, 40.730714 ], [ -96.711711, 40.730665 ], [ -96.711658, 40.7304 ], [ -96.711645, 40.730329 ], [ -96.711632, 40.730298 ], [ -96.711611, 40.730263 ], [ -96.711579, 40.730236 ], [ -96.711534, 40.730213 ], [ -96.711496, 40.73019 ], [ -96.71147, 40.730169 ], [ -96.711458, 40.730153 ], [ -96.711453, 40.730131 ], [ -96.711454, 40.730106 ], [ -96.711467, 40.730084 ], [ -96.711486, 40.730058 ], [ -96.711495, 40.73004 ], [ -96.711496, 40.730014 ], [ -96.711496, 40.729947 ], [ -96.71149, 40.72988 ], [ -96.711495, 40.729848 ], [ -96.711513, 40.729771 ], [ -96.711541, 40.729675 ], [ -96.711547, 40.72963 ], [ -96.711542, 40.729586 ], [ -96.711545, 40.729562 ], [ -96.711557, 40.729531 ], [ -96.711569, 40.729505 ], [ -96.711579, 40.729473 ], [ -96.711618, 40.7294 ], [ -96.711649, 40.729372 ], [ -96.71167, 40.729348 ], [ -96.711676, 40.729331 ], [ -96.711682, 40.729313 ], [ -96.711676, 40.729291 ], [ -96.711661, 40.729265 ], [ -96.711653, 40.729244 ], [ -96.711662, 40.729219 ], [ -96.711684, 40.729195 ], [ -96.711696, 40.729174 ], [ -96.711699, 40.729145 ], [ -96.711692, 40.729116 ], [ -96.711658, 40.729034 ], [ -96.711607, 40.728799 ], [ -96.711573, 40.72876 ], [ -96.71156, 40.728709 ], [ -96.711537, 40.728663 ], [ -96.711508, 40.728611 ], [ -96.711508, 40.728596 ], [ -96.711513, 40.728561 ], [ -96.711507, 40.728538 ] ] } },
{ "type": "Feature", "properties": { "cls": "shared", "highway": "path", "name": "Wilderness Park Trail" }, "geometry": { "type": "LineString", "coordinates": [ [ -96.713691, 40.736377 ], [ -96.713804, 40.736485 ] ] } },
{ "type": "Feature", "properties": { "cls": "shared", "highway": "path", "name": "Wilderness Park Trail" }, "geometry": { "type": "LineString", "coordinates": [ [ -96.71393, 40.736562 ], [ -96.713804, 40.736485 ] ] } },
{ "type": "Feature", "properties": { "cls": "shared", "highway": "path", "name": "Wilderness Park Trail" }, "geometry": { "type": "LineString", "coordinates": [ [ -96.716355, 40.740041 ], [ -96.71634, 40.740032 ], [ -96.716282, 40.740024 ], [ -96.716229, 40.740027 ], [ -96.716171, 40.740056 ], [ -96.716104, 40.74007 ], [ -96.715995, 40.740062 ], [ -96.71593, 40.74004 ], [ -96.715904, 40.740014 ], [ -96.715889, 40.739963 ], [ -96.71584, 40.739882 ], [ -96.715683, 40.73968 ], [ -96.715631, 40.739612 ], [ -96.715534, 40.739487 ], [ -96.715491, 40.73946 ], [ -96.715435, 40.739405 ], [ -96.715365, 40.739383 ], [ -96.715313, 40.739362 ], [ -96.715202, 40.739255 ], [ -96.715103, 40.739161 ], [ -96.715015, 40.739081 ], [ -96.714988, 40.739045 ], [ -96.714922, 40.738938 ], [ -96.714892, 40.738793 ], [ -96.714905, 40.738641 ], [ -96.714924, 40.738548 ], [ -96.714926, 40.73849 ], [ -96.714914, 40.738445 ], [ -96.714894, 40.738405 ], [ -96.714874, 40.738347 ], [ -96.714866, 40.738272 ], [ -96.714863, 40.738163 ], [ -96.714862, 40.738084 ], [ -96.714836, 40.737996 ], [ -96.714812, 40.737909 ], [ -96.71481, 40.737819 ], [ -96.714846, 40.737749 ], [ -96.714879, 40.737673 ], [ -96.714869, 40.737619 ], [ -96.714876, 40.737558 ], [ -96.714857, 40.737472 ], [ -96.714798, 40.737391 ], [ -96.714741, 40.737326 ], [ -96.714693, 40.737295 ], [ -96.714669, 40.737238 ], [ -96.714623, 40.737197 ], [ -96.714551, 40.737163 ], [ -96.714484, 40.737139 ], [ -96.714446, 40.73708 ], [ -96.714484, 40.736964 ], [ -96.714484, 40.736886 ], [ -96.714462, 40.736831 ], [ -96.714417, 40.736764 ], [ -96.714276, 40.73669 ] ] } },
{ "type": "Feature", "properties": { "cls": "shared", "highway": "path", "name": "Wilderness Park Trail" }, "geometry": { "type": "MultiLineString", "coordinates": [ [ [ -96.716314, 40.741754 ], [ -96.716221, 40.741697 ], [ -96.716077, 40.7416 ], [ -96.716095, 40.74147 ], [ -96.716072, 40.741354 ], [ -96.716009, 40.741282 ] ], [ [ -96.715551, 40.740874 ], [ -96.715552, 40.740769 ], [ -96.715561, 40.740681 ], [ -96.715581, 40.740484 ], [ -96.715618, 40.740196 ], [ -96.715613, 40.739963 ], [ -96.71548, 40.739805 ], [ -96.715319, 40.739655 ], [ -96.715095, 40.739577 ], [ -96.714925, 40.739433 ], [ -96.71484, 40.739309 ], [ -96.71473, 40.73919 ], [ -96.714633, 40.739023 ], [ -96.714607, 40.738913 ], [ -96.714661, 40.738834 ], [ -96.714718, 40.738714 ], [ -96.714798, 40.738606 ], [ -96.714796, 40.738541 ], [ -96.714714, 40.738484 ], [ -96.714426, 40.738375 ], [ -96.714344, 40.738269 ], [ -96.714435, 40.738124 ], [ -96.714553, 40.737988 ], [ -96.714584, 40.737937 ], [ -96.714595, 40.737876 ], [ -96.714551, 40.737798 ], [ -96.714498, 40.737748 ], [ -96.714452, 40.737626 ], [ -96.714435, 40.737495 ], [ -96.714312, 40.73736 ], [ -96.714211, 40.737256 ], [ -96.714141, 40.737161 ], [ -96.714098, 40.736993 ], [ -96.714094, 40.736926 ], [ -96.714128, 40.736875 ], [ -96.714212, 40.736799 ], [ -96.714275, 40.736761 ], [ -96.714276, 40.73669 ] ] ] } },
{ "type": "Feature", "properties": { "cls": "shared", "highway": "path", "name": "Wilderness Park Trail" }, "geometry": { "type": "LineString", "coordinates": [ [ -96.711576, 40.740057 ], [ -96.711671, 40.74008 ], [ -96.711782, 40.740123 ], [ -96.711873, 40.740172 ], [ -96.711983, 40.74022 ], [ -96.712066, 40.740261 ], [ -96.712149, 40.740267 ], [ -96.712216, 40.740261 ], [ -96.71228, 40.740231 ], [ -96.712356, 40.740186 ], [ -96.712412, 40.740162 ], [ -96.712455, 40.740156 ], [ -96.712527, 40.74016 ], [ -96.712634, 40.740174 ], [ -96.71271, 40.740162 ], [ -96.712812, 40.740135 ], [ -96.712887, 40.740086 ], [ -96.712986, 40.740023 ], [ -96.713072, 40.739981 ], [ -96.713184, 40.739952 ], [ -96.713292, 40.739944 ], [ -96.71344, 40.739929 ] ] } },
{ "type": "Feature", "properties": { "cls": "shared", "highway": "path", "name": "Wilderness Park Trail" }, "geometry": { "type": "MultiLineString", "coordinates": [ [ [ -96.714421, 40.741279 ], [ -96.714387, 40.741343 ], [ -96.714295, 40.741357 ], [ -96.714131, 40.741312 ], [ -96.714059, 40.741385 ], [ -96.714025, 40.74147 ], [ -96.71396, 40.741532 ], [ -96.713827, 40.741573 ], [ -96.713684, 40.741614 ], [ -96.713621, 40.741686 ], [ -96.713639, 40.741784 ], [ -96.713613, 40.741881 ], [ -96.713576, 40.741951 ], [ -96.713505, 40.741989 ], [ -96.713405, 40.741998 ], [ -96.713276, 40.741968 ], [ -96.713121, 40.741939 ], [ -96.712994, 40.741918 ], [ -96.712845, 40.74187 ], [ -96.712787, 40.74176 ], [ -96.712802, 40.741677 ], [ -96.712879, 40.741634 ], [ -96.713006, 40.741602 ], [ -96.713091, 40.74157 ], [ -96.713193, 40.741508 ], [ -96.713234, 40.741382 ], [ -96.713212, 40.741272 ], [ -96.713117, 40.741137 ], [ -96.713047, 40.741077 ] ], [ [ -96.712955, 40.740982 ], [ -96.712872, 40.74086 ], [ -96.712924, 40.740609 ], [ -96.71306, 40.74047 ], [ -96.713215, 40.740228 ], [ -96.713348, 40.74003 ], [ -96.71344, 40.739929 ] ] ] } },
{ "type": "Feature", "properties": { "cls": "shared", "highway": "footway", "name": "Wilderness Park Trail" }, "geometry": { "type": "LineString", "coordinates": [ [ -96.713348, 40.742523 ], [ -96.713243, 40.742551 ], [ -96.713107, 40.742572 ], [ -96.712996, 40.742606 ], [ -96.712875, 40.742646 ], [ -96.712777, 40.742664 ], [ -96.712688, 40.742656 ], [ -96.712604, 40.742678 ], [ -96.712534, 40.742713 ], [ -96.712493, 40.742732 ], [ -96.712394, 40.742764 ] ] } },
{ "type": "Feature", "properties": { "cls": "shared", "highway": "path", "name": "Wilderness Park Trail" }, "geometry": { "type": "LineString", "coordinates": [ [ -96.715066, 40.745061 ], [ -96.715649, 40.744768 ], [ -96.715801, 40.744694 ], [ -96.71599, 40.744646 ], [ -96.716131, 40.744644 ], [ -96.716234, 40.744631 ], [ -96.716337, 40.744591 ], [ -96.71643, 40.744485 ], [ -96.716494, 40.744335 ], [ -96.716532, 40.744225 ], [ -96.716611, 40.744164 ], [ -96.716697, 40.744131 ], [ -96.716792, 40.744054 ], [ -96.716866, 40.743959 ], [ -96.716783, 40.74382 ], [ -96.716745, 40.74376 ], [ -96.716588, 40.743662 ], [ -96.71605, 40.74354 ], [ -96.715924, 40.74348 ], [ -96.71585, 40.743431 ], [ -96.715833, 40.743313 ], [ -96.715865, 40.743218 ], [ -96.715921, 40.743154 ], [ -96.715989, 40.743113 ], [ -96.716093, 40.743068 ], [ -96.71618, 40.742991 ], [ -96.716252, 40.742908 ], [ -96.716294, 40.742709 ], [ -96.716297, 40.742547 ], [ -96.716325, 40.742506 ], [ -96.71638, 40.742481 ], [ -96.716468, 40.742446 ] ] } },
{ "type": "Feature", "properties": { "cls": "shared", "highway": "path", "name": "Wilderness Park Trail" }, "geometry": { "type": "LineString", "coordinates": [ [ -96.715066, 40.745061 ], [ -96.715082, 40.745022 ], [ -96.715115, 40.744971 ], [ -96.71512, 40.744937 ], [ -96.715116, 40.744906 ], [ -96.715089, 40.744845 ], [ -96.715098, 40.744781 ], [ -96.715206, 40.744749 ], [ -96.715294, 40.744755 ], [ -96.715374, 40.744731 ], [ -96.71545, 40.744688 ], [ -96.715484, 40.744578 ], [ -96.715517, 40.744474 ], [ -96.7156, 40.744387 ], [ -96.715723, 40.744327 ], [ -96.715879, 40.744224 ], [ -96.715999, 40.744132 ], [ -96.716136, 40.744016 ], [ -96.7163, 40.743944 ], [ -96.716426, 40.743932 ], [ -96.716533, 40.743935 ], [ -96.716652, 40.743917 ], [ -96.716783, 40.74382 ], [ -96.7169, 40.743723 ], [ -96.716983, 40.743646 ], [ -96.717066, 40.743535 ], [ -96.717104, 40.743453 ], [ -96.717127, 40.743378 ], [ -96.717153, 40.743271 ], [ -96.717133, 40.743142 ], [ -96.717055, 40.743016 ], [ -96.716925, 40.742907 ], [ -96.716782, 40.742806 ], [ -96.716671, 40.742769 ], [ -96.716557, 40.742683 ], [ -96.716487, 40.742582 ], [ -96.716468, 40.742446 ] ] } },
{ "type": "Feature", "properties": { "cls": "shared", "highway": "path", "name": "Wilderness Park Trail" }, "geometry": { "type": "MultiLineString", "coordinates": [ [ [ -96.716314, 40.741754 ], [ -96.716369, 40.741606 ], [ -96.716369, 40.741577 ], [ -96.716348, 40.741532 ], [ -96.716308, 40.741446 ], [ -96.716254, 40.741313 ], [ -96.716241, 40.741162 ], [ -96.716239, 40.741097 ] ], [ [ -96.71624, 40.741041 ], [ -96.716281, 40.74092 ], [ -96.716332, 40.740812 ], [ -96.716426, 40.74071 ], [ -96.716487, 40.740547 ], [ -96.716507, 40.740485 ] ] ] } },
{ "type": "Feature", "properties": { "cls": "shared", "highway": "path", "name": "Wilderness Park Trail" }, "geometry": { "type": "LineString", "coordinates": [ [ -96.717538, 40.749616 ], [ -96.717392, 40.749505 ], [ -96.71733, 40.749507 ], [ -96.717265, 40.749542 ], [ -96.717196, 40.749588 ], [ -96.716858, 40.74963 ], [ -96.716599, 40.749623 ], [ -96.716427, 40.749639 ], [ -96.716234, 40.74969 ], [ -96.716173, 40.749735 ], [ -96.716058, 40.749767 ], [ -96.715958, 40.749749 ], [ -96.715896, 40.749704 ], [ -96.715828, 40.749559 ], [ -96.715741, 40.749456 ], [ -96.7157, 40.749441 ], [ -96.71567, 40.749404 ], [ -96.715644, 40.749333 ], [ -96.715483, 40.749161 ] ] } },
{ "type": "Feature", "properties": { "cls": "shared", "highway": "path", "name": "Wilderness Park Trail" }, "geometry": { "type": "LineString", "coordinates": [ [ -96.71596, 40.755506 ], [ -96.715996, 40.755468 ], [ -96.71608, 40.755446 ], [ -96.716143, 40.755431 ], [ -96.71618, 40.755391 ], [ -96.7162, 40.755329 ], [ -96.716238, 40.755267 ], [ -96.716285, 40.755236 ], [ -96.71635, 40.755239 ], [ -96.716403, 40.755261 ], [ -96.716467, 40.755307 ], [ -96.71655, 40.755318 ], [ -96.716586, 40.755293 ], [ -96.716764, 40.75523 ], [ -96.716884, 40.755212 ], [ -96.716994, 40.7552 ], [ -96.717099, 40.755084 ], [ -96.717207, 40.755009 ], [ -96.717368, 40.754949 ], [ -96.71755, 40.754942 ], [ -96.717683, 40.75496 ], [ -96.717792, 40.75501 ], [ -96.717889, 40.754982 ], [ -96.718003, 40.754874 ], [ -96.718104, 40.754801 ], [ -96.718218, 40.754796 ], [ -96.718318, 40.754785 ], [ -96.718525, 40.754722 ], [ -96.718715, 40.754742 ], [ -96.718792, 40.754839 ], [ -96.718851, 40.754853 ], [ -96.718899, 40.754827 ], [ -96.71891, 40.75478 ], [ -96.718906, 40.754724 ], [ -96.718875, 40.75464 ], [ -96.718811, 40.754496 ], [ -96.718788, 40.754464 ], [ -96.718735, 40.754426 ], [ -96.718716, 40.7544 ], [ -96.718709, 40.75435 ], [ -96.718734, 40.754297 ], [ -96.718826, 40.754199 ], [ -96.718827, 40.754126 ], [ -96.7188, 40.754083 ], [ -96.718778, 40.754042 ], [ -96.718725, 40.753989 ], [ -96.718641, 40.75392 ], [ -96.718536, 40.753834 ], [ -96.718517, 40.753789 ], [ -96.718524, 40.753727 ], [ -96.718514, 40.753597 ], [ -96.718446, 40.753463 ], [ -96.718417, 40.75331 ], [ -96.718469, 40.753227 ], [ -96.71847, 40.752927 ], [ -96.718468, 40.752863 ], [ -96.718456, 40.752787 ], [ -96.718417, 40.752722 ], [ -96.718317, 40.752663 ], [ -96.718254, 40.752616 ], [ -96.718234, 40.752566 ], [ -96.718263, 40.752504 ], [ -96.718347, 40.752416 ], [ -96.718417, 40.75228 ], [ -96.718412, 40.752167 ], [ -96.71842, 40.75206 ], [ -96.71853, 40.751987 ], [ -96.71863, 40.751985 ], [ -96.718803, 40.752039 ], [ -96.718867, 40.752045 ], [ -96.71891, 40.752025 ], [ -96.718931, 40.751984 ], [ -96.718956, 40.751839 ], [ -96.719057, 40.751589 ], [ -96.719271, 40.75144 ], [ -96.7195, 40.751245 ], [ -96.719529, 40.751198 ], [ -96.719547, 40.751136 ], [ -96.719536, 40.751071 ], [ -96.719476, 40.750959 ], [ -96.719371, 40.750921 ], [ -96.71927, 40.750926 ], [ -96.719187, 40.750901 ], [ -96.719109, 40.75086 ], [ -96.719005, 40.750782 ], [ -96.718954, 40.750772 ], [ -96.718771, 40.750818 ], [ -96.718675, 40.750821 ], [ -96.718549, 40.750822 ], [ -96.718448, 40.750791 ], [ -96.71832, 40.750702 ], [ -96.718139, 40.750514 ], [ -96.718114, 40.75042 ], [ -96.718114, 40.750393 ], [ -96.718143, 40.750282 ], [ -96.718129, 40.750138 ], [ -96.718055, 40.749934 ], [ -96.718006, 40.749772 ], [ -96.717937, 40.749692 ], [ -96.717855, 40.749648 ], [ -96.717823, 40.749649 ], [ -96.717666, 40.749657 ], [ -96.717538, 40.749616 ] ] } },
{ "type": "Feature", "properties": { "cls": "shared", "highway": "path", "name": "Wilderness Park Trail" }, "geometry": { "type": "LineString", "coordinates": [ [ -96.71596, 40.755506 ], [ -96.715909, 40.755413 ], [ -96.715888, 40.755338 ], [ -96.715825, 40.755255 ], [ -96.715773, 40.755173 ], [ -96.71571, 40.755017 ], [ -96.715706, 40.75495 ], [ -96.715724, 40.754895 ], [ -96.71576, 40.754852 ], [ -96.715805, 40.754822 ], [ -96.715903, 40.754781 ], [ -96.71593, 40.754755 ], [ -96.715998, 40.754634 ], [ -96.716021, 40.754586 ], [ -96.71606, 40.754551 ], [ -96.716114, 40.754549 ], [ -96.716169, 40.754575 ], [ -96.716215, 40.754596 ], [ -96.716288, 40.754604 ], [ -96.716373, 40.754583 ], [ -96.71644, 40.754525 ], [ -96.716531, 40.754461 ], [ -96.716713, 40.754388 ], [ -96.716802, 40.754343 ], [ -96.716906, 40.754263 ], [ -96.716973, 40.75422 ], [ -96.717075, 40.754193 ], [ -96.717221, 40.754166 ], [ -96.717265, 40.754178 ], [ -96.717292, 40.7542 ], [ -96.717292, 40.754232 ], [ -96.717374, 40.754292 ], [ -96.717466, 40.754326 ], [ -96.717575, 40.754357 ], [ -96.717716, 40.754356 ], [ -96.717845, 40.754306 ], [ -96.717992, 40.754206 ], [ -96.718134, 40.754066 ], [ -96.718199, 40.753934 ], [ -96.718199, 40.753788 ], [ -96.718249, 40.753649 ], [ -96.718271, 40.753558 ], [ -96.718224, 40.753329 ], [ -96.718036, 40.753032 ], [ -96.717804, 40.752796 ], [ -96.71767, 40.752595 ], [ -96.717512, 40.75244 ], [ -96.717367, 40.752402 ], [ -96.717287, 40.752367 ], [ -96.717202, 40.752238 ], [ -96.717082, 40.752029 ], [ -96.717069, 40.751942 ], [ -96.717098, 40.751882 ], [ -96.717205, 40.751784 ], [ -96.717432, 40.751622 ], [ -96.717572, 40.751453 ], [ -96.717578, 40.751219 ], [ -96.717564, 40.750953 ], [ -96.717756, 40.750697 ], [ -96.717902, 40.750609 ], [ -96.718114, 40.75042 ] ] } },
{ "type": "Feature", "properties": { "cls": "shared", "highway": "path", "name": "Wilderness Park Trail" }, "geometry": { "type": "LineString", "coordinates": [ [ -96.715006, 40.748495 ], [ -96.714988, 40.748429 ], [ -96.714943, 40.748371 ], [ -96.714846, 40.748154 ], [ -96.714742, 40.74795 ], [ -96.71473, 40.747845 ], [ -96.714694, 40.74774 ], [ -96.714675, 40.747615 ], [ -96.714668, 40.747497 ], [ -96.714602, 40.747393 ], [ -96.71455, 40.747319 ], [ -96.714521, 40.747242 ], [ -96.714585, 40.747142 ], [ -96.714651, 40.747078 ], [ -96.71472, 40.746958 ], [ -96.714731, 40.746844 ], [ -96.71466, 40.746702 ], [ -96.714688, 40.74656 ], [ -96.71464, 40.746441 ], [ -96.714647, 40.746354 ], [ -96.714653, 40.746221 ], [ -96.714584, 40.746147 ], [ -96.714562, 40.746067 ], [ -96.714599, 40.745934 ], [ -96.714701, 40.745749 ], [ -96.714886, 40.74555 ] ] } },
{ "type": "Feature", "properties": { "cls": "shared", "highway": "path", "name": "Wilderness Park Trail" }, "geometry": { "type": "LineString", "coordinates": [ [ -96.715034, 40.748475 ], [ -96.715046, 40.748446 ], [ -96.715091, 40.748324 ], [ -96.715055, 40.748184 ], [ -96.715038, 40.748029 ], [ -96.714973, 40.747887 ], [ -96.71489, 40.747725 ], [ -96.71489, 40.747645 ], [ -96.714951, 40.74757 ], [ -96.714949, 40.747503 ], [ -96.714847, 40.74743 ], [ -96.714783, 40.74738 ], [ -96.714726, 40.747303 ], [ -96.714764, 40.747197 ], [ -96.714873, 40.747081 ], [ -96.714938, 40.746973 ], [ -96.714938, 40.746851 ], [ -96.714838, 40.746584 ], [ -96.714777, 40.746489 ], [ -96.714784, 40.746379 ], [ -96.714832, 40.746298 ], [ -96.714831, 40.746213 ], [ -96.714861, 40.74614 ], [ -96.714861, 40.746034 ], [ -96.714905, 40.745942 ], [ -96.714886, 40.745849 ], [ -96.714886, 40.74555 ] ] } },
{ "type": "Feature", "properties": { "cls": "shared", "highway": "path", "name": "Wilderness Park Trail" }, "geometry": { "type": "MultiLineString", "coordinates": [ [ [ -96.714673, 40.754516 ], [ -96.714777, 40.75433 ], [ -96.714815, 40.754201 ], [ -96.714756, 40.754044 ], [ -96.714579, 40.753833 ], [ -96.714551, 40.753613 ], [ -96.714564, 40.753376 ], [ -96.714614, 40.753122 ], [ -96.714593, 40.752947 ], [ -96.71436, 40.752619 ], [ -96.71433, 40.752482 ], [ -96.714226, 40.752221 ], [ -96.714111, 40.751943 ], [ -96.714197, 40.751382 ], [ -96.714272, 40.751024 ], [ -96.714899, 40.749742 ], [ -96.714976, 40.749584 ], [ -96.714953, 40.749443 ], [ -96.714954, 40.749432 ] ], [ [ -96.714458, 40.748896 ], [ -96.714441, 40.74889 ], [ -96.714398, 40.748887 ], [ -96.714255, 40.748897 ], [ -96.714216, 40.748894 ], [ -96.714161, 40.748881 ], [ -96.714123, 40.748855 ], [ -96.714099, 40.748819 ], [ -96.714104, 40.748782 ], [ -96.714143, 40.748704 ], [ -96.714158, 40.748646 ], [ -96.714147, 40.748603 ], [ -96.714099, 40.748561 ], [ -96.714019, 40.748518 ], [ -96.713985, 40.748476 ], [ -96.713968, 40.748437 ], [ -96.71396, 40.748387 ], [ -96.713972, 40.748346 ], [ -96.713973, 40.748302 ], [ -96.713938, 40.748244 ], [ -96.713903, 40.748182 ], [ -96.713887, 40.748101 ], [ -96.713885, 40.748054 ], [ -96.71387, 40.747991 ], [ -96.71386, 40.747952 ], [ -96.713809, 40.747877 ], [ -96.713787, 40.747804 ], [ -96.713759, 40.747718 ], [ -96.713704, 40.74762 ], [ -96.713618, 40.747462 ], [ -96.71359, 40.747305 ], [ -96.71354, 40.747127 ], [ -96.713546, 40.747002 ], [ -96.713545, 40.746899 ], [ -96.71357, 40.746841 ], [ -96.713583, 40.746768 ], [ -96.713561, 40.746624 ], [ -96.713505, 40.746375 ], [ -96.713447, 40.74628 ], [ -96.713397, 40.74621 ], [ -96.713329, 40.746097 ], [ -96.713275, 40.745976 ], [ -96.713258, 40.745859 ], [ -96.713262, 40.745744 ], [ -96.713369, 40.745573 ], [ -96.713374, 40.745366 ], [ -96.713371, 40.745311 ], [ -96.713388, 40.745263 ], [ -96.713392, 40.745192 ], [ -96.71338, 40.745129 ], [ -96.713379, 40.745072 ], [ -96.713405, 40.745022 ], [ -96.713474, 40.744938 ], [ -96.713864, 40.744619 ], [ -96.713927, 40.744472 ], [ -96.713835, 40.744237 ], [ -96.713816, 40.744044 ], [ -96.713938, 40.743874 ], [ -96.714106, 40.743715 ], [ -96.714125, 40.743543 ], [ -96.714121, 40.743373 ], [ -96.714232, 40.743294 ], [ -96.714411, 40.743182 ], [ -96.714553, 40.743018 ], [ -96.714677, 40.742896 ], [ -96.714879, 40.742803 ], [ -96.715044, 40.742701 ], [ -96.715118, 40.742601 ], [ -96.715132, 40.742457 ], [ -96.715071, 40.742331 ], [ -96.715069, 40.742248 ], [ -96.715117, 40.742167 ], [ -96.715275, 40.742048 ], [ -96.715377, 40.741945 ], [ -96.715363, 40.741877 ] ] ] } },
{ "type": "Feature", "properties": { "cls": "shared", "highway": "path", "name": "Wilderness Park Trail" }, "geometry": { "type": "LineString", "coordinates": [ [ -96.716057, 40.762817 ], [ -96.715909, 40.76284 ], [ -96.715848, 40.762819 ], [ -96.71564, 40.76276 ], [ -96.715447, 40.762713 ], [ -96.715245, 40.762579 ], [ -96.715015, 40.762508 ], [ -96.71479, 40.762486 ], [ -96.714609, 40.762493 ], [ -96.714528, 40.762503 ], [ -96.714425, 40.762504 ], [ -96.714344, 40.762468 ], [ -96.714283, 40.762392 ], [ -96.714307, 40.76227 ], [ -96.714297, 40.762153 ], [ -96.714232, 40.762075 ], [ -96.714167, 40.761989 ], [ -96.714158, 40.761933 ], [ -96.714215, 40.761865 ], [ -96.7143, 40.761842 ], [ -96.714371, 40.761851 ], [ -96.714434, 40.761888 ], [ -96.7145, 40.761896 ], [ -96.714616, 40.761825 ], [ -96.714659, 40.761754 ], [ -96.714705, 40.761651 ], [ -96.71476, 40.761536 ], [ -96.71487, 40.761411 ], [ -96.714977, 40.761221 ], [ -96.715063, 40.760988 ], [ -96.71509, 40.760791 ], [ -96.715047, 40.760665 ], [ -96.71489, 40.76045 ], [ -96.714814, 40.760297 ], [ -96.714768, 40.760232 ], [ -96.71474, 40.76019 ], [ -96.714776, 40.760125 ], [ -96.714894, 40.759984 ], [ -96.714969, 40.759879 ], [ -96.71513, 40.759775 ], [ -96.715284, 40.759684 ], [ -96.715707, 40.759655 ], [ -96.716113, 40.759649 ], [ -96.716308, 40.759694 ], [ -96.71651, 40.759718 ], [ -96.716659, 40.759708 ], [ -96.71691, 40.759641 ], [ -96.717194, 40.759487 ], [ -96.717388, 40.759457 ], [ -96.717634, 40.759283 ], [ -96.717812, 40.759174 ], [ -96.718111, 40.758825 ], [ -96.718197, 40.75868 ], [ -96.718212, 40.758568 ], [ -96.718279, 40.758359 ], [ -96.71827, 40.758243 ], [ -96.718251, 40.758122 ], [ -96.718074, 40.757963 ], [ -96.717831, 40.757849 ], [ -96.71755, 40.757751 ], [ -96.717375, 40.757731 ], [ -96.717091, 40.757794 ], [ -96.71692, 40.757847 ], [ -96.716626, 40.757924 ], [ -96.716247, 40.758052 ], [ -96.716057, 40.758107 ], [ -96.715916, 40.758137 ], [ -96.715787, 40.758123 ], [ -96.71566, 40.758048 ], [ -96.715547, 40.757963 ], [ -96.715475, 40.757851 ], [ -96.715496, 40.757713 ], [ -96.715554, 40.757638 ], [ -96.715907, 40.757522 ], [ -96.716094, 40.75748 ], [ -96.716373, 40.757352 ], [ -96.71655, 40.757315 ], [ -96.71746, 40.757183 ], [ -96.717853, 40.757128 ], [ -96.718039, 40.757085 ], [ -96.718181, 40.757018 ], [ -96.718334, 40.756882 ], [ -96.718433, 40.756775 ], [ -96.7185, 40.756679 ], [ -96.718541, 40.756596 ], [ -96.718487, 40.7565 ], [ -96.718465, 40.756417 ], [ -96.718439, 40.756362 ], [ -96.718366, 40.756338 ], [ -96.718299, 40.756338 ], [ -96.718232, 40.75637 ], [ -96.718168, 40.756417 ], [ -96.718107, 40.756457 ], [ -96.718013, 40.756457 ], [ -96.717906, 40.756449 ], [ -96.717824, 40.756399 ], [ -96.717757, 40.756342 ], [ -96.717749, 40.756222 ], [ -96.717755, 40.756145 ], [ -96.717639, 40.756039 ] ] } },
{ "type": "Feature", "properties": { "cls": "shared", "highway": "path", "name": "Wilderness Park Trail" }, "geometry": { "type": "LineString", "coordinates": [ [ -96.716172, 40.763993 ], [ -96.716056, 40.76392 ], [ -96.715998, 40.763861 ], [ -96.715954, 40.763797 ], [ -96.715932, 40.763767 ], [ -96.715815, 40.763634 ], [ -96.715781, 40.763563 ], [ -96.715771, 40.763475 ], [ -96.715814, 40.763241 ], [ -96.715852, 40.763078 ], [ -96.715876, 40.762953 ], [ -96.715958, 40.762925 ], [ -96.715977, 40.762909 ], [ -96.716022, 40.762863 ], [ -96.716057, 40.762817 ], [ -96.716108, 40.762506 ], [ -96.716158, 40.762255 ], [ -96.716202, 40.761977 ], [ -96.71631, 40.761886 ], [ -96.71647, 40.761804 ], [ -96.716643, 40.761741 ], [ -96.716711, 40.761643 ], [ -96.716726, 40.761512 ], [ -96.716769, 40.761359 ], [ -96.716862, 40.761293 ], [ -96.716973, 40.761226 ], [ -96.71717, 40.761165 ], [ -96.717343, 40.76115 ], [ -96.717508, 40.761129 ], [ -96.717649, 40.761091 ], [ -96.717812, 40.760948 ], [ -96.717982, 40.760783 ], [ -96.718045, 40.760649 ], [ -96.718102, 40.760581 ], [ -96.718121, 40.760532 ], [ -96.7181, 40.760472 ], [ -96.718047, 40.760415 ], [ -96.718009, 40.760364 ], [ -96.717986, 40.760317 ], [ -96.71799, 40.76025 ], [ -96.718027, 40.76015 ], [ -96.718196, 40.76002 ], [ -96.71829, 40.759993 ], [ -96.718374, 40.75998 ], [ -96.718482, 40.75998 ], [ -96.718593, 40.759997 ], [ -96.718664, 40.760036 ], [ -96.718706, 40.760104 ], [ -96.718742, 40.760192 ], [ -96.7188, 40.760279 ], [ -96.718928, 40.760311 ], [ -96.718964, 40.760362 ], [ -96.718999, 40.760442 ], [ -96.719125, 40.760579 ], [ -96.719159, 40.760643 ], [ -96.71916, 40.760777 ], [ -96.719165, 40.760848 ], [ -96.719221, 40.760877 ], [ -96.719341, 40.760921 ], [ -96.719409, 40.760913 ], [ -96.719478, 40.760872 ], [ -96.719508, 40.760807 ], [ -96.71961, 40.760738 ], [ -96.719809, 40.760641 ], [ -96.719988, 40.760537 ], [ -96.720218, 40.760476 ], [ -96.720453, 40.760405 ], [ -96.720467, 40.760371 ], [ -96.720459, 40.760336 ], [ -96.720467, 40.760303 ], [ -96.720428, 40.760227 ], [ -96.720258, 40.760167 ], [ -96.720192, 40.76012 ], [ -96.720184, 40.760065 ], [ -96.720159, 40.760035 ], [ -96.720096, 40.76001 ], [ -96.72001, 40.759987 ], [ -96.719834, 40.759913 ], [ -96.719691, 40.75984 ], [ -96.719633, 40.759781 ], [ -96.719564, 40.759733 ], [ -96.719554, 40.759678 ], [ -96.71955, 40.759622 ], [ -96.719548, 40.759589 ], [ -96.719566, 40.759557 ], [ -96.71959, 40.75953 ], [ -96.719636, 40.759512 ], [ -96.719682, 40.759509 ], [ -96.719759, 40.759518 ], [ -96.719842, 40.759506 ], [ -96.719858, 40.75941 ], [ -96.719927, 40.759239 ], [ -96.719938, 40.759062 ], [ -96.719967, 40.758893 ], [ -96.72007, 40.758793 ], [ -96.720087, 40.758765 ], [ -96.720095, 40.758721 ], [ -96.720096, 40.758621 ], [ -96.720092, 40.758578 ], [ -96.720101, 40.758533 ], [ -96.720107, 40.758495 ], [ -96.720101, 40.758459 ], [ -96.720066, 40.758424 ], [ -96.720034, 40.758409 ], [ -96.720005, 40.758401 ], [ -96.719982, 40.758385 ], [ -96.719931, 40.758312 ], [ -96.719909, 40.758267 ], [ -96.719906, 40.758214 ], [ -96.719865, 40.758187 ], [ -96.719816, 40.758163 ], [ -96.719755, 40.758165 ], [ -96.719672, 40.758173 ], [ -96.71955, 40.758199 ], [ -96.719489, 40.758197 ], [ -96.71944, 40.758197 ], [ -96.719295, 40.758168 ], [ -96.719179, 40.758162 ], [ -96.719121, 40.758161 ], [ -96.719062, 40.758147 ], [ -96.718957, 40.758103 ], [ -96.718919, 40.758091 ], [ -96.718839, 40.758085 ], [ -96.718724, 40.758059 ], [ -96.718679, 40.75805 ], [ -96.718609, 40.758045 ], [ -96.718562, 40.758043 ], [ -96.718533, 40.758034 ], [ -96.718508, 40.758019 ], [ -96.718483, 40.757976 ], [ -96.718469, 40.757824 ], [ -96.718512, 40.757718 ], [ -96.718601, 40.757547 ], [ -96.71861, 40.757502 ], [ -96.718622, 40.757378 ], [ -96.718645, 40.757231 ], [ -96.718675, 40.757164 ], [ -96.718705, 40.757128 ], [ -96.718794, 40.757094 ], [ -96.718865, 40.757064 ], [ -96.718879, 40.757027 ], [ -96.71886, 40.756997 ], [ -96.71878, 40.756934 ], [ -96.718755, 40.756897 ], [ -96.718744, 40.756854 ], [ -96.718747, 40.756819 ], [ -96.718753, 40.756787 ], [ -96.718782, 40.756752 ], [ -96.718831, 40.756731 ], [ -96.718877, 40.756731 ], [ -96.718952, 40.756745 ], [ -96.719028, 40.756755 ], [ -96.719106, 40.756749 ], [ -96.719191, 40.756744 ], [ -96.719255, 40.756716 ], [ -96.719253, 40.756673 ], [ -96.719213, 40.756631 ], [ -96.719143, 40.756581 ], [ -96.718968, 40.756435 ], [ -96.718942, 40.756394 ], [ -96.718945, 40.756354 ], [ -96.718964, 40.756325 ], [ -96.719024, 40.75629 ], [ -96.719129, 40.756272 ], [ -96.719171, 40.756231 ], [ -96.719167, 40.756197 ], [ -96.719136, 40.756149 ], [ -96.719122, 40.756062 ], [ -96.719078, 40.756027 ], [ -96.719005, 40.756024 ], [ -96.718928, 40.756038 ], [ -96.718793, 40.756047 ], [ -96.718506, 40.756056 ], [ -96.718354, 40.75618 ], [ -96.718171, 40.756266 ], [ -96.718041, 40.756262 ], [ -96.717895, 40.756157 ], [ -96.717746, 40.756049 ], [ -96.717639, 40.756039 ] ] } },
{ "type": "Feature", "properties": { "cls": "separated", "highway": "cycleway", "name": null }, "geometry": { "type": "LineString", "coordinates": [ [ -96.718737, 40.761584 ], [ -96.718778, 40.761607 ], [ -96.718793, 40.761626 ], [ -96.718843, 40.761691 ], [ -96.71888, 40.761742 ], [ -96.718915, 40.761768 ], [ -96.718983, 40.761777 ], [ -96.719041, 40.761778 ], [ -96.719183, 40.761754 ], [ -96.719296, 40.761741 ], [ -96.719353, 40.761779 ] ] } },
{ "type": "Feature", "properties": { "cls": "separated", "highway": "cycleway", "name": null }, "geometry": { "type": "LineString", "coordinates": [ [ -96.719353, 40.761779 ], [ -96.719405, 40.761814 ] ] } },
{ "type": "Feature", "properties": { "cls": "separated", "highway": "cycleway", "name": null }, "geometry": { "type": "LineString", "coordinates": [ [ -96.719405, 40.761814 ], [ -96.71943, 40.761854 ] ] } },
{ "type": "Feature", "properties": { "cls": "separated", "highway": "cycleway", "name": null }, "geometry": { "type": "LineString", "coordinates": [ [ -96.71943, 40.761854 ], [ -96.719453, 40.761892 ], [ -96.719623, 40.761927 ], [ -96.719807, 40.761929 ] ] } },
{ "type": "Feature", "properties": { "cls": "shared", "highway": "path", "name": "Wilderness Park Trail" }, "geometry": { "type": "LineString", "coordinates": [ [ -96.717538, 40.762355 ], [ -96.717648, 40.762206 ], [ -96.717664, 40.762094 ], [ -96.717685, 40.761996 ], [ -96.717735, 40.76193 ], [ -96.717781, 40.76188 ], [ -96.717837, 40.761773 ], [ -96.717879, 40.761718 ], [ -96.717952, 40.761652 ], [ -96.718008, 40.761626 ], [ -96.718043, 40.76162 ], [ -96.71811, 40.76161 ], [ -96.718204, 40.761604 ], [ -96.718322, 40.761594 ], [ -96.718468, 40.761601 ], [ -96.718581, 40.761628 ], [ -96.718617, 40.761626 ], [ -96.718648, 40.761618 ], [ -96.718691, 40.761595 ], [ -96.718737, 40.761584 ] ] } },
{ "type": "Feature", "properties": { "cls": "shared", "highway": "path", "name": null }, "geometry": { "type": "LineString", "coordinates": [ [ -96.718043, 40.76162 ], [ -96.717979, 40.76158 ], [ -96.717898, 40.761572 ], [ -96.717805, 40.761595 ], [ -96.717708, 40.761645 ], [ -96.717627, 40.761696 ], [ -96.717567, 40.761751 ], [ -96.717537, 40.76181 ], [ -96.717516, 40.761889 ], [ -96.717485, 40.761931 ], [ -96.717437, 40.761974 ], [ -96.717397, 40.762026 ], [ -96.717389, 40.762088 ], [ -96.717399, 40.762168 ], [ -96.71742, 40.762239 ], [ -96.71745, 40.762307 ], [ -96.717482, 40.762356 ], [ -96.717492, 40.762379 ] ] } },
{ "type": "Feature", "properties": { "cls": "shared", "highway": "path", "name": null }, "geometry": { "type": "LineString", "coordinates": [ [ -96.719925, 40.762374 ], [ -96.720001, 40.762463 ], [ -96.720098, 40.762503 ], [ -96.720153, 40.762551 ], [ -96.720195, 40.762586 ], [ -96.720265, 40.76262 ], [ -96.720331, 40.762632 ] ] } },
{ "type": "Feature", "properties": { "cls": "shared", "highway": "path", "name": "Wilderness Park Trail" }, "geometry": { "type": "LineString", "coordinates": [ [ -96.716057, 40.762817 ], [ -96.716266, 40.762794 ], [ -96.71668, 40.762736 ], [ -96.717172, 40.762544 ], [ -96.717492, 40.762379 ], [ -96.717538, 40.762355 ] ] } },
{ "type": "Feature", "properties": { "cls": "shared", "highway": "path", "name": "Wilderness Park Trail" }, "geometry": { "type": "LineString", "coordinates": [ [ -96.715954, 40.763797 ], [ -96.716009, 40.763729 ], [ -96.716103, 40.763677 ], [ -96.716257, 40.763599 ], [ -96.716443, 40.763583 ], [ -96.716716, 40.763337 ], [ -96.716965, 40.763089 ], [ -96.717149, 40.762898 ], [ -96.717339, 40.762817 ], [ -96.717597, 40.762776 ], [ -96.717686, 40.762744 ], [ -96.717744, 40.762694 ], [ -96.717772, 40.762606 ], [ -96.717668, 40.762525 ], [ -96.717563, 40.762456 ], [ -96.717538, 40.762355 ] ] } },
{ "type": "Feature", "properties": { "cls": "shared", "highway": "path", "name": "Wilderness Park Trail" }, "geometry": { "type": "LineString", "coordinates": [ [ -96.716892, 40.764071 ], [ -96.71687, 40.76407 ], [ -96.716803, 40.764047 ], [ -96.716743, 40.764032 ], [ -96.716713, 40.76404 ], [ -96.716666, 40.76405 ], [ -96.716635, 40.764086 ], [ -96.716598, 40.764147 ], [ -96.716573, 40.764196 ], [ -96.716562, 40.764237 ], [ -96.71655, 40.764259 ] ] } },
{ "type": "Feature", "properties": { "cls": "shared", "highway": "path", "name": "Wilderness Park Trail" }, "geometry": { "type": "LineString", "coordinates": [ [ -96.718574, 40.768196 ], [ -96.718505, 40.768078 ], [ -96.718511, 40.768009 ], [ -96.718466, 40.767907 ], [ -96.718415, 40.767878 ], [ -96.718341, 40.767848 ], [ -96.718281, 40.767841 ], [ -96.718247, 40.767811 ], [ -96.718238, 40.767758 ], [ -96.718279, 40.767674 ], [ -96.718226, 40.76757 ], [ -96.718199, 40.767432 ], [ -96.718206, 40.767295 ], [ -96.71822, 40.767177 ], [ -96.718249, 40.767108 ], [ -96.718349, 40.767051 ], [ -96.718487, 40.767007 ], [ -96.718596, 40.766953 ], [ -96.718658, 40.766873 ], [ -96.718732, 40.766772 ], [ -96.718783, 40.766633 ], [ -96.71878, 40.766533 ], [ -96.718762, 40.766475 ], [ -96.718701, 40.766429 ], [ -96.718628, 40.766393 ], [ -96.718565, 40.766392 ], [ -96.718484, 40.766394 ], [ -96.718354, 40.766429 ], [ -96.718228, 40.766449 ], [ -96.71805, 40.766439 ], [ -96.717956, 40.766431 ], [ -96.717912, 40.766457 ], [ -96.717857, 40.766517 ], [ -96.717756, 40.766572 ], [ -96.717681, 40.766595 ], [ -96.7176, 40.766583 ], [ -96.717472, 40.766524 ], [ -96.717394, 40.766495 ], [ -96.717236, 40.766483 ], [ -96.717163, 40.766468 ], [ -96.717098, 40.766421 ], [ -96.717018, 40.766405 ], [ -96.716965, 40.766364 ], [ -96.71694, 40.766328 ], [ -96.716876, 40.766317 ], [ -96.7168, 40.766316 ], [ -96.716737, 40.766305 ], [ -96.716712, 40.766279 ], [ -96.716697, 40.76624 ], [ -96.716691, 40.766158 ], [ -96.716676, 40.766083 ], [ -96.716645, 40.765926 ], [ -96.716637, 40.765799 ], [ -96.716648, 40.765682 ], [ -96.716679, 40.76559 ], [ -96.716713, 40.765497 ], [ -96.716772, 40.765423 ], [ -96.716932, 40.765307 ], [ -96.71705, 40.765219 ], [ -96.717209, 40.765016 ], [ -96.717252, 40.764958 ], [ -96.717282, 40.764922 ], [ -96.717297, 40.764876 ], [ -96.717291, 40.764828 ], [ -96.717196, 40.764775 ], [ -96.71715, 40.764695 ], [ -96.717097, 40.764637 ], [ -96.717012, 40.764539 ], [ -96.716958, 40.764381 ], [ -96.716924, 40.764327 ] ] } },
{ "type": "Feature", "properties": { "cls": "shared", "highway": "path", "name": "Wilderness Park Trail" }, "geometry": { "type": "LineString", "coordinates": [ [ -96.718336, 40.770098 ], [ -96.718347, 40.769972 ], [ -96.718361, 40.769824 ], [ -96.718352, 40.76971 ], [ -96.718331, 40.769608 ], [ -96.718313, 40.769534 ], [ -96.718316, 40.76945 ], [ -96.718374, 40.769384 ], [ -96.718513, 40.76927 ], [ -96.7186, 40.76923 ], [ -96.71866, 40.769213 ], [ -96.718729, 40.769199 ], [ -96.718832, 40.769177 ], [ -96.718918, 40.769111 ], [ -96.719123, 40.768881 ], [ -96.719226, 40.768739 ], [ -96.719249, 40.768495 ], [ -96.71923, 40.768411 ], [ -96.719188, 40.768357 ], [ -96.719058, 40.768304 ], [ -96.71894, 40.768283 ], [ -96.718844, 40.768263 ], [ -96.718756, 40.768229 ], [ -96.718611, 40.768212 ], [ -96.718574, 40.768196 ], [ -96.718445, 40.768142 ], [ -96.71817, 40.768017 ], [ -96.718048, 40.768 ], [ -96.717917, 40.768026 ], [ -96.717838, 40.768002 ], [ -96.717749, 40.767933 ], [ -96.717629, 40.767884 ], [ -96.717597, 40.767846 ], [ -96.717606, 40.767762 ], [ -96.717571, 40.767715 ], [ -96.717396, 40.767644 ], [ -96.717287, 40.76761 ], [ -96.717182, 40.767572 ], [ -96.717075, 40.767522 ], [ -96.71699, 40.7675 ], [ -96.716907, 40.767508 ], [ -96.716825, 40.767514 ], [ -96.716714, 40.767502 ], [ -96.71663, 40.767492 ], [ -96.716572, 40.767513 ], [ -96.71641, 40.767645 ], [ -96.716388, 40.767693 ], [ -96.71638, 40.7678 ], [ -96.716357, 40.767849 ], [ -96.716307, 40.76787 ], [ -96.716227, 40.767872 ], [ -96.716022, 40.767824 ], [ -96.715951, 40.767802 ], [ -96.715916, 40.767774 ], [ -96.715886, 40.767714 ], [ -96.715789, 40.767572 ], [ -96.715729, 40.767506 ], [ -96.715681, 40.767491 ], [ -96.715648, 40.767457 ], [ -96.715626, 40.767409 ], [ -96.715636, 40.767358 ], [ -96.715728, 40.767245 ], [ -96.715893, 40.767132 ], [ -96.715903, 40.767017 ], [ -96.715923, 40.766905 ], [ -96.715945, 40.766855 ], [ -96.716032, 40.76679 ], [ -96.716085, 40.766711 ], [ -96.716076, 40.76661 ], [ -96.716036, 40.766549 ], [ -96.715912, 40.766525 ], [ -96.715816, 40.766528 ], [ -96.715748, 40.766535 ], [ -96.715695, 40.766531 ], [ -96.715653, 40.766505 ], [ -96.715632, 40.766451 ], [ -96.715633, 40.766398 ], [ -96.71564, 40.766332 ], [ -96.71567, 40.766275 ], [ -96.715729, 40.766187 ], [ -96.715766, 40.766064 ], [ -96.715797, 40.766029 ], [ -96.715818, 40.765984 ], [ -96.715811, 40.765938 ], [ -96.715781, 40.765872 ], [ -96.715777, 40.765791 ], [ -96.715795, 40.76569 ], [ -96.715848, 40.765606 ], [ -96.71586, 40.765546 ], [ -96.71584, 40.765457 ], [ -96.71581, 40.765304 ], [ -96.715812, 40.765289 ], [ -96.715825, 40.765199 ], [ -96.715851, 40.765146 ], [ -96.716044, 40.7651 ] ] } },
{ "type": "Feature", "properties": { "cls": "shared", "highway": "path", "name": "Wilderness Park Trail" }, "geometry": { "type": "LineString", "coordinates": [ [ -96.715729, 40.767506 ], [ -96.715757, 40.767503 ], [ -96.715798, 40.767488 ], [ -96.715835, 40.767476 ], [ -96.715867, 40.76748 ], [ -96.715895, 40.767491 ], [ -96.715909, 40.76751 ], [ -96.715912, 40.767536 ], [ -96.715909, 40.767575 ], [ -96.715893, 40.76765 ], [ -96.715889, 40.767682 ], [ -96.715886, 40.767714 ] ] } },
{ "type": "Feature", "properties": { "cls": "shared", "highway": "path", "name": "Wilderness Park Trail" }, "geometry": { "type": "LineString", "coordinates": [ [ -96.717443, 40.770459 ], [ -96.717471, 40.77045 ], [ -96.71761, 40.770496 ], [ -96.717809, 40.770598 ], [ -96.717936, 40.770668 ], [ -96.717994, 40.770603 ], [ -96.718034, 40.770511 ], [ -96.718094, 40.770384 ], [ -96.718153, 40.770313 ], [ -96.718225, 40.770271 ] ] } },
{ "type": "Feature", "properties": { "cls": "shared", "highway": "path", "name": "Wilderness Park Trail" }, "geometry": { "type": "LineString", "coordinates": [ [ -96.714175, 40.770435 ], [ -96.714265, 40.77043 ], [ -96.71443, 40.770411 ], [ -96.714573, 40.770406 ], [ -96.7147, 40.770411 ], [ -96.714812, 40.770439 ], [ -96.714881, 40.770443 ], [ -96.71494, 40.770438 ], [ -96.715063, 40.770411 ], [ -96.715137, 40.770407 ], [ -96.715189, 40.770419 ], [ -96.715319, 40.770482 ], [ -96.715411, 40.77055 ], [ -96.715502, 40.770618 ], [ -96.715582, 40.770715 ], [ -96.715651, 40.770745 ], [ -96.715708, 40.770755 ], [ -96.715842, 40.770735 ], [ -96.715952, 40.770707 ], [ -96.716124, 40.770609 ], [ -96.716394, 40.770536 ], [ -96.71653, 40.770488 ], [ -96.716595, 40.77048 ], [ -96.716687, 40.770463 ], [ -96.716752, 40.770454 ] ] } },
{ "type": "Feature", "properties": { "cls": "shared", "highway": "path", "name": "Wilderness Park Trail" }, "geometry": { "type": "LineString", "coordinates": [ [ -96.71653, 40.770488 ], [ -96.716513, 40.770834 ], [ -96.716437, 40.770899 ], [ -96.716294, 40.770952 ], [ -96.716178, 40.771011 ], [ -96.716065, 40.7711 ], [ -96.715964, 40.771198 ], [ -96.715891, 40.771277 ], [ -96.715873, 40.771383 ], [ -96.715948, 40.771526 ], [ -96.715991, 40.771597 ], [ -96.716002, 40.771699 ], [ -96.715986, 40.771802 ], [ -96.715957, 40.771902 ], [ -96.716018, 40.772025 ], [ -96.716129, 40.772114 ], [ -96.7162, 40.772153 ], [ -96.716276, 40.772155 ], [ -96.716358, 40.772145 ], [ -96.716425, 40.772135 ], [ -96.716505, 40.772087 ], [ -96.716607, 40.771998 ], [ -96.716722, 40.771965 ], [ -96.716797, 40.771926 ], [ -96.716853, 40.771862 ], [ -96.716894, 40.771797 ], [ -96.716929, 40.771739 ], [ -96.717067, 40.771673 ], [ -96.717205, 40.771561 ], [ -96.717273, 40.771479 ], [ -96.717332, 40.771381 ], [ -96.717364, 40.771298 ], [ -96.717422, 40.771207 ], [ -96.717482, 40.771153 ], [ -96.717619, 40.771093 ], [ -96.717722, 40.771042 ], [ -96.717854, 40.770971 ], [ -96.717898, 40.770881 ], [ -96.717927, 40.770804 ], [ -96.717936, 40.770668 ] ] } }
]
}
