{
"type": "FeatureCollection",
"name": "144-houston-memorial-park",
"crs": { "type": "name", "properties": { "name": "urn:ogc:def:crs:OGC:1.3:CRS84" } },
"xy_coordinate_resolution": 1e-06,
"features": [
{ "type": "Feature", "properties": { "cls": "shared", "highway": "cycleway", "name": "Aqua Trail" }, "geometry": { "type": "LineString", "coordinates": [ [ -95.444501, 29.75477 ], [ -95.444406, 29.754757 ], [ -95.444341, 29.754718 ], [ -95.44416, 29.754587 ], [ -95.444026, 29.754529 ], [ -95.443876, 29.754505 ], [ -95.443745, 29.754505 ], [ -95.443541, 29.754559 ] ] } },
{ "type": "Feature", "properties": { "cls": "shared", "highway": "cycleway", "name": "Aqua Trail" }, "geometry": { "type": "LineString", "coordinates": [ [ -95.443541, 29.754559 ], [ -95.44345, 29.754625 ], [ -95.443368, 29.754713 ], [ -95.443015, 29.755082 ], [ -95.442866, 29.755291 ], [ -95.442759, 29.755363 ], [ -95.442659, 29.755374 ], [ -95.442438, 29.755306 ], [ -95.44226, 29.755266 ], [ -95.44218, 29.755266 ], [ -95.442074, 29.755294 ], [ -95.441878, 29.755409 ], [ -95.441798, 29.755489 ], [ -95.441754, 29.755558 ], [ -95.441713, 29.755668 ], [ -95.44165, 29.755925 ], [ -95.441543, 29.756169 ], [ -95.441513, 29.756353 ], [ -95.441509, 29.756521 ], [ -95.441445, 29.756628 ], [ -95.441208, 29.756846 ], [ -95.441053, 29.757016 ], [ -95.440944, 29.757063 ], [ -95.440922, 29.757072 ], [ -95.440692, 29.757161 ], [ -95.4405, 29.757252 ] ] } },
{ "type": "Feature", "properties": { "cls": "shared", "highway": "cycleway", "name": "Aqua Trail" }, "geometry": { "type": "LineString", "coordinates": [ [ -95.440754, 29.757312 ], [ -95.440799, 29.757209 ], [ -95.44089, 29.757113 ], [ -95.440944, 29.757063 ] ] } },
{ "type": "Feature", "properties": { "cls": "shared", "highway": "cycleway", "name": "Orange Trail" }, "geometry": { "type": "LineString", "coordinates": [ [ -95.439801, 29.758812 ], [ -95.439884, 29.758702 ], [ -95.440044, 29.758565 ], [ -95.440419, 29.758372 ], [ -95.440613, 29.758235 ], [ -95.440766, 29.758157 ], [ -95.440938, 29.758024 ], [ -95.441078, 29.758002 ], [ -95.44126, 29.757908 ] ] } },
{ "type": "Feature", "properties": { "cls": "shared", "highway": "cycleway", "name": "Orange Trail" }, "geometry": { "type": "LineString", "coordinates": [ [ -95.445109, 29.758914 ], [ -95.445053, 29.758638 ] ] } },
{ "type": "Feature", "properties": { "cls": "shared", "highway": "cycleway", "name": "Orange Trail" }, "geometry": { "type": "LineString", "coordinates": [ [ -95.441734, 29.758158 ], [ -95.441647, 29.758209 ], [ -95.441616, 29.758255 ], [ -95.441541, 29.758309 ], [ -95.441427, 29.758327 ], [ -95.441368, 29.758297 ], [ -95.441321, 29.758251 ], [ -95.441199, 29.758248 ], [ -95.441123, 29.758262 ], [ -95.441063, 29.7583 ], [ -95.440981, 29.758402 ], [ -95.440776, 29.758603 ], [ -95.440655, 29.758674 ], [ -95.440462, 29.758702 ], [ -95.440409, 29.75874 ], [ -95.44039, 29.758785 ], [ -95.440375, 29.758823 ], [ -95.440384, 29.758888 ], [ -95.440441, 29.758933 ], [ -95.440518, 29.758943 ], [ -95.440705, 29.758935 ], [ -95.440806, 29.758962 ], [ -95.440861, 29.759009 ], [ -95.440926, 29.759128 ], [ -95.440953, 29.759242 ], [ -95.440992, 29.759282 ], [ -95.441083, 29.759316 ], [ -95.441161, 29.759338 ], [ -95.441276, 29.759353 ], [ -95.441329, 29.759335 ], [ -95.44139, 29.759335 ], [ -95.441646, 29.75941 ], [ -95.441707, 29.759392 ], [ -95.441732, 29.75932 ], [ -95.441811, 29.75926 ], [ -95.441967, 29.759264 ], [ -95.442065, 29.759308 ], [ -95.442214, 29.759412 ], [ -95.442311, 29.759537 ], [ -95.442432, 29.759728 ], [ -95.442572, 29.759888 ], [ -95.442637, 29.759939 ], [ -95.442708, 29.75997 ], [ -95.442778, 29.759983 ], [ -95.44288, 29.759977 ], [ -95.442984, 29.759944 ], [ -95.443153, 29.759844 ], [ -95.443196, 29.759825 ], [ -95.44322, 29.759804 ], [ -95.443241, 29.759775 ], [ -95.443242, 29.759747 ], [ -95.443216, 29.759718 ], [ -95.443181, 29.75969 ], [ -95.443145, 29.759652 ], [ -95.443115, 29.759623 ], [ -95.443101, 29.759592 ], [ -95.443091, 29.759563 ], [ -95.443093, 29.75952 ], [ -95.443132, 29.759493 ], [ -95.443202, 29.759502 ], [ -95.443262, 29.7595 ], [ -95.44332, 29.759472 ], [ -95.44336, 29.759439 ], [ -95.443476, 29.759357 ], [ -95.443639, 29.759175 ], [ -95.443878, 29.758943 ], [ -95.44397, 29.758821 ], [ -95.444006, 29.758733 ], [ -95.444079, 29.758651 ], [ -95.444157, 29.758616 ], [ -95.444288, 29.758609 ], [ -95.444354, 29.758671 ], [ -95.444348, 29.758746 ], [ -95.444229, 29.758849 ], [ -95.444174, 29.758932 ], [ -95.444087, 29.759008 ], [ -95.444047, 29.759101 ], [ -95.443907, 29.759246 ], [ -95.44388, 29.759281 ], [ -95.443875, 29.759321 ], [ -95.443908, 29.759337 ], [ -95.443941, 29.759325 ], [ -95.444013, 29.759254 ], [ -95.444093, 29.759221 ], [ -95.444228, 29.759236 ], [ -95.444325, 29.759198 ], [ -95.444421, 29.759124 ], [ -95.444568, 29.759059 ], [ -95.44467, 29.758978 ], [ -95.444753, 29.758946 ], [ -95.444821, 29.758956 ], [ -95.444901, 29.758962 ], [ -95.444994, 29.758929 ], [ -95.445109, 29.758914 ], [ -95.44522, 29.758899 ], [ -95.445478, 29.758814 ] ] } },
{ "type": "Feature", "properties": { "cls": "shared", "highway": "cycleway", "name": "Purple Trail" }, "geometry": { "type": "LineString", "coordinates": [ [ -95.440661, 29.759462 ], [ -95.440719, 29.759403 ] ] } },
{ "type": "Feature", "properties": { "cls": "shared", "highway": "cycleway", "name": "Blue Trail" }, "geometry": { "type": "LineString", "coordinates": [ [ -95.442005, 29.760628 ], [ -95.441958, 29.760546 ], [ -95.441968, 29.760467 ], [ -95.442061, 29.760383 ], [ -95.442128, 29.760359 ], [ -95.44217, 29.760318 ], [ -95.442173, 29.760264 ], [ -95.442134, 29.760217 ], [ -95.442134, 29.760133 ], [ -95.442094, 29.760047 ], [ -95.441993, 29.760027 ], [ -95.441864, 29.760026 ], [ -95.441785, 29.760031 ], [ -95.441656, 29.760033 ], [ -95.441589, 29.760003 ], [ -95.441469, 29.75993 ], [ -95.441335, 29.759915 ], [ -95.441245, 29.759926 ], [ -95.441081, 29.759908 ], [ -95.440967, 29.759864 ], [ -95.440725, 29.759692 ], [ -95.440571, 29.759677 ], [ -95.440333, 29.759674 ], [ -95.440204, 29.759647 ], [ -95.440086, 29.759594 ] ] } },
{ "type": "Feature", "properties": { "cls": "shared", "highway": "cycleway", "name": "Purple Trail" }, "geometry": { "type": "LineString", "coordinates": [ [ -95.440719, 29.759403 ], [ -95.440788, 29.75929 ], [ -95.440798, 29.759211 ], [ -95.440767, 29.759147 ], [ -95.440696, 29.759115 ], [ -95.440564, 29.759144 ], [ -95.440467, 29.759145 ], [ -95.440344, 29.759101 ], [ -95.440273, 29.759072 ], [ -95.440202, 29.759022 ], [ -95.440152, 29.758978 ], [ -95.440111, 29.75893 ], [ -95.440096, 29.758895 ], [ -95.440106, 29.758854 ], [ -95.440156, 29.758796 ], [ -95.440146, 29.758745 ], [ -95.440083, 29.75872 ], [ -95.439975, 29.758762 ], [ -95.439908, 29.758835 ], [ -95.439855, 29.75884 ], [ -95.439801, 29.758812 ], [ -95.439775, 29.758776 ], [ -95.439786, 29.758737 ], [ -95.439799, 29.758669 ], [ -95.439822, 29.758572 ], [ -95.439824, 29.75856 ], [ -95.439788, 29.758455 ], [ -95.43984, 29.758429 ], [ -95.439914, 29.758447 ], [ -95.440029, 29.758422 ], [ -95.44016, 29.758406 ], [ -95.440211, 29.758357 ], [ -95.440185, 29.758309 ], [ -95.440082, 29.75829 ], [ -95.439952, 29.758296 ], [ -95.439821, 29.758271 ], [ -95.439698, 29.758191 ], [ -95.439706, 29.758119 ], [ -95.439715, 29.758052 ], [ -95.439659, 29.757892 ], [ -95.439674, 29.757833 ], [ -95.439715, 29.757772 ], [ -95.439827, 29.75769 ], [ -95.440039, 29.75745 ], [ -95.440111, 29.757387 ], [ -95.440219, 29.757325 ], [ -95.440365, 29.757287 ], [ -95.4405, 29.757252 ], [ -95.440667, 29.757263 ], [ -95.440744, 29.757299 ], [ -95.440754, 29.757312 ], [ -95.440804, 29.757372 ], [ -95.4409, 29.757591 ], [ -95.440956, 29.757675 ], [ -95.441074, 29.757797 ], [ -95.441181, 29.757865 ], [ -95.44126, 29.757908 ], [ -95.44141, 29.75794 ], [ -95.441578, 29.757989 ], [ -95.441669, 29.75806 ], [ -95.441734, 29.758158 ], [ -95.441769, 29.758216 ], [ -95.44184, 29.758259 ], [ -95.441996, 29.75829 ], [ -95.442229, 29.758252 ], [ -95.442385, 29.758282 ], [ -95.442705, 29.758451 ], [ -95.442928, 29.758505 ], [ -95.443159, 29.758447 ], [ -95.443611, 29.758372 ], [ -95.443792, 29.758366 ], [ -95.443999, 29.758332 ], [ -95.444279, 29.758341 ], [ -95.444415, 29.758364 ], [ -95.444527, 29.758407 ], [ -95.444856, 29.758579 ], [ -95.445053, 29.758638 ], [ -95.445288, 29.758708 ], [ -95.445478, 29.758814 ], [ -95.445583, 29.75885 ], [ -95.44569, 29.758888 ], [ -95.44586, 29.759076 ], [ -95.446203, 29.759266 ], [ -95.446377, 29.759388 ], [ -95.446543, 29.759512 ], [ -95.446695, 29.759599 ], [ -95.446771, 29.759664 ], [ -95.446826, 29.759736 ], [ -95.4469, 29.759825 ], [ -95.447048, 29.759871 ], [ -95.447167, 29.75997 ], [ -95.447324, 29.760125 ], [ -95.447246, 29.760278 ], [ -95.447184, 29.760877 ], [ -95.447159, 29.760972 ], [ -95.446948, 29.761412 ], [ -95.446853, 29.761682 ], [ -95.446678, 29.762521 ], [ -95.446567, 29.762728 ], [ -95.446513, 29.762787 ], [ -95.446407, 29.762939 ], [ -95.446289, 29.762981 ], [ -95.446197, 29.763023 ], [ -95.445751, 29.763154 ], [ -95.445543, 29.763187 ] ] } },
{ "type": "Feature", "properties": { "cls": "separated", "highway": "cycleway", "name": "Blue Trail" }, "geometry": { "type": "LineString", "coordinates": [ [ -95.440157, 29.760353 ], [ -95.440309, 29.760253 ] ] } },
{ "type": "Feature", "properties": { "cls": "shared", "highway": "cycleway", "name": "Aqua Trail" }, "geometry": { "type": "LineString", "coordinates": [ [ -95.447851, 29.758272 ], [ -95.447753, 29.758294 ], [ -95.447655, 29.758323 ], [ -95.447408, 29.758161 ], [ -95.447164, 29.758071 ], [ -95.447037, 29.757985 ], [ -95.446913, 29.757914 ], [ -95.446798, 29.757722 ], [ -95.446761, 29.757694 ], [ -95.446704, 29.757599 ], [ -95.446714, 29.757486 ], [ -95.446741, 29.757181 ], [ -95.446735, 29.757078 ], [ -95.446683, 29.756929 ], [ -95.446474, 29.756645 ], [ -95.446469, 29.756541 ], [ -95.446426, 29.756454 ], [ -95.446368, 29.75634 ], [ -95.446386, 29.756161 ], [ -95.446382, 29.75599 ], [ -95.446352, 29.755802 ], [ -95.446306, 29.755695 ], [ -95.446258, 29.755638 ], [ -95.446065, 29.755466 ], [ -95.445984, 29.755428 ], [ -95.445788, 29.755384 ], [ -95.445679, 29.755342 ], [ -95.445601, 29.755288 ], [ -95.445278, 29.75493 ], [ -95.445178, 29.754868 ], [ -95.445034, 29.754826 ], [ -95.444694, 29.754798 ], [ -95.444575, 29.754781 ], [ -95.444501, 29.75477 ] ] } },
{ "type": "Feature", "properties": { "cls": "shared", "highway": "cycleway", "name": "Yellow Trail" }, "geometry": { "type": "LineString", "coordinates": [ [ -95.445304, 29.759291 ], [ -95.445521, 29.759041 ], [ -95.445583, 29.75885 ] ] } },
{ "type": "Feature", "properties": { "cls": "shared", "highway": "cycleway", "name": "Aqua Trail" }, "geometry": { "type": "LineString", "coordinates": [ [ -95.447324, 29.760125 ], [ -95.447371, 29.760069 ], [ -95.447412, 29.759906 ], [ -95.447413, 29.759754 ], [ -95.447535, 29.759504 ], [ -95.44763, 29.759199 ], [ -95.447653, 29.75908 ], [ -95.447624, 29.758856 ], [ -95.4477, 29.758689 ], [ -95.447734, 29.758583 ], [ -95.447729, 29.758509 ], [ -95.447691, 29.758394 ], [ -95.447655, 29.758323 ] ] } },
{ "type": "Feature", "properties": { "cls": "shared", "highway": "cycleway", "name": "Yellow Trail" }, "geometry": { "type": "LineString", "coordinates": [ [ -95.446371, 29.760186 ], [ -95.446299, 29.759969 ], [ -95.44628, 29.759673 ], [ -95.446348, 29.759495 ], [ -95.446377, 29.759388 ] ] } },
{ "type": "Feature", "properties": { "cls": "shared", "highway": "cycleway", "name": null }, "geometry": { "type": "LineString", "coordinates": [ [ -95.447324, 29.760125 ], [ -95.447595, 29.760274 ], [ -95.447703, 29.760338 ], [ -95.447812, 29.760414 ], [ -95.447872, 29.760428 ], [ -95.447948, 29.760428 ], [ -95.44816, 29.76044 ] ] } },
{ "type": "Feature", "properties": { "cls": "shared", "highway": "cycleway", "name": "Yellow Trail" }, "geometry": { "type": "LineString", "coordinates": [ [ -95.447246, 29.760278 ], [ -95.447031, 29.760218 ], [ -95.446957, 29.760202 ], [ -95.446859, 29.760232 ], [ -95.446839, 29.760262 ], [ -95.446791, 29.76029 ], [ -95.446739, 29.76028 ], [ -95.446684, 29.760251 ], [ -95.446597, 29.760201 ], [ -95.44644, 29.760182 ], [ -95.446371, 29.760186 ], [ -95.446255, 29.76021 ], [ -95.446183, 29.760174 ], [ -95.446143, 29.760152 ], [ -95.446121, 29.760073 ], [ -95.446048, 29.760032 ], [ -95.445908, 29.759903 ], [ -95.445851, 29.759794 ], [ -95.445755, 29.759706 ], [ -95.445668, 29.759621 ], [ -95.445601, 29.759525 ], [ -95.445363, 29.759376 ], [ -95.445304, 29.759291 ], [ -95.445212, 29.759247 ], [ -95.445101, 29.759255 ], [ -95.445, 29.759256 ], [ -95.444844, 29.75929 ], [ -95.444734, 29.759349 ], [ -95.444685, 29.759417 ], [ -95.444615, 29.759516 ], [ -95.444505, 29.759572 ], [ -95.444457, 29.759571 ], [ -95.444404, 29.759552 ], [ -95.444304, 29.759564 ], [ -95.444213, 29.759634 ], [ -95.444148, 29.759705 ], [ -95.444052, 29.759767 ], [ -95.443948, 29.759843 ], [ -95.443949, 29.759912 ], [ -95.443989, 29.759973 ], [ -95.443995, 29.760058 ], [ -95.443956, 29.760125 ], [ -95.443867, 29.760193 ], [ -95.443787, 29.760216 ], [ -95.44371, 29.760162 ], [ -95.443581, 29.760151 ], [ -95.443479, 29.760215 ], [ -95.443481, 29.760291 ], [ -95.443489, 29.760362 ], [ -95.443527, 29.760419 ], [ -95.443602, 29.760467 ], [ -95.443632, 29.760548 ], [ -95.443706, 29.760618 ], [ -95.443779, 29.760663 ], [ -95.44393, 29.760717 ], [ -95.444062, 29.760749 ], [ -95.444177, 29.760817 ], [ -95.444292, 29.760904 ], [ -95.444427, 29.760927 ], [ -95.444519, 29.761024 ], [ -95.444576, 29.761107 ], [ -95.44463, 29.761286 ], [ -95.444626, 29.761386 ], [ -95.444588, 29.761423 ], [ -95.444583, 29.76147 ], [ -95.444632, 29.761556 ], [ -95.444637, 29.761637 ], [ -95.444607, 29.761694 ], [ -95.444543, 29.761725 ], [ -95.444467, 29.76172 ], [ -95.444396, 29.761685 ], [ -95.444338, 29.761627 ], [ -95.444296, 29.761412 ], [ -95.444269, 29.761338 ], [ -95.444219, 29.761281 ], [ -95.444156, 29.761246 ], [ -95.444089, 29.761264 ], [ -95.44405, 29.761317 ], [ -95.444103, 29.761485 ], [ -95.444104, 29.761585 ], [ -95.444034, 29.76171 ], [ -95.443993, 29.761825 ], [ -95.444045, 29.761957 ], [ -95.444039, 29.762112 ], [ -95.443975, 29.762234 ], [ -95.443969, 29.76238 ], [ -95.443998, 29.762497 ], [ -95.444037, 29.762568 ], [ -95.444057, 29.762639 ], [ -95.444031, 29.76271 ], [ -95.443973, 29.76277 ], [ -95.443942, 29.762814 ], [ -95.443923, 29.762875 ], [ -95.443974, 29.76292 ], [ -95.444059, 29.762974 ], [ -95.444109, 29.763047 ] ] } },
{ "type": "Feature", "properties": { "cls": "shared", "highway": "cycleway", "name": null }, "geometry": { "type": "LineString", "coordinates": [ [ -95.448225, 29.763125 ], [ -95.447724, 29.76309 ], [ -95.447348, 29.763048 ], [ -95.447002, 29.76302 ], [ -95.446678, 29.762984 ], [ -95.446407, 29.762939 ] ] } },
{ "type": "Feature", "properties": { "cls": "shared", "highway": "cycleway", "name": "South Land Bridge Trail" }, "geometry": { "type": "LineString", "coordinates": [ [ -95.446597, 29.764666 ], [ -95.44664, 29.764628 ], [ -95.446678, 29.764589 ], [ -95.446717, 29.764542 ], [ -95.446753, 29.764492 ], [ -95.446779, 29.764439 ], [ -95.4468, 29.764381 ] ] } },
{ "type": "Feature", "properties": { "cls": "shared", "highway": "cycleway", "name": null }, "geometry": { "type": "MultiLineString", "coordinates": [ [ [ -95.445819, 29.764702 ], [ -95.445772, 29.764675 ], [ -95.445702, 29.764623 ], [ -95.445667, 29.76459 ], [ -95.445637, 29.764556 ], [ -95.445617, 29.764531 ], [ -95.445601, 29.764513 ], [ -95.445597, 29.764504 ] ], [ [ -95.445597, 29.764504 ], [ -95.445569, 29.764452 ], [ -95.445627, 29.764429 ], [ -95.445653, 29.764481 ], [ -95.445597, 29.764504 ] ] ] } },
{ "type": "Feature", "properties": { "cls": "shared", "highway": "cycleway", "name": null }, "geometry": { "type": "LineString", "coordinates": [ [ -95.445968, 29.764769 ], [ -95.445862, 29.764727 ], [ -95.445819, 29.764702 ] ] } },
{ "type": "Feature", "properties": { "cls": "shared", "highway": "cycleway", "name": "Purple Trail" }, "geometry": { "type": "LineString", "coordinates": [ [ -95.441382, 29.762923 ], [ -95.441339, 29.762887 ], [ -95.441247, 29.762814 ], [ -95.441136, 29.762761 ], [ -95.441106, 29.762671 ], [ -95.441117, 29.762579 ], [ -95.44119, 29.761753 ], [ -95.441149, 29.761394 ], [ -95.441012, 29.760787 ], [ -95.440938, 29.760646 ], [ -95.440853, 29.760546 ], [ -95.440727, 29.760455 ], [ -95.44041, 29.760314 ], [ -95.440309, 29.760253 ], [ -95.439991, 29.760027 ], [ -95.439767, 29.759779 ], [ -95.43985, 29.759705 ], [ -95.439925, 29.759662 ], [ -95.439973, 29.759636 ], [ -95.440053, 29.759615 ], [ -95.440086, 29.759594 ], [ -95.440123, 29.759528 ], [ -95.440202, 29.759477 ], [ -95.440277, 29.759441 ], [ -95.440335, 29.759459 ], [ -95.440381, 29.759498 ], [ -95.440417, 29.759529 ], [ -95.440473, 29.759554 ], [ -95.440559, 29.75953 ], [ -95.440661, 29.759462 ] ] } },
{ "type": "Feature", "properties": { "cls": "shared", "highway": "cycleway", "name": "Blue Trail" }, "geometry": { "type": "LineString", "coordinates": [ [ -95.439767, 29.759779 ], [ -95.439708, 29.759799 ], [ -95.439673, 29.759827 ], [ -95.439591, 29.760031 ], [ -95.439588, 29.760203 ], [ -95.439605, 29.76028 ], [ -95.43967, 29.760311 ], [ -95.439729, 29.760291 ], [ -95.439796, 29.760271 ], [ -95.439883, 29.760274 ], [ -95.439928, 29.760305 ], [ -95.439948, 29.760352 ], [ -95.440021, 29.760385 ], [ -95.440157, 29.760353 ], [ -95.440219, 29.760383 ], [ -95.440248, 29.760426 ], [ -95.440225, 29.760471 ], [ -95.440133, 29.760503 ], [ -95.439963, 29.760544 ], [ -95.439886, 29.760597 ], [ -95.439857, 29.760699 ], [ -95.439802, 29.760762 ], [ -95.439679, 29.760852 ], [ -95.439554, 29.760902 ], [ -95.439513, 29.760939 ], [ -95.439512, 29.760989 ], [ -95.439508, 29.761132 ], [ -95.439549, 29.761198 ], [ -95.439596, 29.761253 ], [ -95.439682, 29.761409 ], [ -95.439771, 29.761617 ], [ -95.439826, 29.761702 ], [ -95.439897, 29.761758 ], [ -95.439955, 29.761848 ], [ -95.440086, 29.76208 ], [ -95.440127, 29.762236 ], [ -95.440117, 29.762355 ], [ -95.440146, 29.762475 ], [ -95.440169, 29.762543 ], [ -95.440251, 29.76266 ], [ -95.440288, 29.762778 ], [ -95.440346, 29.762861 ], [ -95.440395, 29.762896 ], [ -95.440416, 29.762911 ], [ -95.440584, 29.762994 ], [ -95.440661, 29.763015 ], [ -95.440759, 29.763008 ], [ -95.440842, 29.762975 ], [ -95.440974, 29.762893 ], [ -95.441075, 29.762797 ], [ -95.441136, 29.762761 ] ] } },
{ "type": "Feature", "properties": { "cls": "shared", "highway": "cycleway", "name": "Blue Trail" }, "geometry": { "type": "LineString", "coordinates": [ [ -95.441939, 29.762582 ], [ -95.44204, 29.762478 ], [ -95.442174, 29.762441 ], [ -95.442351, 29.762422 ], [ -95.442482, 29.762403 ], [ -95.442753, 29.762326 ], [ -95.442838, 29.762338 ], [ -95.442958, 29.762385 ], [ -95.443057, 29.762403 ], [ -95.443144, 29.762393 ], [ -95.443208, 29.762354 ], [ -95.443251, 29.762304 ], [ -95.443292, 29.762231 ], [ -95.443331, 29.762068 ], [ -95.443377, 29.762 ], [ -95.443454, 29.761938 ], [ -95.443461, 29.761846 ], [ -95.443391, 29.761742 ], [ -95.443292, 29.761632 ], [ -95.443081, 29.761527 ], [ -95.443, 29.76148 ], [ -95.442938, 29.76141 ], [ -95.442905, 29.761366 ], [ -95.442866, 29.761264 ], [ -95.442868, 29.761161 ], [ -95.44285, 29.761069 ], [ -95.442836, 29.760954 ], [ -95.442828, 29.760819 ], [ -95.442775, 29.760733 ], [ -95.442688, 29.760636 ], [ -95.442567, 29.760573 ], [ -95.442494, 29.760468 ], [ -95.442429, 29.760436 ], [ -95.442385, 29.760442 ], [ -95.44232, 29.760482 ], [ -95.442203, 29.760646 ], [ -95.442129, 29.760675 ], [ -95.442005, 29.760628 ] ] } },
{ "type": "Feature", "properties": { "cls": "shared", "highway": "cycleway", "name": "Red Trail" }, "geometry": { "type": "LineString", "coordinates": [ [ -95.443292, 29.761632 ], [ -95.443303, 29.761355 ], [ -95.443323, 29.761278 ], [ -95.443324, 29.761201 ], [ -95.443362, 29.761141 ], [ -95.443438, 29.761073 ], [ -95.443488, 29.761033 ], [ -95.44355, 29.761026 ], [ -95.443603, 29.761063 ], [ -95.443654, 29.761114 ], [ -95.443703, 29.761172 ], [ -95.443697, 29.761273 ], [ -95.443696, 29.761493 ], [ -95.44376, 29.7616 ], [ -95.44376, 29.76169 ], [ -95.443718, 29.761811 ], [ -95.443695, 29.761943 ], [ -95.443771, 29.762152 ], [ -95.443757, 29.762235 ], [ -95.443708, 29.762286 ], [ -95.443597, 29.762316 ], [ -95.443576, 29.762368 ], [ -95.443595, 29.762448 ], [ -95.443591, 29.762558 ], [ -95.443606, 29.762652 ], [ -95.443718, 29.762877 ], [ -95.443701, 29.76293 ], [ -95.443611, 29.76296 ], [ -95.443494, 29.762957 ], [ -95.443392, 29.762936 ], [ -95.443197, 29.762939 ] ] } },
{ "type": "Feature", "properties": { "cls": "shared", "highway": "cycleway", "name": "Blue Trail" }, "geometry": { "type": "LineString", "coordinates": [ [ -95.442633, 29.762587 ], [ -95.44259, 29.762546 ], [ -95.442551, 29.762499 ], [ -95.442482, 29.762403 ] ] } },
{ "type": "Feature", "properties": { "cls": "shared", "highway": "cycleway", "name": null }, "geometry": { "type": "LineString", "coordinates": [ [ -95.441566, 29.762908 ], [ -95.441477, 29.762906 ], [ -95.441382, 29.762923 ] ] } },
{ "type": "Feature", "properties": { "cls": "shared", "highway": "cycleway", "name": "South Land Bridge Trail" }, "geometry": { "type": "LineString", "coordinates": [ [ -95.441566, 29.762908 ], [ -95.441496, 29.762987 ], [ -95.44146, 29.763043 ] ] } },
{ "type": "Feature", "properties": { "cls": "shared", "highway": "cycleway", "name": "Purple Trail" }, "geometry": { "type": "LineString", "coordinates": [ [ -95.44146, 29.763043 ], [ -95.441382, 29.762923 ] ] } },
{ "type": "Feature", "properties": { "cls": "shared", "highway": "cycleway", "name": null }, "geometry": { "type": "LineString", "coordinates": [ [ -95.443701, 29.76293 ], [ -95.443728, 29.763015 ], [ -95.443787, 29.76313 ] ] } },
{ "type": "Feature", "properties": { "cls": "shared", "highway": "cycleway", "name": "South Land Bridge Trail" }, "geometry": { "type": "LineString", "coordinates": [ [ -95.4468, 29.764381 ], [ -95.446819, 29.76432 ], [ -95.446827, 29.764254 ], [ -95.446827, 29.764208 ], [ -95.446823, 29.76416 ], [ -95.446813, 29.764109 ], [ -95.446797, 29.764057 ], [ -95.446777, 29.76401 ], [ -95.446749, 29.763961 ], [ -95.446716, 29.763912 ], [ -95.446667, 29.763855 ], [ -95.446636, 29.763823 ], [ -95.446594, 29.763788 ], [ -95.446494, 29.763735 ], [ -95.446445, 29.763716 ], [ -95.446377, 29.763694 ], [ -95.446247, 29.763661 ], [ -95.446176, 29.763633 ], [ -95.446108, 29.763597 ], [ -95.446053, 29.76354 ], [ -95.44602, 29.763493 ], [ -95.446, 29.763472 ], [ -95.445974, 29.763451 ], [ -95.445934, 29.763435 ], [ -95.445883, 29.763425 ], [ -95.445745, 29.763423 ], [ -95.445709, 29.763415 ], [ -95.445679, 29.763402 ], [ -95.445623, 29.763359 ], [ -95.44558, 29.763282 ], [ -95.445543, 29.763187 ], [ -95.445448, 29.763056 ], [ -95.445375, 29.762996 ], [ -95.445292, 29.762969 ], [ -95.445137, 29.762952 ], [ -95.444959, 29.762981 ], [ -95.444749, 29.763071 ], [ -95.444618, 29.763103 ], [ -95.444456, 29.763088 ], [ -95.444347, 29.763053 ], [ -95.444269, 29.763025 ], [ -95.444187, 29.763013 ], [ -95.444109, 29.763047 ], [ -95.444051, 29.763095 ], [ -95.443964, 29.763147 ], [ -95.443913, 29.763162 ], [ -95.443848, 29.76315 ], [ -95.443787, 29.76313 ], [ -95.443663, 29.763093 ], [ -95.443396, 29.763081 ], [ -95.44333, 29.763047 ], [ -95.443252, 29.762999 ], [ -95.443197, 29.762939 ], [ -95.443162, 29.762864 ], [ -95.44314, 29.762806 ], [ -95.443085, 29.762718 ], [ -95.443064, 29.762699 ], [ -95.443004, 29.762642 ], [ -95.442931, 29.762594 ], [ -95.442841, 29.762576 ], [ -95.442633, 29.762587 ], [ -95.442556, 29.762621 ], [ -95.442415, 29.762658 ], [ -95.442272, 29.762642 ], [ -95.44219, 29.762593 ], [ -95.442103, 29.762568 ], [ -95.441939, 29.762582 ], [ -95.441871, 29.762628 ], [ -95.441827, 29.762682 ], [ -95.441781, 29.762778 ], [ -95.441735, 29.762814 ], [ -95.441691, 29.762837 ], [ -95.44161, 29.762878 ], [ -95.441566, 29.762908 ] ] } },
{ "type": "Feature", "properties": { "cls": "separated", "highway": "cycleway", "name": "Green Ridge Trail" }, "geometry": { "type": "LineString", "coordinates": [ [ -95.427815, 29.763349 ], [ -95.427857, 29.763255 ], [ -95.42785, 29.763168 ], [ -95.42786, 29.763088 ], [ -95.427908, 29.76305 ], [ -95.427956, 29.76302 ], [ -95.427993, 29.762975 ], [ -95.428009, 29.762929 ], [ -95.42795, 29.762838 ], [ -95.427858, 29.762752 ], [ -95.427789, 29.762636 ], [ -95.427782, 29.762569 ], [ -95.427817, 29.762491 ], [ -95.427951, 29.762472 ], [ -95.427989, 29.762428 ], [ -95.428002, 29.762245 ], [ -95.428025, 29.762181 ], [ -95.428109, 29.762127 ], [ -95.428484, 29.762112 ], [ -95.428619, 29.762156 ], [ -95.428689, 29.762193 ], [ -95.428801, 29.762253 ], [ -95.428875, 29.762258 ], [ -95.429052, 29.762174 ], [ -95.429128, 29.762151 ], [ -95.429172, 29.762137 ], [ -95.429274, 29.762106 ], [ -95.429352, 29.762069 ], [ -95.429535, 29.761901 ], [ -95.429579, 29.761843 ], [ -95.429596, 29.761777 ], [ -95.42959, 29.761663 ], [ -95.429623, 29.761595 ], [ -95.429814, 29.761409 ], [ -95.429958, 29.761327 ], [ -95.430172, 29.761298 ], [ -95.430234, 29.761275 ], [ -95.43031, 29.761301 ], [ -95.430387, 29.761316 ], [ -95.430448, 29.761297 ], [ -95.43053, 29.761264 ], [ -95.430602, 29.761283 ], [ -95.43066, 29.761362 ], [ -95.430779, 29.761506 ], [ -95.430842, 29.76154 ], [ -95.430899, 29.761544 ], [ -95.430965, 29.761515 ], [ -95.431006, 29.761458 ], [ -95.431014, 29.761415 ], [ -95.430992, 29.761343 ], [ -95.430824, 29.761216 ], [ -95.430747, 29.761125 ], [ -95.43073, 29.761058 ], [ -95.430761, 29.760957 ], [ -95.430897, 29.760741 ], [ -95.430914, 29.76063 ], [ -95.430937, 29.760588 ], [ -95.430988, 29.760581 ], [ -95.431038, 29.76064 ], [ -95.431066, 29.760704 ], [ -95.431143, 29.760754 ], [ -95.43123, 29.760779 ], [ -95.431444, 29.760763 ], [ -95.431519, 29.760739 ], [ -95.431627, 29.760652 ], [ -95.431678, 29.760627 ], [ -95.431741, 29.760645 ], [ -95.431763, 29.760687 ], [ -95.431797, 29.760781 ], [ -95.431814, 29.761021 ], [ -95.43189, 29.761115 ], [ -95.431922, 29.761264 ], [ -95.432043, 29.761491 ], [ -95.432035, 29.761654 ], [ -95.432003, 29.761772 ], [ -95.432014, 29.761874 ], [ -95.432066, 29.76195 ], [ -95.432068, 29.762026 ], [ -95.432044, 29.762089 ], [ -95.43211, 29.762129 ], [ -95.432203, 29.762159 ], [ -95.432301, 29.76222 ], [ -95.432346, 29.762286 ], [ -95.432389, 29.762346 ], [ -95.43239, 29.7624 ], [ -95.432352, 29.762423 ], [ -95.432252, 29.762424 ], [ -95.432198, 29.76242 ], [ -95.432139, 29.762435 ], [ -95.432045, 29.762446 ], [ -95.431893, 29.762451 ], [ -95.431762, 29.762485 ], [ -95.431583, 29.762484 ], [ -95.431459, 29.762521 ], [ -95.431392, 29.762557 ], [ -95.431348, 29.762616 ], [ -95.431354, 29.762682 ], [ -95.431412, 29.762738 ], [ -95.43161, 29.762766 ], [ -95.431776, 29.762792 ], [ -95.431914, 29.762848 ], [ -95.431992, 29.762881 ], [ -95.432067, 29.762883 ], [ -95.43213, 29.76286 ], [ -95.432169, 29.76282 ], [ -95.432267, 29.762799 ], [ -95.432293, 29.762764 ], [ -95.432299, 29.762729 ], [ -95.432376, 29.762693 ], [ -95.432456, 29.762682 ], [ -95.432635, 29.76276 ], [ -95.432707, 29.762768 ], [ -95.432755, 29.762741 ], [ -95.432784, 29.762694 ], [ -95.43285, 29.76267 ], [ -95.432939, 29.762648 ], [ -95.433044, 29.762645 ], [ -95.433133, 29.762645 ], [ -95.433215, 29.762735 ], [ -95.433242, 29.762803 ], [ -95.433296, 29.762842 ], [ -95.433305, 29.762885 ], [ -95.433291, 29.762916 ], [ -95.433207, 29.762967 ], [ -95.433143, 29.763015 ], [ -95.43307, 29.763045 ], [ -95.433006, 29.763105 ], [ -95.432955, 29.763205 ], [ -95.43287, 29.763376 ], [ -95.432863, 29.763407 ], [ -95.43284, 29.763442 ], [ -95.432804, 29.763457 ], [ -95.432779, 29.76349 ], [ -95.432803, 29.763533 ], [ -95.432858, 29.763566 ], [ -95.432941, 29.763576 ], [ -95.433016, 29.763557 ], [ -95.433093, 29.763499 ], [ -95.433142, 29.763455 ], [ -95.43318, 29.763383 ], [ -95.433187, 29.763313 ], [ -95.433243, 29.763258 ], [ -95.433323, 29.763214 ], [ -95.433379, 29.763206 ], [ -95.433441, 29.763211 ], [ -95.43347, 29.763208 ], [ -95.433504, 29.763182 ], [ -95.433545, 29.763151 ], [ -95.433617, 29.763143 ], [ -95.433703, 29.763178 ], [ -95.433779, 29.763219 ], [ -95.433832, 29.76324 ], [ -95.433873, 29.76328 ], [ -95.433845, 29.763325 ], [ -95.433755, 29.763359 ], [ -95.433635, 29.76341 ], [ -95.433544, 29.763479 ], [ -95.433386, 29.763741 ], [ -95.433316, 29.763782 ], [ -95.433267, 29.763817 ], [ -95.433102, 29.763885 ], [ -95.433034, 29.763912 ], [ -95.432987, 29.763962 ], [ -95.433014, 29.764021 ], [ -95.433093, 29.764065 ], [ -95.433136, 29.764093 ], [ -95.433146, 29.764155 ], [ -95.433118, 29.764261 ], [ -95.433121, 29.764305 ], [ -95.433161, 29.764338 ], [ -95.433184, 29.764341 ], [ -95.43324, 29.764325 ], [ -95.433279, 29.764293 ], [ -95.433341, 29.764307 ], [ -95.4334, 29.764356 ], [ -95.433461, 29.764379 ], [ -95.4335, 29.764366 ], [ -95.433525, 29.764317 ], [ -95.4335, 29.764154 ], [ -95.433503, 29.76409 ], [ -95.433541, 29.764051 ], [ -95.433595, 29.764044 ], [ -95.433662, 29.7641 ], [ -95.433787, 29.764134 ], [ -95.433969, 29.764219 ], [ -95.434054, 29.764279 ], [ -95.434159, 29.764415 ], [ -95.434239, 29.764439 ], [ -95.434348, 29.764405 ], [ -95.434388, 29.764349 ], [ -95.434379, 29.764246 ], [ -95.434314, 29.764123 ], [ -95.434262, 29.763905 ], [ -95.434263, 29.763837 ], [ -95.434301, 29.763782 ], [ -95.434398, 29.763764 ], [ -95.434448, 29.763718 ], [ -95.434448, 29.763631 ], [ -95.434494, 29.763548 ], [ -95.434587, 29.763478 ], [ -95.434658, 29.763447 ], [ -95.434768, 29.763435 ], [ -95.434954, 29.763439 ], [ -95.435106, 29.763478 ], [ -95.4352, 29.76359 ], [ -95.435319, 29.763688 ], [ -95.435331, 29.763806 ], [ -95.4354, 29.763903 ], [ -95.435489, 29.763981 ], [ -95.435557, 29.764077 ], [ -95.435627, 29.764108 ], [ -95.435769, 29.764101 ], [ -95.435869, 29.76417 ], [ -95.435978, 29.764267 ], [ -95.436015, 29.764352 ], [ -95.43601, 29.764433 ], [ -95.435948, 29.764516 ], [ -95.435837, 29.764597 ], [ -95.435807, 29.764685 ], [ -95.435788, 29.76478 ], [ -95.435732, 29.764851 ], [ -95.435747, 29.764928 ], [ -95.435822, 29.764966 ], [ -95.436392, 29.764984 ], [ -95.436453, 29.764875 ], [ -95.436484, 29.764781 ], [ -95.436537, 29.764701 ], [ -95.436645, 29.764633 ], [ -95.436719, 29.764612 ], [ -95.436796, 29.764615 ], [ -95.437054, 29.764676 ], [ -95.43715, 29.764689 ], [ -95.437279, 29.764701 ] ] } },
{ "type": "Feature", "properties": { "cls": "shared", "highway": "cycleway", "name": "Commuter Trail" }, "geometry": { "type": "LineString", "coordinates": [ [ -95.427563, 29.763363 ], [ -95.427583, 29.763353 ], [ -95.427692, 29.76335 ], [ -95.427815, 29.763349 ], [ -95.428172, 29.763365 ], [ -95.428301, 29.763376 ], [ -95.42845, 29.763392 ], [ -95.428607, 29.763398 ], [ -95.428686, 29.763407 ], [ -95.428873, 29.763463 ], [ -95.428974, 29.763488 ], [ -95.429073, 29.763489 ], [ -95.42917, 29.763484 ], [ -95.429246, 29.763506 ], [ -95.429484, 29.763609 ], [ -95.429637, 29.76368 ], [ -95.429811, 29.763765 ], [ -95.430007, 29.763837 ] ] } },
{ "type": "Feature", "properties": { "cls": "shared", "highway": "cycleway", "name": "Commuter Trail" }, "geometry": { "type": "LineString", "coordinates": [ [ -95.430007, 29.763837 ], [ -95.43006, 29.763863 ] ] } },
{ "type": "Feature", "properties": { "cls": "shared", "highway": "cycleway", "name": null }, "geometry": { "type": "LineString", "coordinates": [ [ -95.429986, 29.76388 ], [ -95.430007, 29.763837 ] ] } },
{ "type": "Feature", "properties": { "cls": "shared", "highway": "cycleway", "name": "Commuter Trail" }, "geometry": { "type": "LineString", "coordinates": [ [ -95.43006, 29.763863 ], [ -95.430132, 29.763891 ], [ -95.430181, 29.763908 ] ] } },
{ "type": "Feature", "properties": { "cls": "shared", "highway": "cycleway", "name": null }, "geometry": { "type": "LineString", "coordinates": [ [ -95.427505, 29.763694 ], [ -95.427607, 29.7637 ], [ -95.427815, 29.763712 ], [ -95.427961, 29.763713 ], [ -95.428078, 29.763701 ], [ -95.428137, 29.763685 ], [ -95.428219, 29.763675 ], [ -95.428291, 29.763674 ], [ -95.428351, 29.763678 ], [ -95.428411, 29.763688 ], [ -95.428493, 29.76371 ], [ -95.428562, 29.763738 ], [ -95.428637, 29.763788 ], [ -95.428756, 29.763872 ], [ -95.428819, 29.763899 ], [ -95.428933, 29.763933 ], [ -95.429329, 29.764039 ], [ -95.429512, 29.764096 ], [ -95.429674, 29.764166 ] ] } },
{ "type": "Feature", "properties": { "cls": "shared", "highway": "cycleway", "name": null }, "geometry": { "type": "LineString", "coordinates": [ [ -95.430252, 29.763984 ], [ -95.430273, 29.763941 ] ] } },
{ "type": "Feature", "properties": { "cls": "shared", "highway": "cycleway", "name": null }, "geometry": { "type": "LineString", "coordinates": [ [ -95.429842, 29.764189 ], [ -95.429883, 29.7641 ], [ -95.429966, 29.763921 ], [ -95.429986, 29.76388 ] ] } },
{ "type": "Feature", "properties": { "cls": "shared", "highway": "cycleway", "name": "Commuter Trail" }, "geometry": { "type": "LineString", "coordinates": [ [ -95.430181, 29.763908 ], [ -95.430273, 29.763941 ], [ -95.430298, 29.76393 ], [ -95.43037, 29.763923 ], [ -95.430424, 29.763931 ], [ -95.430474, 29.763949 ], [ -95.430673, 29.76403 ], [ -95.430718, 29.764044 ], [ -95.430761, 29.764051 ], [ -95.430879, 29.76406 ], [ -95.430934, 29.764071 ], [ -95.430993, 29.76409 ], [ -95.431117, 29.764133 ], [ -95.431146, 29.764147 ], [ -95.431219, 29.764187 ], [ -95.431253, 29.764198 ], [ -95.431355, 29.764215 ], [ -95.431442, 29.764225 ], [ -95.431499, 29.764243 ], [ -95.431606, 29.764298 ] ] } },
{ "type": "Feature", "properties": { "cls": "shared", "highway": "cycleway", "name": null }, "geometry": { "type": "LineString", "coordinates": [ [ -95.43012, 29.76425 ], [ -95.430145, 29.7642 ], [ -95.430234, 29.764022 ], [ -95.430252, 29.763984 ] ] } },
{ "type": "Feature", "properties": { "cls": "shared", "highway": "cycleway", "name": "South Land Bridge Trail" }, "geometry": { "type": "LineString", "coordinates": [ [ -95.441385, 29.764567 ], [ -95.441378, 29.764527 ], [ -95.441384, 29.764468 ], [ -95.441408, 29.764377 ], [ -95.441399, 29.76427 ], [ -95.441357, 29.764186 ], [ -95.441258, 29.764032 ], [ -95.441231, 29.763893 ], [ -95.441247, 29.763777 ], [ -95.44131, 29.76364 ], [ -95.441374, 29.763551 ], [ -95.441418, 29.763467 ], [ -95.441446, 29.763303 ], [ -95.441437, 29.763182 ], [ -95.44146, 29.763043 ] ] } },
{ "type": "Feature", "properties": { "cls": "shared", "highway": "cycleway", "name": "Prairie Plaza" }, "geometry": { "type": "LineString", "coordinates": [ [ -95.442634, 29.76448 ], [ -95.442718, 29.764478 ], [ -95.442757, 29.764474 ], [ -95.442786, 29.764466 ], [ -95.442823, 29.764438 ] ] } },
{ "type": "Feature", "properties": { "cls": "shared", "highway": "cycleway", "name": "Commuter Trail" }, "geometry": { "type": "LineString", "coordinates": [ [ -95.431606, 29.764298 ], [ -95.431633, 29.7643 ], [ -95.431696, 29.764302 ], [ -95.431772, 29.764312 ], [ -95.431838, 29.764332 ], [ -95.431905, 29.764362 ], [ -95.431988, 29.764406 ], [ -95.432058, 29.764449 ], [ -95.432138, 29.764517 ], [ -95.432182, 29.764544 ], [ -95.432234, 29.764567 ], [ -95.432662, 29.764669 ], [ -95.432717, 29.764676 ], [ -95.432781, 29.764672 ], [ -95.432927, 29.764651 ], [ -95.432977, 29.76466 ], [ -95.433305, 29.764728 ], [ -95.433669, 29.764813 ], [ -95.433726, 29.764831 ], [ -95.433812, 29.764871 ], [ -95.43387, 29.764888 ], [ -95.434451, 29.764957 ], [ -95.435084, 29.765013 ], [ -95.435304, 29.765029 ], [ -95.435834, 29.76505 ], [ -95.436594, 29.765065 ], [ -95.436733, 29.765059 ], [ -95.436903, 29.765038 ], [ -95.4372, 29.765027 ] ] } },
{ "type": "Feature", "properties": { "cls": "shared", "highway": "cycleway", "name": null }, "geometry": { "type": "LineString", "coordinates": [ [ -95.4408, 29.764757 ], [ -95.440583, 29.764685 ], [ -95.440347, 29.764578 ], [ -95.440124, 29.764491 ], [ -95.440036, 29.764478 ], [ -95.439902, 29.764454 ], [ -95.439806, 29.764415 ], [ -95.439757, 29.764407 ], [ -95.439714, 29.764424 ] ] } },
{ "type": "Feature", "properties": { "cls": "separated", "highway": "cycleway", "name": "Green Ridge Trail" }, "geometry": { "type": "LineString", "coordinates": [ [ -95.437502, 29.764701 ], [ -95.437578, 29.764752 ], [ -95.437857, 29.76482 ], [ -95.438005, 29.764828 ], [ -95.438082, 29.764841 ], [ -95.43819, 29.764879 ], [ -95.43829, 29.764925 ] ] } },
{ "type": "Feature", "properties": { "cls": "shared", "highway": "cycleway", "name": null }, "geometry": { "type": "LineString", "coordinates": [ [ -95.440343, 29.764842 ], [ -95.440447, 29.764913 ] ] } },
{ "type": "Feature", "properties": { "cls": "shared", "highway": "cycleway", "name": "Commuter Trail" }, "geometry": { "type": "LineString", "coordinates": [ [ -95.437428, 29.765023 ], [ -95.4375, 29.765022 ], [ -95.43755, 29.765018 ] ] } },
{ "type": "Feature", "properties": { "cls": "shared", "highway": "cycleway", "name": "Commuter Trail" }, "geometry": { "type": "LineString", "coordinates": [ [ -95.437308, 29.765026 ], [ -95.437428, 29.765023 ] ] } },
{ "type": "Feature", "properties": { "cls": "shared", "highway": "cycleway", "name": "Commuter Trail" }, "geometry": { "type": "LineString", "coordinates": [ [ -95.43755, 29.765018 ], [ -95.437844, 29.765029 ], [ -95.437955, 29.765025 ], [ -95.43804, 29.765013 ], [ -95.438126, 29.764986 ], [ -95.43818, 29.764961 ], [ -95.438227, 29.764934 ], [ -95.43829, 29.764925 ], [ -95.438367, 29.764936 ], [ -95.438404, 29.764944 ], [ -95.438443, 29.76495 ], [ -95.438478, 29.764942 ], [ -95.43851, 29.764927 ], [ -95.438583, 29.764904 ], [ -95.438655, 29.764893 ], [ -95.438748, 29.764885 ], [ -95.43884, 29.764896 ], [ -95.438911, 29.764916 ], [ -95.438984, 29.764923 ], [ -95.439059, 29.76492 ], [ -95.439132, 29.764906 ], [ -95.439486, 29.76481 ], [ -95.439644, 29.764794 ], [ -95.439864, 29.764801 ], [ -95.439901, 29.764808 ], [ -95.440011, 29.764831 ], [ -95.440161, 29.764878 ], [ -95.440263, 29.764901 ], [ -95.440334, 29.76491 ], [ -95.440447, 29.764913 ], [ -95.440554, 29.764908 ], [ -95.440602, 29.764899 ], [ -95.440647, 29.764879 ], [ -95.440682, 29.764839 ], [ -95.440735, 29.76479 ], [ -95.4408, 29.764757 ], [ -95.440863, 29.764747 ], [ -95.440961, 29.764752 ], [ -95.441041, 29.764751 ], [ -95.441096, 29.764741 ], [ -95.441154, 29.764717 ], [ -95.441157, 29.764716 ], [ -95.441158, 29.764716 ], [ -95.441262, 29.764669 ], [ -95.441385, 29.764567 ], [ -95.441531, 29.764479 ], [ -95.44157, 29.764456 ], [ -95.441615, 29.764436 ], [ -95.441675, 29.764412 ], [ -95.441741, 29.76439 ], [ -95.441801, 29.764373 ], [ -95.44186, 29.764361 ], [ -95.44193, 29.764349 ], [ -95.442004, 29.764343 ], [ -95.442081, 29.76434 ], [ -95.442167, 29.764343 ], [ -95.442228, 29.764348 ], [ -95.442292, 29.764359 ], [ -95.442352, 29.764373 ], [ -95.442407, 29.764388 ], [ -95.442466, 29.764406 ], [ -95.442524, 29.764427 ], [ -95.442581, 29.764454 ], [ -95.442634, 29.76448 ], [ -95.442809, 29.764613 ], [ -95.442866, 29.764663 ], [ -95.442913, 29.764717 ], [ -95.442956, 29.764775 ], [ -95.442991, 29.764832 ], [ -95.443028, 29.764903 ], [ -95.443059, 29.764975 ], [ -95.443081, 29.765052 ], [ -95.443094, 29.76513 ], [ -95.443099, 29.765184 ], [ -95.4431, 29.765239 ], [ -95.443097, 29.765291 ], [ -95.443092, 29.765342 ], [ -95.443078, 29.765421 ], [ -95.443053, 29.765503 ], [ -95.443049, 29.765582 ], [ -95.443054, 29.765619 ], [ -95.443064, 29.765652 ], [ -95.443079, 29.765681 ], [ -95.4431, 29.765708 ], [ -95.443136, 29.765743 ], [ -95.443172, 29.76577 ], [ -95.443208, 29.765787 ], [ -95.443245, 29.765801 ], [ -95.443296, 29.765809 ], [ -95.443336, 29.765811 ], [ -95.443389, 29.765805 ], [ -95.443418, 29.765799 ], [ -95.443445, 29.765788 ], [ -95.443489, 29.765765 ], [ -95.443537, 29.765731 ], [ -95.443628, 29.765661 ], [ -95.443708, 29.765616 ], [ -95.44381, 29.765572 ], [ -95.443922, 29.765535 ], [ -95.444024, 29.765513 ], [ -95.444131, 29.765496 ], [ -95.444219, 29.765494 ], [ -95.444311, 29.765498 ], [ -95.444405, 29.765505 ], [ -95.444503, 29.765523 ], [ -95.444574, 29.76554 ], [ -95.444647, 29.765563 ], [ -95.444757, 29.765611 ] ] } },
{ "type": "Feature", "properties": { "cls": "shared", "highway": "cycleway", "name": "Commuter Trail" }, "geometry": { "type": "LineString", "coordinates": [ [ -95.44554, 29.766176 ], [ -95.445286, 29.766026 ], [ -95.445182, 29.765952 ], [ -95.445079, 29.765859 ], [ -95.444977, 29.765757 ], [ -95.444879, 29.765681 ], [ -95.444757, 29.765611 ] ] } },
{ "type": "Feature", "properties": { "cls": "shared", "highway": "cycleway", "name": "South Land Bridge Trail" }, "geometry": { "type": "LineString", "coordinates": [ [ -95.445968, 29.764769 ], [ -95.446046, 29.764787 ], [ -95.446097, 29.764794 ], [ -95.446144, 29.764797 ], [ -95.446206, 29.764797 ], [ -95.446268, 29.764792 ], [ -95.446338, 29.76478 ], [ -95.4464, 29.764762 ], [ -95.44647, 29.764735 ], [ -95.44654, 29.764703 ], [ -95.446597, 29.764666 ] ] } },
{ "type": "Feature", "properties": { "cls": "shared", "highway": "cycleway", "name": null }, "geometry": { "type": "LineString", "coordinates": [ [ -95.44654, 29.764703 ], [ -95.446545, 29.764747 ], [ -95.446542, 29.764779 ], [ -95.446527, 29.764809 ], [ -95.446521, 29.764839 ], [ -95.446548, 29.764872 ] ] } },
{ "type": "Feature", "properties": { "cls": "shared", "highway": "cycleway", "name": null }, "geometry": { "type": "LineString", "coordinates": [ [ -95.448213, 29.76439 ], [ -95.448163, 29.764399 ], [ -95.448117, 29.764461 ], [ -95.448101, 29.764482 ], [ -95.448031, 29.76456 ], [ -95.447975, 29.76461 ], [ -95.447926, 29.764646 ], [ -95.447886, 29.764675 ], [ -95.447857, 29.764691 ], [ -95.447821, 29.764709 ], [ -95.447782, 29.764726 ], [ -95.447714, 29.764748 ], [ -95.447643, 29.764767 ], [ -95.447566, 29.76478 ], [ -95.447502, 29.764786 ], [ -95.447449, 29.764786 ], [ -95.447386, 29.764781 ], [ -95.447316, 29.764773 ], [ -95.447237, 29.764759 ], [ -95.447131, 29.764729 ], [ -95.44709, 29.764722 ], [ -95.447042, 29.764718 ], [ -95.446963, 29.764718 ], [ -95.44688, 29.764726 ], [ -95.446795, 29.764744 ], [ -95.446749, 29.764756 ], [ -95.446708, 29.764771 ], [ -95.446642, 29.764807 ], [ -95.446548, 29.764872 ], [ -95.446387, 29.765065 ], [ -95.446376, 29.765077 ], [ -95.446291, 29.765122 ], [ -95.44621, 29.765158 ], [ -95.446188, 29.765165 ], [ -95.446108, 29.765176 ], [ -95.446056, 29.76521 ], [ -95.446015, 29.765253 ], [ -95.445992, 29.765269 ], [ -95.445957, 29.765286 ], [ -95.445926, 29.765293 ], [ -95.445894, 29.765303 ], [ -95.445838, 29.765332 ], [ -95.445814, 29.76535 ], [ -95.445796, 29.76537 ], [ -95.445751, 29.765451 ], [ -95.445729, 29.765478 ], [ -95.445703, 29.765501 ], [ -95.445676, 29.765518 ], [ -95.445645, 29.76553 ], [ -95.445625, 29.765535 ], [ -95.445604, 29.765539 ], [ -95.445581, 29.765539 ], [ -95.445558, 29.765536 ], [ -95.44553, 29.765531 ], [ -95.445502, 29.765521 ], [ -95.445411, 29.765469 ], [ -95.445361, 29.765442 ], [ -95.445307, 29.765417 ], [ -95.445263, 29.76541 ], [ -95.445219, 29.765406 ], [ -95.445169, 29.765403 ], [ -95.44512, 29.765405 ], [ -95.445072, 29.765412 ], [ -95.445024, 29.765421 ], [ -95.444978, 29.765435 ], [ -95.444937, 29.765452 ], [ -95.444894, 29.765475 ], [ -95.444854, 29.765501 ], [ -95.444826, 29.765526 ], [ -95.444801, 29.765553 ], [ -95.444757, 29.765611 ] ] } },
{ "type": "Feature", "properties": { "cls": "shared", "highway": "cycleway", "name": null }, "geometry": { "type": "LineString", "coordinates": [ [ -95.446376, 29.765077 ], [ -95.44644, 29.765151 ] ] } },
{ "type": "Feature", "properties": { "cls": "shared", "highway": "cycleway", "name": null }, "geometry": { "type": "LineString", "coordinates": [ [ -95.446414, 29.765366 ], [ -95.446464, 29.765327 ] ] } },
{ "type": "Feature", "properties": { "cls": "shared", "highway": "cycleway", "name": null }, "geometry": { "type": "LineString", "coordinates": [ [ -95.446188, 29.765165 ], [ -95.446234, 29.765259 ], [ -95.446269, 29.765299 ], [ -95.446308, 29.765331 ], [ -95.446338, 29.765345 ], [ -95.446373, 29.765357 ], [ -95.446414, 29.765366 ], [ -95.446476, 29.765389 ], [ -95.446505, 29.765406 ], [ -95.446543, 29.765437 ], [ -95.446574, 29.765487 ], [ -95.44661, 29.765534 ], [ -95.446652, 29.765571 ], [ -95.446692, 29.765603 ], [ -95.446733, 29.765626 ], [ -95.446854, 29.765669 ], [ -95.446843, 29.765712 ], [ -95.446875, 29.765762 ], [ -95.446889, 29.7658 ], [ -95.446922, 29.766012 ], [ -95.44694, 29.766067 ], [ -95.446954, 29.76609 ], [ -95.44697, 29.76611 ], [ -95.447008, 29.766154 ], [ -95.447035, 29.766174 ], [ -95.447068, 29.766194 ], [ -95.447104, 29.766208 ], [ -95.447141, 29.766225 ], [ -95.447173, 29.766244 ], [ -95.447214, 29.766277 ], [ -95.447236, 29.766314 ], [ -95.447259, 29.766345 ], [ -95.447298, 29.766379 ], [ -95.447353, 29.766395 ], [ -95.447393, 29.766396 ], [ -95.44746, 29.766407 ], [ -95.447549, 29.766491 ], [ -95.447549, 29.766523 ], [ -95.447563, 29.766589 ], [ -95.447574, 29.766626 ], [ -95.447589, 29.766647 ], [ -95.447566, 29.766733 ], [ -95.447557, 29.766768 ], [ -95.447561, 29.76683 ], [ -95.44757, 29.766879 ], [ -95.44757, 29.766934 ], [ -95.447514, 29.767047 ], [ -95.447485, 29.767112 ] ] } },
{ "type": "Feature", "properties": { "cls": "shared", "highway": "cycleway", "name": null }, "geometry": { "type": "LineString", "coordinates": [ [ -95.446669, 29.765917 ], [ -95.446594, 29.765968 ], [ -95.446506, 29.766028 ], [ -95.446433, 29.766077 ], [ -95.44635, 29.766133 ], [ -95.445888, 29.766444 ] ] } },
{ "type": "Feature", "properties": { "cls": "shared", "highway": "cycleway", "name": null }, "geometry": { "type": "LineString", "coordinates": [ [ -95.44645, 29.767408 ], [ -95.446453, 29.767392 ], [ -95.446467, 29.767347 ], [ -95.446487, 29.767305 ], [ -95.446509, 29.767265 ], [ -95.446533, 29.767224 ], [ -95.446569, 29.767179 ], [ -95.446607, 29.767135 ], [ -95.446645, 29.767098 ], [ -95.446687, 29.767062 ], [ -95.446798, 29.766984 ], [ -95.446984, 29.766863 ], [ -95.447136, 29.766762 ], [ -95.447174, 29.766737 ], [ -95.447246, 29.76669 ], [ -95.447313, 29.766647 ], [ -95.447136, 29.766446 ], [ -95.447039, 29.766333 ], [ -95.446815, 29.766082 ], [ -95.446686, 29.765935 ], [ -95.446669, 29.765917 ], [ -95.446466, 29.765685 ], [ -95.446425, 29.765638 ], [ -95.446357, 29.765561 ], [ -95.446214, 29.765395 ], [ -95.446056, 29.76521 ] ] } },
{ "type": "Feature", "properties": { "cls": "shared", "highway": "cycleway", "name": null }, "geometry": { "type": "LineString", "coordinates": [ [ -95.447729, 29.766494 ], [ -95.447779, 29.766495 ], [ -95.447828, 29.766486 ], [ -95.447872, 29.766482 ], [ -95.447912, 29.766483 ], [ -95.447954, 29.766492 ], [ -95.447991, 29.766504 ], [ -95.448007, 29.766512 ], [ -95.448025, 29.766518 ], [ -95.448049, 29.766523 ], [ -95.448079, 29.766528 ], [ -95.448232, 29.766537 ] ] } },
{ "type": "Feature", "properties": { "cls": "shared", "highway": "cycleway", "name": null }, "geometry": { "type": "LineString", "coordinates": [ [ -95.447589, 29.766647 ], [ -95.44763, 29.766635 ], [ -95.447664, 29.76662 ], [ -95.447697, 29.766598 ], [ -95.44772, 29.766568 ], [ -95.44773, 29.766531 ], [ -95.447729, 29.766494 ], [ -95.447695, 29.766484 ], [ -95.447656, 29.766476 ], [ -95.447612, 29.766476 ], [ -95.447549, 29.766491 ] ] } },
{ "type": "Feature", "properties": { "cls": "shared", "highway": "footway", "name": null }, "geometry": { "type": "LineString", "coordinates": [ [ -95.429674, 29.764166 ], [ -95.429741, 29.764183 ], [ -95.429788, 29.764182 ], [ -95.429828, 29.764183 ], [ -95.429842, 29.764189 ], [ -95.429868, 29.764198 ] ] } },
{ "type": "Feature", "properties": { "cls": "shared", "highway": "footway", "name": null }, "geometry": { "type": "LineString", "coordinates": [ [ -95.429868, 29.764198 ], [ -95.429915, 29.764214 ], [ -95.430015, 29.764255 ], [ -95.430058, 29.764272 ] ] } },
{ "type": "Feature", "properties": { "cls": "shared", "highway": "cycleway", "name": null }, "geometry": { "type": "LineString", "coordinates": [ [ -95.430101, 29.764289 ], [ -95.43012, 29.76425 ] ] } },
{ "type": "Feature", "properties": { "cls": "shared", "highway": "footway", "name": null }, "geometry": { "type": "LineString", "coordinates": [ [ -95.430058, 29.764272 ], [ -95.430101, 29.764289 ], [ -95.430155, 29.764315 ], [ -95.430181, 29.76434 ], [ -95.430209, 29.764355 ] ] } },
{ "type": "Feature", "properties": { "cls": "shared", "highway": "cycleway", "name": "Outer Loop Trail" }, "geometry": { "type": "LineString", "coordinates": [ [ -95.428078, 29.763701 ], [ -95.4282, 29.763776 ], [ -95.428293, 29.763867 ], [ -95.428332, 29.763919 ], [ -95.428359, 29.763982 ], [ -95.42843, 29.764173 ], [ -95.428473, 29.76425 ], [ -95.428544, 29.764322 ], [ -95.428619, 29.764365 ], [ -95.428657, 29.764395 ], [ -95.428683, 29.764429 ], [ -95.428702, 29.764467 ], [ -95.428741, 29.764523 ], [ -95.42882, 29.76459 ], [ -95.428866, 29.764637 ], [ -95.4289, 29.764688 ], [ -95.428924, 29.764743 ], [ -95.428946, 29.764799 ], [ -95.428963, 29.764871 ], [ -95.428973, 29.764944 ], [ -95.428979, 29.765026 ], [ -95.428974, 29.765105 ], [ -95.428963, 29.765176 ], [ -95.428946, 29.765245 ], [ -95.428922, 29.765308 ], [ -95.428893, 29.76537 ], [ -95.42884, 29.765455 ], [ -95.428811, 29.765495 ], [ -95.428778, 29.765532 ], [ -95.428652, 29.765654 ], [ -95.428463, 29.765836 ], [ -95.428385, 29.76593 ], [ -95.428272, 29.766109 ], [ -95.428193, 29.766264 ], [ -95.428124, 29.766424 ], [ -95.428065, 29.766598 ], [ -95.428029, 29.766754 ], [ -95.428009, 29.766944 ], [ -95.428005, 29.767111 ], [ -95.428008, 29.76719 ], [ -95.428014, 29.767265 ], [ -95.428034, 29.767451 ], [ -95.428048, 29.76753 ], [ -95.428065, 29.767607 ], [ -95.428113, 29.767765 ], [ -95.428154, 29.767872 ], [ -95.428199, 29.767971 ], [ -95.428317, 29.768193 ], [ -95.428337, 29.768243 ], [ -95.428347, 29.768304 ], [ -95.428352, 29.768337 ], [ -95.428351, 29.76837 ], [ -95.42835, 29.768401 ], [ -95.428346, 29.768431 ], [ -95.428289, 29.768608 ], [ -95.428285, 29.768754 ], [ -95.428287, 29.768781 ], [ -95.428297, 29.768808 ], [ -95.428307, 29.768827 ], [ -95.428321, 29.768847 ], [ -95.428402, 29.76894 ], [ -95.428418, 29.768967 ], [ -95.428425, 29.768986 ], [ -95.428429, 29.769005 ], [ -95.42843, 29.769024 ], [ -95.428428, 29.769042 ], [ -95.428423, 29.769061 ], [ -95.428415, 29.769082 ], [ -95.428404, 29.769098 ], [ -95.428386, 29.769113 ], [ -95.42837, 29.769125 ], [ -95.428352, 29.769135 ], [ -95.42831, 29.769152 ], [ -95.428285, 29.769164 ], [ -95.428265, 29.769179 ], [ -95.428243, 29.769199 ], [ -95.428226, 29.769222 ], [ -95.42821, 29.769247 ], [ -95.428195, 29.769279 ], [ -95.428186, 29.769317 ], [ -95.428186, 29.769365 ], [ -95.42819, 29.769399 ], [ -95.428201, 29.769427 ], [ -95.428213, 29.76945 ], [ -95.428228, 29.76947 ], [ -95.428241, 29.769487 ], [ -95.428257, 29.769501 ], [ -95.428258, 29.769527 ] ] } },
{ "type": "Feature", "properties": { "cls": "shared", "highway": "cycleway", "name": "Outer Loop Trail" }, "geometry": { "type": "LineString", "coordinates": [ [ -95.428261, 29.769602 ], [ -95.428261, 29.769593 ] ] } },
{ "type": "Feature", "properties": { "cls": "shared", "highway": "cycleway", "name": "Outer Loop Trail" }, "geometry": { "type": "LineString", "coordinates": [ [ -95.428074, 29.769624 ], [ -95.428165, 29.76961 ], [ -95.428261, 29.769602 ], [ -95.428368, 29.769598 ], [ -95.428474, 29.769599 ], [ -95.428573, 29.769603 ], [ -95.428675, 29.769612 ], [ -95.42886, 29.769638 ], [ -95.429027, 29.76967 ], [ -95.429199, 29.769711 ], [ -95.429408, 29.769783 ], [ -95.429598, 29.769869 ], [ -95.429664, 29.769909 ], [ -95.430003, 29.770128 ], [ -95.430051, 29.770148 ], [ -95.430139, 29.770175 ], [ -95.430156, 29.770187 ], [ -95.430311, 29.770148 ], [ -95.430388, 29.770327 ], [ -95.430521, 29.770533 ], [ -95.430689, 29.770714 ], [ -95.430703, 29.770729 ], [ -95.430782, 29.770822 ], [ -95.430816, 29.770869 ], [ -95.430822, 29.770877 ], [ -95.430833, 29.770943 ], [ -95.430764, 29.771041 ], [ -95.430708, 29.771156 ], [ -95.430673, 29.771181 ] ] } },
{ "type": "Feature", "properties": { "cls": "shared", "highway": "cycleway", "name": null }, "geometry": { "type": "LineString", "coordinates": [ [ -95.430673, 29.771181 ], [ -95.430734, 29.771225 ] ] } },
{ "type": "Feature", "properties": { "cls": "shared", "highway": "cycleway", "name": null }, "geometry": { "type": "LineString", "coordinates": [ [ -95.443743, 29.766872 ], [ -95.443772, 29.766906 ], [ -95.443807, 29.766936 ], [ -95.443845, 29.766962 ], [ -95.443887, 29.766983 ], [ -95.443932, 29.767 ], [ -95.443979, 29.767012 ], [ -95.444028, 29.767018 ], [ -95.444077, 29.767018 ], [ -95.444125, 29.767013 ], [ -95.444173, 29.767003 ], [ -95.444218, 29.766987 ], [ -95.444261, 29.766967 ], [ -95.4443, 29.766941 ], [ -95.444335, 29.766912 ], [ -95.444366, 29.766879 ], [ -95.444391, 29.766843 ], [ -95.444411, 29.766804 ], [ -95.444425, 29.766763 ], [ -95.444432, 29.766721 ], [ -95.444434, 29.766679 ], [ -95.444429, 29.766636 ], [ -95.444417, 29.766595 ], [ -95.4444, 29.766555 ], [ -95.444377, 29.766518 ], [ -95.444348, 29.766484 ], [ -95.444315, 29.766453 ], [ -95.444277, 29.766426 ], [ -95.444235, 29.766403 ], [ -95.444191, 29.766386 ], [ -95.444144, 29.766373 ], [ -95.444096, 29.766366 ], [ -95.444047, 29.766365 ], [ -95.444003, 29.766368 ], [ -95.443959, 29.766376 ], [ -95.443917, 29.766388 ], [ -95.443877, 29.766405 ], [ -95.443839, 29.766425 ], [ -95.443804, 29.766449 ], [ -95.443773, 29.766477 ], [ -95.443746, 29.766507 ], [ -95.443723, 29.766541 ], [ -95.443705, 29.766576 ], [ -95.443692, 29.766613 ], [ -95.443684, 29.766651 ], [ -95.44368, 29.766689 ], [ -95.443683, 29.766728 ], [ -95.44369, 29.766766 ], [ -95.443703, 29.766803 ], [ -95.443721, 29.766838 ], [ -95.443743, 29.766872 ] ] } },
{ "type": "Feature", "properties": { "cls": "shared", "highway": "cycleway", "name": "West Lawn Multi-Use Path" }, "geometry": { "type": "LineString", "coordinates": [ [ -95.44554, 29.766176 ], [ -95.445406, 29.766116 ], [ -95.445231, 29.766065 ], [ -95.445147, 29.766049 ], [ -95.445063, 29.766038 ], [ -95.444983, 29.766032 ], [ -95.444889, 29.766033 ], [ -95.44478, 29.766038 ], [ -95.444697, 29.766051 ], [ -95.44463, 29.766064 ], [ -95.44454, 29.766088 ], [ -95.444482, 29.766106 ], [ -95.444426, 29.766126 ], [ -95.444342, 29.766164 ], [ -95.444295, 29.766185 ], [ -95.444254, 29.766209 ], [ -95.444176, 29.76626 ], [ -95.444108, 29.76631 ], [ -95.444047, 29.766365 ], [ -95.443986, 29.766426 ], [ -95.443927, 29.766491 ], [ -95.443879, 29.766558 ], [ -95.443837, 29.766628 ], [ -95.443802, 29.766693 ], [ -95.443783, 29.766742 ], [ -95.443761, 29.76681 ], [ -95.443743, 29.766872 ], [ -95.443728, 29.766951 ], [ -95.443719, 29.767023 ], [ -95.443715, 29.767093 ], [ -95.443722, 29.767185 ], [ -95.443738, 29.767278 ], [ -95.443763, 29.76737 ], [ -95.443781, 29.767423 ], [ -95.443803, 29.767474 ], [ -95.443868, 29.767593 ], [ -95.443912, 29.767659 ], [ -95.443953, 29.767712 ], [ -95.444004, 29.767768 ], [ -95.444059, 29.767825 ], [ -95.44412, 29.767874 ], [ -95.444186, 29.767919 ], [ -95.444252, 29.767959 ], [ -95.444325, 29.768 ], [ -95.444399, 29.768035 ], [ -95.444494, 29.768073 ], [ -95.444557, 29.768092 ], [ -95.444618, 29.768106 ], [ -95.444676, 29.768118 ], [ -95.444748, 29.768129 ], [ -95.44482, 29.768135 ], [ -95.444883, 29.768139 ], [ -95.444941, 29.768139 ], [ -95.445016, 29.768137 ], [ -95.445088, 29.76813 ], [ -95.445225, 29.768106 ], [ -95.445301, 29.768088 ], [ -95.445374, 29.768064 ], [ -95.445463, 29.768041 ], [ -95.445557, 29.768022 ], [ -95.445622, 29.768012 ], [ -95.445679, 29.768008 ], [ -95.445738, 29.768006 ], [ -95.445789, 29.768006 ], [ -95.445851, 29.768009 ], [ -95.445951, 29.76802 ], [ -95.446052, 29.768035 ], [ -95.446133, 29.768054 ], [ -95.446236, 29.76809 ] ] } },
{ "type": "Feature", "properties": { "cls": "shared", "highway": "cycleway", "name": null }, "geometry": { "type": "LineString", "coordinates": [ [ -95.445225, 29.768106 ], [ -95.44522, 29.768127 ], [ -95.445124, 29.768209 ], [ -95.445078, 29.768263 ], [ -95.445071, 29.768319 ], [ -95.445091, 29.768412 ], [ -95.445099, 29.768452 ], [ -95.445087, 29.768488 ], [ -95.445041, 29.768589 ], [ -95.445026, 29.768658 ], [ -95.445024, 29.768773 ] ] } },
{ "type": "Feature", "properties": { "cls": "shared", "highway": "cycleway", "name": "Outer Loop Trail" }, "geometry": { "type": "LineString", "coordinates": [ [ -95.433327, 29.776264 ], [ -95.433504, 29.776294 ], [ -95.433595, 29.77632 ], [ -95.433667, 29.776359 ], [ -95.433694, 29.77642 ], [ -95.433732, 29.776464 ], [ -95.434122, 29.776643 ], [ -95.434215, 29.776697 ], [ -95.434275, 29.776762 ], [ -95.434557, 29.776924 ], [ -95.434612, 29.776961 ], [ -95.434665, 29.776985 ], [ -95.434764, 29.777042 ], [ -95.434881, 29.777099 ], [ -95.434933, 29.777122 ], [ -95.434971, 29.777129 ], [ -95.435038, 29.777129 ], [ -95.435119, 29.777131 ], [ -95.435215, 29.777139 ], [ -95.435343, 29.777164 ], [ -95.435459, 29.777195 ], [ -95.435615, 29.777256 ], [ -95.435699, 29.777279 ], [ -95.435913, 29.777325 ], [ -95.436578, 29.777466 ], [ -95.436706, 29.777494 ], [ -95.437039, 29.777535 ], [ -95.437089, 29.777551 ], [ -95.43727, 29.777643 ], [ -95.43733, 29.777667 ], [ -95.437391, 29.777678 ], [ -95.437454, 29.77768 ], [ -95.4377, 29.777658 ], [ -95.437792, 29.777656 ], [ -95.437915, 29.777674 ], [ -95.438016, 29.777694 ], [ -95.438076, 29.777701 ], [ -95.438147, 29.7777 ], [ -95.438382, 29.777668 ], [ -95.438484, 29.777653 ], [ -95.438602, 29.777645 ], [ -95.43879, 29.777645 ], [ -95.438966, 29.777641 ], [ -95.439032, 29.777634 ], [ -95.439099, 29.777621 ], [ -95.439189, 29.777593 ], [ -95.439317, 29.777548 ], [ -95.439696, 29.777429 ], [ -95.439763, 29.777405 ], [ -95.439973, 29.777322 ], [ -95.440057, 29.777278 ], [ -95.440136, 29.777222 ], [ -95.440251, 29.777146 ], [ -95.440319, 29.77711 ], [ -95.440414, 29.777066 ], [ -95.4406, 29.776996 ], [ -95.440745, 29.776935 ], [ -95.440815, 29.776898 ], [ -95.440876, 29.776861 ], [ -95.440927, 29.776824 ], [ -95.441005, 29.776758 ], [ -95.44118, 29.776597 ], [ -95.441366, 29.77642 ], [ -95.441485, 29.776298 ], [ -95.441553, 29.776214 ], [ -95.441591, 29.77616 ], [ -95.441608, 29.776133 ], [ -95.441627, 29.776094 ], [ -95.44164, 29.776052 ], [ -95.441647, 29.775995 ], [ -95.441639, 29.775789 ], [ -95.441645, 29.775753 ], [ -95.441654, 29.775712 ], [ -95.441669, 29.775664 ], [ -95.441694, 29.775614 ], [ -95.441726, 29.775569 ], [ -95.441779, 29.775508 ], [ -95.441881, 29.775407 ], [ -95.442006, 29.775289 ], [ -95.442105, 29.775178 ], [ -95.442177, 29.775079 ], [ -95.442219, 29.774999 ], [ -95.442252, 29.774913 ], [ -95.442303, 29.774747 ], [ -95.442333, 29.774609 ], [ -95.442368, 29.774472 ], [ -95.442388, 29.774416 ], [ -95.442439, 29.77433 ], [ -95.442516, 29.774214 ], [ -95.442588, 29.774124 ], [ -95.442663, 29.774044 ], [ -95.442719, 29.77398 ], [ -95.442792, 29.773892 ], [ -95.442854, 29.773803 ], [ -95.443049, 29.77348 ], [ -95.443207, 29.773247 ], [ -95.443239, 29.773187 ], [ -95.443274, 29.773115 ], [ -95.443292, 29.773057 ], [ -95.443299, 29.773012 ], [ -95.443296, 29.772968 ], [ -95.443264, 29.772727 ], [ -95.443265, 29.772612 ], [ -95.443269, 29.772572 ], [ -95.443284, 29.772514 ], [ -95.443305, 29.772461 ], [ -95.443382, 29.772327 ], [ -95.443444, 29.772201 ], [ -95.443495, 29.772079 ], [ -95.443529, 29.772017 ], [ -95.443601, 29.77193 ], [ -95.443629, 29.771891 ], [ -95.443654, 29.771848 ], [ -95.443673, 29.771811 ], [ -95.44369, 29.771757 ], [ -95.443719, 29.771684 ], [ -95.443825, 29.771486 ], [ -95.443868, 29.771397 ], [ -95.443934, 29.771284 ], [ -95.443986, 29.77119 ], [ -95.444028, 29.771134 ], [ -95.4442, 29.770944 ], [ -95.444296, 29.770852 ], [ -95.444359, 29.770781 ], [ -95.444541, 29.77054 ], [ -95.444688, 29.770331 ], [ -95.444792, 29.770161 ], [ -95.44483, 29.77011 ], [ -95.444883, 29.770057 ], [ -95.444943, 29.770019 ], [ -95.444992, 29.76998 ], [ -95.445023, 29.769948 ], [ -95.445061, 29.76989 ], [ -95.445089, 29.769834 ], [ -95.445135, 29.769765 ], [ -95.445179, 29.769723 ], [ -95.44523, 29.769693 ], [ -95.445297, 29.769664 ], [ -95.44537, 29.769628 ], [ -95.445439, 29.769583 ], [ -95.445481, 29.769551 ], [ -95.4455, 29.76953 ], [ -95.445516, 29.769479 ], [ -95.445521, 29.769436 ], [ -95.445534, 29.769401 ], [ -95.445553, 29.769377 ], [ -95.445576, 29.769361 ], [ -95.445587, 29.769354 ], [ -95.445696, 29.769311 ], [ -95.445751, 29.769282 ], [ -95.445801, 29.769244 ], [ -95.445839, 29.769203 ], [ -95.445885, 29.769139 ], [ -95.445911, 29.769107 ], [ -95.445955, 29.769064 ], [ -95.445996, 29.769033 ], [ -95.446168, 29.768928 ], [ -95.446297, 29.76883 ], [ -95.44634, 29.768787 ], [ -95.446381, 29.768739 ], [ -95.446409, 29.768699 ], [ -95.446449, 29.768627 ], [ -95.446467, 29.768585 ], [ -95.446481, 29.768541 ], [ -95.446496, 29.768488 ], [ -95.446507, 29.768437 ], [ -95.446509, 29.768389 ], [ -95.446505, 29.768357 ], [ -95.446494, 29.768323 ], [ -95.446488, 29.768296 ], [ -95.446487, 29.768265 ], [ -95.446506, 29.76818 ] ] } },
{ "type": "Feature", "properties": { "cls": "shared", "highway": "cycleway", "name": null }, "geometry": { "type": "LineString", "coordinates": [ [ -95.430755, 29.772041 ], [ -95.430797, 29.772032 ], [ -95.430886, 29.772071 ] ] } },
{ "type": "Feature", "properties": { "cls": "shared", "highway": "cycleway", "name": "Outer Loop Trail" }, "geometry": { "type": "LineString", "coordinates": [ [ -95.430886, 29.772071 ], [ -95.431179, 29.772213 ], [ -95.431252, 29.772267 ], [ -95.43132, 29.772363 ], [ -95.431336, 29.772386 ], [ -95.431361, 29.772424 ], [ -95.431429, 29.772516 ], [ -95.431491, 29.77257 ], [ -95.431628, 29.772669 ], [ -95.431739, 29.772737 ], [ -95.431749, 29.772788 ], [ -95.431746, 29.772923 ], [ -95.431788, 29.772974 ], [ -95.431786, 29.773022 ], [ -95.4318, 29.773105 ], [ -95.43183, 29.773242 ], [ -95.431836, 29.77328 ], [ -95.431841, 29.773305 ], [ -95.431876, 29.773355 ], [ -95.431831, 29.773417 ], [ -95.431791, 29.77351 ], [ -95.431755, 29.773576 ], [ -95.431765, 29.773612 ] ] } },
{ "type": "Feature", "properties": { "cls": "shared", "highway": "cycleway", "name": "Outer Loop Trail" }, "geometry": { "type": "LineString", "coordinates": [ [ -95.432104, 29.774314 ], [ -95.432064, 29.774219 ], [ -95.432029, 29.774119 ], [ -95.432006, 29.774039 ], [ -95.431996, 29.773968 ], [ -95.431989, 29.773923 ], [ -95.431972, 29.773878 ], [ -95.431952, 29.773862 ], [ -95.431935, 29.773854 ], [ -95.431914, 29.773848 ], [ -95.431876, 29.773778 ], [ -95.431851, 29.773701 ], [ -95.431815, 29.77365 ], [ -95.431792, 29.773627 ], [ -95.431765, 29.773612 ] ] } },
{ "type": "Feature", "properties": { "cls": "shared", "highway": "cycleway", "name": "Outer Loop Trail" }, "geometry": { "type": "LineString", "coordinates": [ [ -95.432159, 29.774447 ], [ -95.432121, 29.774362 ], [ -95.432104, 29.774314 ] ] } },
{ "type": "Feature", "properties": { "cls": "shared", "highway": "cycleway", "name": "Outer Loop Trail" }, "geometry": { "type": "LineString", "coordinates": [ [ -95.432879, 29.776214 ], [ -95.43278, 29.776104 ], [ -95.432752, 29.776056 ], [ -95.432733, 29.775991 ], [ -95.432727, 29.775941 ], [ -95.432744, 29.775854 ], [ -95.432748, 29.775801 ], [ -95.432732, 29.775736 ], [ -95.432703, 29.775675 ], [ -95.432627, 29.775565 ], [ -95.432586, 29.775487 ], [ -95.432536, 29.775391 ], [ -95.432506, 29.77531 ], [ -95.432462, 29.775223 ], [ -95.432399, 29.775134 ], [ -95.432343, 29.775072 ], [ -95.432322, 29.775026 ], [ -95.432303, 29.774923 ], [ -95.432279, 29.774874 ], [ -95.432227, 29.774784 ], [ -95.432198, 29.774719 ], [ -95.432179, 29.774618 ], [ -95.43217, 29.774539 ], [ -95.432159, 29.774447 ] ] } },
{ "type": "Feature", "properties": { "cls": "shared", "highway": "cycleway", "name": null }, "geometry": { "type": "LineString", "coordinates": [ [ -95.431084, 29.776028 ], [ -95.43105, 29.776038 ] ] } },
{ "type": "Feature", "properties": { "cls": "shared", "highway": "cycleway", "name": null }, "geometry": { "type": "LineString", "coordinates": [ [ -95.432879, 29.776214 ], [ -95.431465, 29.776054 ], [ -95.431169, 29.77602 ], [ -95.431124, 29.776023 ], [ -95.431084, 29.776028 ] ] } },
{ "type": "Feature", "properties": { "cls": "shared", "highway": "cycleway", "name": null }, "geometry": { "type": "LineString", "coordinates": [ [ -95.43105, 29.776038 ], [ -95.431018, 29.776054 ], [ -95.430947, 29.776101 ], [ -95.430902, 29.776148 ], [ -95.430866, 29.776192 ], [ -95.430846, 29.776213 ], [ -95.430819, 29.776232 ], [ -95.430786, 29.776242 ], [ -95.430745, 29.776248 ], [ -95.430705, 29.776259 ], [ -95.43067, 29.776274 ] ] } },
{ "type": "Feature", "properties": { "cls": "shared", "highway": "cycleway", "name": "Outer Loop Trail" }, "geometry": { "type": "LineString", "coordinates": [ [ -95.433327, 29.776264 ], [ -95.432879, 29.776214 ] ] } },
{ "type": "Feature", "properties": { "cls": "shared", "highway": "cycleway", "name": null }, "geometry": { "type": "LineString", "coordinates": [ [ -95.43067, 29.776274 ], [ -95.430641, 29.776287 ], [ -95.430599, 29.776306 ], [ -95.430545, 29.77633 ] ] } },
{ "type": "Feature", "properties": { "cls": "shared", "highway": "cycleway", "name": null }, "geometry": { "type": "LineString", "coordinates": [ [ -95.430545, 29.77633 ], [ -95.430394, 29.776395 ], [ -95.43023, 29.776536 ], [ -95.430139, 29.77658 ] ] } },
{ "type": "Feature", "properties": { "cls": "shared", "highway": "footway", "name": null }, "geometry": { "type": "LineString", "coordinates": [ [ -95.45516, 29.759975 ], [ -95.455154, 29.760204 ] ] } },
{ "type": "Feature", "properties": { "cls": "separated", "highway": "cycleway", "name": null }, "geometry": { "type": "LineString", "coordinates": [ [ -95.456075, 29.760054 ], [ -95.456085, 29.760971 ] ] } },
{ "type": "Feature", "properties": { "cls": "shared", "highway": "cycleway", "name": null }, "geometry": { "type": "LineString", "coordinates": [ [ -95.456085, 29.760971 ], [ -95.456112, 29.761279 ], [ -95.456126, 29.761491 ], [ -95.456176, 29.762105 ], [ -95.456206, 29.76303 ], [ -95.456219, 29.763416 ], [ -95.456236, 29.763647 ], [ -95.456287, 29.763947 ], [ -95.456421, 29.764471 ], [ -95.456498, 29.76475 ], [ -95.456552, 29.764874 ], [ -95.456657, 29.76496 ], [ -95.456759, 29.765076 ], [ -95.456866, 29.765202 ] ] } },
{ "type": "Feature", "properties": { "cls": "shared", "highway": "cycleway", "name": null }, "geometry": { "type": "LineString", "coordinates": [ [ -95.457341, 29.76493 ], [ -95.457299, 29.764937 ], [ -95.457249, 29.764969 ], [ -95.457151, 29.765029 ], [ -95.456866, 29.765202 ], [ -95.456654, 29.765335 ], [ -95.456555, 29.76543 ] ] } },
{ "type": "Feature", "properties": { "cls": "shared", "highway": "footway", "name": null }, "geometry": { "type": "LineString", "coordinates": [ [ -95.455154, 29.760204 ], [ -95.45522, 29.761538 ], [ -95.455207, 29.761603 ], [ -95.455236, 29.762181 ], [ -95.455249, 29.763524 ], [ -95.455249, 29.763536 ], [ -95.455238, 29.763558 ], [ -95.455217, 29.763576 ], [ -95.455183, 29.763598 ], [ -95.45515, 29.763621 ], [ -95.455133, 29.763638 ], [ -95.455125, 29.763655 ], [ -95.455117, 29.763688 ], [ -95.45511, 29.763738 ], [ -95.455106, 29.763817 ], [ -95.455102, 29.763902 ], [ -95.455099, 29.763967 ], [ -95.455099, 29.76402 ], [ -95.455099, 29.764039 ], [ -95.455102, 29.764083 ], [ -95.455111, 29.76411 ], [ -95.455128, 29.764131 ], [ -95.455148, 29.764149 ], [ -95.455175, 29.764163 ], [ -95.455202, 29.764174 ], [ -95.455235, 29.764188 ], [ -95.455263, 29.764207 ], [ -95.455275, 29.764225 ], [ -95.455283, 29.764245 ], [ -95.455287, 29.764269 ], [ -95.455309, 29.764663 ], [ -95.455367, 29.765358 ], [ -95.455405, 29.765808 ], [ -95.455403, 29.766046 ], [ -95.455349, 29.766172 ], [ -95.455287, 29.766293 ] ] } },
{ "type": "Feature", "properties": { "cls": "shared", "highway": "cycleway", "name": "Purple Trail" }, "geometry": { "type": "LineString", "coordinates": [ [ -95.44816, 29.76044 ], [ -95.448205, 29.761279 ], [ -95.448216, 29.762029 ], [ -95.448211, 29.762765 ], [ -95.448225, 29.763125 ], [ -95.448213, 29.76439 ], [ -95.448218, 29.765014 ], [ -95.448248, 29.765288 ], [ -95.448283, 29.765468 ], [ -95.448352, 29.765666 ], [ -95.448374, 29.765728 ], [ -95.448402, 29.765803 ], [ -95.448414, 29.765876 ], [ -95.448421, 29.765946 ], [ -95.448421, 29.766028 ], [ -95.44841, 29.766103 ], [ -95.448345, 29.766534 ] ] } },
{ "type": "Feature", "properties": { "cls": "shared", "highway": "cycleway", "name": "Commuter Trail" }, "geometry": { "type": "LineString", "coordinates": [ [ -95.455287, 29.766293 ], [ -95.45525, 29.766334 ] ] } },
{ "type": "Feature", "properties": { "cls": "shared", "highway": "cycleway", "name": "Commuter Trail" }, "geometry": { "type": "LineString", "coordinates": [ [ -95.45525, 29.766334 ], [ -95.455151, 29.766408 ], [ -95.454745, 29.766658 ], [ -95.454472, 29.766898 ], [ -95.454222, 29.766949 ], [ -95.453871, 29.767103 ], [ -95.453643, 29.767191 ], [ -95.45349, 29.767352 ] ] } },
{ "type": "Feature", "properties": { "cls": "separated", "highway": "cycleway", "name": "Hogg Woods Trail" }, "geometry": { "type": "LineString", "coordinates": [ [ -95.452596, 29.767511 ], [ -95.452611, 29.767481 ], [ -95.452648, 29.767482 ], [ -95.452729, 29.767489 ], [ -95.45283, 29.76748 ], [ -95.452859, 29.767379 ], [ -95.452906, 29.767375 ], [ -95.452947, 29.767388 ], [ -95.453, 29.767436 ] ] } },
{ "type": "Feature", "properties": { "cls": "shared", "highway": "cycleway", "name": "Commuter Trail" }, "geometry": { "type": "LineString", "coordinates": [ [ -95.45349, 29.767352 ], [ -95.45294, 29.767534 ], [ -95.452878, 29.767544 ], [ -95.45282, 29.767543 ], [ -95.452752, 29.767535 ], [ -95.452677, 29.76752 ], [ -95.452626, 29.767512 ], [ -95.452596, 29.767511 ] ] } },
{ "type": "Feature", "properties": { "cls": "shared", "highway": "cycleway", "name": "Commuter Trail" }, "geometry": { "type": "LineString", "coordinates": [ [ -95.452596, 29.767511 ], [ -95.452493, 29.767548 ] ] } },
{ "type": "Feature", "properties": { "cls": "shared", "highway": "cycleway", "name": "Commuter Trail" }, "geometry": { "type": "LineString", "coordinates": [ [ -95.450367, 29.767947 ], [ -95.450304, 29.767951 ], [ -95.449792, 29.767892 ], [ -95.449729, 29.767889 ], [ -95.44965, 29.767897 ], [ -95.44957, 29.767897 ], [ -95.449102, 29.767848 ], [ -95.449021, 29.767846 ], [ -95.448824, 29.767852 ], [ -95.448773, 29.76785 ], [ -95.448244, 29.767756 ], [ -95.448107, 29.767727 ], [ -95.448036, 29.767708 ], [ -95.447975, 29.767683 ], [ -95.44778, 29.767591 ], [ -95.447452, 29.767436 ], [ -95.447397, 29.767409 ], [ -95.447392, 29.767356 ], [ -95.447393, 29.767328 ], [ -95.447405, 29.767293 ] ] } },
{ "type": "Feature", "properties": { "cls": "shared", "highway": "cycleway", "name": "Commuter Trail" }, "geometry": { "type": "LineString", "coordinates": [ [ -95.452493, 29.767548 ], [ -95.452424, 29.767582 ] ] } },
{ "type": "Feature", "properties": { "cls": "separated", "highway": "cycleway", "name": "Hogg Woods Trail" }, "geometry": { "type": "LineString", "coordinates": [ [ -95.453, 29.767436 ], [ -95.45306, 29.767803 ] ] } },
{ "type": "Feature", "properties": { "cls": "shared", "highway": "cycleway", "name": null }, "geometry": { "type": "LineString", "coordinates": [ [ -95.447313, 29.766647 ], [ -95.447355, 29.766617 ], [ -95.447549, 29.766491 ] ] } },
{ "type": "Feature", "properties": { "cls": "shared", "highway": "cycleway", "name": "Commuter Trail" }, "geometry": { "type": "LineString", "coordinates": [ [ -95.44645, 29.767408 ], [ -95.446389, 29.767394 ], [ -95.446362, 29.767384 ], [ -95.446336, 29.767372 ], [ -95.446305, 29.767354 ], [ -95.446277, 29.767334 ], [ -95.446249, 29.767313 ], [ -95.446224, 29.767286 ], [ -95.446202, 29.767259 ], [ -95.446183, 29.76723 ], [ -95.446165, 29.767202 ], [ -95.446153, 29.767167 ], [ -95.446142, 29.767133 ], [ -95.446135, 29.767095 ], [ -95.446129, 29.766975 ], [ -95.446119, 29.766913 ], [ -95.446104, 29.766847 ], [ -95.446079, 29.766774 ], [ -95.446038, 29.766681 ], [ -95.446, 29.766606 ], [ -95.445951, 29.766527 ], [ -95.445888, 29.766444 ], [ -95.445755, 29.766319 ], [ -95.445651, 29.76624 ], [ -95.44554, 29.766176 ] ] } },
{ "type": "Feature", "properties": { "cls": "shared", "highway": "cycleway", "name": null }, "geometry": { "type": "LineString", "coordinates": [ [ -95.447557, 29.766768 ], [ -95.447759, 29.766821 ], [ -95.447892, 29.766854 ], [ -95.448026, 29.766891 ], [ -95.448197, 29.766936 ] ] } },
{ "type": "Feature", "properties": { "cls": "shared", "highway": "cycleway", "name": null }, "geometry": { "type": "LineString", "coordinates": [ [ -95.44645, 29.767408 ], [ -95.446517, 29.767422 ] ] } },
{ "type": "Feature", "properties": { "cls": "shared", "highway": "cycleway", "name": "Commuter Trail" }, "geometry": { "type": "LineString", "coordinates": [ [ -95.446663, 29.76745 ], [ -95.446814, 29.767479 ], [ -95.446864, 29.767486 ], [ -95.446907, 29.767489 ], [ -95.446989, 29.767489 ], [ -95.447072, 29.767479 ], [ -95.447136, 29.76747 ], [ -95.447192, 29.767454 ], [ -95.447279, 29.767441 ], [ -95.447452, 29.767436 ] ] } },
{ "type": "Feature", "properties": { "cls": "shared", "highway": "cycleway", "name": null }, "geometry": { "type": "LineString", "coordinates": [ [ -95.447452, 29.767436 ], [ -95.447529, 29.76742 ], [ -95.447613, 29.767425 ], [ -95.447716, 29.767449 ], [ -95.447822, 29.767491 ], [ -95.447902, 29.767535 ], [ -95.447963, 29.767573 ], [ -95.448048, 29.767651 ] ] } },
{ "type": "Feature", "properties": { "cls": "shared", "highway": "footway", "name": null }, "geometry": { "type": "LineString", "coordinates": [ [ -95.448067, 29.767568 ], [ -95.448043, 29.767554 ], [ -95.448023, 29.767549 ], [ -95.448003, 29.767549 ], [ -95.447987, 29.767557 ], [ -95.447963, 29.767573 ] ] } },
{ "type": "Feature", "properties": { "cls": "shared", "highway": "cycleway", "name": null }, "geometry": { "type": "LineString", "coordinates": [ [ -95.446236, 29.76809 ], [ -95.446303, 29.768113 ] ] } },
{ "type": "Feature", "properties": { "cls": "shared", "highway": "cycleway", "name": null }, "geometry": { "type": "LineString", "coordinates": [ [ -95.446303, 29.768113 ], [ -95.446369, 29.768136 ], [ -95.446455, 29.768166 ] ] } },
{ "type": "Feature", "properties": { "cls": "shared", "highway": "cycleway", "name": "Living Bridge" }, "geometry": { "type": "LineString", "coordinates": [ [ -95.44819, 29.767914 ], [ -95.448198, 29.767973 ], [ -95.4482, 29.768033 ], [ -95.448192, 29.768103 ], [ -95.448178, 29.76816 ], [ -95.448156, 29.768229 ], [ -95.448134, 29.768277 ], [ -95.448115, 29.768309 ], [ -95.448094, 29.768338 ], [ -95.448048, 29.768389 ], [ -95.448002, 29.768434 ], [ -95.447968, 29.768463 ] ] } },
{ "type": "Feature", "properties": { "cls": "shared", "highway": "cycleway", "name": "Commuter Trail" }, "geometry": { "type": "LineString", "coordinates": [ [ -95.452424, 29.767582 ], [ -95.452326, 29.767606 ], [ -95.452134, 29.767707 ] ] } },
{ "type": "Feature", "properties": { "cls": "shared", "highway": "footway", "name": null }, "geometry": { "type": "LineString", "coordinates": [ [ -95.448244, 29.767756 ], [ -95.4482, 29.767709 ] ] } },
{ "type": "Feature", "properties": { "cls": "shared", "highway": "cycleway", "name": null }, "geometry": { "type": "LineString", "coordinates": [ [ -95.448048, 29.767651 ], [ -95.448148, 29.767791 ], [ -95.448176, 29.767862 ], [ -95.44819, 29.767914 ] ] } },
{ "type": "Feature", "properties": { "cls": "shared", "highway": "cycleway", "name": "Commuter Trail" }, "geometry": { "type": "LineString", "coordinates": [ [ -95.452134, 29.767707 ], [ -95.452067, 29.76773 ] ] } },
{ "type": "Feature", "properties": { "cls": "shared", "highway": "cycleway", "name": "Commuter Trail" }, "geometry": { "type": "LineString", "coordinates": [ [ -95.452067, 29.76773 ], [ -95.451913, 29.767765 ], [ -95.451594, 29.767806 ] ] } },
{ "type": "Feature", "properties": { "cls": "shared", "highway": "cycleway", "name": "Commuter Trail" }, "geometry": { "type": "LineString", "coordinates": [ [ -95.451594, 29.767806 ], [ -95.451559, 29.767811 ] ] } },
{ "type": "Feature", "properties": { "cls": "shared", "highway": "cycleway", "name": "Commuter Trail" }, "geometry": { "type": "LineString", "coordinates": [ [ -95.451559, 29.767811 ], [ -95.45137, 29.767835 ], [ -95.451241, 29.767851 ] ] } },
{ "type": "Feature", "properties": { "cls": "shared", "highway": "cycleway", "name": "Commuter Trail" }, "geometry": { "type": "LineString", "coordinates": [ [ -95.451241, 29.767851 ], [ -95.451197, 29.767856 ] ] } },
{ "type": "Feature", "properties": { "cls": "shared", "highway": "cycleway", "name": "Commuter Trail" }, "geometry": { "type": "LineString", "coordinates": [ [ -95.451197, 29.767856 ], [ -95.45058, 29.767913 ], [ -95.450367, 29.767947 ] ] } },
{ "type": "Feature", "properties": { "cls": "separated", "highway": "cycleway", "name": null }, "geometry": { "type": "LineString", "coordinates": [ [ -95.452809, 29.768723 ], [ -95.452672, 29.768578 ] ] } },
{ "type": "Feature", "properties": { "cls": "shared", "highway": "cycleway", "name": null }, "geometry": { "type": "LineString", "coordinates": [ [ -95.447757, 29.768571 ], [ -95.447715, 29.768586 ], [ -95.44766, 29.768595 ], [ -95.447613, 29.768602 ], [ -95.447541, 29.768608 ], [ -95.447449, 29.768604 ], [ -95.447371, 29.768591 ], [ -95.447314, 29.768576 ], [ -95.447298, 29.76857 ], [ -95.447227, 29.768545 ], [ -95.447144, 29.768504 ], [ -95.447073, 29.768454 ], [ -95.446942, 29.768337 ] ] } },
{ "type": "Feature", "properties": { "cls": "shared", "highway": "cycleway", "name": null }, "geometry": { "type": "LineString", "coordinates": [ [ -95.447968, 29.768463 ], [ -95.447874, 29.768522 ], [ -95.447821, 29.768549 ], [ -95.447757, 29.768571 ] ] } },
{ "type": "Feature", "properties": { "cls": "shared", "highway": "cycleway", "name": null }, "geometry": { "type": "LineString", "coordinates": [ [ -95.446455, 29.768166 ], [ -95.446506, 29.76818 ], [ -95.446942, 29.768337 ], [ -95.44746, 29.768461 ], [ -95.447923, 29.76859 ], [ -95.448231, 29.768678 ], [ -95.448325, 29.768696 ], [ -95.448704, 29.768775 ], [ -95.448775, 29.768793 ], [ -95.448857, 29.768818 ], [ -95.44899, 29.768864 ], [ -95.449054, 29.768889 ], [ -95.449123, 29.76892 ], [ -95.4492, 29.768959 ], [ -95.449273, 29.768998 ], [ -95.449355, 29.769044 ], [ -95.449449, 29.769098 ], [ -95.449516, 29.769153 ] ] } },
{ "type": "Feature", "properties": { "cls": "separated", "highway": "cycleway", "name": "Connector Trails" }, "geometry": { "type": "LineString", "coordinates": [ [ -95.448296, 29.769013 ], [ -95.448357, 29.768899 ], [ -95.448383, 29.768867 ], [ -95.448394, 29.768851 ], [ -95.448402, 29.768832 ], [ -95.448403, 29.768815 ], [ -95.448398, 29.768796 ], [ -95.448388, 29.76878 ], [ -95.448367, 29.768761 ], [ -95.448324, 29.768741 ], [ -95.448271, 29.768722 ], [ -95.448135, 29.768685 ], [ -95.447957, 29.768653 ], [ -95.447872, 29.768677 ], [ -95.447753, 29.7687 ], [ -95.447576, 29.768707 ], [ -95.447442, 29.768704 ], [ -95.447344, 29.768659 ], [ -95.447314, 29.768576 ] ] } },
{ "type": "Feature", "properties": { "cls": "separated", "highway": "cycleway", "name": "The Triangle" }, "geometry": { "type": "LineString", "coordinates": [ [ -95.450922, 29.769142 ], [ -95.450738, 29.769305 ] ] } },
{ "type": "Feature", "properties": { "cls": "separated", "highway": "cycleway", "name": "Connector Trails" }, "geometry": { "type": "LineString", "coordinates": [ [ -95.449516, 29.769153 ], [ -95.4494, 29.769209 ], [ -95.449365, 29.76922 ], [ -95.449346, 29.769224 ], [ -95.449324, 29.769226 ], [ -95.449295, 29.769224 ], [ -95.449271, 29.769219 ], [ -95.449222, 29.769204 ], [ -95.449091, 29.769148 ], [ -95.449027, 29.769124 ], [ -95.448984, 29.769111 ], [ -95.448949, 29.769107 ], [ -95.448917, 29.769098 ], [ -95.448881, 29.769084 ], [ -95.448793, 29.769072 ], [ -95.448641, 29.769047 ], [ -95.448481, 29.769026 ], [ -95.448296, 29.769013 ], [ -95.448266, 29.769095 ], [ -95.448215, 29.769254 ], [ -95.448117, 29.769483 ], [ -95.448067, 29.769528 ], [ -95.448049, 29.769549 ], [ -95.448034, 29.769576 ], [ -95.448032, 29.769606 ], [ -95.448036, 29.769619 ], [ -95.44804, 29.76963 ], [ -95.448046, 29.769652 ], [ -95.448048, 29.769673 ], [ -95.448046, 29.769697 ], [ -95.448036, 29.769718 ], [ -95.448043, 29.769737 ], [ -95.448055, 29.769745 ] ] } },
{ "type": "Feature", "properties": { "cls": "separated", "highway": "cycleway", "name": "The Triangle" }, "geometry": { "type": "LineString", "coordinates": [ [ -95.450738, 29.769305 ], [ -95.45069, 29.76931 ], [ -95.450546, 29.769324 ], [ -95.450386, 29.769366 ], [ -95.450324, 29.769435 ], [ -95.450292, 29.769503 ], [ -95.450212, 29.769573 ] ] } },
{ "type": "Feature", "properties": { "cls": "separated", "highway": "cycleway", "name": "Hogg Woods Trail" }, "geometry": { "type": "LineString", "coordinates": [ [ -95.449794, 29.769501 ], [ -95.449824, 29.769415 ] ] } },
{ "type": "Feature", "properties": { "cls": "separated", "highway": "cycleway", "name": "The Triangle" }, "geometry": { "type": "LineString", "coordinates": [ [ -95.452988, 29.768162 ], [ -95.45287, 29.768155 ], [ -95.452738, 29.76816 ], [ -95.452632, 29.768217 ], [ -95.452588, 29.768268 ], [ -95.452593, 29.768345 ], [ -95.452626, 29.768418 ], [ -95.452649, 29.768479 ], [ -95.452671, 29.768518 ], [ -95.452672, 29.768578 ], [ -95.452625, 29.768652 ], [ -95.452512, 29.768745 ], [ -95.452485, 29.768839 ], [ -95.452471, 29.768891 ], [ -95.452442, 29.768939 ], [ -95.452359, 29.769022 ], [ -95.452156, 29.769065 ], [ -95.452008, 29.769108 ], [ -95.451931, 29.769174 ], [ -95.451913, 29.769238 ], [ -95.451971, 29.769336 ], [ -95.452, 29.769432 ], [ -95.452072, 29.769557 ], [ -95.452176, 29.769656 ], [ -95.452276, 29.769718 ], [ -95.452331, 29.769777 ], [ -95.452315, 29.769836 ], [ -95.452213, 29.769881 ], [ -95.452195, 29.76994 ], [ -95.452216, 29.76999 ], [ -95.452269, 29.770038 ], [ -95.452345, 29.770066 ], [ -95.452344, 29.77014 ], [ -95.452291, 29.770203 ], [ -95.452169, 29.770201 ], [ -95.452115, 29.770222 ], [ -95.452105, 29.770251 ], [ -95.452145, 29.770271 ], [ -95.452275, 29.770318 ], [ -95.452428, 29.770328 ], [ -95.452482, 29.770374 ], [ -95.452498, 29.770432 ], [ -95.452481, 29.770479 ], [ -95.452437, 29.770507 ], [ -95.452373, 29.77057 ], [ -95.452382, 29.77064 ], [ -95.452444, 29.770668 ], [ -95.452518, 29.770646 ], [ -95.452696, 29.770639 ], [ -95.452856, 29.770657 ] ] } },
{ "type": "Feature", "properties": { "cls": "separated", "highway": "cycleway", "name": "Hogg Woods Trail" }, "geometry": { "type": "LineString", "coordinates": [ [ -95.452856, 29.770657 ], [ -95.452836, 29.770619 ], [ -95.452802, 29.770493 ], [ -95.452818, 29.770281 ], [ -95.45285, 29.770167 ], [ -95.452866, 29.770054 ], [ -95.452804, 29.769855 ], [ -95.452694, 29.769659 ], [ -95.452571, 29.769447 ], [ -95.452572, 29.769316 ], [ -95.452611, 29.769196 ], [ -95.452747, 29.768997 ], [ -95.452788, 29.768925 ], [ -95.452809, 29.768723 ], [ -95.452883, 29.768562 ], [ -95.452944, 29.768451 ], [ -95.45301, 29.768342 ], [ -95.453056, 29.768286 ] ] } },
{ "type": "Feature", "properties": { "cls": "separated", "highway": "cycleway", "name": "The Triangle" }, "geometry": { "type": "LineString", "coordinates": [ [ -95.450212, 29.769573 ], [ -95.449992, 29.769726 ] ] } },
{ "type": "Feature", "properties": { "cls": "separated", "highway": "cycleway", "name": "The Triangle" }, "geometry": { "type": "LineString", "coordinates": [ [ -95.448055, 29.769745 ], [ -95.448129, 29.76976 ], [ -95.448251, 29.769763 ], [ -95.448347, 29.769815 ], [ -95.448544, 29.769971 ], [ -95.448831, 29.770057 ], [ -95.448916, 29.770075 ], [ -95.449004, 29.770092 ], [ -95.449124, 29.770093 ], [ -95.449249, 29.770057 ], [ -95.449337, 29.769979 ], [ -95.449477, 29.769775 ], [ -95.449593, 29.769687 ], [ -95.449675, 29.769649 ], [ -95.449741, 29.769663 ], [ -95.449804, 29.769731 ], [ -95.449882, 29.769742 ], [ -95.449992, 29.769726 ] ] } },
{ "type": "Feature", "properties": { "cls": "separated", "highway": "cycleway", "name": "Connector Trails" }, "geometry": { "type": "LineString", "coordinates": [ [ -95.449794, 29.769501 ], [ -95.449732, 29.769484 ], [ -95.449422, 29.769617 ], [ -95.449073, 29.769765 ], [ -95.448982, 29.769847 ], [ -95.448831, 29.770057 ], [ -95.448781, 29.770171 ], [ -95.448736, 29.770272 ] ] } },
{ "type": "Feature", "properties": { "cls": "separated", "highway": "cycleway", "name": "Hogg Woods Trail" }, "geometry": { "type": "LineString", "coordinates": [ [ -95.45306, 29.767803 ], [ -95.453027, 29.767905 ], [ -95.453013, 29.767953 ], [ -95.452996, 29.768011 ], [ -95.452988, 29.768162 ], [ -95.453056, 29.768286 ], [ -95.453305, 29.768093 ], [ -95.453533, 29.767995 ], [ -95.453674, 29.767913 ], [ -95.453837, 29.767902 ], [ -95.45402, 29.767822 ], [ -95.454155, 29.76783 ], [ -95.454291, 29.767793 ], [ -95.454558, 29.767663 ], [ -95.454889, 29.767558 ], [ -95.455014, 29.767565 ], [ -95.455128, 29.767604 ], [ -95.45523, 29.767704 ], [ -95.455278, 29.767823 ], [ -95.45522, 29.767937 ], [ -95.455201, 29.76805 ], [ -95.455272, 29.76817 ], [ -95.455226, 29.768302 ], [ -95.455246, 29.768417 ], [ -95.455341, 29.768563 ], [ -95.455335, 29.768712 ], [ -95.455282, 29.768929 ], [ -95.455193, 29.769182 ], [ -95.455207, 29.769407 ], [ -95.455231, 29.769656 ], [ -95.455103, 29.770053 ], [ -95.454978, 29.770356 ], [ -95.454851, 29.770646 ], [ -95.454784, 29.770969 ], [ -95.454755, 29.771114 ], [ -95.45469, 29.771247 ], [ -95.454555, 29.771385 ], [ -95.454245, 29.771484 ], [ -95.454103, 29.771628 ], [ -95.453973, 29.771893 ], [ -95.453892, 29.772157 ], [ -95.453721, 29.772317 ], [ -95.45355, 29.772431 ], [ -95.453379, 29.772473 ], [ -95.453138, 29.772329 ], [ -95.452984, 29.772277 ], [ -95.452837, 29.772191 ], [ -95.45275, 29.772044 ], [ -95.452764, 29.771864 ], [ -95.452801, 29.7716 ], [ -95.452867, 29.771355 ], [ -95.452995, 29.771183 ], [ -95.453017, 29.770977 ], [ -95.452867, 29.770678 ] ] } },
{ "type": "Feature", "properties": { "cls": "separated", "highway": "cycleway", "name": "The Triangle" }, "geometry": { "type": "LineString", "coordinates": [ [ -95.452856, 29.770657 ], [ -95.452867, 29.770678 ] ] } },
{ "type": "Feature", "properties": { "cls": "separated", "highway": "cycleway", "name": "Hogg Woods Trail" }, "geometry": { "type": "LineString", "coordinates": [ [ -95.452867, 29.770678 ], [ -95.452856, 29.770657 ] ] } },
{ "type": "Feature", "properties": { "cls": "separated", "highway": "cycleway", "name": "The Triangle" }, "geometry": { "type": "LineString", "coordinates": [ [ -95.452867, 29.770678 ], [ -95.45286, 29.770804 ], [ -95.45275, 29.770827 ], [ -95.452679, 29.770904 ], [ -95.452613, 29.770956 ], [ -95.452504, 29.770961 ], [ -95.452408, 29.770933 ], [ -95.452315, 29.770952 ], [ -95.452264, 29.771022 ], [ -95.452291, 29.771123 ], [ -95.452387, 29.771205 ], [ -95.452405, 29.771325 ], [ -95.452361, 29.771432 ], [ -95.452382, 29.771522 ], [ -95.45245, 29.771573 ], [ -95.452486, 29.771661 ], [ -95.452461, 29.771757 ], [ -95.452432, 29.77183 ], [ -95.452483, 29.771952 ], [ -95.45249, 29.772091 ], [ -95.452498, 29.772363 ], [ -95.452401, 29.772386 ], [ -95.45231, 29.772342 ], [ -95.452253, 29.772263 ], [ -95.452249, 29.772158 ], [ -95.452271, 29.772063 ], [ -95.452229, 29.771981 ], [ -95.452139, 29.771924 ], [ -95.452051, 29.771897 ], [ -95.451964, 29.771871 ], [ -95.451905, 29.771827 ], [ -95.451841, 29.771768 ], [ -95.45183, 29.771657 ], [ -95.451749, 29.77158 ], [ -95.451698, 29.771499 ], [ -95.451706, 29.771425 ], [ -95.451784, 29.771335 ], [ -95.451862, 29.771186 ], [ -95.451896, 29.771066 ], [ -95.451894, 29.770925 ], [ -95.451876, 29.770831 ], [ -95.451807, 29.770782 ], [ -95.451787, 29.77074 ], [ -95.451819, 29.770709 ], [ -95.451877, 29.770714 ], [ -95.45193, 29.770699 ], [ -95.45195, 29.770653 ], [ -95.451938, 29.770589 ], [ -95.451903, 29.770541 ], [ -95.451855, 29.770509 ], [ -95.451806, 29.770524 ], [ -95.451786, 29.770557 ], [ -95.451721, 29.770567 ], [ -95.451668, 29.77052 ], [ -95.451674, 29.770468 ], [ -95.451676, 29.770403 ], [ -95.451702, 29.770299 ], [ -95.45169, 29.770147 ], [ -95.451714, 29.770003 ], [ -95.451768, 29.769918 ], [ -95.451771, 29.769816 ], [ -95.451797, 29.769694 ], [ -95.451774, 29.769597 ], [ -95.451718, 29.769565 ], [ -95.451692, 29.769518 ], [ -95.451657, 29.769413 ], [ -95.451648, 29.769307 ], [ -95.451532, 29.769255 ], [ -95.451438, 29.769296 ], [ -95.451259, 29.769315 ], [ -95.451185, 29.769301 ], [ -95.451086, 29.769252 ], [ -95.450981, 29.769111 ], [ -95.450922, 29.769142 ] ] } },
{ "type": "Feature", "properties": { "cls": "separated", "highway": "cycleway", "name": "Hogg Woods Trail" }, "geometry": { "type": "LineString", "coordinates": [ [ -95.453379, 29.772473 ], [ -95.453286, 29.772654 ], [ -95.453194, 29.772837 ], [ -95.453126, 29.772971 ] ] } },
{ "type": "Feature", "properties": { "cls": "shared", "highway": "cycleway", "name": null }, "geometry": { "type": "LineString", "coordinates": [ [ -95.456555, 29.76543 ], [ -95.456538, 29.765455 ], [ -95.456509, 29.765495 ] ] } },
{ "type": "Feature", "properties": { "cls": "shared", "highway": "cycleway", "name": null }, "geometry": { "type": "LineString", "coordinates": [ [ -95.456509, 29.765495 ], [ -95.456465, 29.765522 ], [ -95.456423, 29.765547 ] ] } },
{ "type": "Feature", "properties": { "cls": "shared", "highway": "cycleway", "name": null }, "geometry": { "type": "LineString", "coordinates": [ [ -95.456423, 29.765547 ], [ -95.456374, 29.765576 ], [ -95.456226, 29.765676 ] ] } },
{ "type": "Feature", "properties": { "cls": "shared", "highway": "cycleway", "name": null }, "geometry": { "type": "LineString", "coordinates": [ [ -95.456226, 29.765676 ], [ -95.455616, 29.76607 ] ] } },
{ "type": "Feature", "properties": { "cls": "shared", "highway": "cycleway", "name": null }, "geometry": { "type": "LineString", "coordinates": [ [ -95.455616, 29.76607 ], [ -95.455495, 29.766164 ] ] } },
{ "type": "Feature", "properties": { "cls": "separated", "highway": "cycleway", "name": null }, "geometry": { "type": "LineString", "coordinates": [ [ -95.455459, 29.766188 ], [ -95.455495, 29.766164 ] ] } },
{ "type": "Feature", "properties": { "cls": "separated", "highway": "cycleway", "name": null }, "geometry": { "type": "LineString", "coordinates": [ [ -95.455392, 29.766232 ], [ -95.455408, 29.766223 ], [ -95.455414, 29.766219 ], [ -95.455459, 29.766188 ] ] } },
{ "type": "Feature", "properties": { "cls": "separated", "highway": "cycleway", "name": null }, "geometry": { "type": "LineString", "coordinates": [ [ -95.455287, 29.766293 ], [ -95.455341, 29.766262 ], [ -95.455392, 29.766232 ] ] } }
]
}
