{
"type": "FeatureCollection",
"name": "145-omaha-glenn-cunningham-lake-park",
"crs": { "type": "name", "properties": { "name": "urn:ogc:def:crs:OGC:1.3:CRS84" } },
"xy_coordinate_resolution": 1e-06,
"features": [
{ "type": "Feature", "properties": { "cls": "separated", "highway": "cycleway", "name": "Lake Cunningham Trail" }, "geometry": { "type": "LineString", "coordinates": [ [ -96.059724, 41.342442 ], [ -96.059549, 41.342421 ], [ -96.059173, 41.342411 ], [ -96.058902, 41.34239 ], [ -96.058861, 41.342386 ], [ -96.058526, 41.342356 ], [ -96.05807, 41.342249 ], [ -96.057824, 41.342177 ], [ -96.057645, 41.342118 ], [ -96.057541, 41.342084 ], [ -96.057406, 41.342036 ], [ -96.057226, 41.341982 ], [ -96.057029, 41.341905 ], [ -96.056872, 41.34182 ], [ -96.056781, 41.341766 ], [ -96.056708, 41.34171 ], [ -96.056583, 41.341589 ], [ -96.056496, 41.341512 ], [ -96.056274, 41.341272 ], [ -96.056202, 41.34121 ], [ -96.056128, 41.341107 ], [ -96.056067, 41.340996 ], [ -96.056029, 41.340857 ], [ -96.056006, 41.340709 ], [ -96.05599, 41.340627 ], [ -96.055971, 41.340475 ], [ -96.055969, 41.340302 ], [ -96.056034, 41.340145 ], [ -96.056325, 41.339809 ], [ -96.056511, 41.339595 ], [ -96.056537, 41.339553 ], [ -96.056556, 41.339473 ], [ -96.056573, 41.339252 ], [ -96.056611, 41.339123 ], [ -96.056662, 41.339034 ], [ -96.056948, 41.338643 ], [ -96.056982, 41.338534 ], [ -96.056983, 41.338407 ], [ -96.056929, 41.338198 ], [ -96.05685, 41.337881 ], [ -96.056766, 41.337575 ], [ -96.056734, 41.337554 ] ] } },
{ "type": "Feature", "properties": { "cls": "separated", "highway": "cycleway", "name": null }, "geometry": { "type": "LineString", "coordinates": [ [ -96.056912, 41.340589 ], [ -96.056992, 41.340549 ], [ -96.057041, 41.340511 ], [ -96.057065, 41.340458 ], [ -96.057068, 41.340402 ] ] } },
{ "type": "Feature", "properties": { "cls": "separated", "highway": "cycleway", "name": "Lake Cunningham Trail" }, "geometry": { "type": "LineString", "coordinates": [ [ -96.059994, 41.343984 ], [ -96.060078, 41.343947 ], [ -96.060142, 41.343903 ], [ -96.060176, 41.343862 ], [ -96.060211, 41.343801 ], [ -96.060195, 41.343355 ], [ -96.060179, 41.342985 ], [ -96.060178, 41.342949 ], [ -96.060138, 41.342768 ], [ -96.060074, 41.342651 ], [ -96.059979, 41.342569 ], [ -96.05986, 41.342498 ], [ -96.059724, 41.342442 ] ] } },
{ "type": "Feature", "properties": { "cls": "separated", "highway": "cycleway", "name": "Lake Cunningham Trail" }, "geometry": { "type": "LineString", "coordinates": [ [ -96.057506, 41.344704 ], [ -96.057537, 41.344704 ], [ -96.057638, 41.344717 ], [ -96.057707, 41.344734 ], [ -96.057971, 41.344783 ], [ -96.058131, 41.344812 ], [ -96.058177, 41.344809 ], [ -96.058217, 41.344787 ], [ -96.058275, 41.344669 ], [ -96.058318, 41.344594 ], [ -96.058339, 41.344581 ], [ -96.058671, 41.3445 ], [ -96.058836, 41.344453 ], [ -96.058985, 41.344387 ], [ -96.059139, 41.344299 ], [ -96.059348, 41.344172 ], [ -96.059462, 41.344106 ], [ -96.059557, 41.344065 ], [ -96.059774, 41.34401 ], [ -96.059994, 41.343984 ] ] } },
{ "type": "Feature", "properties": { "cls": "separated", "highway": "cycleway", "name": "Lake Cunningham Trail" }, "geometry": { "type": "LineString", "coordinates": [ [ -96.056044, 41.344913 ], [ -96.056176, 41.344863 ], [ -96.056572, 41.344784 ], [ -96.057114, 41.34471 ], [ -96.057331, 41.34471 ], [ -96.057418, 41.344708 ], [ -96.057506, 41.344704 ] ] } },
{ "type": "Feature", "properties": { "cls": "separated", "highway": "cycleway", "name": "Lake Cunningham Trail" }, "geometry": { "type": "LineString", "coordinates": [ [ -96.057073, 41.345982 ], [ -96.056721, 41.345992 ], [ -96.05629, 41.346005 ], [ -96.056189, 41.346008 ], [ -96.056084, 41.346007 ], [ -96.055981, 41.346003 ], [ -96.055848, 41.345972 ], [ -96.05575, 41.345923 ], [ -96.05565, 41.345848 ], [ -96.055581, 41.345752 ], [ -96.055529, 41.345627 ], [ -96.055544, 41.345476 ], [ -96.055595, 41.345321 ], [ -96.055705, 41.345159 ], [ -96.055798, 41.34507 ], [ -96.055895, 41.344993 ], [ -96.056029, 41.344922 ], [ -96.056044, 41.344913 ] ] } },
{ "type": "Feature", "properties": { "cls": "separated", "highway": "cycleway", "name": "Lake Cunningham Trail" }, "geometry": { "type": "LineString", "coordinates": [ [ -96.057557, 41.346163 ], [ -96.057487, 41.346102 ], [ -96.057397, 41.346029 ], [ -96.057301, 41.345989 ], [ -96.057188, 41.345976 ], [ -96.057073, 41.345982 ] ] } },
{ "type": "Feature", "properties": { "cls": "separated", "highway": "cycleway", "name": "Lake Cunningham Trail" }, "geometry": { "type": "LineString", "coordinates": [ [ -96.057834, 41.346488 ], [ -96.05779, 41.346425 ], [ -96.057735, 41.346344 ], [ -96.057557, 41.346163 ] ] } },
{ "type": "Feature", "properties": { "cls": "separated", "highway": "cycleway", "name": "Lake Cunningham Trail" }, "geometry": { "type": "LineString", "coordinates": [ [ -96.058967, 41.348372 ], [ -96.058941, 41.348305 ], [ -96.058915, 41.348252 ], [ -96.058875, 41.348169 ], [ -96.058752, 41.347835 ], [ -96.058714, 41.347783 ], [ -96.058615, 41.347691 ], [ -96.058377, 41.347563 ], [ -96.058288, 41.347508 ], [ -96.058059, 41.347247 ], [ -96.057973, 41.347115 ], [ -96.057935, 41.346992 ], [ -96.057851, 41.346691 ], [ -96.057845, 41.34657 ], [ -96.057834, 41.346488 ] ] } },
{ "type": "Feature", "properties": { "cls": "separated", "highway": "cycleway", "name": "Lake Cunningham Trail" }, "geometry": { "type": "LineString", "coordinates": [ [ -96.059106, 41.35017 ], [ -96.059159, 41.350064 ], [ -96.059188, 41.349971 ], [ -96.059203, 41.349886 ], [ -96.0592, 41.349806 ], [ -96.059177, 41.349662 ], [ -96.059138, 41.34942 ], [ -96.059088, 41.349116 ], [ -96.059056, 41.348875 ], [ -96.058976, 41.348446 ], [ -96.058967, 41.348372 ] ] } },
{ "type": "Feature", "properties": { "cls": "separated", "highway": "cycleway", "name": "Keystone Trail" }, "geometry": { "type": "LineString", "coordinates": [ [ -96.050704, 41.335863 ], [ -96.050697, 41.335677 ], [ -96.050697, 41.335676 ] ] } },
{ "type": "Feature", "properties": { "cls": "separated", "highway": "cycleway", "name": null }, "geometry": { "type": "LineString", "coordinates": [ [ -96.050371, 41.335805 ], [ -96.050377, 41.335681 ] ] } },
{ "type": "Feature", "properties": { "cls": "separated", "highway": "cycleway", "name": null }, "geometry": { "type": "LineString", "coordinates": [ [ -96.050122, 41.335757 ], [ -96.050229, 41.335758 ], [ -96.050371, 41.335805 ], [ -96.050538, 41.335817 ], [ -96.050594, 41.335833 ], [ -96.050616, 41.335863 ], [ -96.050704, 41.335863 ], [ -96.052378, 41.335861 ], [ -96.052565, 41.335851 ] ] } },
{ "type": "Feature", "properties": { "cls": "separated", "highway": "cycleway", "name": "Lake Cunningham Trail" }, "geometry": { "type": "LineString", "coordinates": [ [ -96.056688, 41.33756 ], [ -96.056224, 41.337619 ], [ -96.053778, 41.337882 ], [ -96.051993, 41.338086 ], [ -96.050775, 41.338227 ], [ -96.049876, 41.338332 ], [ -96.049602, 41.338371 ], [ -96.049539, 41.338377 ], [ -96.049498, 41.338383 ], [ -96.049436, 41.338377 ], [ -96.04938, 41.338363 ], [ -96.04924, 41.338333 ], [ -96.049071, 41.338324 ], [ -96.048891, 41.338354 ], [ -96.048708, 41.338433 ], [ -96.048107, 41.338764 ], [ -96.047708, 41.338973 ], [ -96.047615, 41.339027 ], [ -96.047325, 41.339184 ], [ -96.047291, 41.339242 ], [ -96.047271, 41.339277 ], [ -96.04724, 41.3395 ], [ -96.047209, 41.33958 ], [ -96.047102, 41.33965 ], [ -96.047035, 41.339694 ], [ -96.046872, 41.339801 ], [ -96.046842, 41.339819 ], [ -96.046303, 41.340145 ], [ -96.046249, 41.340178 ], [ -96.046136, 41.340211 ], [ -96.046053, 41.340252 ], [ -96.045857, 41.340425 ], [ -96.04572, 41.340605 ], [ -96.045658, 41.340733 ], [ -96.045632, 41.340833 ], [ -96.045612, 41.340932 ], [ -96.045595, 41.3411 ], [ -96.045594, 41.341227 ], [ -96.045581, 41.341419 ], [ -96.045503, 41.341612 ], [ -96.045507, 41.341651 ], [ -96.04555, 41.341711 ], [ -96.045589, 41.341806 ], [ -96.045601, 41.341835 ], [ -96.045678, 41.342008 ] ] } },
{ "type": "Feature", "properties": { "cls": "separated", "highway": "cycleway", "name": "Lake Cunningham Trail" }, "geometry": { "type": "LineString", "coordinates": [ [ -96.045678, 41.342008 ], [ -96.04585, 41.342486 ] ] } },
{ "type": "Feature", "properties": { "cls": "separated", "highway": "cycleway", "name": "Lake Cunningham Trail" }, "geometry": { "type": "LineString", "coordinates": [ [ -96.04585, 41.342486 ], [ -96.045866, 41.342545 ], [ -96.045913, 41.342674 ], [ -96.045967, 41.342718 ], [ -96.046136, 41.342805 ], [ -96.046533, 41.342844 ], [ -96.046836, 41.342855 ], [ -96.04696, 41.34279 ], [ -96.04719, 41.342619 ], [ -96.047413, 41.342466 ], [ -96.047709, 41.342351 ], [ -96.048473, 41.342055 ], [ -96.048845, 41.34192 ], [ -96.04908, 41.341831 ], [ -96.049393, 41.341811 ], [ -96.050665, 41.342107 ], [ -96.0508, 41.342173 ], [ -96.050929, 41.342293 ], [ -96.051038, 41.34246 ], [ -96.05109, 41.342609 ], [ -96.051047, 41.34288 ], [ -96.05089, 41.343391 ], [ -96.050824, 41.343725 ], [ -96.050849, 41.344018 ], [ -96.050873, 41.344677 ], [ -96.050885, 41.344772 ], [ -96.050905, 41.344916 ], [ -96.050948, 41.345238 ], [ -96.050922, 41.345753 ], [ -96.050955, 41.346245 ], [ -96.051108, 41.346773 ], [ -96.051275, 41.347265 ], [ -96.051338, 41.347468 ], [ -96.051414, 41.347653 ], [ -96.051598, 41.347916 ], [ -96.051715, 41.348019 ], [ -96.051912, 41.348172 ], [ -96.051959, 41.348207 ], [ -96.052269, 41.34844 ], [ -96.052412, 41.348554 ], [ -96.052593, 41.348699 ], [ -96.052748, 41.348823 ], [ -96.052894, 41.348941 ], [ -96.052983, 41.349111 ], [ -96.052995, 41.349262 ], [ -96.05298, 41.349418 ], [ -96.052961, 41.349698 ], [ -96.052935, 41.349864 ], [ -96.052837, 41.349955 ], [ -96.052702, 41.350019 ], [ -96.052661, 41.350048 ], [ -96.052643, 41.350094 ], [ -96.052643, 41.350136 ], [ -96.052643, 41.350159 ], [ -96.052661, 41.350203 ], [ -96.052742, 41.350267 ], [ -96.052792, 41.350317 ], [ -96.052825, 41.350386 ], [ -96.052838, 41.35049 ], [ -96.052833, 41.35059 ] ] } },
{ "type": "Feature", "properties": { "cls": "separated", "highway": "cycleway", "name": "Lake Cunningham Trail" }, "geometry": { "type": "LineString", "coordinates": [ [ -96.052833, 41.35059 ], [ -96.052843, 41.350955 ], [ -96.052841, 41.351161 ], [ -96.052842, 41.351286 ], [ -96.052815, 41.351382 ], [ -96.052776, 41.351446 ], [ -96.052707, 41.351526 ], [ -96.052607, 41.351604 ], [ -96.052505, 41.351703 ], [ -96.052405, 41.351792 ], [ -96.052292, 41.35188 ], [ -96.052233, 41.351936 ], [ -96.052083, 41.352131 ], [ -96.051725, 41.352573 ], [ -96.051625, 41.352688 ], [ -96.051557, 41.352772 ] ] } },
{ "type": "Feature", "properties": { "cls": "separated", "highway": "cycleway", "name": null }, "geometry": { "type": "LineString", "coordinates": [ [ -96.051008, 41.354475 ], [ -96.050919, 41.354368 ], [ -96.050863, 41.354296 ], [ -96.050836, 41.354219 ], [ -96.050814, 41.354119 ], [ -96.050822, 41.354022 ], [ -96.050844, 41.353956 ], [ -96.050911, 41.353823 ], [ -96.05097, 41.353726 ], [ -96.051056, 41.353547 ], [ -96.051169, 41.353313 ], [ -96.051295, 41.353128 ], [ -96.051404, 41.352961 ], [ -96.051557, 41.352772 ] ] } },
{ "type": "Feature", "properties": { "cls": "separated", "highway": "cycleway", "name": null }, "geometry": { "type": "LineString", "coordinates": [ [ -96.051008, 41.354475 ], [ -96.051077, 41.354528 ], [ -96.051128, 41.35458 ], [ -96.051179, 41.354652 ], [ -96.051233, 41.354717 ], [ -96.051359, 41.354813 ], [ -96.051477, 41.354876 ], [ -96.051673, 41.354972 ], [ -96.051796, 41.355041 ], [ -96.051933, 41.355123 ], [ -96.052105, 41.355264 ], [ -96.052214, 41.355382 ] ] } },
{ "type": "Feature", "properties": { "cls": "separated", "highway": "cycleway", "name": null }, "geometry": { "type": "LineString", "coordinates": [ [ -96.052214, 41.355382 ], [ -96.052236, 41.355405 ], [ -96.05237, 41.355572 ], [ -96.052421, 41.355665 ], [ -96.052453, 41.355742 ], [ -96.052469, 41.355852 ], [ -96.052464, 41.35643 ], [ -96.052454, 41.356936 ], [ -96.05243, 41.357583 ], [ -96.052432, 41.357688 ], [ -96.052423, 41.357766 ], [ -96.052445, 41.357956 ], [ -96.052426, 41.358029 ], [ -96.052429, 41.358097 ], [ -96.052451, 41.358166 ], [ -96.052464, 41.358193 ] ] } },
{ "type": "Feature", "properties": { "cls": "separated", "highway": "cycleway", "name": "Lake Cunningham Trail" }, "geometry": { "type": "LineString", "coordinates": [ [ -96.056912, 41.364701 ], [ -96.056946, 41.364644 ], [ -96.056958, 41.364557 ], [ -96.056967, 41.364028 ], [ -96.05697, 41.363727 ], [ -96.056982, 41.363615 ], [ -96.057019, 41.363529 ], [ -96.0571, 41.363442 ], [ -96.057204, 41.363371 ], [ -96.057321, 41.363323 ], [ -96.057521, 41.36326 ], [ -96.05784, 41.363156 ], [ -96.058064, 41.363086 ], [ -96.058105, 41.363058 ], [ -96.058115, 41.363007 ], [ -96.058125, 41.3624 ], [ -96.058128, 41.362074 ], [ -96.058136, 41.361521 ], [ -96.05815, 41.361416 ], [ -96.058243, 41.361053 ], [ -96.058261, 41.360982 ], [ -96.058288, 41.360849 ], [ -96.05826, 41.36073 ], [ -96.058031, 41.360418 ], [ -96.058012, 41.360333 ], [ -96.058019, 41.360235 ], [ -96.058059, 41.360043 ], [ -96.058067, 41.359997 ], [ -96.058052, 41.359935 ], [ -96.057948, 41.359753 ], [ -96.057914, 41.359653 ], [ -96.057891, 41.359533 ], [ -96.057891, 41.359431 ], [ -96.057885, 41.359331 ], [ -96.057838, 41.3592 ], [ -96.057773, 41.359081 ], [ -96.057666, 41.358862 ], [ -96.057623, 41.35874 ], [ -96.057614, 41.35863 ], [ -96.05765, 41.358513 ], [ -96.057759, 41.358261 ], [ -96.057953, 41.357797 ], [ -96.058099, 41.357438 ], [ -96.05815, 41.357309 ], [ -96.058165, 41.357246 ], [ -96.058165, 41.357136 ], [ -96.058128, 41.357 ], [ -96.057817, 41.356586 ], [ -96.057529, 41.356211 ], [ -96.057407, 41.35604 ], [ -96.057282, 41.355745 ], [ -96.057069, 41.355232 ], [ -96.056904, 41.354838 ], [ -96.056766, 41.354514 ], [ -96.056631, 41.354189 ], [ -96.056625, 41.354142 ], [ -96.05664, 41.354102 ], [ -96.056684, 41.354047 ], [ -96.056743, 41.354022 ], [ -96.056791, 41.354012 ], [ -96.056879, 41.354026 ], [ -96.05707, 41.354103 ], [ -96.058105, 41.354586 ], [ -96.058301, 41.354672 ], [ -96.059308, 41.355141 ], [ -96.059623, 41.355282 ], [ -96.059798, 41.355417 ], [ -96.060012, 41.355612 ], [ -96.060222, 41.355749 ], [ -96.060354, 41.35577 ], [ -96.060514, 41.355756 ], [ -96.060631, 41.355704 ], [ -96.060686, 41.355651 ], [ -96.060764, 41.355504 ], [ -96.060973, 41.354985 ], [ -96.060968, 41.354893 ], [ -96.060611, 41.354443 ], [ -96.06047, 41.354274 ], [ -96.060332, 41.354077 ], [ -96.060175, 41.353788 ], [ -96.060161, 41.353746 ], [ -96.059905, 41.352976 ], [ -96.059746, 41.352521 ], [ -96.059435, 41.351977 ], [ -96.059038, 41.351277 ], [ -96.058966, 41.351167 ], [ -96.058927, 41.351055 ], [ -96.058917, 41.350909 ], [ -96.058915, 41.350876 ], [ -96.058892, 41.350597 ], [ -96.058884, 41.35049 ], [ -96.058895, 41.350398 ], [ -96.058949, 41.350331 ], [ -96.059028, 41.350257 ], [ -96.059106, 41.35017 ] ] } },
{ "type": "Feature", "properties": { "cls": "separated", "highway": "cycleway", "name": null }, "geometry": { "type": "LineString", "coordinates": [ [ -96.052464, 41.358193 ], [ -96.052506, 41.358304 ], [ -96.052517, 41.358389 ], [ -96.052512, 41.358472 ] ] } },
{ "type": "Feature", "properties": { "cls": "separated", "highway": "cycleway", "name": "Lake Cunningham Trail" }, "geometry": { "type": "LineString", "coordinates": [ [ -96.049254, 41.363913 ], [ -96.049305, 41.363928 ], [ -96.049387, 41.363922 ], [ -96.049501, 41.3639 ], [ -96.049676, 41.363855 ], [ -96.049782, 41.363777 ], [ -96.049909, 41.36367 ], [ -96.050081, 41.363519 ], [ -96.050375, 41.363233 ], [ -96.050657, 41.363005 ], [ -96.050779, 41.362885 ], [ -96.050991, 41.362683 ], [ -96.051163, 41.362502 ], [ -96.051303, 41.362369 ], [ -96.051442, 41.362258 ], [ -96.051539, 41.362199 ], [ -96.051747, 41.362081 ], [ -96.051997, 41.361936 ], [ -96.052444, 41.361681 ], [ -96.052615, 41.361581 ], [ -96.052715, 41.361521 ], [ -96.05284, 41.361501 ], [ -96.052987, 41.361546 ], [ -96.053152, 41.361851 ], [ -96.053208, 41.361964 ], [ -96.053203, 41.362726 ], [ -96.053546, 41.363184 ], [ -96.05364, 41.363308 ], [ -96.053823, 41.363662 ], [ -96.053846, 41.363768 ], [ -96.053817, 41.364212 ], [ -96.053841, 41.364363 ], [ -96.053887, 41.364429 ], [ -96.053945, 41.36451 ], [ -96.054012, 41.364556 ], [ -96.054111, 41.364625 ], [ -96.054333, 41.364692 ], [ -96.054631, 41.364707 ] ] } },
{ "type": "Feature", "properties": { "cls": "separated", "highway": "cycleway", "name": null }, "geometry": { "type": "LineString", "coordinates": [ [ -96.052512, 41.358472 ], [ -96.052496, 41.358576 ], [ -96.052456, 41.358675 ], [ -96.052413, 41.358768 ], [ -96.052359, 41.358864 ], [ -96.052276, 41.358977 ], [ -96.052177, 41.3591 ], [ -96.052083, 41.359184 ], [ -96.051914, 41.359309 ], [ -96.051635, 41.359512 ], [ -96.051276, 41.359758 ], [ -96.051088, 41.359881 ], [ -96.050868, 41.360028 ], [ -96.050793, 41.360098 ], [ -96.050715, 41.360173 ], [ -96.050651, 41.360257 ], [ -96.0506, 41.360342 ], [ -96.050549, 41.360448 ], [ -96.050474, 41.36066 ], [ -96.050376, 41.360851 ], [ -96.050147, 41.361165 ], [ -96.050082, 41.361244 ], [ -96.050007, 41.361385 ], [ -96.049888, 41.361566 ], [ -96.049795, 41.361681 ], [ -96.049724, 41.361782 ], [ -96.04961, 41.361962 ], [ -96.049447, 41.362125 ], [ -96.049339, 41.362256 ], [ -96.04928, 41.362355 ], [ -96.049229, 41.362452 ], [ -96.049143, 41.362584 ], [ -96.048977, 41.362808 ], [ -96.048744, 41.363166 ], [ -96.048556, 41.363464 ], [ -96.048537, 41.363533 ], [ -96.048548, 41.363585 ], [ -96.048572, 41.363627 ], [ -96.048642, 41.36368 ] ] } },
{ "type": "Feature", "properties": { "cls": "separated", "highway": "cycleway", "name": null }, "geometry": { "type": "LineString", "coordinates": [ [ -96.048642, 41.36368 ], [ -96.048721, 41.363735 ], [ -96.048826, 41.363777 ], [ -96.048902, 41.3638 ] ] } },
{ "type": "Feature", "properties": { "cls": "separated", "highway": "cycleway", "name": null }, "geometry": { "type": "LineString", "coordinates": [ [ -96.048902, 41.3638 ], [ -96.049143, 41.363889 ], [ -96.049254, 41.363913 ] ] } }
]
}
