{
"type": "FeatureCollection",
"name": "146-los-angeles-hansen-dam-recreation-center",
"crs": { "type": "name", "properties": { "name": "urn:ogc:def:crs:OGC:1.3:CRS84" } },
"xy_coordinate_resolution": 1e-06,
"features": [
{ "type": "Feature", "properties": { "cls": "separated", "highway": "cycleway", "name": "Hansen Dam Bike Path" }, "geometry": { "type": "LineString", "coordinates": [ [ -118.386041, 34.260574 ], [ -118.385106, 34.260263 ] ] } },
{ "type": "Feature", "properties": { "cls": "separated", "highway": "cycleway", "name": "Hansen Dam Bike Path" }, "geometry": { "type": "LineString", "coordinates": [ [ -118.370679, 34.261218 ], [ -118.370752, 34.261253 ], [ -118.370827, 34.261296 ], [ -118.370899, 34.261337 ], [ -118.370998, 34.261401 ], [ -118.371008, 34.26141 ], [ -118.371018, 34.261422 ], [ -118.371038, 34.261453 ], [ -118.371047, 34.261475 ], [ -118.371055, 34.261503 ], [ -118.37106, 34.261552 ], [ -118.371059, 34.261598 ], [ -118.371057, 34.261615 ], [ -118.37105, 34.261634 ], [ -118.371034, 34.26166 ], [ -118.371, 34.261701 ], [ -118.370518, 34.262274 ], [ -118.370446, 34.262361 ], [ -118.370412, 34.262408 ], [ -118.37038, 34.262465 ], [ -118.37025, 34.262791 ], [ -118.370238, 34.262835 ], [ -118.370225, 34.262897 ], [ -118.370221, 34.262951 ], [ -118.370225, 34.263008 ], [ -118.37023, 34.263043 ], [ -118.370241, 34.263078 ], [ -118.370274, 34.263157 ], [ -118.370315, 34.263229 ], [ -118.370346, 34.263271 ], [ -118.370369, 34.263295 ], [ -118.370384, 34.263311 ], [ -118.370427, 34.263341 ], [ -118.370481, 34.263373 ], [ -118.370545, 34.263398 ], [ -118.370581, 34.263405 ], [ -118.370619, 34.263411 ], [ -118.370675, 34.263409 ], [ -118.370707, 34.263405 ], [ -118.370756, 34.263391 ], [ -118.37079, 34.263379 ], [ -118.370831, 34.263365 ], [ -118.37086, 34.263348 ], [ -118.370884, 34.263328 ], [ -118.370938, 34.263254 ], [ -118.370987, 34.263186 ], [ -118.371484, 34.262405 ], [ -118.371527, 34.262338 ], [ -118.371589, 34.262237 ], [ -118.371933, 34.261702 ], [ -118.372019, 34.261566 ], [ -118.372098, 34.261463 ], [ -118.372189, 34.261364 ], [ -118.372269, 34.261282 ], [ -118.372336, 34.261225 ], [ -118.372612, 34.261014 ], [ -118.373149, 34.260617 ], [ -118.373388, 34.260444 ], [ -118.373458, 34.260393 ], [ -118.373523, 34.260351 ], [ -118.373597, 34.260308 ], [ -118.373755, 34.260215 ], [ -118.373828, 34.260178 ], [ -118.373912, 34.26014 ], [ -118.374165, 34.260032 ], [ -118.374247, 34.259992 ], [ -118.374274, 34.25998 ], [ -118.374308, 34.259966 ], [ -118.374339, 34.259951 ], [ -118.37437, 34.25994 ], [ -118.374411, 34.259933 ], [ -118.374427, 34.25993 ], [ -118.374458, 34.259925 ], [ -118.374532, 34.25991 ], [ -118.374821, 34.259852 ], [ -118.374877, 34.259842 ], [ -118.374936, 34.259833 ], [ -118.37514, 34.25981 ], [ -118.377653, 34.259525 ], [ -118.378703, 34.25941 ], [ -118.378902, 34.259392 ], [ -118.37929, 34.259365 ], [ -118.379483, 34.259355 ], [ -118.379666, 34.259347 ], [ -118.379859, 34.25934 ], [ -118.379944, 34.25934 ], [ -118.380023, 34.25934 ], [ -118.380584, 34.259349 ], [ -118.380968, 34.259365 ], [ -118.381216, 34.259384 ], [ -118.38151, 34.259412 ], [ -118.381878, 34.259455 ], [ -118.38202, 34.259474 ], [ -118.382155, 34.259494 ], [ -118.382803, 34.259603 ], [ -118.382866, 34.259615 ], [ -118.382958, 34.259632 ], [ -118.3831, 34.259664 ], [ -118.383587, 34.259787 ], [ -118.384038, 34.259901 ], [ -118.384443, 34.260009 ], [ -118.384515, 34.260034 ], [ -118.385106, 34.260263 ] ] } },
{ "type": "Feature", "properties": { "cls": "separated", "highway": "cycleway", "name": "Hansen Dam Bike Path" }, "geometry": { "type": "LineString", "coordinates": [ [ -118.397569, 34.268748 ], [ -118.397642, 34.268855 ], [ -118.39766, 34.268916 ], [ -118.397665, 34.268993 ], [ -118.397617, 34.269458 ], [ -118.397618, 34.269504 ], [ -118.39763, 34.269551 ], [ -118.397667, 34.269629 ], [ -118.397713, 34.269682 ], [ -118.397898, 34.26985 ], [ -118.397955, 34.269881 ], [ -118.398024, 34.269899 ], [ -118.398088, 34.269902 ], [ -118.398144, 34.269894 ], [ -118.398212, 34.269874 ], [ -118.398263, 34.269843 ], [ -118.398304, 34.269805 ], [ -118.399249, 34.268667 ], [ -118.399273, 34.268621 ], [ -118.399284, 34.268579 ], [ -118.399281, 34.26853 ], [ -118.399253, 34.268409 ], [ -118.39925, 34.268391 ], [ -118.399249, 34.268354 ], [ -118.399252, 34.268325 ], [ -118.39926, 34.268297 ], [ -118.399278, 34.268262 ], [ -118.399303, 34.268227 ], [ -118.399379, 34.26814 ], [ -118.399657, 34.26783 ], [ -118.399677, 34.26781 ], [ -118.399697, 34.267792 ], [ -118.399738, 34.267758 ], [ -118.399778, 34.267725 ], [ -118.399809, 34.267705 ], [ -118.399846, 34.267681 ], [ -118.399923, 34.267634 ], [ -118.399986, 34.267596 ], [ -118.400045, 34.26755 ], [ -118.400085, 34.267515 ], [ -118.400098, 34.267502 ], [ -118.400111, 34.267489 ], [ -118.400122, 34.267476 ], [ -118.40013, 34.267463 ], [ -118.400149, 34.267434 ], [ -118.400163, 34.267402 ], [ -118.400169, 34.267388 ], [ -118.400173, 34.267376 ], [ -118.400181, 34.267353 ], [ -118.400186, 34.267331 ], [ -118.40019, 34.267311 ], [ -118.400193, 34.267291 ], [ -118.400194, 34.267272 ], [ -118.400193, 34.267262 ], [ -118.400191, 34.267254 ], [ -118.400188, 34.267237 ], [ -118.400177, 34.267203 ], [ -118.400162, 34.267168 ], [ -118.400151, 34.267134 ], [ -118.400142, 34.267109 ], [ -118.400141, 34.267084 ], [ -118.400138, 34.267062 ], [ -118.400046, 34.266936 ], [ -118.399839, 34.266654 ], [ -118.399469, 34.266236 ], [ -118.399145, 34.265935 ], [ -118.398727, 34.265599 ], [ -118.398438, 34.265377 ], [ -118.397963, 34.265047 ], [ -118.397481, 34.26474 ], [ -118.396928, 34.264422 ], [ -118.396473, 34.264184 ], [ -118.396147, 34.264032 ], [ -118.395845, 34.263899 ], [ -118.395576, 34.263784 ], [ -118.39528, 34.263669 ], [ -118.394935, 34.263549 ], [ -118.389735, 34.261809 ], [ -118.387049, 34.260911 ], [ -118.38689, 34.26085 ], [ -118.386808, 34.260818 ], [ -118.386733, 34.260785 ], [ -118.386713, 34.260771 ], [ -118.386695, 34.260754 ], [ -118.38668, 34.260743 ], [ -118.386668, 34.260733 ], [ -118.386653, 34.260723 ], [ -118.38625, 34.260589 ], [ -118.386224, 34.260585 ], [ -118.386084, 34.260585 ], [ -118.386066, 34.260582 ], [ -118.386041, 34.260574 ] ] } },
{ "type": "Feature", "properties": { "cls": "separated", "highway": "cycleway", "name": null }, "geometry": { "type": "LineString", "coordinates": [ [ -118.392366, 34.271854 ], [ -118.392406, 34.271837 ], [ -118.392597, 34.2718 ], [ -118.392615, 34.271795 ], [ -118.392652, 34.271775 ], [ -118.392816, 34.271658 ], [ -118.392902, 34.271597 ], [ -118.393655, 34.271052 ], [ -118.39564, 34.269609 ], [ -118.39622, 34.269188 ], [ -118.39629, 34.269136 ] ] } },
{ "type": "Feature", "properties": { "cls": "separated", "highway": "cycleway", "name": null }, "geometry": { "type": "LineString", "coordinates": [ [ -118.397569, 34.268748 ], [ -118.397554, 34.268725 ], [ -118.397465, 34.268622 ], [ -118.397392, 34.268544 ], [ -118.397339, 34.268488 ] ] } },
{ "type": "Feature", "properties": { "cls": "separated", "highway": "cycleway", "name": null }, "geometry": { "type": "LineString", "coordinates": [ [ -118.397049, 34.268665 ], [ -118.39709, 34.268701 ], [ -118.397167, 34.268668 ], [ -118.397235, 34.268651 ], [ -118.397331, 34.26865 ], [ -118.397416, 34.268664 ], [ -118.397508, 34.268708 ], [ -118.397569, 34.268748 ] ] } }
]
}
