{
"type": "FeatureCollection",
"name": "149-quito-parque-metropolitano-guanguiltagua",
"crs": { "type": "name", "properties": { "name": "urn:ogc:def:crs:OGC:1.3:CRS84" } },
"xy_coordinate_resolution": 1e-06,
"features": [
{ "type": "Feature", "properties": { "cls": "separated", "highway": "cycleway" }, "geometry": { "type": "LineString", "coordinates": [ [ -78.467932, -0.188672 ], [ -78.467808, -0.188723 ], [ -78.46762, -0.188799 ], [ -78.467401, -0.188854 ], [ -78.466802, -0.189047 ], [ -78.466319, -0.18915 ], [ -78.465868, -0.189247 ], [ -78.465489, -0.189361 ], [ -78.465397, -0.189389 ], [ -78.465017, -0.189398 ], [ -78.464675, -0.189315 ], [ -78.464601, -0.189344 ], [ -78.464566, -0.18928 ], [ -78.464498, -0.18916 ], [ -78.464366, -0.189128 ], [ -78.464166, -0.189063 ], [ -78.464121, -0.189018 ], [ -78.464128, -0.188934 ], [ -78.464092, -0.188777 ], [ -78.464153, -0.188693 ], [ -78.464213, -0.1886 ], [ -78.464321, -0.18857 ], [ -78.464298, -0.188396 ], [ -78.464198, -0.188274 ], [ -78.464102, -0.188235 ], [ -78.46396, -0.188338 ], [ -78.463741, -0.188541 ], [ -78.463609, -0.188609 ], [ -78.463386, -0.188538 ], [ -78.463264, -0.188466 ] ] } },
{ "type": "Feature", "properties": { "cls": "separated", "highway": "cycleway" }, "geometry": { "type": "LineString", "coordinates": [ [ -78.464492, -0.186439 ], [ -78.464656, -0.186595 ], [ -78.465004, -0.186901 ], [ -78.465181, -0.186888 ], [ -78.465487, -0.186998 ], [ -78.465787, -0.186818 ], [ -78.465987, -0.186721 ], [ -78.466187, -0.186686 ], [ -78.466341, -0.18666 ], [ -78.46658, -0.186811 ], [ -78.466921, -0.186914 ], [ -78.467098, -0.186927 ], [ -78.46734, -0.187024 ], [ -78.467674, -0.187167 ] ] } },
{ "type": "Feature", "properties": { "cls": "separated", "highway": "cycleway" }, "geometry": { "type": "LineString", "coordinates": [ [ -78.463746, -0.1808 ], [ -78.46366, -0.181201 ], [ -78.463628, -0.181797 ], [ -78.463589, -0.182297 ], [ -78.463542, -0.183036 ], [ -78.463559, -0.183146 ], [ -78.463619, -0.183479 ], [ -78.463708, -0.183733 ], [ -78.463776, -0.183928 ], [ -78.4638, -0.183966 ], [ -78.4638, -0.184032 ] ] } },
{ "type": "Feature", "properties": { "cls": "shared", "highway": "path" }, "geometry": { "type": "LineString", "coordinates": [ [ -78.471947, -0.180169 ], [ -78.471952, -0.180229 ], [ -78.472084, -0.180213 ], [ -78.472084, -0.180277 ], [ -78.472013, -0.18048 ], [ -78.472042, -0.180663 ], [ -78.472219, -0.180937 ], [ -78.472361, -0.181348 ], [ -78.472393, -0.181439 ], [ -78.472579, -0.181744 ], [ -78.47266, -0.181947 ], [ -78.47264, -0.182092 ], [ -78.472544, -0.182255 ], [ -78.472534, -0.182272 ], [ -78.472403, -0.182384 ] ] } },
{ "type": "Feature", "properties": { "cls": "separated", "highway": "cycleway" }, "geometry": { "type": "LineString", "coordinates": [ [ -78.467755, -0.179497 ], [ -78.46752, -0.179542 ], [ -78.467056, -0.179632 ], [ -78.46664, -0.17968 ], [ -78.466125, -0.179735 ], [ -78.465188, -0.179829 ], [ -78.465118, -0.179839 ], [ -78.4647, -0.179876 ], [ -78.464562, -0.179996 ], [ -78.464518, -0.180169 ], [ -78.464483, -0.180217 ], [ -78.464363, -0.180244 ], [ -78.46415, -0.180444 ], [ -78.463927, -0.180632 ] ] } },
{ "type": "Feature", "properties": { "cls": "separated", "highway": "cycleway" }, "geometry": { "type": "LineString", "coordinates": [ [ -78.467765, -0.178568 ], [ -78.467828, -0.178845 ], [ -78.467881, -0.178991 ], [ -78.467901, -0.17904 ], [ -78.467941, -0.179054 ], [ -78.468072, -0.179035 ], [ -78.468188, -0.179003 ], [ -78.468365, -0.1789 ], [ -78.46844, -0.17889 ], [ -78.468522, -0.178906 ], [ -78.468596, -0.178975 ], [ -78.468636, -0.179061 ], [ -78.468626, -0.17916 ], [ -78.468581, -0.179262 ], [ -78.468314, -0.17941 ] ] } },
{ "type": "Feature", "properties": { "cls": "separated", "highway": "cycleway" }, "geometry": { "type": "LineString", "coordinates": [ [ -78.464123, -0.174484 ], [ -78.464027, -0.174607 ], [ -78.463912, -0.17462 ], [ -78.463921, -0.1747 ], [ -78.463766, -0.17462 ], [ -78.463726, -0.174739 ], [ -78.463893, -0.174931 ] ] } },
{ "type": "Feature", "properties": { "cls": "separated", "highway": "cycleway" }, "geometry": { "type": "LineString", "coordinates": [ [ -78.464245, -0.17154 ], [ -78.464332, -0.171369 ], [ -78.464074, -0.171199 ] ] } },
{ "type": "Feature", "properties": { "cls": "separated", "highway": "cycleway" }, "geometry": { "type": "MultiLineString", "coordinates": [ [ [ -78.463229, -0.170269 ], [ -78.46318, -0.170198 ], [ -78.463067, -0.170169 ], [ -78.462997, -0.170085 ], [ -78.462942, -0.169933 ], [ -78.463406, -0.16974 ], [ -78.463506, -0.169727 ], [ -78.463593, -0.169695 ], [ -78.463702, -0.169743 ], [ -78.463854, -0.169782 ], [ -78.463976, -0.169811 ], [ -78.46415, -0.169801 ], [ -78.464253, -0.169782 ], [ -78.464466, -0.169798 ], [ -78.46455, -0.1698 ], [ -78.464649, -0.169763 ], [ -78.464878, -0.169779 ], [ -78.464965, -0.169811 ], [ -78.465056, -0.169727 ], [ -78.465007, -0.169671 ], [ -78.465065, -0.169614 ], [ -78.46509, -0.169601 ], [ -78.465114, -0.169589 ], [ -78.465217, -0.169643 ], [ -78.465355, -0.169634 ], [ -78.465381, -0.169589 ], [ -78.465381, -0.169463 ], [ -78.465462, -0.169399 ], [ -78.465632, -0.169337 ], [ -78.465671, -0.169289 ], [ -78.465668, -0.169221 ], [ -78.465658, -0.169131 ], [ -78.465697, -0.16896 ], [ -78.46571, -0.168825 ], [ -78.465619, -0.168693 ], [ -78.465526, -0.168609 ], [ -78.465452, -0.168548 ], [ -78.46541, -0.168464 ], [ -78.4653, -0.168384 ], [ -78.465137, -0.168269 ], [ -78.465072, -0.168151 ], [ -78.464936, -0.168103 ], [ -78.46492, -0.167977 ], [ -78.464833, -0.1679 ], [ -78.464749, -0.167839 ], [ -78.464704, -0.167758 ], [ -78.464749, -0.167642 ], [ -78.464761, -0.167582 ], [ -78.464811, -0.167559 ], [ -78.464856, -0.167552 ], [ -78.464904, -0.167491 ], [ -78.464933, -0.167514 ], [ -78.465049, -0.167523 ], [ -78.465107, -0.167546 ], [ -78.465162, -0.16751 ], [ -78.46523, -0.167491 ], [ -78.46531, -0.167449 ], [ -78.465384, -0.167446 ], [ -78.465497, -0.167433 ], [ -78.465661, -0.167423 ], [ -78.465831, -0.16738 ], [ -78.465948, -0.167385 ], [ -78.466071, -0.167378 ], [ -78.466196, -0.167404 ], [ -78.466399, -0.167488 ], [ -78.466457, -0.16753 ], [ -78.466515, -0.167549 ], [ -78.466551, -0.167552 ] ], [ [ -78.466596, -0.167605 ], [ -78.46661, -0.167662 ], [ -78.466614, -0.167668 ] ] ] } },
{ "type": "Feature", "properties": { "cls": "separated", "highway": "cycleway" }, "geometry": { "type": "LineString", "coordinates": [ [ -78.458966, -0.181076 ], [ -78.458962, -0.180834 ], [ -78.458959, -0.180753 ], [ -78.458866, -0.180663 ], [ -78.45875, -0.180534 ], [ -78.45873, -0.18037 ], [ -78.458843, -0.180273 ], [ -78.459014, -0.180138 ], [ -78.459146, -0.179961 ], [ -78.459197, -0.179846 ], [ -78.459267, -0.179687 ] ] } },
{ "type": "Feature", "properties": { "cls": "separated", "highway": "cycleway" }, "geometry": { "type": "LineString", "coordinates": [ [ -78.459451, -0.179174 ], [ -78.459714, -0.179239 ] ] } },
{ "type": "Feature", "properties": { "cls": "separated", "highway": "cycleway" }, "geometry": { "type": "LineString", "coordinates": [ [ -78.46239, -0.17383 ], [ -78.462942, -0.173737 ], [ -78.463391, -0.173706 ], [ -78.4638, -0.173692 ], [ -78.464066, -0.173647 ] ] } },
{ "type": "Feature", "properties": { "cls": "separated", "highway": "cycleway" }, "geometry": { "type": "LineString", "coordinates": [ [ -78.458095, -0.173356 ], [ -78.457925, -0.173352 ], [ -78.457918, -0.173346 ], [ -78.457835, -0.173268 ], [ -78.457822, -0.173201 ], [ -78.457873, -0.173152 ], [ -78.457883, -0.173033 ], [ -78.457809, -0.172914 ], [ -78.457764, -0.172927 ], [ -78.457738, -0.172826 ], [ -78.45769, -0.172675 ], [ -78.457648, -0.172547 ], [ -78.45758, -0.172466 ], [ -78.457538, -0.172423 ], [ -78.457516, -0.172228 ], [ -78.457596, -0.172092 ], [ -78.457715, -0.171876 ], [ -78.457786, -0.171738 ], [ -78.457899, -0.17166 ], [ -78.457967, -0.171561 ], [ -78.458067, -0.171613 ] ] } },
{ "type": "Feature", "properties": { "cls": "separated", "highway": "cycleway" }, "geometry": { "type": "LineString", "coordinates": [ [ -78.457967, -0.171561 ], [ -78.458015, -0.171416 ], [ -78.458112, -0.17129 ], [ -78.458205, -0.171155 ], [ -78.458256, -0.171123 ] ] } },
{ "type": "Feature", "properties": { "cls": "separated", "highway": "cycleway" }, "geometry": { "type": "LineString", "coordinates": [ [ -78.464074, -0.171199 ], [ -78.463977, -0.171025 ], [ -78.463976, -0.170807 ], [ -78.463909, -0.170643 ], [ -78.463859, -0.170573 ], [ -78.463797, -0.170453 ], [ -78.46368, -0.170343 ], [ -78.463553, -0.170306 ], [ -78.463506, -0.170298 ], [ -78.463384, -0.170279 ], [ -78.463229, -0.170269 ] ] } },
{ "type": "Feature", "properties": { "cls": "separated", "highway": "cycleway" }, "geometry": { "type": "LineString", "coordinates": [ [ -78.462043, -0.168422 ], [ -78.461991, -0.16864 ], [ -78.462001, -0.168747 ], [ -78.461992, -0.168772 ], [ -78.461994, -0.168797 ], [ -78.462118, -0.168976 ], [ -78.462265, -0.169167 ], [ -78.462341, -0.169331 ], [ -78.462414, -0.169695 ], [ -78.462418, -0.169779 ], [ -78.462411, -0.169985 ], [ -78.462412, -0.17002 ], [ -78.462415, -0.170231 ] ] } },
{ "type": "Feature", "properties": { "cls": "separated", "highway": "cycleway" }, "geometry": { "type": "LineString", "coordinates": [ [ -78.462565, -0.165192 ], [ -78.462591, -0.165335 ], [ -78.462512, -0.165586 ], [ -78.462311, -0.165806 ], [ -78.462188, -0.16598 ], [ -78.462021, -0.166121 ], [ -78.461908, -0.166175 ], [ -78.461781, -0.1662 ], [ -78.461556, -0.166231 ], [ -78.461482, -0.166447 ], [ -78.461396, -0.166516 ], [ -78.461356, -0.166548 ], [ -78.461077, -0.166628 ], [ -78.460862, -0.166661 ], [ -78.460708, -0.166647 ], [ -78.460566, -0.166613 ], [ -78.460446, -0.166637 ], [ -78.460332, -0.16673 ], [ -78.460072, -0.166902 ], [ -78.460393, -0.167252 ], [ -78.46069, -0.167508 ], [ -78.461087, -0.16784 ], [ -78.46156, -0.168171 ], [ -78.461964, -0.168378 ], [ -78.462043, -0.168422 ] ] } }
]
}
