{
"type": "FeatureCollection",
"name": "151-munich-englischer-garten",
"crs": { "type": "name", "properties": { "name": "urn:ogc:def:crs:OGC:1.3:CRS84" } },
"xy_coordinate_resolution": 1e-06,
"features": [
{ "type": "Feature", "properties": { "cls": "shared", "highway": "path", "name": "Woty-und-Theodor-Werner-Weg" }, "geometry": { "type": "LineString", "coordinates": [ [ 11.584522, 48.144496 ], [ 11.584569, 48.144322 ], [ 11.584552, 48.144137 ], [ 11.58455, 48.144127 ] ] } },
{ "type": "Feature", "properties": { "cls": "shared", "highway": "path", "name": "Woty-und-Theodor-Werner-Weg" }, "geometry": { "type": "LineString", "coordinates": [ [ 11.584503, 48.144619 ], [ 11.584505, 48.144561 ], [ 11.584522, 48.144496 ] ] } },
{ "type": "Feature", "properties": { "cls": "shared", "highway": "path", "name": null }, "geometry": { "type": "LineString", "coordinates": [ [ 11.583768, 48.144516 ], [ 11.583771, 48.144523 ] ] } },
{ "type": "Feature", "properties": { "cls": "shared", "highway": "path", "name": null }, "geometry": { "type": "LineString", "coordinates": [ [ 11.588376, 48.14326 ], [ 11.588423, 48.143365 ] ] } },
{ "type": "Feature", "properties": { "cls": "shared", "highway": "path", "name": null }, "geometry": { "type": "LineString", "coordinates": [ [ 11.588472, 48.143638 ], [ 11.588204, 48.143588 ], [ 11.587974, 48.143452 ], [ 11.587957, 48.143437 ], [ 11.587884, 48.143376 ] ] } },
{ "type": "Feature", "properties": { "cls": "shared", "highway": "path", "name": null }, "geometry": { "type": "LineString", "coordinates": [ [ 11.588354, 48.143741 ], [ 11.588279, 48.143682 ], [ 11.588204, 48.143588 ] ] } },
{ "type": "Feature", "properties": { "cls": "shared", "highway": "path", "name": null }, "geometry": { "type": "LineString", "coordinates": [ [ 11.588423, 48.143365 ], [ 11.588451, 48.143498 ], [ 11.588472, 48.143638 ], [ 11.588412, 48.143689 ], [ 11.588354, 48.143741 ], [ 11.588321, 48.143896 ], [ 11.588378, 48.14416 ], [ 11.588413, 48.144256 ], [ 11.588379, 48.144511 ], [ 11.58838, 48.144559 ], [ 11.588377, 48.144713 ], [ 11.588505, 48.144981 ], [ 11.588565, 48.14513 ], [ 11.588591, 48.145328 ], [ 11.588538, 48.145409 ] ] } },
{ "type": "Feature", "properties": { "cls": "shared", "highway": "path", "name": "Am Hirschanger" }, "geometry": { "type": "LineString", "coordinates": [ [ 11.591265, 48.144515 ], [ 11.591255, 48.144518 ] ] } },
{ "type": "Feature", "properties": { "cls": "shared", "highway": "path", "name": "Am Hirschanger" }, "geometry": { "type": "LineString", "coordinates": [ [ 11.591255, 48.144518 ], [ 11.591216, 48.144525 ], [ 11.591168, 48.144542 ], [ 11.591007, 48.144565 ], [ 11.590572, 48.144474 ] ] } },
{ "type": "Feature", "properties": { "cls": "shared", "highway": "path", "name": null }, "geometry": { "type": "LineString", "coordinates": [ [ 11.591216, 48.144525 ], [ 11.591251, 48.144588 ], [ 11.591216, 48.144689 ], [ 11.591219, 48.144771 ], [ 11.591174, 48.144812 ] ] } },
{ "type": "Feature", "properties": { "cls": "shared", "highway": "path", "name": null }, "geometry": { "type": "LineString", "coordinates": [ [ 11.590956, 48.14467 ], [ 11.591216, 48.144689 ] ] } },
{ "type": "Feature", "properties": { "cls": "shared", "highway": "path", "name": null }, "geometry": { "type": "LineString", "coordinates": [ [ 11.591575, 48.146717 ], [ 11.591675, 48.146527 ], [ 11.59169, 48.146429 ], [ 11.591741, 48.146115 ], [ 11.591724, 48.145863 ], [ 11.591681, 48.145559 ], [ 11.591544, 48.145284 ], [ 11.591363, 48.145049 ], [ 11.591312, 48.144998 ], [ 11.591174, 48.144812 ], [ 11.590956, 48.14467 ], [ 11.590733, 48.144568 ], [ 11.590572, 48.144474 ], [ 11.590217, 48.144303 ], [ 11.589942, 48.144181 ], [ 11.589533, 48.144044 ], [ 11.589286, 48.143962 ], [ 11.58914, 48.143916 ], [ 11.588984, 48.143857 ], [ 11.588753, 48.143753 ], [ 11.588639, 48.143706 ], [ 11.588472, 48.143638 ] ] } },
{ "type": "Feature", "properties": { "cls": "shared", "highway": "path", "name": "Rumfordstraße" }, "geometry": { "type": "LineString", "coordinates": [ [ 11.591362, 48.147068 ], [ 11.591451, 48.146999 ], [ 11.591575, 48.146717 ] ] } },
{ "type": "Feature", "properties": { "cls": "shared", "highway": "path", "name": null }, "geometry": { "type": "LineString", "coordinates": [ [ 11.584503, 48.144619 ], [ 11.584411, 48.14468 ], [ 11.584354, 48.144706 ], [ 11.584287, 48.144722 ] ] } },
{ "type": "Feature", "properties": { "cls": "shared", "highway": "path", "name": null }, "geometry": { "type": "LineString", "coordinates": [ [ 11.584287, 48.144722 ], [ 11.584189, 48.144749 ] ] } },
{ "type": "Feature", "properties": { "cls": "shared", "highway": "path", "name": null }, "geometry": { "type": "LineString", "coordinates": [ [ 11.584189, 48.144749 ], [ 11.584077, 48.14478 ] ] } },
{ "type": "Feature", "properties": { "cls": "shared", "highway": "path", "name": null }, "geometry": { "type": "LineString", "coordinates": [ [ 11.584918, 48.145186 ], [ 11.585038, 48.145123 ], [ 11.585121, 48.145037 ], [ 11.585201, 48.144923 ], [ 11.585216, 48.144862 ] ] } },
{ "type": "Feature", "properties": { "cls": "separated", "highway": "cycleway", "name": null }, "geometry": { "type": "LineString", "coordinates": [ [ 11.584809, 48.14529 ], [ 11.584904, 48.145216 ] ] } },
{ "type": "Feature", "properties": { "cls": "shared", "highway": "path", "name": null }, "geometry": { "type": "LineString", "coordinates": [ [ 11.587471, 48.145738 ], [ 11.587419, 48.14574 ], [ 11.587245, 48.145737 ], [ 11.586846, 48.145708 ], [ 11.586405, 48.145705 ], [ 11.586155, 48.145679 ], [ 11.586038, 48.145667 ], [ 11.585761, 48.145634 ], [ 11.585471, 48.145593 ], [ 11.585198, 48.145524 ], [ 11.584971, 48.145444 ], [ 11.584771, 48.145319 ], [ 11.584506, 48.145112 ], [ 11.584214, 48.144915 ], [ 11.584077, 48.14478 ] ] } },
{ "type": "Feature", "properties": { "cls": "shared", "highway": "path", "name": null }, "geometry": { "type": "LineString", "coordinates": [ [ 11.584771, 48.145319 ], [ 11.584809, 48.14529 ] ] } },
{ "type": "Feature", "properties": { "cls": "shared", "highway": "path", "name": "Freiherr-von-Pechmann-Weg" }, "geometry": { "type": "LineString", "coordinates": [ [ 11.584106, 48.145241 ], [ 11.584142, 48.145313 ], [ 11.584191, 48.145398 ], [ 11.584195, 48.145442 ], [ 11.584185, 48.145443 ] ] } },
{ "type": "Feature", "properties": { "cls": "shared", "highway": "path", "name": null }, "geometry": { "type": "LineString", "coordinates": [ [ 11.584771, 48.145319 ], [ 11.584615, 48.145366 ], [ 11.584442, 48.145382 ], [ 11.584251, 48.14539 ], [ 11.584191, 48.145398 ] ] } },
{ "type": "Feature", "properties": { "cls": "shared", "highway": "path", "name": null }, "geometry": { "type": "LineString", "coordinates": [ [ 11.586085, 48.149936 ], [ 11.585913, 48.149872 ], [ 11.585669, 48.149873 ], [ 11.585634, 48.149881 ], [ 11.585475, 48.14992 ], [ 11.585341, 48.149953 ] ] } },
{ "type": "Feature", "properties": { "cls": "shared", "highway": "path", "name": "Himmelreichbrücke" }, "geometry": { "type": "LineString", "coordinates": [ [ 11.588538, 48.145409 ], [ 11.588435, 48.145523 ] ] } },
{ "type": "Feature", "properties": { "cls": "shared", "highway": "path", "name": null }, "geometry": { "type": "LineString", "coordinates": [ [ 11.588435, 48.145523 ], [ 11.5884, 48.145572 ], [ 11.588215, 48.145758 ], [ 11.588166, 48.145824 ] ] } },
{ "type": "Feature", "properties": { "cls": "shared", "highway": "path", "name": "Wasserfallbrücke" }, "geometry": { "type": "LineString", "coordinates": [ [ 11.587737, 48.145751 ], [ 11.587471, 48.145738 ] ] } },
{ "type": "Feature", "properties": { "cls": "shared", "highway": "path", "name": "Carl-Theodor-Straße" }, "geometry": { "type": "LineString", "coordinates": [ [ 11.588166, 48.145824 ], [ 11.587793, 48.145761 ], [ 11.587737, 48.145751 ] ] } },
{ "type": "Feature", "properties": { "cls": "shared", "highway": "path", "name": "Dianabadweg" }, "geometry": { "type": "LineString", "coordinates": [ [ 11.591175, 48.147214 ], [ 11.59096, 48.147054 ], [ 11.590274, 48.146458 ], [ 11.58987, 48.1462 ], [ 11.589752, 48.146146 ], [ 11.589422, 48.145996 ], [ 11.589012, 48.145867 ], [ 11.588868, 48.145803 ], [ 11.588706, 48.145708 ], [ 11.5884, 48.145572 ] ] } },
{ "type": "Feature", "properties": { "cls": "shared", "highway": "path", "name": "Weidenweg" }, "geometry": { "type": "LineString", "coordinates": [ [ 11.588166, 48.145824 ], [ 11.588119, 48.145957 ], [ 11.58797, 48.146301 ], [ 11.58785, 48.146531 ], [ 11.587754, 48.146733 ], [ 11.587716, 48.146845 ], [ 11.587683, 48.147021 ], [ 11.587665, 48.147147 ], [ 11.587654, 48.147271 ], [ 11.58765, 48.147545 ], [ 11.587654, 48.147786 ], [ 11.58767, 48.148041 ], [ 11.587686, 48.148279 ], [ 11.587731, 48.14863 ], [ 11.587766, 48.149062 ], [ 11.587767, 48.14924 ], [ 11.587747, 48.149352 ], [ 11.587674, 48.149578 ], [ 11.58767, 48.149647 ] ] } },
{ "type": "Feature", "properties": { "cls": "shared", "highway": "path", "name": "Burgfriedenweg" }, "geometry": { "type": "LineString", "coordinates": [ [ 11.58767, 48.149647 ], [ 11.587939, 48.149569 ], [ 11.588312, 48.14947 ], [ 11.588686, 48.149364 ], [ 11.58931, 48.149139 ], [ 11.589611, 48.149008 ], [ 11.589896, 48.148856 ], [ 11.590314, 48.148525 ], [ 11.590557, 48.148251 ], [ 11.590574, 48.148153 ], [ 11.590593, 48.148031 ] ] } },
{ "type": "Feature", "properties": { "cls": "shared", "highway": "path", "name": "Veterinärbrücke" }, "geometry": { "type": "LineString", "coordinates": [ [ 11.587533, 48.149674 ], [ 11.587383, 48.14971 ] ] } },
{ "type": "Feature", "properties": { "cls": "shared", "highway": "path", "name": null }, "geometry": { "type": "LineString", "coordinates": [ [ 11.587383, 48.14971 ], [ 11.587198, 48.149752 ], [ 11.587051, 48.149781 ], [ 11.586424, 48.14993 ] ] } },
{ "type": "Feature", "properties": { "cls": "shared", "highway": "path", "name": null }, "geometry": { "type": "LineString", "coordinates": [ [ 11.587533, 48.149674 ], [ 11.58767, 48.149647 ], [ 11.588802, 48.150027 ], [ 11.589844, 48.150354 ], [ 11.590148, 48.150433 ], [ 11.590517, 48.150475 ], [ 11.590924, 48.150496 ], [ 11.591336, 48.150517 ], [ 11.59145, 48.150523 ], [ 11.591633, 48.150539 ], [ 11.591742, 48.150551 ], [ 11.591885, 48.150566 ] ] } },
{ "type": "Feature", "properties": { "cls": "shared", "highway": "path", "name": null }, "geometry": { "type": "LineString", "coordinates": [ [ 11.591451, 48.146999 ], [ 11.591913, 48.147024 ], [ 11.591917, 48.147025 ] ] } },
{ "type": "Feature", "properties": { "cls": "shared", "highway": "path", "name": "Dianabadbrücke" }, "geometry": { "type": "LineString", "coordinates": [ [ 11.591238, 48.147142 ], [ 11.591362, 48.147068 ] ] } },
{ "type": "Feature", "properties": { "cls": "shared", "highway": "path", "name": null }, "geometry": { "type": "LineString", "coordinates": [ [ 11.590593, 48.148031 ], [ 11.590617, 48.147905 ], [ 11.590706, 48.147739 ], [ 11.590758, 48.147649 ], [ 11.59086, 48.147518 ], [ 11.590996, 48.147346 ], [ 11.591175, 48.147214 ], [ 11.591238, 48.147142 ] ] } },
{ "type": "Feature", "properties": { "cls": "shared", "highway": "path", "name": "Carl-Theodor-Straße" }, "geometry": { "type": "LineString", "coordinates": [ [ 11.591903, 48.150656 ], [ 11.59189, 48.150638 ], [ 11.591884, 48.15062 ], [ 11.591882, 48.150593 ], [ 11.591885, 48.150566 ], [ 11.591894, 48.150483 ], [ 11.591894, 48.150402 ], [ 11.591879, 48.150262 ], [ 11.591863, 48.150129 ], [ 11.591826, 48.149963 ], [ 11.591782, 48.149781 ], [ 11.591765, 48.149723 ], [ 11.591746, 48.149669 ], [ 11.591723, 48.14962 ], [ 11.591693, 48.149565 ], [ 11.591561, 48.14938 ], [ 11.591424, 48.149192 ], [ 11.591266, 48.148991 ], [ 11.591176, 48.148891 ], [ 11.591016, 48.148683 ], [ 11.59089, 48.14848 ], [ 11.59077, 48.148278 ], [ 11.590593, 48.148031 ], [ 11.590496, 48.147827 ], [ 11.590321, 48.147536 ], [ 11.590189, 48.147301 ], [ 11.590059, 48.147075 ], [ 11.589606, 48.146557 ], [ 11.589379, 48.146371 ], [ 11.589355, 48.146352 ], [ 11.5891, 48.146198 ], [ 11.588882, 48.146089 ], [ 11.588741, 48.146019 ], [ 11.588423, 48.145892 ], [ 11.588166, 48.145824 ] ] } },
{ "type": "Feature", "properties": { "cls": "shared", "highway": "path", "name": "Oberstjägermeisterweg" }, "geometry": { "type": "LineString", "coordinates": [ [ 11.593128, 48.149259 ], [ 11.593063, 48.149114 ], [ 11.592879, 48.148736 ], [ 11.592745, 48.148556 ], [ 11.592272, 48.148136 ], [ 11.592179, 48.148059 ], [ 11.591948, 48.147869 ], [ 11.591726, 48.147616 ], [ 11.591426, 48.147386 ], [ 11.591175, 48.147214 ] ] } },
{ "type": "Feature", "properties": { "cls": "shared", "highway": "path", "name": null }, "geometry": { "type": "LineString", "coordinates": [ [ 11.593186, 48.149392 ], [ 11.593128, 48.149259 ] ] } },
{ "type": "Feature", "properties": { "cls": "shared", "highway": "path", "name": null }, "geometry": { "type": "LineString", "coordinates": [ [ 11.593536, 48.15072 ], [ 11.593466, 48.150436 ], [ 11.593427, 48.150173 ], [ 11.593348, 48.149766 ], [ 11.593207, 48.149442 ], [ 11.593186, 48.149392 ] ] } },
{ "type": "Feature", "properties": { "cls": "shared", "highway": "path", "name": "Carl-Theodor-Brücke" }, "geometry": { "type": "LineString", "coordinates": [ [ 11.591903, 48.150656 ], [ 11.591979, 48.150727 ] ] } },
{ "type": "Feature", "properties": { "cls": "shared", "highway": "path", "name": null }, "geometry": { "type": "LineString", "coordinates": [ [ 11.591999, 48.15075 ], [ 11.592064, 48.150728 ], [ 11.592137, 48.150701 ], [ 11.592373, 48.150627 ], [ 11.592665, 48.150577 ], [ 11.592805, 48.150582 ], [ 11.592968, 48.150622 ], [ 11.59307, 48.150713 ], [ 11.593133, 48.150818 ] ] } },
{ "type": "Feature", "properties": { "cls": "shared", "highway": "path", "name": "Carl-Theodor-Straße" }, "geometry": { "type": "LineString", "coordinates": [ [ 11.591979, 48.150727 ], [ 11.591993, 48.150741 ], [ 11.591999, 48.15075 ] ] } },
{ "type": "Feature", "properties": { "cls": "shared", "highway": "path", "name": null }, "geometry": { "type": "LineString", "coordinates": [ [ 11.583771, 48.144523 ], [ 11.584077, 48.14478 ] ] } },
{ "type": "Feature", "properties": { "cls": "shared", "highway": "path", "name": "Freiherr-von-Pechmann-Weg" }, "geometry": { "type": "LineString", "coordinates": [ [ 11.583998, 48.145067 ], [ 11.584106, 48.145241 ] ] } },
{ "type": "Feature", "properties": { "cls": "shared", "highway": "path", "name": null }, "geometry": { "type": "LineString", "coordinates": [ [ 11.593556, 48.150778 ], [ 11.593536, 48.15072 ] ] } },
{ "type": "Feature", "properties": { "cls": "shared", "highway": "path", "name": "Carl-Theodor-Straße" }, "geometry": { "type": "LineString", "coordinates": [ [ 11.591999, 48.15075 ], [ 11.592002, 48.150758 ], [ 11.592003, 48.150766 ], [ 11.592002, 48.150774 ], [ 11.591999, 48.150784 ], [ 11.591984, 48.150821 ], [ 11.591972, 48.150858 ], [ 11.591949, 48.150927 ], [ 11.591884, 48.151076 ], [ 11.591836, 48.151177 ], [ 11.591792, 48.15126 ], [ 11.591752, 48.151328 ], [ 11.591732, 48.151376 ], [ 11.591716, 48.151439 ], [ 11.59171, 48.151497 ], [ 11.591711, 48.151559 ], [ 11.591715, 48.15159 ], [ 11.591721, 48.15162 ] ] } },
{ "type": "Feature", "properties": { "cls": "shared", "highway": "path", "name": null }, "geometry": { "type": "LineString", "coordinates": [ [ 11.593136, 48.151523 ], [ 11.593117, 48.151422 ], [ 11.593127, 48.151254 ], [ 11.593171, 48.151057 ], [ 11.593133, 48.150818 ] ] } },
{ "type": "Feature", "properties": { "cls": "shared", "highway": "path", "name": null }, "geometry": { "type": "LineString", "coordinates": [ [ 11.594039, 48.151741 ], [ 11.59398, 48.151687 ], [ 11.59394, 48.151624 ], [ 11.593718, 48.151209 ], [ 11.593543, 48.151007 ], [ 11.593555, 48.150926 ], [ 11.593557, 48.150803 ], [ 11.593556, 48.150778 ] ] } },
{ "type": "Feature", "properties": { "cls": "shared", "highway": "path", "name": "Carl-Theodor-Straße" }, "geometry": { "type": "LineString", "coordinates": [ [ 11.591721, 48.15162 ], [ 11.59173, 48.15165 ], [ 11.59174, 48.151679 ], [ 11.591748, 48.151707 ], [ 11.591752, 48.151735 ], [ 11.591757, 48.151792 ], [ 11.59177, 48.151922 ], [ 11.591781, 48.151992 ], [ 11.591791, 48.152091 ], [ 11.591826, 48.152391 ], [ 11.591847, 48.152616 ], [ 11.591861, 48.152759 ], [ 11.591874, 48.152899 ] ] } },
{ "type": "Feature", "properties": { "cls": "shared", "highway": "path", "name": null }, "geometry": { "type": "LineString", "coordinates": [ [ 11.590578, 48.15308 ], [ 11.591034, 48.153014 ], [ 11.591399, 48.152834 ], [ 11.591847, 48.152616 ] ] } },
{ "type": "Feature", "properties": { "cls": "shared", "highway": "path", "name": "X-Brücke" }, "geometry": { "type": "LineString", "coordinates": [ [ 11.590396, 48.153061 ], [ 11.590578, 48.15308 ] ] } },
{ "type": "Feature", "properties": { "cls": "shared", "highway": "path", "name": null }, "geometry": { "type": "LineString", "coordinates": [ [ 11.59005, 48.153111 ], [ 11.590096, 48.153052 ], [ 11.590153, 48.153048 ], [ 11.590396, 48.153061 ] ] } },
{ "type": "Feature", "properties": { "cls": "shared", "highway": "path", "name": "Max-Joseph-Straße" }, "geometry": { "type": "LineString", "coordinates": [ [ 11.590517, 48.153915 ], [ 11.590438, 48.153867 ], [ 11.590412, 48.153849 ] ] } },
{ "type": "Feature", "properties": { "cls": "shared", "highway": "path", "name": "Max-Joseph-Straße" }, "geometry": { "type": "LineString", "coordinates": [ [ 11.590634, 48.153981 ], [ 11.590517, 48.153915 ] ] } },
{ "type": "Feature", "properties": { "cls": "separated", "highway": "cycleway", "name": null }, "geometry": { "type": "LineString", "coordinates": [ [ 11.595264, 48.150773 ], [ 11.595215, 48.150793 ], [ 11.595191, 48.150803 ], [ 11.595064, 48.150824 ] ] } },
{ "type": "Feature", "properties": { "cls": "shared", "highway": "path", "name": "Milchhäuslstraße" }, "geometry": { "type": "LineString", "coordinates": [ [ 11.595455, 48.152999 ], [ 11.595178, 48.152822 ], [ 11.59499, 48.152664 ], [ 11.594901, 48.15242 ], [ 11.594852, 48.152209 ], [ 11.59479, 48.152054 ], [ 11.594707, 48.151854 ], [ 11.594661, 48.151644 ], [ 11.594568, 48.151601 ], [ 11.594437, 48.151577 ], [ 11.594272, 48.151574 ], [ 11.594171, 48.151578 ] ] } },
{ "type": "Feature", "properties": { "cls": "shared", "highway": "path", "name": "Milchhäuslstraße" }, "geometry": { "type": "LineString", "coordinates": [ [ 11.597325, 48.155176 ], [ 11.597228, 48.155112 ], [ 11.597, 48.154962 ], [ 11.596277, 48.154402 ], [ 11.59598, 48.154217 ], [ 11.595686, 48.153976 ], [ 11.595472, 48.153719 ], [ 11.595408, 48.153522 ], [ 11.595466, 48.153374 ], [ 11.595535, 48.153175 ], [ 11.595455, 48.152999 ] ] } },
{ "type": "Feature", "properties": { "cls": "shared", "highway": "path", "name": "Carl-Theodor-Straße" }, "geometry": { "type": "LineString", "coordinates": [ [ 11.591874, 48.152899 ], [ 11.591902, 48.153181 ], [ 11.591938, 48.153503 ], [ 11.592014, 48.153627 ], [ 11.592043, 48.153681 ], [ 11.592058, 48.153809 ], [ 11.592029, 48.154017 ], [ 11.592039, 48.154185 ], [ 11.592082, 48.154497 ], [ 11.592133, 48.154669 ], [ 11.592186, 48.154773 ], [ 11.592215, 48.154837 ], [ 11.592314, 48.15493 ], [ 11.592395, 48.155013 ], [ 11.592505, 48.155102 ], [ 11.592738, 48.155261 ], [ 11.593014, 48.155429 ], [ 11.593259, 48.155551 ], [ 11.593532, 48.155662 ], [ 11.593742, 48.155731 ], [ 11.593936, 48.155776 ], [ 11.594198, 48.155816 ], [ 11.594605, 48.155882 ], [ 11.594853, 48.155927 ], [ 11.595118, 48.155985 ], [ 11.59545, 48.156091 ], [ 11.595748, 48.156201 ], [ 11.595896, 48.156264 ], [ 11.596099, 48.156384 ], [ 11.596213, 48.156472 ], [ 11.59625, 48.156506 ] ] } },
{ "type": "Feature", "properties": { "cls": "shared", "highway": "path", "name": "Milchhäuslstraße" }, "geometry": { "type": "LineString", "coordinates": [ [ 11.598139, 48.155192 ], [ 11.597845, 48.155229 ], [ 11.597582, 48.155237 ], [ 11.597325, 48.155176 ] ] } },
{ "type": "Feature", "properties": { "cls": "shared", "highway": "path", "name": "Sonnenliegeplatzstraße" }, "geometry": { "type": "LineString", "coordinates": [ [ 11.594056, 48.154361 ], [ 11.594516, 48.154705 ], [ 11.594742, 48.154896 ], [ 11.595301, 48.155387 ], [ 11.595524, 48.155568 ], [ 11.595632, 48.155701 ], [ 11.595797, 48.155889 ], [ 11.595889, 48.156076 ], [ 11.595896, 48.156264 ] ] } },
{ "type": "Feature", "properties": { "cls": "shared", "highway": "path", "name": "Carl-Theodor-Straße" }, "geometry": { "type": "LineString", "coordinates": [ [ 11.59625, 48.156506 ], [ 11.596368, 48.156563 ] ] } },
{ "type": "Feature", "properties": { "cls": "shared", "highway": "path", "name": "Carl-Theodor-Straße" }, "geometry": { "type": "LineString", "coordinates": [ [ 11.596368, 48.156563 ], [ 11.596832, 48.156875 ], [ 11.597307, 48.157204 ], [ 11.597566, 48.157481 ], [ 11.597611, 48.157593 ], [ 11.597616, 48.157688 ], [ 11.597563, 48.157873 ], [ 11.597447, 48.158054 ], [ 11.597398, 48.158297 ], [ 11.597432, 48.158473 ], [ 11.597677, 48.158757 ], [ 11.598108, 48.159399 ], [ 11.598206, 48.159479 ] ] } },
{ "type": "Feature", "properties": { "cls": "shared", "highway": "path", "name": null }, "geometry": { "type": "LineString", "coordinates": [ [ 11.585341, 48.149953 ], [ 11.585137, 48.149993 ] ] } },
{ "type": "Feature", "properties": { "cls": "shared", "highway": "path", "name": null }, "geometry": { "type": "LineString", "coordinates": [ [ 11.586424, 48.14993 ], [ 11.586331, 48.149954 ], [ 11.586212, 48.149978 ] ] } },
{ "type": "Feature", "properties": { "cls": "shared", "highway": "path", "name": "Max-Joseph-Straße" }, "geometry": { "type": "LineString", "coordinates": [ [ 11.587273, 48.150984 ], [ 11.587209, 48.150908 ], [ 11.587123, 48.150795 ], [ 11.586989, 48.150594 ], [ 11.586816, 48.15039 ], [ 11.586644, 48.150241 ], [ 11.586361, 48.150078 ], [ 11.586212, 48.149978 ], [ 11.586085, 48.149936 ] ] } },
{ "type": "Feature", "properties": { "cls": "shared", "highway": "path", "name": "Max-Joseph-Straße" }, "geometry": { "type": "LineString", "coordinates": [ [ 11.587288, 48.151003 ], [ 11.587273, 48.150984 ] ] } },
{ "type": "Feature", "properties": { "cls": "shared", "highway": "path", "name": "Max-Joseph-Straße" }, "geometry": { "type": "LineString", "coordinates": [ [ 11.587288, 48.151003 ], [ 11.587436, 48.151165 ] ] } },
{ "type": "Feature", "properties": { "cls": "shared", "highway": "path", "name": "Max-Joseph-Straße" }, "geometry": { "type": "LineString", "coordinates": [ [ 11.587436, 48.151165 ], [ 11.587461, 48.151189 ], [ 11.587489, 48.151224 ] ] } },
{ "type": "Feature", "properties": { "cls": "shared", "highway": "path", "name": "Max-Joseph-Straße" }, "geometry": { "type": "LineString", "coordinates": [ [ 11.590412, 48.153849 ], [ 11.590306, 48.153626 ], [ 11.590196, 48.153377 ], [ 11.590111, 48.153184 ], [ 11.590086, 48.153147 ], [ 11.59005, 48.153111 ], [ 11.589886, 48.153026 ], [ 11.589433, 48.152805 ], [ 11.589169, 48.15264 ], [ 11.58895, 48.152502 ], [ 11.588587, 48.152279 ], [ 11.588543, 48.152245 ], [ 11.588232, 48.151996 ], [ 11.587871, 48.15166 ], [ 11.587736, 48.151497 ], [ 11.58771, 48.151444 ], [ 11.587489, 48.151224 ] ] } },
{ "type": "Feature", "properties": { "cls": "shared", "highway": "path", "name": null }, "geometry": { "type": "LineString", "coordinates": [ [ 11.598758, 48.154637 ], [ 11.5987, 48.154717 ], [ 11.598617, 48.154817 ], [ 11.598574, 48.154914 ], [ 11.598593, 48.155035 ], [ 11.598644, 48.1551 ] ] } },
{ "type": "Feature", "properties": { "cls": "shared", "highway": "path", "name": "Milchhäuslstraße" }, "geometry": { "type": "LineString", "coordinates": [ [ 11.598644, 48.1551 ], [ 11.598197, 48.155185 ], [ 11.598139, 48.155192 ] ] } },
{ "type": "Feature", "properties": { "cls": "shared", "highway": "path", "name": "Milchhäuslstraße" }, "geometry": { "type": "LineString", "coordinates": [ [ 11.599419, 48.158881 ], [ 11.599695, 48.158573 ], [ 11.599871, 48.15826 ], [ 11.599874, 48.158143 ], [ 11.599791, 48.157779 ], [ 11.599785, 48.157568 ], [ 11.599896, 48.157329 ], [ 11.599919, 48.157173 ], [ 11.599902, 48.157084 ], [ 11.59987, 48.156998 ], [ 11.600007, 48.156427 ], [ 11.599949, 48.156263 ], [ 11.599835, 48.15606 ], [ 11.599567, 48.15582 ], [ 11.599411, 48.155667 ], [ 11.599211, 48.155278 ], [ 11.59906, 48.155197 ], [ 11.598877, 48.155131 ], [ 11.598644, 48.1551 ] ] } },
{ "type": "Feature", "properties": { "cls": "separated", "highway": "path", "name": null }, "geometry": { "type": "LineString", "coordinates": [ [ 11.601233, 48.157711 ], [ 11.600639, 48.157362 ], [ 11.600457, 48.157309 ], [ 11.599902, 48.157084 ] ] } },
{ "type": "Feature", "properties": { "cls": "separated", "highway": "path", "name": null }, "geometry": { "type": "LineString", "coordinates": [ [ 11.601233, 48.157711 ], [ 11.601444, 48.157691 ], [ 11.60189, 48.157647 ] ] } },
{ "type": "Feature", "properties": { "cls": "separated", "highway": "path", "name": "Isarring" }, "geometry": { "type": "LineString", "coordinates": [ [ 11.60189, 48.157941 ], [ 11.60189, 48.157647 ] ] } },
{ "type": "Feature", "properties": { "cls": "separated", "highway": "cycleway", "name": "Isarring" }, "geometry": { "type": "LineString", "coordinates": [ [ 11.601912, 48.15822 ], [ 11.60189, 48.157941 ] ] } },
{ "type": "Feature", "properties": { "cls": "shared", "highway": "path", "name": null }, "geometry": { "type": "LineString", "coordinates": [ [ 11.601506, 48.158587 ], [ 11.601653, 48.158448 ], [ 11.60189, 48.157941 ] ] } },
{ "type": "Feature", "properties": { "cls": "shared", "highway": "path", "name": null }, "geometry": { "type": "LineString", "coordinates": [ [ 11.599254, 48.158976 ], [ 11.599419, 48.158881 ] ] } },
{ "type": "Feature", "properties": { "cls": "shared", "highway": "path", "name": null }, "geometry": { "type": "LineString", "coordinates": [ [ 11.599039, 48.159067 ], [ 11.599212, 48.158989 ], [ 11.599254, 48.158976 ] ] } },
{ "type": "Feature", "properties": { "cls": "separated", "highway": "path", "name": "Isarring" }, "geometry": { "type": "LineString", "coordinates": [ [ 11.60236, 48.156952 ], [ 11.602555, 48.156822 ], [ 11.602608, 48.156795 ] ] } },
{ "type": "Feature", "properties": { "cls": "separated", "highway": "path", "name": null }, "geometry": { "type": "LineString", "coordinates": [ [ 11.60286, 48.157509 ], [ 11.60277, 48.15736 ], [ 11.602696, 48.157173 ], [ 11.602625, 48.15702 ], [ 11.602569, 48.156922 ], [ 11.602468, 48.156815 ], [ 11.602463, 48.15681 ] ] } },
{ "type": "Feature", "properties": { "cls": "shared", "highway": "path", "name": "Max-Joseph-Straße" }, "geometry": { "type": "LineString", "coordinates": [ [ 11.5909, 48.154135 ], [ 11.590634, 48.153981 ] ] } },
{ "type": "Feature", "properties": { "cls": "shared", "highway": "path", "name": null }, "geometry": { "type": "LineString", "coordinates": [ [ 11.594056, 48.154361 ], [ 11.59389, 48.154434 ], [ 11.593655, 48.154435 ], [ 11.593332, 48.154367 ], [ 11.592878, 48.154198 ] ] } },
{ "type": "Feature", "properties": { "cls": "shared", "highway": "path", "name": null }, "geometry": { "type": "LineString", "coordinates": [ [ 11.590965, 48.154608 ], [ 11.591323, 48.15475 ], [ 11.591537, 48.154779 ], [ 11.591793, 48.154812 ], [ 11.592094, 48.154833 ], [ 11.592215, 48.154837 ] ] } },
{ "type": "Feature", "properties": { "cls": "shared", "highway": "path", "name": "Max-Joseph-Straße" }, "geometry": { "type": "LineString", "coordinates": [ [ 11.59293, 48.159785 ], [ 11.592802, 48.159716 ], [ 11.592673, 48.159609 ], [ 11.592574, 48.159446 ], [ 11.592517, 48.15927 ], [ 11.592492, 48.159 ], [ 11.592481, 48.158738 ], [ 11.592412, 48.158595 ], [ 11.592064, 48.15834 ], [ 11.591984, 48.158272 ], [ 11.591954, 48.158254 ], [ 11.591891, 48.158216 ], [ 11.591521, 48.157953 ], [ 11.591106, 48.157628 ], [ 11.590806, 48.157267 ], [ 11.590703, 48.157078 ], [ 11.590624, 48.156836 ], [ 11.590581, 48.156627 ], [ 11.590549, 48.156547 ], [ 11.590561, 48.156438 ], [ 11.590571, 48.156158 ], [ 11.590663, 48.155904 ], [ 11.590886, 48.155665 ], [ 11.591014, 48.155486 ], [ 11.591052, 48.155311 ], [ 11.590974, 48.154916 ], [ 11.590965, 48.154608 ], [ 11.590969, 48.154454 ], [ 11.5909, 48.154135 ] ] } },
{ "type": "Feature", "properties": { "cls": "shared", "highway": "path", "name": null }, "geometry": { "type": "LineString", "coordinates": [ [ 11.592471, 48.159829 ], [ 11.592529, 48.159744 ], [ 11.592622, 48.159645 ], [ 11.592673, 48.159609 ] ] } },
{ "type": "Feature", "properties": { "cls": "shared", "highway": "path", "name": null }, "geometry": { "type": "LineString", "coordinates": [ [ 11.592471, 48.159829 ], [ 11.592605, 48.159816 ], [ 11.59293, 48.159785 ] ] } },
{ "type": "Feature", "properties": { "cls": "shared", "highway": "path", "name": "Gunetzrainerbrücke" }, "geometry": { "type": "LineString", "coordinates": [ [ 11.592302, 48.159884 ], [ 11.592471, 48.159829 ] ] } },
{ "type": "Feature", "properties": { "cls": "shared", "highway": "path", "name": "Alte Parkstraße" }, "geometry": { "type": "LineString", "coordinates": [ [ 11.593305, 48.160128 ], [ 11.593125, 48.159903 ], [ 11.59293, 48.159785 ] ] } },
{ "type": "Feature", "properties": { "cls": "separated", "highway": "path", "name": "Isarring" }, "geometry": { "type": "LineString", "coordinates": [ [ 11.60189, 48.157647 ], [ 11.601894, 48.157503 ], [ 11.601922, 48.157401 ], [ 11.601959, 48.157336 ], [ 11.602049, 48.15723 ], [ 11.602219, 48.157064 ], [ 11.60236, 48.156952 ] ] } },
{ "type": "Feature", "properties": { "cls": "separated", "highway": "path", "name": null }, "geometry": { "type": "LineString", "coordinates": [ [ 11.604804, 48.157148 ], [ 11.604846, 48.157187 ], [ 11.60484, 48.157262 ], [ 11.604847, 48.157382 ], [ 11.604841, 48.157448 ], [ 11.604681, 48.157618 ], [ 11.604547, 48.157742 ], [ 11.604481, 48.157804 ], [ 11.604402, 48.157915 ] ] } },
{ "type": "Feature", "properties": { "cls": "separated", "highway": "path", "name": null }, "geometry": { "type": "LineString", "coordinates": [ [ 11.60286, 48.157509 ], [ 11.602463, 48.157544 ], [ 11.60189, 48.157647 ] ] } },
{ "type": "Feature", "properties": { "cls": "separated", "highway": "path", "name": null }, "geometry": { "type": "LineString", "coordinates": [ [ 11.604442, 48.157286 ], [ 11.604367, 48.157417 ], [ 11.604347, 48.157584 ], [ 11.604402, 48.157915 ] ] } },
{ "type": "Feature", "properties": { "cls": "separated", "highway": "path", "name": null }, "geometry": { "type": "LineString", "coordinates": [ [ 11.603227, 48.158 ], [ 11.603203, 48.157941 ], [ 11.603105, 48.157742 ], [ 11.603073, 48.157696 ], [ 11.603034, 48.157668 ], [ 11.60297, 48.157632 ], [ 11.602908, 48.157576 ], [ 11.60286, 48.157509 ] ] } },
{ "type": "Feature", "properties": { "cls": "separated", "highway": "cycleway", "name": null }, "geometry": { "type": "LineString", "coordinates": [ [ 11.601912, 48.15822 ], [ 11.602082, 48.158091 ], [ 11.602296, 48.157957 ], [ 11.602613, 48.157781 ], [ 11.602747, 48.157722 ], [ 11.60297, 48.157632 ] ] } },
{ "type": "Feature", "properties": { "cls": "separated", "highway": "path", "name": null }, "geometry": { "type": "LineString", "coordinates": [ [ 11.604402, 48.157915 ], [ 11.604451, 48.158271 ], [ 11.604459, 48.158425 ], [ 11.604435, 48.158574 ] ] } },
{ "type": "Feature", "properties": { "cls": "separated", "highway": "cycleway", "name": null }, "geometry": { "type": "LineString", "coordinates": [ [ 11.603227, 48.158 ], [ 11.603258, 48.158052 ], [ 11.603279, 48.158135 ], [ 11.603343, 48.158247 ], [ 11.603413, 48.158315 ], [ 11.603555, 48.158386 ], [ 11.603717, 48.158471 ], [ 11.603854, 48.158567 ], [ 11.603894, 48.158623 ] ] } },
{ "type": "Feature", "properties": { "cls": "separated", "highway": "path", "name": null }, "geometry": { "type": "LineString", "coordinates": [ [ 11.604435, 48.158574 ], [ 11.604367, 48.158754 ] ] } },
{ "type": "Feature", "properties": { "cls": "shared", "highway": "path", "name": null }, "geometry": { "type": "LineString", "coordinates": [ [ 11.59897, 48.159315 ], [ 11.599039, 48.159067 ] ] } },
{ "type": "Feature", "properties": { "cls": "shared", "highway": "path", "name": null }, "geometry": { "type": "LineString", "coordinates": [ [ 11.599033, 48.159464 ], [ 11.59897, 48.159315 ] ] } },
{ "type": "Feature", "properties": { "cls": "separated", "highway": "cycleway", "name": "Isarring" }, "geometry": { "type": "LineString", "coordinates": [ [ 11.600225, 48.160656 ], [ 11.600406, 48.16059 ], [ 11.6006, 48.160439 ], [ 11.601078, 48.160011 ], [ 11.601239, 48.159839 ], [ 11.601464, 48.159469 ], [ 11.601774, 48.158901 ], [ 11.601858, 48.158706 ], [ 11.601895, 48.15844 ], [ 11.601912, 48.15822 ] ] } },
{ "type": "Feature", "properties": { "cls": "shared", "highway": "path", "name": null }, "geometry": { "type": "LineString", "coordinates": [ [ 11.598206, 48.159479 ], [ 11.59831, 48.159546 ] ] } },
{ "type": "Feature", "properties": { "cls": "shared", "highway": "path", "name": null }, "geometry": { "type": "LineString", "coordinates": [ [ 11.598977, 48.159773 ], [ 11.599014, 48.15969 ], [ 11.599039, 48.159559 ], [ 11.599033, 48.159464 ] ] } },
{ "type": "Feature", "properties": { "cls": "shared", "highway": "path", "name": null }, "geometry": { "type": "LineString", "coordinates": [ [ 11.598841, 48.15981 ], [ 11.59893, 48.159802 ], [ 11.598977, 48.159773 ] ] } },
{ "type": "Feature", "properties": { "cls": "shared", "highway": "path", "name": null }, "geometry": { "type": "LineString", "coordinates": [ [ 11.59831, 48.159546 ], [ 11.598396, 48.159597 ], [ 11.59866, 48.159739 ], [ 11.598761, 48.15979 ], [ 11.598841, 48.15981 ], [ 11.598906, 48.159847 ], [ 11.599006, 48.159905 ], [ 11.599023, 48.159914 ], [ 11.599136, 48.159981 ], [ 11.599178, 48.160005 ], [ 11.599233, 48.160036 ], [ 11.599288, 48.160047 ] ] } },
{ "type": "Feature", "properties": { "cls": "shared", "highway": "path", "name": null }, "geometry": { "type": "LineString", "coordinates": [ [ 11.598977, 48.159773 ], [ 11.599006, 48.159905 ] ] } },
{ "type": "Feature", "properties": { "cls": "shared", "highway": "path", "name": null }, "geometry": { "type": "LineString", "coordinates": [ [ 11.601657, 48.160279 ], [ 11.601669, 48.160347 ], [ 11.601672, 48.160445 ], [ 11.601657, 48.160526 ], [ 11.601632, 48.160574 ], [ 11.601582, 48.16064 ], [ 11.601542, 48.160684 ], [ 11.601483, 48.160736 ], [ 11.601437, 48.160761 ], [ 11.601382, 48.160784 ] ] } },
{ "type": "Feature", "properties": { "cls": "separated", "highway": "cycleway", "name": "Isarring" }, "geometry": { "type": "LineString", "coordinates": [ [ 11.600141, 48.160689 ], [ 11.600225, 48.160656 ] ] } },
{ "type": "Feature", "properties": { "cls": "shared", "highway": "path", "name": "Alte Parkstraße" }, "geometry": { "type": "LineString", "coordinates": [ [ 11.597705, 48.162029 ], [ 11.597401, 48.16221 ], [ 11.596881, 48.162372 ], [ 11.596596, 48.162444 ], [ 11.596418, 48.162447 ], [ 11.596191, 48.162365 ], [ 11.595854, 48.162183 ], [ 11.595541, 48.161886 ], [ 11.595188, 48.161601 ], [ 11.594891, 48.161411 ], [ 11.594319, 48.161115 ], [ 11.594034, 48.1609 ], [ 11.593811, 48.160647 ], [ 11.593593, 48.160433 ], [ 11.59348, 48.16029 ], [ 11.593379, 48.160219 ], [ 11.593305, 48.160128 ] ] } },
{ "type": "Feature", "properties": { "cls": "shared", "highway": "path", "name": null }, "geometry": { "type": "LineString", "coordinates": [ [ 11.595188, 48.161601 ], [ 11.594884, 48.161682 ] ] } },
{ "type": "Feature", "properties": { "cls": "shared", "highway": "path", "name": "Liebergesellsteg" }, "geometry": { "type": "LineString", "coordinates": [ [ 11.594884, 48.161682 ], [ 11.594738, 48.161725 ] ] } },
{ "type": "Feature", "properties": { "cls": "shared", "highway": "path", "name": null }, "geometry": { "type": "LineString", "coordinates": [ [ 11.599165, 48.161611 ], [ 11.599007, 48.161753 ], [ 11.598944, 48.161784 ], [ 11.598838, 48.161814 ], [ 11.598712, 48.161859 ], [ 11.598436, 48.162058 ], [ 11.598299, 48.162108 ], [ 11.598192, 48.162161 ], [ 11.597848, 48.162406 ], [ 11.597502, 48.162577 ], [ 11.597395, 48.162628 ] ] } },
{ "type": "Feature", "properties": { "cls": "shared", "highway": "path", "name": "Dietlindenstraße" }, "geometry": { "type": "LineString", "coordinates": [ [ 11.597395, 48.162628 ], [ 11.597146, 48.162823 ], [ 11.597121, 48.162857 ] ] } },
{ "type": "Feature", "properties": { "cls": "shared", "highway": "path", "name": null }, "geometry": { "type": "LineString", "coordinates": [ [ 11.599333, 48.160187 ], [ 11.599584, 48.160609 ], [ 11.599704, 48.160783 ], [ 11.599697, 48.160904 ], [ 11.599607, 48.161028 ], [ 11.599218, 48.161236 ], [ 11.598796, 48.161461 ], [ 11.598378, 48.161736 ], [ 11.597785, 48.161988 ], [ 11.597705, 48.162029 ] ] } },
{ "type": "Feature", "properties": { "cls": "shared", "highway": "path", "name": null }, "geometry": { "type": "LineString", "coordinates": [ [ 11.601382, 48.160784 ], [ 11.601249, 48.160836 ], [ 11.601074, 48.160844 ], [ 11.600818, 48.160827 ], [ 11.60053, 48.160889 ], [ 11.600278, 48.16098 ], [ 11.599964, 48.161228 ], [ 11.599663, 48.161382 ], [ 11.599165, 48.161611 ] ] } },
{ "type": "Feature", "properties": { "cls": "shared", "highway": "path", "name": null }, "geometry": { "type": "LineString", "coordinates": [ [ 11.601989, 48.161605 ], [ 11.601997, 48.161429 ], [ 11.601382, 48.160784 ], [ 11.601348, 48.160748 ] ] } },
{ "type": "Feature", "properties": { "cls": "separated", "highway": "cycleway", "name": "Isarring" }, "geometry": { "type": "LineString", "coordinates": [ [ 11.59691, 48.162604 ], [ 11.597419, 48.162296 ], [ 11.597746, 48.162119 ], [ 11.597804, 48.162087 ], [ 11.598856, 48.16152 ], [ 11.599577, 48.161107 ], [ 11.599749, 48.160992 ], [ 11.599864, 48.160903 ], [ 11.599953, 48.160869 ], [ 11.600041, 48.160833 ], [ 11.600085, 48.160755 ], [ 11.600108, 48.160719 ], [ 11.600141, 48.160689 ] ] } },
{ "type": "Feature", "properties": { "cls": "shared", "highway": "path", "name": null }, "geometry": { "type": "LineString", "coordinates": [ [ 11.601476, 48.16188 ], [ 11.601673, 48.161779 ], [ 11.601914, 48.161676 ], [ 11.601989, 48.161605 ] ] } },
{ "type": "Feature", "properties": { "cls": "shared", "highway": "path", "name": null }, "geometry": { "type": "LineString", "coordinates": [ [ 11.601238, 48.161952 ], [ 11.601476, 48.16188 ] ] } },
{ "type": "Feature", "properties": { "cls": "shared", "highway": "path", "name": null }, "geometry": { "type": "LineString", "coordinates": [ [ 11.601141, 48.161992 ], [ 11.601238, 48.161952 ] ] } },
{ "type": "Feature", "properties": { "cls": "shared", "highway": "path", "name": null }, "geometry": { "type": "LineString", "coordinates": [ [ 11.600978, 48.162055 ], [ 11.601141, 48.161992 ] ] } },
{ "type": "Feature", "properties": { "cls": "shared", "highway": "path", "name": null }, "geometry": { "type": "LineString", "coordinates": [ [ 11.600978, 48.162055 ], [ 11.600713, 48.162298 ], [ 11.600623, 48.162468 ] ] } },
{ "type": "Feature", "properties": { "cls": "shared", "highway": "path", "name": "Werneckstraße" }, "geometry": { "type": "LineString", "coordinates": [ [ 11.600623, 48.162468 ], [ 11.600577, 48.162644 ], [ 11.600719, 48.162913 ], [ 11.600939, 48.163567 ], [ 11.601011, 48.164151 ], [ 11.601008, 48.164257 ], [ 11.60105, 48.164482 ], [ 11.601211, 48.164803 ], [ 11.601406, 48.165063 ], [ 11.601892, 48.165442 ], [ 11.602289, 48.165692 ], [ 11.602452, 48.165831 ], [ 11.602745, 48.166161 ] ] } },
{ "type": "Feature", "properties": { "cls": "separated", "highway": "path", "name": "Dietlindenstraße" }, "geometry": { "type": "LineString", "coordinates": [ [ 11.596616, 48.162827 ], [ 11.59662, 48.162824 ], [ 11.596735, 48.162736 ], [ 11.59691, 48.162604 ] ] } },
{ "type": "Feature", "properties": { "cls": "separated", "highway": "path", "name": null }, "geometry": { "type": "LineString", "coordinates": [ [ 11.604314, 48.158861 ], [ 11.604194, 48.15879 ], [ 11.604054, 48.158706 ], [ 11.603894, 48.158623 ] ] } },
{ "type": "Feature", "properties": { "cls": "separated", "highway": "path", "name": null }, "geometry": { "type": "LineString", "coordinates": [ [ 11.604367, 48.158754 ], [ 11.604314, 48.158861 ], [ 11.604306, 48.158985 ], [ 11.604321, 48.159027 ] ] } },
{ "type": "Feature", "properties": { "cls": "shared", "highway": "path", "name": null }, "geometry": { "type": "LineString", "coordinates": [ [ 11.605198, 48.160003 ], [ 11.605033, 48.159779 ], [ 11.604828, 48.159426 ], [ 11.604534, 48.159182 ], [ 11.604321, 48.159027 ] ] } },
{ "type": "Feature", "properties": { "cls": "shared", "highway": "path", "name": null }, "geometry": { "type": "LineString", "coordinates": [ [ 11.604321, 48.159027 ], [ 11.604315, 48.159138 ], [ 11.604246, 48.159269 ], [ 11.6041, 48.159362 ], [ 11.60398, 48.159407 ], [ 11.603677, 48.159494 ], [ 11.603425, 48.159592 ], [ 11.603053, 48.159799 ], [ 11.602746, 48.160001 ], [ 11.602574, 48.160082 ], [ 11.602441, 48.160189 ] ] } },
{ "type": "Feature", "properties": { "cls": "shared", "highway": "path", "name": null }, "geometry": { "type": "LineString", "coordinates": [ [ 11.604775, 48.160253 ], [ 11.605127, 48.160187 ], [ 11.60539, 48.160181 ] ] } },
{ "type": "Feature", "properties": { "cls": "shared", "highway": "path", "name": "Gleisweg" }, "geometry": { "type": "LineString", "coordinates": [ [ 11.60733, 48.160953 ], [ 11.607012, 48.160795 ], [ 11.60683, 48.160721 ], [ 11.606568, 48.16063 ], [ 11.606381, 48.160573 ], [ 11.606068, 48.160502 ], [ 11.605927, 48.160459 ], [ 11.605705, 48.160374 ], [ 11.60539, 48.160181 ], [ 11.605198, 48.160003 ] ] } },
{ "type": "Feature", "properties": { "cls": "shared", "highway": "path", "name": null }, "geometry": { "type": "LineString", "coordinates": [ [ 11.601989, 48.161605 ], [ 11.602162, 48.161547 ], [ 11.602572, 48.161364 ], [ 11.602748, 48.16127 ], [ 11.603137, 48.160979 ], [ 11.603275, 48.160899 ], [ 11.603305, 48.160876 ] ] } },
{ "type": "Feature", "properties": { "cls": "shared", "highway": "path", "name": "Gleisweg" }, "geometry": { "type": "LineString", "coordinates": [ [ 11.609311, 48.162714 ], [ 11.609022, 48.162432 ], [ 11.608931, 48.162344 ], [ 11.608317, 48.161647 ], [ 11.608193, 48.161527 ], [ 11.607944, 48.16134 ], [ 11.60752, 48.161066 ], [ 11.60733, 48.160953 ] ] } },
{ "type": "Feature", "properties": { "cls": "shared", "highway": "path", "name": "Maffeiweg" }, "geometry": { "type": "LineString", "coordinates": [ [ 11.606396, 48.163091 ], [ 11.606964, 48.162822 ], [ 11.607086, 48.16277 ], [ 11.607711, 48.162555 ], [ 11.607864, 48.162513 ], [ 11.608046, 48.162479 ], [ 11.608454, 48.16245 ], [ 11.608803, 48.16243 ] ] } },
{ "type": "Feature", "properties": { "cls": "shared", "highway": "path", "name": null }, "geometry": { "type": "LineString", "coordinates": [ [ 11.606184, 48.163191 ], [ 11.606396, 48.163091 ] ] } },
{ "type": "Feature", "properties": { "cls": "shared", "highway": "path", "name": "Gleisweg" }, "geometry": { "type": "LineString", "coordinates": [ [ 11.609525, 48.165882 ], [ 11.60966, 48.165804 ], [ 11.609987, 48.165528 ], [ 11.610061, 48.165357 ], [ 11.610047, 48.165026 ], [ 11.609792, 48.164627 ], [ 11.609611, 48.164318 ], [ 11.609592, 48.164073 ], [ 11.609664, 48.163827 ], [ 11.609701, 48.163487 ], [ 11.609491, 48.162995 ], [ 11.609311, 48.162714 ] ] } },
{ "type": "Feature", "properties": { "cls": "shared", "highway": "path", "name": null }, "geometry": { "type": "LineString", "coordinates": [ [ 11.608803, 48.16243 ], [ 11.609022, 48.162432 ], [ 11.609298, 48.162454 ], [ 11.609466, 48.162481 ], [ 11.609636, 48.16255 ], [ 11.609763, 48.162636 ], [ 11.609896, 48.162777 ], [ 11.610095, 48.163075 ], [ 11.610833, 48.163798 ], [ 11.611512, 48.164546 ], [ 11.612006, 48.165058 ], [ 11.612257, 48.165344 ], [ 11.612397, 48.165605 ], [ 11.612436, 48.165826 ], [ 11.612569, 48.166061 ], [ 11.613115, 48.166591 ], [ 11.613596, 48.166929 ], [ 11.613802, 48.167082 ], [ 11.614422, 48.167765 ], [ 11.614412, 48.167878 ], [ 11.614424, 48.167981 ], [ 11.614425, 48.168049 ], [ 11.614519, 48.16819 ] ] } },
{ "type": "Feature", "properties": { "cls": "shared", "highway": "path", "name": null }, "geometry": { "type": "LineString", "coordinates": [ [ 11.609963, 48.166732 ], [ 11.610039, 48.166481 ], [ 11.610091, 48.166415 ] ] } },
{ "type": "Feature", "properties": { "cls": "shared", "highway": "path", "name": "Thompsonstraße" }, "geometry": { "type": "LineString", "coordinates": [ [ 11.606757, 48.167443 ], [ 11.606502, 48.167158 ], [ 11.606262, 48.16697 ], [ 11.60615, 48.166869 ], [ 11.606043, 48.166721 ], [ 11.605897, 48.166411 ], [ 11.605721, 48.16627 ], [ 11.605192, 48.166058 ], [ 11.604869, 48.165462 ], [ 11.604559, 48.165232 ], [ 11.604321, 48.164982 ], [ 11.60409, 48.164722 ], [ 11.603877, 48.164593 ], [ 11.603354, 48.164408 ], [ 11.603181, 48.164244 ], [ 11.603029, 48.164044 ], [ 11.602849, 48.163889 ], [ 11.602696, 48.163767 ], [ 11.602507, 48.163584 ], [ 11.602456, 48.163456 ], [ 11.602434, 48.16314 ], [ 11.602276, 48.16289 ], [ 11.602064, 48.162595 ], [ 11.601865, 48.162253 ], [ 11.601476, 48.16188 ] ] } },
{ "type": "Feature", "properties": { "cls": "shared", "highway": "path", "name": "Werneckstraße" }, "geometry": { "type": "LineString", "coordinates": [ [ 11.602745, 48.166161 ], [ 11.602799, 48.166231 ] ] } },
{ "type": "Feature", "properties": { "cls": "shared", "highway": "path", "name": "Ernst-Penzoldt-Weg" }, "geometry": { "type": "LineString", "coordinates": [ [ 11.606757, 48.167443 ], [ 11.607141, 48.167238 ], [ 11.607421, 48.167083 ], [ 11.608085, 48.166703 ], [ 11.608904, 48.166236 ], [ 11.609525, 48.165882 ] ] } },
{ "type": "Feature", "properties": { "cls": "shared", "highway": "path", "name": "Baumschulstraße" }, "geometry": { "type": "LineString", "coordinates": [ [ 11.609963, 48.166732 ], [ 11.609771, 48.166707 ], [ 11.609615, 48.166707 ], [ 11.609425, 48.166727 ], [ 11.609263, 48.16678 ], [ 11.609002, 48.166935 ], [ 11.608766, 48.167046 ], [ 11.608504, 48.167239 ], [ 11.608078, 48.167455 ], [ 11.607682, 48.167628 ], [ 11.607374, 48.167654 ], [ 11.607226, 48.167667 ], [ 11.607028, 48.167613 ] ] } },
{ "type": "Feature", "properties": { "cls": "shared", "highway": "path", "name": "Werneckstraße" }, "geometry": { "type": "LineString", "coordinates": [ [ 11.602799, 48.166231 ], [ 11.60309, 48.166703 ], [ 11.603332, 48.167145 ], [ 11.603767, 48.167602 ], [ 11.604185, 48.167911 ], [ 11.604805, 48.168239 ], [ 11.605143, 48.168366 ] ] } },
{ "type": "Feature", "properties": { "cls": "shared", "highway": "path", "name": "Ernst-Penzoldt-Weg" }, "geometry": { "type": "LineString", "coordinates": [ [ 11.606495, 48.167607 ], [ 11.606757, 48.167443 ] ] } },
{ "type": "Feature", "properties": { "cls": "shared", "highway": "path", "name": "Thompsonstraße" }, "geometry": { "type": "LineString", "coordinates": [ [ 11.607028, 48.167613 ], [ 11.606757, 48.167443 ] ] } },
{ "type": "Feature", "properties": { "cls": "shared", "highway": "path", "name": "Ernst-Penzoldt-Steg" }, "geometry": { "type": "LineString", "coordinates": [ [ 11.606344, 48.167696 ], [ 11.606495, 48.167607 ] ] } },
{ "type": "Feature", "properties": { "cls": "shared", "highway": "path", "name": "Thompsonstraße" }, "geometry": { "type": "LineString", "coordinates": [ [ 11.607154, 48.167772 ], [ 11.607116, 48.167721 ], [ 11.607028, 48.167613 ] ] } },
{ "type": "Feature", "properties": { "cls": "shared", "highway": "path", "name": null }, "geometry": { "type": "LineString", "coordinates": [ [ 11.607226, 48.167667 ], [ 11.607116, 48.167721 ] ] } },
{ "type": "Feature", "properties": { "cls": "shared", "highway": "path", "name": null }, "geometry": { "type": "LineString", "coordinates": [ [ 11.614519, 48.16819 ], [ 11.614744, 48.168371 ], [ 11.61497, 48.168622 ], [ 11.615202, 48.168889 ], [ 11.615211, 48.168904 ], [ 11.615287, 48.169004 ], [ 11.61548, 48.169286 ] ] } },
{ "type": "Feature", "properties": { "cls": "shared", "highway": "path", "name": null }, "geometry": { "type": "LineString", "coordinates": [ [ 11.61482, 48.169004 ], [ 11.615211, 48.168904 ] ] } },
{ "type": "Feature", "properties": { "cls": "shared", "highway": "path", "name": "Baumschulstraße" }, "geometry": { "type": "LineString", "coordinates": [ [ 11.614519, 48.16819 ], [ 11.614268, 48.168147 ], [ 11.614062, 48.168132 ], [ 11.613526, 48.168178 ], [ 11.612857, 48.168232 ], [ 11.612556, 48.168202 ], [ 11.612151, 48.168118 ], [ 11.611868, 48.167998 ], [ 11.611384, 48.167686 ], [ 11.611034, 48.167375 ], [ 11.610783, 48.167202 ], [ 11.609963, 48.166732 ] ] } },
{ "type": "Feature", "properties": { "cls": "shared", "highway": "path", "name": "Friedrich-Ludwig-von-Sckell-Straße" }, "geometry": { "type": "LineString", "coordinates": [ [ 11.612917, 48.173451 ], [ 11.612877, 48.173354 ], [ 11.612704, 48.173094 ], [ 11.612394, 48.172611 ], [ 11.612135, 48.172075 ], [ 11.611947, 48.171888 ], [ 11.61177, 48.171772 ], [ 11.6113, 48.171582 ], [ 11.611099, 48.171424 ], [ 11.611006, 48.171351 ], [ 11.610343, 48.170519 ], [ 11.610009, 48.170238 ], [ 11.609198, 48.16979 ], [ 11.608515, 48.169346 ], [ 11.608244, 48.169127 ], [ 11.607961, 48.168894 ], [ 11.607696, 48.168587 ], [ 11.607434, 48.168256 ], [ 11.607232, 48.167941 ], [ 11.607208, 48.167858 ] ] } },
{ "type": "Feature", "properties": { "cls": "shared", "highway": "path", "name": null }, "geometry": { "type": "LineString", "coordinates": [ [ 11.616142, 48.170231 ], [ 11.616055, 48.170282 ], [ 11.615267, 48.171051 ], [ 11.614612, 48.171488 ], [ 11.614453, 48.171717 ], [ 11.614005, 48.17264 ], [ 11.613795, 48.172953 ], [ 11.613755, 48.172982 ], [ 11.613715, 48.173012 ], [ 11.61365, 48.173051 ] ] } },
{ "type": "Feature", "properties": { "cls": "shared", "highway": "path", "name": "Effnerstraße" }, "geometry": { "type": "LineString", "coordinates": [ [ 11.61365, 48.173051 ], [ 11.613591, 48.173091 ] ] } },
{ "type": "Feature", "properties": { "cls": "shared", "highway": "path", "name": null }, "geometry": { "type": "LineString", "coordinates": [ [ 11.613591, 48.173091 ], [ 11.613431, 48.173166 ] ] } },
{ "type": "Feature", "properties": { "cls": "shared", "highway": "path", "name": "Effnerbrücke" }, "geometry": { "type": "LineString", "coordinates": [ [ 11.613431, 48.173166 ], [ 11.613326, 48.173217 ] ] } },
{ "type": "Feature", "properties": { "cls": "shared", "highway": "path", "name": null }, "geometry": { "type": "LineString", "coordinates": [ [ 11.613326, 48.173217 ], [ 11.613207, 48.173272 ], [ 11.612917, 48.173451 ] ] } },
{ "type": "Feature", "properties": { "cls": "shared", "highway": "path", "name": null }, "geometry": { "type": "LineString", "coordinates": [ [ 11.61292, 48.173552 ], [ 11.612862, 48.1736 ], [ 11.612634, 48.173744 ], [ 11.612478, 48.173849 ], [ 11.612259, 48.173887 ], [ 11.611344, 48.173986 ], [ 11.611045, 48.17399 ], [ 11.610845, 48.173975 ], [ 11.610526, 48.173906 ], [ 11.609915, 48.173712 ], [ 11.60837, 48.17322 ] ] } },
{ "type": "Feature", "properties": { "cls": "shared", "highway": "path", "name": null }, "geometry": { "type": "LineString", "coordinates": [ [ 11.613207, 48.173272 ], [ 11.613151, 48.173492 ], [ 11.613266, 48.173737 ], [ 11.613292, 48.173854 ], [ 11.613237, 48.173944 ] ] } },
{ "type": "Feature", "properties": { "cls": "shared", "highway": "path", "name": "Friedrich-Ludwig-von-Sckell-Straße" }, "geometry": { "type": "LineString", "coordinates": [ [ 11.613237, 48.173944 ], [ 11.61307, 48.173796 ], [ 11.61292, 48.173552 ], [ 11.612917, 48.173451 ] ] } },
{ "type": "Feature", "properties": { "cls": "shared", "highway": "path", "name": "Ernst-Penzoldt-Weg" }, "geometry": { "type": "LineString", "coordinates": [ [ 11.606108, 48.167823 ], [ 11.606251, 48.167743 ], [ 11.606344, 48.167696 ] ] } },
{ "type": "Feature", "properties": { "cls": "shared", "highway": "path", "name": "Blaue Brücke" }, "geometry": { "type": "LineString", "coordinates": [ [ 11.607208, 48.167858 ], [ 11.607154, 48.167772 ] ] } },
{ "type": "Feature", "properties": { "cls": "shared", "highway": "path", "name": "Ernst-Penzoldt-Weg" }, "geometry": { "type": "LineString", "coordinates": [ [ 11.605542, 48.168138 ], [ 11.606108, 48.167823 ] ] } },
{ "type": "Feature", "properties": { "cls": "shared", "highway": "path", "name": null }, "geometry": { "type": "LineString", "coordinates": [ [ 11.607232, 48.167941 ], [ 11.607134, 48.168105 ], [ 11.607011, 48.168284 ], [ 11.6069, 48.168385 ], [ 11.606813, 48.168443 ], [ 11.606695, 48.168492 ], [ 11.606505, 48.168557 ] ] } },
{ "type": "Feature", "properties": { "cls": "shared", "highway": "path", "name": "Ernst-Penzoldt-Weg" }, "geometry": { "type": "LineString", "coordinates": [ [ 11.604793, 48.168577 ], [ 11.605143, 48.168366 ], [ 11.605542, 48.168138 ] ] } },
{ "type": "Feature", "properties": { "cls": "shared", "highway": "path", "name": "Ernst-Penzoldt-Steg" }, "geometry": { "type": "LineString", "coordinates": [ [ 11.604656, 48.168651 ], [ 11.604793, 48.168577 ] ] } },
{ "type": "Feature", "properties": { "cls": "shared", "highway": "path", "name": null }, "geometry": { "type": "LineString", "coordinates": [ [ 11.606505, 48.168557 ], [ 11.606266, 48.168621 ], [ 11.605877, 48.168659 ] ] } },
{ "type": "Feature", "properties": { "cls": "shared", "highway": "path", "name": "Ernst-Penzoldt-Weg" }, "geometry": { "type": "LineString", "coordinates": [ [ 11.604549, 48.168711 ], [ 11.604656, 48.168651 ] ] } },
{ "type": "Feature", "properties": { "cls": "shared", "highway": "path", "name": "Forststraße" }, "geometry": { "type": "LineString", "coordinates": [ [ 11.61548, 48.169286 ], [ 11.615707, 48.169627 ], [ 11.616012, 48.170083 ] ] } },
{ "type": "Feature", "properties": { "cls": "shared", "highway": "path", "name": "Forststraße" }, "geometry": { "type": "LineString", "coordinates": [ [ 11.616012, 48.170083 ], [ 11.616142, 48.170231 ] ] } },
{ "type": "Feature", "properties": { "cls": "shared", "highway": "path", "name": "Forststraße" }, "geometry": { "type": "LineString", "coordinates": [ [ 11.616142, 48.170231 ], [ 11.616391, 48.170467 ], [ 11.616716, 48.170843 ], [ 11.61699, 48.171216 ] ] } },
{ "type": "Feature", "properties": { "cls": "shared", "highway": "path", "name": null }, "geometry": { "type": "LineString", "coordinates": [ [ 11.61314, 48.174608 ], [ 11.613093, 48.174461 ], [ 11.613091, 48.17439 ], [ 11.613112, 48.174324 ], [ 11.613183, 48.174199 ], [ 11.613237, 48.173944 ] ] } },
{ "type": "Feature", "properties": { "cls": "shared", "highway": "path", "name": "Zistlerweg" }, "geometry": { "type": "LineString", "coordinates": [ [ 11.61186, 48.176287 ], [ 11.612102, 48.175963 ], [ 11.612193, 48.175777 ], [ 11.612265, 48.175576 ], [ 11.612307, 48.175492 ], [ 11.612383, 48.175387 ], [ 11.612696, 48.175014 ], [ 11.612953, 48.174801 ], [ 11.613071, 48.174703 ], [ 11.613114, 48.174654 ], [ 11.61314, 48.174608 ] ] } },
{ "type": "Feature", "properties": { "cls": "shared", "highway": "path", "name": "Werneckweg" }, "geometry": { "type": "LineString", "coordinates": [ [ 11.61186, 48.176287 ], [ 11.611948, 48.176488 ] ] } },
{ "type": "Feature", "properties": { "cls": "shared", "highway": "path", "name": "Werneckstraße" }, "geometry": { "type": "LineString", "coordinates": [ [ 11.605143, 48.168366 ], [ 11.605589, 48.168538 ], [ 11.605877, 48.168659 ], [ 11.606086, 48.1688 ], [ 11.606314, 48.168919 ], [ 11.606536, 48.169106 ], [ 11.606659, 48.169452 ], [ 11.606633, 48.169637 ], [ 11.606573, 48.169813 ], [ 11.606479, 48.169939 ], [ 11.606269, 48.170112 ], [ 11.605961, 48.170327 ], [ 11.605797, 48.170528 ], [ 11.605708, 48.170809 ], [ 11.605626, 48.171085 ], [ 11.605676, 48.171347 ], [ 11.605796, 48.171571 ], [ 11.606249, 48.171941 ], [ 11.606737, 48.172178 ], [ 11.606969, 48.17234 ], [ 11.607165, 48.172519 ], [ 11.607385, 48.172666 ], [ 11.607645, 48.172775 ], [ 11.608018, 48.172986 ], [ 11.60837, 48.17322 ], [ 11.608839, 48.173555 ], [ 11.609387, 48.173845 ], [ 11.609637, 48.174031 ], [ 11.609856, 48.174257 ], [ 11.61002, 48.174511 ], [ 11.610087, 48.174656 ], [ 11.61019, 48.174811 ], [ 11.610389, 48.17496 ], [ 11.610499, 48.175067 ], [ 11.610567, 48.175141 ], [ 11.610606, 48.175199 ], [ 11.610628, 48.175255 ], [ 11.610647, 48.175358 ], [ 11.610661, 48.175529 ], [ 11.610614, 48.175837 ], [ 11.610584, 48.175956 ], [ 11.61047, 48.176232 ], [ 11.610434, 48.176301 ], [ 11.610391, 48.176361 ], [ 11.610278, 48.176468 ], [ 11.610166, 48.176568 ], [ 11.610059, 48.176668 ], [ 11.610016, 48.176764 ], [ 11.609997, 48.176866 ], [ 11.609994, 48.17692 ], [ 11.610003, 48.176971 ], [ 11.61004, 48.177065 ], [ 11.610109, 48.177133 ], [ 11.61019, 48.177205 ], [ 11.610415, 48.177331 ], [ 11.610559, 48.17742 ], [ 11.610672, 48.177524 ], [ 11.610736, 48.1776 ], [ 11.610821, 48.177757 ], [ 11.610969, 48.177982 ], [ 11.611115, 48.178184 ], [ 11.611359, 48.17843 ], [ 11.611622, 48.178749 ], [ 11.611901, 48.178995 ], [ 11.612258, 48.179227 ], [ 11.612648, 48.179423 ], [ 11.613364, 48.179672 ], [ 11.613878, 48.179799 ], [ 11.614272, 48.179931 ], [ 11.614652, 48.179992 ], [ 11.615003, 48.18005 ], [ 11.615631, 48.180033 ], [ 11.616196, 48.180049 ], [ 11.616572, 48.180114 ], [ 11.616973, 48.180208 ], [ 11.617206, 48.180345 ], [ 11.617364, 48.180546 ], [ 11.617465, 48.180739 ], [ 11.617547, 48.180985 ], [ 11.617604, 48.181305 ], [ 11.617586, 48.181526 ], [ 11.617538, 48.181733 ], [ 11.617316, 48.182011 ], [ 11.617092, 48.182192 ], [ 11.617068, 48.182211 ], [ 11.616735, 48.182394 ], [ 11.61641, 48.182512 ], [ 11.616211, 48.182619 ], [ 11.616114, 48.182689 ], [ 11.616041, 48.18282 ], [ 11.616037, 48.182973 ], [ 11.616093, 48.183109 ], [ 11.616198, 48.183302 ], [ 11.616431, 48.183597 ], [ 11.616813, 48.18399 ], [ 11.617027, 48.184217 ], [ 11.617311, 48.184414 ], [ 11.61771, 48.184603 ], [ 11.618107, 48.184729 ], [ 11.618652, 48.184847 ], [ 11.619294, 48.184945 ] ] } },
{ "type": "Feature", "properties": { "cls": "shared", "highway": "path", "name": null }, "geometry": { "type": "LineString", "coordinates": [ [ 11.611948, 48.176488 ], [ 11.611712, 48.176727 ], [ 11.611354, 48.176966 ], [ 11.611064, 48.177208 ] ] } },
{ "type": "Feature", "properties": { "cls": "shared", "highway": "path", "name": null }, "geometry": { "type": "LineString", "coordinates": [ [ 11.608749, 48.177016 ], [ 11.60877, 48.17703 ], [ 11.608796, 48.177048 ], [ 11.608831, 48.177065 ], [ 11.609217, 48.177213 ], [ 11.609535, 48.177426 ], [ 11.610507, 48.177978 ], [ 11.610592, 48.177956 ] ] } },
{ "type": "Feature", "properties": { "cls": "shared", "highway": "path", "name": "Zistlerweg" }, "geometry": { "type": "LineString", "coordinates": [ [ 11.611064, 48.177208 ], [ 11.610934, 48.177522 ], [ 11.610821, 48.177757 ], [ 11.610757, 48.177898 ], [ 11.610739, 48.177905 ] ] } },
{ "type": "Feature", "properties": { "cls": "shared", "highway": "path", "name": "Zistlersteg" }, "geometry": { "type": "LineString", "coordinates": [ [ 11.610739, 48.177905 ], [ 11.610592, 48.177956 ] ] } },
{ "type": "Feature", "properties": { "cls": "shared", "highway": "path", "name": null }, "geometry": { "type": "LineString", "coordinates": [ [ 11.610757, 48.177898 ], [ 11.610969, 48.177982 ] ] } },
{ "type": "Feature", "properties": { "cls": "shared", "highway": "path", "name": null }, "geometry": { "type": "LineString", "coordinates": [ [ 11.614272, 48.179931 ], [ 11.614161, 48.180121 ] ] } },
{ "type": "Feature", "properties": { "cls": "shared", "highway": "path", "name": "Forststraße" }, "geometry": { "type": "LineString", "coordinates": [ [ 11.61699, 48.171216 ], [ 11.617352, 48.171767 ], [ 11.617644, 48.172303 ], [ 11.617701, 48.172433 ], [ 11.618041, 48.173392 ], [ 11.618091, 48.173766 ], [ 11.617981, 48.174398 ], [ 11.617963, 48.174753 ], [ 11.617989, 48.175037 ], [ 11.61811, 48.17531 ], [ 11.618356, 48.175584 ], [ 11.619038, 48.176041 ], [ 11.619463, 48.176328 ], [ 11.619664, 48.176533 ], [ 11.620423, 48.1775 ], [ 11.620641, 48.177944 ], [ 11.620962, 48.178448 ], [ 11.621342, 48.178987 ], [ 11.621573, 48.179231 ], [ 11.621875, 48.179438 ], [ 11.622534, 48.17982 ], [ 11.622592, 48.179852 ], [ 11.62299, 48.180075 ], [ 11.623165, 48.180173 ], [ 11.623318, 48.180276 ], [ 11.623429, 48.180351 ] ] } },
{ "type": "Feature", "properties": { "cls": "shared", "highway": "path", "name": "Jagdweg" }, "geometry": { "type": "LineString", "coordinates": [ [ 11.618145, 48.177304 ], [ 11.618236, 48.17723 ], [ 11.618242, 48.177104 ], [ 11.61822, 48.177058 ], [ 11.618273, 48.176886 ], [ 11.618321, 48.176816 ], [ 11.618376, 48.176738 ], [ 11.618584, 48.17655 ], [ 11.618799, 48.176267 ], [ 11.618971, 48.176093 ], [ 11.619038, 48.176041 ] ] } },
{ "type": "Feature", "properties": { "cls": "shared", "highway": "path", "name": "Jagdbrücke" }, "geometry": { "type": "LineString", "coordinates": [ [ 11.618076, 48.177355 ], [ 11.618145, 48.177304 ] ] } },
{ "type": "Feature", "properties": { "cls": "shared", "highway": "path", "name": null }, "geometry": { "type": "LineString", "coordinates": [ [ 11.616749, 48.177396 ], [ 11.617094, 48.177441 ], [ 11.617607, 48.177472 ], [ 11.617798, 48.177446 ], [ 11.618055, 48.177362 ], [ 11.618076, 48.177355 ] ] } },
{ "type": "Feature", "properties": { "cls": "shared", "highway": "path", "name": "Friedrich-Ludwig-von-Sckell-Straße" }, "geometry": { "type": "LineString", "coordinates": [ [ 11.619684, 48.183874 ], [ 11.619697, 48.183813 ], [ 11.619734, 48.18376 ], [ 11.619749, 48.183739 ], [ 11.619753, 48.183729 ], [ 11.620132, 48.183194 ], [ 11.620195, 48.183053 ], [ 11.620265, 48.182897 ], [ 11.620551, 48.182557 ], [ 11.620636, 48.182423 ], [ 11.6207, 48.182321 ], [ 11.620676, 48.182028 ], [ 11.620547, 48.181641 ], [ 11.620433, 48.181448 ], [ 11.620263, 48.181299 ], [ 11.619986, 48.181145 ], [ 11.619623, 48.180968 ], [ 11.619336, 48.180798 ], [ 11.619018, 48.180545 ], [ 11.618674, 48.180161 ], [ 11.618316, 48.179662 ], [ 11.618126, 48.179319 ], [ 11.618061, 48.179187 ], [ 11.617761, 48.178774 ], [ 11.617627, 48.178651 ], [ 11.617428, 48.178396 ], [ 11.617218, 48.178228 ], [ 11.617009, 48.178082 ], [ 11.616826, 48.177897 ], [ 11.616746, 48.177623 ], [ 11.616749, 48.177396 ], [ 11.616708, 48.177256 ], [ 11.616651, 48.177059 ], [ 11.616405, 48.176774 ], [ 11.616013, 48.176483 ], [ 11.615596, 48.176268 ], [ 11.615264, 48.176112 ], [ 11.615098, 48.176009 ], [ 11.61493, 48.175855 ], [ 11.61479, 48.175643 ], [ 11.61461, 48.175431 ], [ 11.614247, 48.175136 ], [ 11.614016, 48.174869 ], [ 11.613681, 48.174298 ], [ 11.613506, 48.174114 ], [ 11.613237, 48.173944 ] ] } },
{ "type": "Feature", "properties": { "cls": "shared", "highway": "path", "name": null }, "geometry": { "type": "LineString", "coordinates": [ [ 11.615794, 48.182411 ], [ 11.615643, 48.182313 ] ] } },
{ "type": "Feature", "properties": { "cls": "shared", "highway": "path", "name": null }, "geometry": { "type": "LineString", "coordinates": [ [ 11.615873, 48.182463 ], [ 11.615794, 48.182411 ] ] } },
{ "type": "Feature", "properties": { "cls": "shared", "highway": "path", "name": null }, "geometry": { "type": "LineString", "coordinates": [ [ 11.615643, 48.182313 ], [ 11.615586, 48.182407 ], [ 11.615484, 48.182546 ], [ 11.615446, 48.182609 ] ] } },
{ "type": "Feature", "properties": { "cls": "shared", "highway": "path", "name": null }, "geometry": { "type": "LineString", "coordinates": [ [ 11.616114, 48.182689 ], [ 11.615945, 48.182524 ], [ 11.615873, 48.182463 ] ] } },
{ "type": "Feature", "properties": { "cls": "shared", "highway": "path", "name": null }, "geometry": { "type": "LineString", "coordinates": [ [ 11.622748, 48.183363 ], [ 11.622683, 48.183379 ], [ 11.622398, 48.183323 ], [ 11.622295, 48.18331 ], [ 11.621933, 48.183332 ], [ 11.621277, 48.183505 ], [ 11.620693, 48.183658 ], [ 11.619684, 48.183874 ] ] } },
{ "type": "Feature", "properties": { "cls": "shared", "highway": "path", "name": "Sankt-Emmeram-Brücke" }, "geometry": { "type": "LineString", "coordinates": [ [ 11.624747, 48.178815 ], [ 11.624897, 48.178752 ] ] } },
{ "type": "Feature", "properties": { "cls": "shared", "highway": "path", "name": null }, "geometry": { "type": "LineString", "coordinates": [ [ 11.624532, 48.178877 ], [ 11.624747, 48.178815 ] ] } },
{ "type": "Feature", "properties": { "cls": "shared", "highway": "path", "name": null }, "geometry": { "type": "LineString", "coordinates": [ [ 11.624532, 48.178877 ], [ 11.624264, 48.178963 ], [ 11.624019, 48.1791 ], [ 11.62391, 48.179178 ], [ 11.623875, 48.179231 ], [ 11.623765, 48.179291 ], [ 11.623388, 48.179513 ], [ 11.623355, 48.179569 ], [ 11.623268, 48.179913 ], [ 11.62324, 48.179998 ], [ 11.623201, 48.180119 ], [ 11.623165, 48.180173 ] ] } },
{ "type": "Feature", "properties": { "cls": "shared", "highway": "path", "name": null }, "geometry": { "type": "LineString", "coordinates": [ [ 11.624532, 48.178877 ], [ 11.624563, 48.178994 ], [ 11.624663, 48.179127 ], [ 11.624874, 48.179269 ], [ 11.625071, 48.179412 ], [ 11.625284, 48.179518 ], [ 11.62573, 48.180012 ], [ 11.625985, 48.180271 ], [ 11.626308, 48.180708 ], [ 11.626457, 48.18086 ], [ 11.626677, 48.181048 ], [ 11.626926, 48.181404 ], [ 11.627309, 48.181755 ], [ 11.627619, 48.182113 ], [ 11.628082, 48.182621 ], [ 11.628232, 48.182829 ], [ 11.628393, 48.183 ] ] } },
{ "type": "Feature", "properties": { "cls": "shared", "highway": "path", "name": null }, "geometry": { "type": "LineString", "coordinates": [ [ 11.614161, 48.180121 ], [ 11.614076, 48.180252 ] ] } },
{ "type": "Feature", "properties": { "cls": "shared", "highway": "path", "name": null }, "geometry": { "type": "LineString", "coordinates": [ [ 11.614076, 48.180252 ], [ 11.614036, 48.180325 ] ] } },
{ "type": "Feature", "properties": { "cls": "shared", "highway": "path", "name": null }, "geometry": { "type": "LineString", "coordinates": [ [ 11.614036, 48.180325 ], [ 11.613972, 48.180419 ], [ 11.613869, 48.180535 ] ] } },
{ "type": "Feature", "properties": { "cls": "shared", "highway": "path", "name": null }, "geometry": { "type": "LineString", "coordinates": [ [ 11.61245, 48.181145 ], [ 11.61292, 48.180881 ], [ 11.613402, 48.18071 ], [ 11.613869, 48.180535 ] ] } },
{ "type": "Feature", "properties": { "cls": "shared", "highway": "path", "name": null }, "geometry": { "type": "LineString", "coordinates": [ [ 11.613869, 48.180535 ], [ 11.614026, 48.180559 ], [ 11.614452, 48.180716 ], [ 11.614882, 48.180996 ], [ 11.615119, 48.181221 ], [ 11.615289, 48.181449 ], [ 11.615409, 48.181666 ], [ 11.615467, 48.181932 ], [ 11.615516, 48.18212 ], [ 11.615643, 48.182313 ] ] } },
{ "type": "Feature", "properties": { "cls": "shared", "highway": "path", "name": null }, "geometry": { "type": "LineString", "coordinates": [ [ 11.615446, 48.182609 ], [ 11.615178, 48.182758 ], [ 11.614873, 48.182831 ] ] } },
{ "type": "Feature", "properties": { "cls": "shared", "highway": "path", "name": null }, "geometry": { "type": "LineString", "coordinates": [ [ 11.615446, 48.182609 ], [ 11.615294, 48.182995 ], [ 11.615265, 48.183302 ] ] } },
{ "type": "Feature", "properties": { "cls": "shared", "highway": "path", "name": null }, "geometry": { "type": "LineString", "coordinates": [ [ 11.614873, 48.182831 ], [ 11.614962, 48.182946 ], [ 11.61511, 48.183143 ], [ 11.615265, 48.183302 ] ] } },
{ "type": "Feature", "properties": { "cls": "shared", "highway": "path", "name": "Forststraße" }, "geometry": { "type": "LineString", "coordinates": [ [ 11.623429, 48.180351 ], [ 11.623709, 48.180561 ], [ 11.623893, 48.1809 ], [ 11.623715, 48.182281 ], [ 11.623604, 48.182605 ], [ 11.623572, 48.182701 ], [ 11.623533, 48.182734 ] ] } },
{ "type": "Feature", "properties": { "cls": "shared", "highway": "path", "name": null }, "geometry": { "type": "LineString", "coordinates": [ [ 11.623572, 48.182701 ], [ 11.623793, 48.182635 ], [ 11.623963, 48.182494 ], [ 11.624982, 48.181701 ], [ 11.625312, 48.181472 ], [ 11.625419, 48.181378 ], [ 11.625506, 48.181336 ] ] } },
{ "type": "Feature", "properties": { "cls": "shared", "highway": "path", "name": "Forststraße" }, "geometry": { "type": "LineString", "coordinates": [ [ 11.623533, 48.182734 ], [ 11.623298, 48.182933 ], [ 11.623088, 48.183146 ], [ 11.622877, 48.183321 ] ] } },
{ "type": "Feature", "properties": { "cls": "shared", "highway": "path", "name": "Entenfallbrücke" }, "geometry": { "type": "LineString", "coordinates": [ [ 11.622877, 48.183321 ], [ 11.622748, 48.183363 ] ] } },
{ "type": "Feature", "properties": { "cls": "shared", "highway": "path", "name": null }, "geometry": { "type": "LineString", "coordinates": [ [ 11.615265, 48.183302 ], [ 11.615755, 48.183794 ], [ 11.615899, 48.183939 ], [ 11.616524, 48.184523 ], [ 11.61659, 48.184585 ] ] } },
{ "type": "Feature", "properties": { "cls": "shared", "highway": "path", "name": null }, "geometry": { "type": "LineString", "coordinates": [ [ 11.619684, 48.183874 ], [ 11.619311, 48.184769 ], [ 11.619294, 48.184945 ], [ 11.619461, 48.185114 ] ] } },
{ "type": "Feature", "properties": { "cls": "shared", "highway": "path", "name": null }, "geometry": { "type": "LineString", "coordinates": [ [ 11.61659, 48.184585 ], [ 11.616802, 48.184945 ], [ 11.616803, 48.185078 ], [ 11.616785, 48.185182 ] ] } },
{ "type": "Feature", "properties": { "cls": "shared", "highway": "path", "name": null }, "geometry": { "type": "LineString", "coordinates": [ [ 11.61659, 48.184585 ], [ 11.617333, 48.185144 ], [ 11.617343, 48.185186 ] ] } },
{ "type": "Feature", "properties": { "cls": "shared", "highway": "path", "name": "Aumeisterbrücke" }, "geometry": { "type": "LineString", "coordinates": [ [ 11.619461, 48.185114 ], [ 11.619567, 48.185195 ] ] } },
{ "type": "Feature", "properties": { "cls": "shared", "highway": "path", "name": null }, "geometry": { "type": "LineString", "coordinates": [ [ 11.619567, 48.185195 ], [ 11.619605, 48.185226 ] ] } },
{ "type": "Feature", "properties": { "cls": "shared", "highway": "path", "name": null }, "geometry": { "type": "LineString", "coordinates": [ [ 11.618001, 48.185301 ], [ 11.618202, 48.185286 ], [ 11.618448, 48.185302 ], [ 11.618866, 48.185341 ], [ 11.619085, 48.185351 ], [ 11.619344, 48.185331 ], [ 11.619605, 48.185226 ] ] } },
{ "type": "Feature", "properties": { "cls": "shared", "highway": "path", "name": null }, "geometry": { "type": "LineString", "coordinates": [ [ 11.617712, 48.185374 ], [ 11.617899, 48.185338 ] ] } },
{ "type": "Feature", "properties": { "cls": "shared", "highway": "path", "name": null }, "geometry": { "type": "LineString", "coordinates": [ [ 11.619605, 48.185226 ], [ 11.619839, 48.185185 ], [ 11.620027, 48.185171 ], [ 11.620204, 48.185172 ], [ 11.620406, 48.185186 ], [ 11.620603, 48.185258 ], [ 11.620692, 48.18535 ], [ 11.620908, 48.185626 ], [ 11.621022, 48.185804 ], [ 11.621018, 48.185881 ] ] } }
]
}
