{
"type": "FeatureCollection",
"name": "155-st-louis-forest-park",
"crs": { "type": "name", "properties": { "name": "urn:ogc:def:crs:OGC:1.3:CRS84" } },
"xy_coordinate_resolution": 1e-06,
"features": [
{ "type": "Feature", "properties": { "cls": "shared", "highway": "cycleway", "name": null }, "geometry": { "type": "Point", "coordinates": [ -90.269734, 38.62934 ] } },
{ "type": "Feature", "properties": { "cls": "shared", "highway": "cycleway", "name": null }, "geometry": { "type": "LineString", "coordinates": [ [ -90.269733, 38.629347 ], [ -90.269734, 38.62934 ] ] } },
{ "type": "Feature", "properties": { "cls": "shared", "highway": "cycleway", "name": null }, "geometry": { "type": "LineString", "coordinates": [ [ -90.269732, 38.629371 ], [ -90.269732, 38.629358 ], [ -90.269733, 38.629347 ] ] } },
{ "type": "Feature", "properties": { "cls": "shared", "highway": "cycleway", "name": null }, "geometry": { "type": "LineString", "coordinates": [ [ -90.269531, 38.629615 ], [ -90.269537, 38.629598 ], [ -90.269547, 38.629582 ], [ -90.269556, 38.629572 ], [ -90.269575, 38.629559 ], [ -90.269598, 38.629551 ], [ -90.269638, 38.629543 ], [ -90.269667, 38.629537 ], [ -90.269694, 38.629529 ], [ -90.26971, 38.62952 ], [ -90.269726, 38.629505 ], [ -90.269736, 38.629481 ], [ -90.26974, 38.629456 ], [ -90.269741, 38.62944 ], [ -90.269739, 38.629414 ], [ -90.269735, 38.62939 ], [ -90.269732, 38.629371 ] ] } },
{ "type": "Feature", "properties": { "cls": "shared", "highway": "cycleway", "name": null }, "geometry": { "type": "LineString", "coordinates": [ [ -90.269379, 38.630134 ], [ -90.269531, 38.629615 ] ] } },
{ "type": "Feature", "properties": { "cls": "shared", "highway": "cycleway", "name": null }, "geometry": { "type": "LineString", "coordinates": [ [ -90.269378, 38.632462 ], [ -90.269363, 38.632448 ], [ -90.269348, 38.632425 ], [ -90.269313, 38.632345 ], [ -90.269269, 38.632255 ], [ -90.269253, 38.632225 ], [ -90.269236, 38.632196 ], [ -90.269165, 38.632078 ], [ -90.269114, 38.631989 ], [ -90.269066, 38.631898 ], [ -90.269032, 38.631808 ], [ -90.269009, 38.631727 ], [ -90.268974, 38.631573 ], [ -90.268953, 38.631469 ], [ -90.268952, 38.631446 ], [ -90.268955, 38.631416 ], [ -90.268993, 38.631287 ], [ -90.269041, 38.631119 ], [ -90.269085, 38.630936 ], [ -90.269146, 38.63074 ], [ -90.269195, 38.630608 ], [ -90.269205, 38.630569 ], [ -90.269209, 38.630539 ], [ -90.26921, 38.630505 ], [ -90.269213, 38.630474 ], [ -90.269228, 38.630434 ], [ -90.269303, 38.630307 ], [ -90.269335, 38.630251 ], [ -90.269358, 38.630197 ], [ -90.269379, 38.630134 ] ] } },
{ "type": "Feature", "properties": { "cls": "shared", "highway": "cycleway", "name": null }, "geometry": { "type": "LineString", "coordinates": [ [ -90.264137, 38.632156 ], [ -90.264117, 38.63213 ] ] } },
{ "type": "Feature", "properties": { "cls": "shared", "highway": "cycleway", "name": null }, "geometry": { "type": "LineString", "coordinates": [ [ -90.269475, 38.632543 ], [ -90.269449, 38.632521 ], [ -90.26941, 38.63249 ], [ -90.269378, 38.632462 ] ] } },
{ "type": "Feature", "properties": { "cls": "shared", "highway": "cycleway", "name": null }, "geometry": { "type": "LineString", "coordinates": [ [ -90.269551, 38.632721 ], [ -90.269542, 38.632698 ], [ -90.269513, 38.632633 ], [ -90.269486, 38.632576 ], [ -90.269475, 38.632543 ] ] } },
{ "type": "Feature", "properties": { "cls": "shared", "highway": "cycleway", "name": null }, "geometry": { "type": "LineString", "coordinates": [ [ -90.264049, 38.633051 ], [ -90.26405, 38.633038 ], [ -90.264054, 38.632994 ], [ -90.26406, 38.632971 ], [ -90.264068, 38.632951 ], [ -90.264084, 38.632928 ], [ -90.264123, 38.632872 ], [ -90.264148, 38.632818 ], [ -90.264188, 38.632708 ], [ -90.264216, 38.632625 ], [ -90.264268, 38.63245 ], [ -90.264276, 38.632416 ], [ -90.264272, 38.632377 ], [ -90.264262, 38.632341 ], [ -90.264239, 38.632296 ], [ -90.264137, 38.632156 ] ] } },
{ "type": "Feature", "properties": { "cls": "shared", "highway": "cycleway", "name": "Heels Path" }, "geometry": { "type": "LineString", "coordinates": [ [ -90.269567, 38.632782 ], [ -90.269564, 38.632765 ], [ -90.269559, 38.632747 ], [ -90.269557, 38.632739 ], [ -90.269551, 38.632721 ] ] } },
{ "type": "Feature", "properties": { "cls": "shared", "highway": "cycleway", "name": "Heels Path" }, "geometry": { "type": "LineString", "coordinates": [ [ -90.269573, 38.632843 ], [ -90.26957, 38.632815 ], [ -90.269567, 38.632782 ] ] } },
{ "type": "Feature", "properties": { "cls": "shared", "highway": "cycleway", "name": "Wheels Path" }, "geometry": { "type": "LineString", "coordinates": [ [ -90.267231, 38.633054 ], [ -90.267228, 38.633036 ], [ -90.267224, 38.633018 ], [ -90.267223, 38.63301 ] ] } },
{ "type": "Feature", "properties": { "cls": "shared", "highway": "cycleway", "name": "Wheels Path" }, "geometry": { "type": "LineString", "coordinates": [ [ -90.267247, 38.633102 ], [ -90.26724, 38.633081 ], [ -90.267231, 38.633054 ] ] } },
{ "type": "Feature", "properties": { "cls": "shared", "highway": "cycleway", "name": "Wheels Path" }, "geometry": { "type": "LineString", "coordinates": [ [ -90.267283, 38.633135 ], [ -90.267257, 38.633111 ], [ -90.267247, 38.633102 ] ] } },
{ "type": "Feature", "properties": { "cls": "shared", "highway": "cycleway", "name": null }, "geometry": { "type": "LineString", "coordinates": [ [ -90.264049, 38.633051 ], [ -90.264045, 38.633096 ] ] } },
{ "type": "Feature", "properties": { "cls": "shared", "highway": "cycleway", "name": "Wheels Path" }, "geometry": { "type": "LineString", "coordinates": [ [ -90.267363, 38.633209 ], [ -90.267325, 38.633173 ], [ -90.267283, 38.633135 ] ] } },
{ "type": "Feature", "properties": { "cls": "separated", "highway": "cycleway", "name": "Heels & Wheels Path" }, "geometry": { "type": "LineString", "coordinates": [ [ -90.284899, 38.632744 ], [ -90.285228, 38.632691 ], [ -90.285285, 38.632685 ], [ -90.285345, 38.63268 ], [ -90.285404, 38.63268 ], [ -90.285484, 38.632686 ], [ -90.28555, 38.632698 ], [ -90.285626, 38.632717 ] ] } },
{ "type": "Feature", "properties": { "cls": "shared", "highway": "cycleway", "name": null }, "geometry": { "type": "LineString", "coordinates": [ [ -90.277074, 38.63616 ], [ -90.277044, 38.636157 ], [ -90.277013, 38.636229 ] ] } },
{ "type": "Feature", "properties": { "cls": "shared", "highway": "cycleway", "name": null }, "geometry": { "type": "LineString", "coordinates": [ [ -90.277074, 38.63616 ], [ -90.27713, 38.636168 ], [ -90.277189, 38.636177 ], [ -90.277271, 38.636196 ], [ -90.27735, 38.63622 ], [ -90.277418, 38.636246 ], [ -90.277479, 38.636275 ], [ -90.277528, 38.636305 ], [ -90.277574, 38.636338 ], [ -90.277617, 38.636373 ], [ -90.277647, 38.636394 ], [ -90.277685, 38.636416 ], [ -90.277719, 38.636428 ], [ -90.277756, 38.636436 ], [ -90.277816, 38.63644 ], [ -90.278008, 38.636454 ], [ -90.278089, 38.636457 ], [ -90.278189, 38.636458 ], [ -90.278411, 38.636459 ], [ -90.278528, 38.636459 ], [ -90.278604, 38.636455 ], [ -90.278649, 38.636449 ], [ -90.278692, 38.636434 ], [ -90.278721, 38.636415 ], [ -90.27874, 38.636391 ], [ -90.278785, 38.636323 ], [ -90.27881, 38.63629 ], [ -90.27884, 38.63626 ], [ -90.278881, 38.636228 ], [ -90.278921, 38.636204 ], [ -90.278969, 38.636183 ], [ -90.279013, 38.63617 ], [ -90.279062, 38.636162 ], [ -90.279116, 38.636156 ], [ -90.279186, 38.636148 ], [ -90.279233, 38.636139 ], [ -90.279277, 38.636125 ], [ -90.279318, 38.636107 ], [ -90.279385, 38.636078 ], [ -90.279438, 38.636053 ], [ -90.279472, 38.63604 ], [ -90.279513, 38.636032 ], [ -90.279555, 38.63603 ], [ -90.279598, 38.636033 ], [ -90.279637, 38.636041 ], [ -90.279679, 38.636056 ], [ -90.27972, 38.636077 ], [ -90.279748, 38.636099 ], [ -90.279781, 38.636136 ], [ -90.27981, 38.636172 ], [ -90.27984, 38.636213 ], [ -90.279842, 38.636217 ], [ -90.279864, 38.636254 ], [ -90.279884, 38.636284 ] ] } },
{ "type": "Feature", "properties": { "cls": "shared", "highway": "cycleway", "name": "Wheels Path" }, "geometry": { "type": "LineString", "coordinates": [ [ -90.267386, 38.633239 ], [ -90.267382, 38.633232 ], [ -90.267363, 38.633209 ] ] } },
{ "type": "Feature", "properties": { "cls": "shared", "highway": "cycleway", "name": "Wheels Path" }, "geometry": { "type": "LineString", "coordinates": [ [ -90.267649, 38.634426 ], [ -90.267624, 38.634391 ], [ -90.26759, 38.634337 ], [ -90.267567, 38.63429 ], [ -90.267541, 38.634231 ], [ -90.267503, 38.63412 ], [ -90.267475, 38.634048 ], [ -90.267437, 38.633977 ], [ -90.267354, 38.633843 ], [ -90.267315, 38.633778 ], [ -90.267298, 38.63374 ], [ -90.267285, 38.633691 ], [ -90.267281, 38.633643 ], [ -90.267283, 38.633602 ], [ -90.267288, 38.63356 ], [ -90.267304, 38.633516 ], [ -90.267381, 38.63337 ], [ -90.267392, 38.633324 ], [ -90.267393, 38.633288 ], [ -90.26739, 38.633254 ], [ -90.267386, 38.633239 ] ] } },
{ "type": "Feature", "properties": { "cls": "shared", "highway": "cycleway", "name": null }, "geometry": { "type": "LineString", "coordinates": [ [ -90.267649, 38.634426 ], [ -90.267622, 38.634456 ], [ -90.267584, 38.634507 ], [ -90.267563, 38.634539 ], [ -90.267554, 38.634561 ], [ -90.26755, 38.63458 ], [ -90.26755, 38.634599 ], [ -90.267558, 38.634626 ], [ -90.267575, 38.634652 ], [ -90.267597, 38.634678 ], [ -90.267652, 38.63474 ], [ -90.267665, 38.634759 ] ] } },
{ "type": "Feature", "properties": { "cls": "shared", "highway": "cycleway", "name": null }, "geometry": { "type": "LineString", "coordinates": [ [ -90.267665, 38.634759 ], [ -90.267668, 38.634766 ], [ -90.26767, 38.634776 ], [ -90.267669, 38.634789 ], [ -90.267666, 38.634804 ] ] } },
{ "type": "Feature", "properties": { "cls": "shared", "highway": "cycleway", "name": null }, "geometry": { "type": "LineString", "coordinates": [ [ -90.267666, 38.634804 ], [ -90.267652, 38.634852 ], [ -90.267639, 38.634897 ] ] } },
{ "type": "Feature", "properties": { "cls": "shared", "highway": "cycleway", "name": null }, "geometry": { "type": "LineString", "coordinates": [ [ -90.267639, 38.634897 ], [ -90.267633, 38.634923 ], [ -90.267629, 38.63494 ] ] } },
{ "type": "Feature", "properties": { "cls": "shared", "highway": "cycleway", "name": null }, "geometry": { "type": "LineString", "coordinates": [ [ -90.267629, 38.63494 ], [ -90.26762, 38.634988 ], [ -90.267609, 38.63505 ], [ -90.267593, 38.635109 ], [ -90.267581, 38.635152 ], [ -90.267565, 38.635193 ], [ -90.267539, 38.635233 ], [ -90.267523, 38.635251 ], [ -90.267506, 38.635261 ], [ -90.267459, 38.635274 ], [ -90.267427, 38.635276 ], [ -90.267398, 38.635275 ], [ -90.267308, 38.635267 ], [ -90.26727, 38.635266 ], [ -90.267233, 38.63527 ], [ -90.267189, 38.63528 ], [ -90.267152, 38.635294 ], [ -90.267091, 38.635327 ], [ -90.267034, 38.635356 ], [ -90.266994, 38.635374 ], [ -90.266959, 38.635386 ], [ -90.266922, 38.635394 ], [ -90.266881, 38.635394 ], [ -90.266841, 38.635391 ], [ -90.266797, 38.635381 ], [ -90.266744, 38.635367 ], [ -90.266688, 38.635355 ], [ -90.26665, 38.635349 ] ] } },
{ "type": "Feature", "properties": { "cls": "shared", "highway": "cycleway", "name": "Wheels Path" }, "geometry": { "type": "LineString", "coordinates": [ [ -90.267223, 38.63301 ], [ -90.267221, 38.632993 ], [ -90.267222, 38.632976 ], [ -90.267227, 38.632962 ], [ -90.267241, 38.63295 ], [ -90.267261, 38.632941 ], [ -90.267283, 38.632935 ], [ -90.267453, 38.632922 ], [ -90.267682, 38.632899 ], [ -90.267901, 38.632871 ], [ -90.268169, 38.632835 ], [ -90.268376, 38.632812 ], [ -90.268687, 38.632774 ], [ -90.268818, 38.632756 ], [ -90.26892, 38.632738 ], [ -90.269008, 38.632711 ], [ -90.269086, 38.632678 ], [ -90.269172, 38.632633 ], [ -90.269233, 38.632595 ], [ -90.269288, 38.632551 ], [ -90.269333, 38.63251 ], [ -90.269378, 38.632462 ], [ -90.269448, 38.632372 ], [ -90.269492, 38.632305 ], [ -90.269516, 38.63225 ], [ -90.269533, 38.632194 ], [ -90.269575, 38.632036 ], [ -90.269602, 38.631963 ], [ -90.269648, 38.631863 ], [ -90.269678, 38.631788 ], [ -90.2697, 38.631724 ], [ -90.269723, 38.63167 ], [ -90.269757, 38.631606 ], [ -90.269789, 38.631543 ], [ -90.269806, 38.631499 ], [ -90.269814, 38.631459 ], [ -90.269822, 38.631394 ], [ -90.269824, 38.631322 ], [ -90.269827, 38.63117 ], [ -90.269831, 38.631137 ], [ -90.269841, 38.631106 ], [ -90.269855, 38.631082 ], [ -90.269881, 38.631048 ], [ -90.269926, 38.631001 ], [ -90.27002, 38.630922 ], [ -90.270116, 38.630849 ], [ -90.270212, 38.630784 ], [ -90.270291, 38.630733 ], [ -90.27036, 38.630695 ], [ -90.270423, 38.630666 ], [ -90.270482, 38.630644 ], [ -90.270545, 38.630627 ], [ -90.270631, 38.63061 ], [ -90.270767, 38.630587 ], [ -90.270933, 38.630561 ], [ -90.271013, 38.630547 ], [ -90.271091, 38.630528 ], [ -90.271333, 38.630451 ], [ -90.271612, 38.630366 ], [ -90.271777, 38.630315 ], [ -90.27189, 38.630287 ], [ -90.272031, 38.630262 ], [ -90.272166, 38.63024 ], [ -90.272282, 38.630225 ], [ -90.272405, 38.630221 ], [ -90.272525, 38.630218 ], [ -90.272648, 38.630219 ], [ -90.272785, 38.630225 ], [ -90.272907, 38.630234 ], [ -90.273006, 38.630247 ], [ -90.273104, 38.630263 ], [ -90.273174, 38.630281 ], [ -90.27326, 38.630313 ], [ -90.273354, 38.630349 ], [ -90.273451, 38.630383 ], [ -90.27355, 38.630411 ], [ -90.273636, 38.630428 ], [ -90.273728, 38.630437 ], [ -90.273827, 38.630444 ], [ -90.273912, 38.630444 ], [ -90.273985, 38.630441 ], [ -90.274117, 38.630434 ], [ -90.274209, 38.630432 ], [ -90.274266, 38.630433 ], [ -90.274353, 38.630438 ], [ -90.274476, 38.63045 ], [ -90.274643, 38.630464 ], [ -90.274739, 38.630468 ], [ -90.274854, 38.630468 ], [ -90.275043, 38.630465 ], [ -90.275126, 38.630468 ], [ -90.275235, 38.630475 ], [ -90.275655, 38.630517 ], [ -90.276109, 38.630559 ], [ -90.277432, 38.630688 ], [ -90.277778, 38.630722 ], [ -90.278095, 38.630752 ], [ -90.278231, 38.630764 ], [ -90.278321, 38.630767 ], [ -90.278429, 38.630767 ], [ -90.278534, 38.630762 ], [ -90.278742, 38.630748 ], [ -90.278989, 38.630731 ], [ -90.279093, 38.630728 ], [ -90.279183, 38.630732 ], [ -90.27931, 38.630745 ], [ -90.279804, 38.630804 ], [ -90.280415, 38.630868 ], [ -90.280522, 38.63088 ], [ -90.280709, 38.630915 ], [ -90.280844, 38.630933 ], [ -90.281096, 38.630962 ], [ -90.281266, 38.630985 ], [ -90.281382, 38.631007 ], [ -90.281499, 38.631037 ], [ -90.281695, 38.631098 ], [ -90.281777, 38.631117 ], [ -90.281881, 38.631136 ], [ -90.282319, 38.631201 ], [ -90.282417, 38.63122 ], [ -90.282493, 38.631242 ], [ -90.282564, 38.631265 ], [ -90.282812, 38.631392 ], [ -90.282888, 38.631426 ], [ -90.283047, 38.63148 ], [ -90.283169, 38.631517 ], [ -90.283502, 38.631623 ], [ -90.283742, 38.631702 ], [ -90.283905, 38.631765 ], [ -90.284026, 38.631823 ], [ -90.284131, 38.631879 ], [ -90.284231, 38.631947 ], [ -90.284329, 38.632027 ], [ -90.284383, 38.632083 ], [ -90.284411, 38.632126 ], [ -90.284424, 38.632159 ], [ -90.284428, 38.632189 ], [ -90.284429, 38.632228 ], [ -90.284422, 38.632261 ], [ -90.284395, 38.6324 ], [ -90.284378, 38.632474 ], [ -90.284379, 38.632499 ], [ -90.284382, 38.632527 ], [ -90.284391, 38.632551 ], [ -90.284411, 38.632582 ], [ -90.284437, 38.632616 ], [ -90.284474, 38.632653 ], [ -90.28451, 38.63268 ], [ -90.284546, 38.632705 ], [ -90.284575, 38.63272 ], [ -90.284612, 38.632736 ], [ -90.284652, 38.632747 ], [ -90.284697, 38.632752 ], [ -90.284747, 38.632753 ], [ -90.28482, 38.632751 ], [ -90.284899, 38.632744 ] ] } },
{ "type": "Feature", "properties": { "cls": "shared", "highway": "cycleway", "name": null }, "geometry": { "type": "LineString", "coordinates": [ [ -90.276985, 38.636286 ], [ -90.276977, 38.636303 ], [ -90.276974, 38.636306 ], [ -90.276968, 38.636305 ], [ -90.276908, 38.636291 ], [ -90.276858, 38.636283 ], [ -90.276811, 38.636276 ], [ -90.276759, 38.636273 ], [ -90.276726, 38.636274 ], [ -90.276698, 38.636275 ], [ -90.276651, 38.636278 ], [ -90.27661, 38.636285 ], [ -90.276574, 38.636295 ], [ -90.276547, 38.63631 ], [ -90.276493, 38.636346 ], [ -90.276457, 38.636372 ], [ -90.27644, 38.636385 ] ] } },
{ "type": "Feature", "properties": { "cls": "shared", "highway": "cycleway", "name": "Temporary Pedestrian & Cyclist Path" }, "geometry": { "type": "LineString", "coordinates": [ [ -90.269573, 38.632843 ], [ -90.270364, 38.632761 ], [ -90.270386, 38.632762 ], [ -90.270399, 38.632764 ], [ -90.27041, 38.632765 ], [ -90.270439, 38.632779 ], [ -90.270457, 38.632794 ], [ -90.270467, 38.632812 ], [ -90.270469, 38.632836 ], [ -90.270405, 38.633097 ], [ -90.270376, 38.633241 ], [ -90.270361, 38.63335 ], [ -90.270356, 38.633457 ], [ -90.270359, 38.633564 ], [ -90.270375, 38.633707 ], [ -90.270406, 38.633896 ], [ -90.270432, 38.634055 ], [ -90.270469, 38.63426 ], [ -90.270492, 38.634483 ], [ -90.270524, 38.634934 ], [ -90.270528, 38.635073 ], [ -90.270529, 38.635189 ], [ -90.270522, 38.635288 ], [ -90.270484, 38.635503 ], [ -90.270431, 38.635809 ], [ -90.2704, 38.635984 ], [ -90.270393, 38.636023 ], [ -90.270361, 38.636173 ], [ -90.270337, 38.636268 ], [ -90.270287, 38.636402 ], [ -90.270191, 38.636619 ], [ -90.270137, 38.636807 ], [ -90.270128, 38.636938 ], [ -90.270133, 38.637044 ], [ -90.270149, 38.637138 ], [ -90.270177, 38.637224 ], [ -90.270232, 38.637334 ], [ -90.270293, 38.637438 ], [ -90.270397, 38.637621 ], [ -90.270483, 38.637763 ], [ -90.270564, 38.637895 ], [ -90.270626, 38.637999 ], [ -90.270683, 38.638095 ], [ -90.270855, 38.638338 ], [ -90.270936, 38.638449 ], [ -90.271242, 38.63889 ], [ -90.271381, 38.63909 ], [ -90.271501, 38.639286 ], [ -90.271616, 38.639502 ], [ -90.271672, 38.639604 ], [ -90.271747, 38.639725 ], [ -90.271823, 38.639843 ], [ -90.271901, 38.639946 ], [ -90.271996, 38.640051 ], [ -90.272117, 38.640176 ], [ -90.272247, 38.640299 ], [ -90.272383, 38.640408 ], [ -90.272537, 38.640527 ], [ -90.272667, 38.640621 ], [ -90.27281, 38.64071 ], [ -90.272951, 38.640788 ], [ -90.27306, 38.640847 ], [ -90.273106, 38.640869 ], [ -90.273126, 38.640889 ], [ -90.273129, 38.640915 ], [ -90.273124, 38.640937 ], [ -90.273108, 38.640958 ], [ -90.273081, 38.640972 ], [ -90.272859, 38.641079 ], [ -90.272647, 38.641181 ] ] } },
{ "type": "Feature", "properties": { "cls": "shared", "highway": "cycleway", "name": null }, "geometry": { "type": "LineString", "coordinates": [ [ -90.278177, 38.63742 ], [ -90.278092, 38.637377 ], [ -90.278034, 38.63736 ], [ -90.277987, 38.637353 ], [ -90.277924, 38.637353 ], [ -90.277843, 38.637357 ], [ -90.277768, 38.63736 ], [ -90.277686, 38.63736 ], [ -90.277622, 38.637357 ], [ -90.27756, 38.63735 ], [ -90.277495, 38.637332 ], [ -90.27745, 38.637313 ], [ -90.277422, 38.637293 ], [ -90.277395, 38.637261 ], [ -90.277377, 38.637218 ], [ -90.277367, 38.637168 ], [ -90.277361, 38.637094 ], [ -90.277357, 38.637022 ], [ -90.27735, 38.636957 ], [ -90.27734, 38.636922 ], [ -90.277321, 38.636865 ], [ -90.277293, 38.63681 ], [ -90.277257, 38.636746 ], [ -90.2772, 38.636679 ], [ -90.277156, 38.636636 ], [ -90.277105, 38.636597 ], [ -90.277048, 38.636558 ], [ -90.276985, 38.636521 ], [ -90.27691, 38.63649 ], [ -90.276827, 38.636463 ], [ -90.276739, 38.63644 ], [ -90.276661, 38.636425 ], [ -90.276591, 38.636414 ], [ -90.27652, 38.636406 ], [ -90.276462, 38.636403 ], [ -90.276417, 38.636402 ], [ -90.27637, 38.636404 ], [ -90.276316, 38.636411 ], [ -90.276256, 38.63642 ], [ -90.276189, 38.636429 ], [ -90.276103, 38.636437 ], [ -90.276023, 38.636443 ], [ -90.275952, 38.636448 ], [ -90.275874, 38.636451 ], [ -90.275839, 38.636451 ], [ -90.275806, 38.636451 ], [ -90.275736, 38.636449 ], [ -90.275722, 38.636448 ], [ -90.27566, 38.636444 ], [ -90.275599, 38.636436 ], [ -90.275532, 38.636428 ], [ -90.275464, 38.636423 ], [ -90.275415, 38.636421 ], [ -90.275309, 38.636422 ], [ -90.275204, 38.636425 ], [ -90.275128, 38.63643 ], [ -90.27507, 38.636437 ], [ -90.275015, 38.636449 ], [ -90.274957, 38.636472 ], [ -90.274906, 38.6365 ], [ -90.274868, 38.636526 ], [ -90.274818, 38.636566 ], [ -90.27477, 38.636612 ], [ -90.274721, 38.63667 ], [ -90.274669, 38.636734 ], [ -90.274629, 38.636778 ], [ -90.274582, 38.63682 ], [ -90.27453, 38.636862 ], [ -90.274466, 38.636906 ], [ -90.274385, 38.63696 ], [ -90.274325, 38.637003 ], [ -90.274263, 38.637057 ], [ -90.274163, 38.637158 ], [ -90.274099, 38.637236 ], [ -90.274067, 38.637269 ], [ -90.274038, 38.637296 ], [ -90.274003, 38.637324 ], [ -90.273957, 38.637355 ], [ -90.273898, 38.63739 ], [ -90.273813, 38.637443 ], [ -90.273729, 38.637496 ], [ -90.273663, 38.637537 ], [ -90.273599, 38.637571 ], [ -90.273543, 38.637597 ], [ -90.273487, 38.637618 ], [ -90.273431, 38.637634 ], [ -90.273355, 38.63765 ], [ -90.273295, 38.637664 ], [ -90.273242, 38.637679 ], [ -90.273203, 38.637695 ], [ -90.273165, 38.637717 ], [ -90.273124, 38.637747 ], [ -90.273072, 38.637787 ], [ -90.27302, 38.637833 ], [ -90.272975, 38.637873 ] ] } },
{ "type": "Feature", "properties": { "cls": "shared", "highway": "cycleway", "name": null }, "geometry": { "type": "LineString", "coordinates": [ [ -90.272832, 38.638009 ], [ -90.272836, 38.638024 ], [ -90.272838, 38.638045 ], [ -90.272834, 38.63807 ], [ -90.272821, 38.63811 ], [ -90.272798, 38.638158 ], [ -90.272773, 38.6382 ], [ -90.272745, 38.638243 ], [ -90.272724, 38.63827 ], [ -90.272704, 38.638298 ], [ -90.272692, 38.638318 ], [ -90.27269, 38.638337 ], [ -90.272695, 38.638358 ], [ -90.27271, 38.638376 ], [ -90.272732, 38.638387 ], [ -90.272765, 38.638389 ], [ -90.272794, 38.638382 ], [ -90.272819, 38.638367 ], [ -90.27293, 38.63829 ], [ -90.273038, 38.638208 ], [ -90.273107, 38.638147 ], [ -90.273137, 38.638121 ], [ -90.273175, 38.638085 ], [ -90.273215, 38.638045 ], [ -90.27324, 38.638025 ], [ -90.273276, 38.637995 ], [ -90.273351, 38.637939 ], [ -90.273411, 38.637894 ], [ -90.273468, 38.637856 ], [ -90.27355, 38.637805 ], [ -90.273621, 38.637758 ], [ -90.273679, 38.637717 ], [ -90.273734, 38.637676 ], [ -90.273788, 38.637632 ], [ -90.273837, 38.637587 ], [ -90.273885, 38.637539 ], [ -90.273932, 38.637485 ], [ -90.273976, 38.637431 ], [ -90.274002, 38.637391 ], [ -90.274016, 38.637362 ], [ -90.274028, 38.637328 ], [ -90.274038, 38.637296 ] ] } },
{ "type": "Feature", "properties": { "cls": "shared", "highway": "cycleway", "name": null }, "geometry": { "type": "LineString", "coordinates": [ [ -90.272881, 38.63796 ], [ -90.272896, 38.637948 ], [ -90.272928, 38.637918 ], [ -90.27296, 38.637888 ], [ -90.272975, 38.637873 ] ] } },
{ "type": "Feature", "properties": { "cls": "shared", "highway": "cycleway", "name": null }, "geometry": { "type": "LineString", "coordinates": [ [ -90.271063, 38.638309 ], [ -90.271094, 38.638304 ], [ -90.271134, 38.638305 ], [ -90.271182, 38.63831 ], [ -90.271228, 38.638316 ], [ -90.27133, 38.638336 ], [ -90.271401, 38.638348 ], [ -90.271482, 38.638358 ], [ -90.271566, 38.638371 ], [ -90.271637, 38.638387 ], [ -90.271741, 38.638411 ], [ -90.271807, 38.638425 ], [ -90.271879, 38.638435 ], [ -90.271952, 38.63844 ], [ -90.272035, 38.638441 ], [ -90.272102, 38.638437 ], [ -90.27217, 38.638428 ], [ -90.272232, 38.638414 ], [ -90.272296, 38.638399 ], [ -90.272357, 38.638377 ], [ -90.272414, 38.638348 ], [ -90.272462, 38.638318 ], [ -90.272505, 38.638286 ], [ -90.272566, 38.63823 ], [ -90.272635, 38.63817 ], [ -90.272693, 38.638126 ], [ -90.272782, 38.638055 ], [ -90.272832, 38.638009 ], [ -90.272881, 38.63796 ] ] } },
{ "type": "Feature", "properties": { "cls": "shared", "highway": "cycleway", "name": null }, "geometry": { "type": "LineString", "coordinates": [ [ -90.27099, 38.638322 ], [ -90.271039, 38.638313 ], [ -90.271063, 38.638309 ] ] } },
{ "type": "Feature", "properties": { "cls": "shared", "highway": "cycleway", "name": null }, "geometry": { "type": "LineString", "coordinates": [ [ -90.277013, 38.636229 ], [ -90.277, 38.636256 ], [ -90.276985, 38.636286 ] ] } },
{ "type": "Feature", "properties": { "cls": "shared", "highway": "cycleway", "name": null }, "geometry": { "type": "LineString", "coordinates": [ [ -90.279884, 38.636284 ], [ -90.279914, 38.636329 ], [ -90.279941, 38.63637 ] ] } },
{ "type": "Feature", "properties": { "cls": "shared", "highway": "cycleway", "name": null }, "geometry": { "type": "LineString", "coordinates": [ [ -90.279941, 38.63637 ], [ -90.27996, 38.636402 ], [ -90.279976, 38.636431 ], [ -90.280032, 38.636521 ], [ -90.280066, 38.636581 ], [ -90.280107, 38.636662 ], [ -90.280121, 38.636688 ], [ -90.280144, 38.636713 ], [ -90.280175, 38.636742 ], [ -90.280212, 38.636768 ], [ -90.280241, 38.636786 ], [ -90.280293, 38.636814 ], [ -90.280363, 38.636846 ], [ -90.280464, 38.636882 ], [ -90.280638, 38.63694 ], [ -90.280712, 38.636964 ], [ -90.280772, 38.63698 ], [ -90.280836, 38.636994 ], [ -90.280874, 38.637003 ] ] } },
{ "type": "Feature", "properties": { "cls": "shared", "highway": "cycleway", "name": null }, "geometry": { "type": "LineString", "coordinates": [ [ -90.280874, 38.637003 ], [ -90.280952, 38.637038 ], [ -90.281123, 38.637114 ] ] } },
{ "type": "Feature", "properties": { "cls": "shared", "highway": "cycleway", "name": null }, "geometry": { "type": "LineString", "coordinates": [ [ -90.281123, 38.637114 ], [ -90.281124, 38.637122 ], [ -90.281126, 38.637131 ], [ -90.281128, 38.637142 ] ] } },
{ "type": "Feature", "properties": { "cls": "shared", "highway": "cycleway", "name": null }, "geometry": { "type": "LineString", "coordinates": [ [ -90.278232, 38.637443 ], [ -90.278177, 38.63742 ] ] } },
{ "type": "Feature", "properties": { "cls": "shared", "highway": "cycleway", "name": null }, "geometry": { "type": "LineString", "coordinates": [ [ -90.281128, 38.637142 ], [ -90.281136, 38.63716 ], [ -90.281146, 38.63718 ], [ -90.281161, 38.637202 ], [ -90.281181, 38.637221 ], [ -90.281216, 38.637245 ], [ -90.281253, 38.637275 ], [ -90.281288, 38.637315 ], [ -90.281324, 38.637372 ], [ -90.28136, 38.637431 ], [ -90.281388, 38.637491 ], [ -90.281402, 38.637543 ], [ -90.281411, 38.637584 ], [ -90.281421, 38.637668 ], [ -90.28143, 38.637724 ], [ -90.281446, 38.637769 ], [ -90.28147, 38.637812 ], [ -90.2815, 38.63785 ], [ -90.281538, 38.637906 ], [ -90.281565, 38.637952 ], [ -90.281578, 38.637991 ], [ -90.281584, 38.638026 ], [ -90.281607, 38.638187 ], [ -90.281613, 38.638205 ], [ -90.281624, 38.638216 ], [ -90.281636, 38.638223 ], [ -90.281648, 38.638226 ], [ -90.281659, 38.638227 ] ] } },
{ "type": "Feature", "properties": { "cls": "shared", "highway": "cycleway", "name": null }, "geometry": { "type": "LineString", "coordinates": [ [ -90.281869, 38.638245 ], [ -90.281877, 38.638251 ], [ -90.281891, 38.63824 ], [ -90.281908, 38.638228 ], [ -90.281937, 38.638217 ], [ -90.28197, 38.63821 ], [ -90.282236, 38.638181 ], [ -90.282259, 38.638184 ], [ -90.282276, 38.638191 ], [ -90.282286, 38.638201 ], [ -90.28229, 38.638211 ] ] } },
{ "type": "Feature", "properties": { "cls": "shared", "highway": "cycleway", "name": null }, "geometry": { "type": "LineString", "coordinates": [ [ -90.281659, 38.638227 ], [ -90.281668, 38.638227 ], [ -90.281679, 38.638226 ] ] } },
{ "type": "Feature", "properties": { "cls": "shared", "highway": "cycleway", "name": null }, "geometry": { "type": "LineString", "coordinates": [ [ -90.281679, 38.638226 ], [ -90.28174, 38.638232 ], [ -90.281869, 38.638245 ] ] } },
{ "type": "Feature", "properties": { "cls": "shared", "highway": "cycleway", "name": null }, "geometry": { "type": "LineString", "coordinates": [ [ -90.26665, 38.635349 ], [ -90.266611, 38.635343 ] ] } },
{ "type": "Feature", "properties": { "cls": "shared", "highway": "cycleway", "name": null }, "geometry": { "type": "LineString", "coordinates": [ [ -90.267506, 38.635261 ], [ -90.267508, 38.635292 ], [ -90.267502, 38.635329 ], [ -90.267486, 38.63537 ], [ -90.267463, 38.635409 ], [ -90.267441, 38.635438 ], [ -90.267392, 38.635483 ], [ -90.267326, 38.635535 ], [ -90.267231, 38.635591 ], [ -90.267009, 38.635713 ], [ -90.266785, 38.635842 ], [ -90.266737, 38.635872 ], [ -90.266696, 38.635904 ], [ -90.266665, 38.635937 ], [ -90.266646, 38.635969 ], [ -90.266633, 38.636007 ], [ -90.266612, 38.636077 ], [ -90.26657, 38.636235 ], [ -90.266551, 38.636315 ], [ -90.266532, 38.636397 ], [ -90.266513, 38.636485 ], [ -90.266505, 38.63655 ], [ -90.266504, 38.636612 ], [ -90.266506, 38.636747 ], [ -90.266495, 38.636798 ] ] } },
{ "type": "Feature", "properties": { "cls": "separated", "highway": "cycleway", "name": null }, "geometry": { "type": "LineString", "coordinates": [ [ -90.266495, 38.636798 ], [ -90.266481, 38.636844 ], [ -90.266457, 38.636902 ], [ -90.266439, 38.636956 ], [ -90.26643, 38.637009 ], [ -90.266429, 38.637052 ], [ -90.266433, 38.637089 ], [ -90.266443, 38.637133 ], [ -90.266456, 38.637171 ], [ -90.266475, 38.637203 ], [ -90.266496, 38.637233 ], [ -90.266519, 38.637258 ], [ -90.266545, 38.637291 ], [ -90.266561, 38.637313 ], [ -90.266575, 38.637344 ], [ -90.266581, 38.637379 ], [ -90.266577, 38.637414 ], [ -90.266566, 38.637444 ], [ -90.266548, 38.637474 ], [ -90.266525, 38.637499 ], [ -90.266492, 38.637533 ], [ -90.266412, 38.637598 ], [ -90.266339, 38.637666 ], [ -90.266309, 38.637695 ], [ -90.266291, 38.637721 ], [ -90.266277, 38.637749 ], [ -90.266268, 38.637786 ], [ -90.266262, 38.637831 ] ] } },
{ "type": "Feature", "properties": { "cls": "shared", "highway": "cycleway", "name": null }, "geometry": { "type": "LineString", "coordinates": [ [ -90.266262, 38.637831 ], [ -90.266253, 38.637887 ], [ -90.266237, 38.637972 ], [ -90.266232, 38.638014 ], [ -90.266228, 38.638047 ], [ -90.26623, 38.638094 ], [ -90.266238, 38.638134 ], [ -90.266242, 38.638169 ], [ -90.266239, 38.638209 ], [ -90.266233, 38.638244 ], [ -90.266221, 38.638282 ], [ -90.266193, 38.638358 ], [ -90.26617, 38.638427 ], [ -90.266154, 38.638494 ], [ -90.266145, 38.638552 ], [ -90.266142, 38.638623 ], [ -90.266141, 38.638674 ], [ -90.266137, 38.63877 ], [ -90.266134, 38.638882 ], [ -90.266144, 38.638943 ], [ -90.266165, 38.639012 ], [ -90.266205, 38.639103 ], [ -90.26624, 38.639165 ], [ -90.266288, 38.63923 ], [ -90.266364, 38.639311 ], [ -90.266424, 38.639375 ], [ -90.266531, 38.639487 ], [ -90.26657, 38.639531 ], [ -90.266596, 38.639575 ], [ -90.266604, 38.639609 ], [ -90.266607, 38.63965 ], [ -90.266599, 38.639684 ], [ -90.266583, 38.639725 ] ] } },
{ "type": "Feature", "properties": { "cls": "shared", "highway": "cycleway", "name": null }, "geometry": { "type": "LineString", "coordinates": [ [ -90.266583, 38.639725 ], [ -90.266478, 38.63999 ] ] } },
{ "type": "Feature", "properties": { "cls": "shared", "highway": "cycleway", "name": null }, "geometry": { "type": "LineString", "coordinates": [ [ -90.266478, 38.63999 ], [ -90.266471, 38.640022 ], [ -90.266465, 38.640093 ], [ -90.266462, 38.640189 ], [ -90.266457, 38.640246 ], [ -90.26645, 38.640297 ], [ -90.266428, 38.64036 ], [ -90.266399, 38.640422 ], [ -90.266368, 38.640481 ], [ -90.266343, 38.640518 ], [ -90.266309, 38.640547 ], [ -90.266269, 38.640568 ], [ -90.266227, 38.640581 ], [ -90.266186, 38.640591 ], [ -90.266109, 38.640607 ], [ -90.266044, 38.640623 ], [ -90.265992, 38.640643 ], [ -90.265948, 38.640666 ], [ -90.265892, 38.640707 ], [ -90.265845, 38.640752 ], [ -90.265815, 38.640788 ], [ -90.265804, 38.640814 ], [ -90.265793, 38.640853 ], [ -90.265783, 38.640882 ], [ -90.26577, 38.640901 ], [ -90.265747, 38.640917 ], [ -90.265722, 38.640923 ], [ -90.265703, 38.640923 ], [ -90.265693, 38.640922 ], [ -90.265674, 38.640921 ] ] } },
{ "type": "Feature", "properties": { "cls": "shared", "highway": "cycleway", "name": null }, "geometry": { "type": "LineString", "coordinates": [ [ -90.270912, 38.638331 ], [ -90.27099, 38.638322 ] ] } },
{ "type": "Feature", "properties": { "cls": "shared", "highway": "cycleway", "name": null }, "geometry": { "type": "LineString", "coordinates": [ [ -90.270855, 38.638338 ], [ -90.270912, 38.638331 ] ] } },
{ "type": "Feature", "properties": { "cls": "shared", "highway": "cycleway", "name": null }, "geometry": { "type": "LineString", "coordinates": [ [ -90.270836, 38.63834 ], [ -90.270855, 38.638338 ] ] } },
{ "type": "Feature", "properties": { "cls": "shared", "highway": "cycleway", "name": null }, "geometry": { "type": "LineString", "coordinates": [ [ -90.270799, 38.638344 ], [ -90.270836, 38.63834 ] ] } },
{ "type": "Feature", "properties": { "cls": "shared", "highway": "cycleway", "name": "Temporary Pedestrian & Cyclist Path" }, "geometry": { "type": "LineString", "coordinates": [ [ -90.269648, 38.63829 ], [ -90.269672, 38.638292 ], [ -90.269694, 38.638298 ], [ -90.269756, 38.638319 ], [ -90.26983, 38.638338 ], [ -90.269932, 38.63836 ], [ -90.269987, 38.638367 ], [ -90.270033, 38.63837 ], [ -90.270068, 38.638369 ], [ -90.270101, 38.638365 ], [ -90.270247, 38.638336 ], [ -90.270334, 38.638319 ], [ -90.270405, 38.638311 ], [ -90.270479, 38.638311 ], [ -90.270604, 38.63832 ], [ -90.270705, 38.638335 ], [ -90.270751, 38.638343 ], [ -90.270776, 38.638344 ], [ -90.270799, 38.638344 ] ] } },
{ "type": "Feature", "properties": { "cls": "shared", "highway": "cycleway", "name": "Wheels Path" }, "geometry": { "type": "LineString", "coordinates": [ [ -90.269659, 38.640443 ], [ -90.269633, 38.640416 ], [ -90.269609, 38.640382 ], [ -90.269585, 38.640333 ], [ -90.269565, 38.640284 ], [ -90.269552, 38.640242 ], [ -90.26953, 38.640156 ], [ -90.26951, 38.640083 ], [ -90.269503, 38.640036 ], [ -90.269497, 38.639989 ], [ -90.269498, 38.639941 ], [ -90.269502, 38.639894 ], [ -90.26951, 38.639797 ], [ -90.269515, 38.63974 ], [ -90.269524, 38.639696 ], [ -90.269534, 38.639659 ], [ -90.269553, 38.639609 ], [ -90.269576, 38.63956 ], [ -90.269588, 38.639533 ], [ -90.269597, 38.639508 ], [ -90.269599, 38.639479 ], [ -90.269595, 38.639448 ], [ -90.269587, 38.639418 ], [ -90.269577, 38.639392 ], [ -90.269559, 38.639363 ], [ -90.269536, 38.639332 ], [ -90.269497, 38.639294 ], [ -90.269454, 38.639251 ], [ -90.269412, 38.639215 ], [ -90.26936, 38.639169 ], [ -90.269261, 38.6391 ], [ -90.269199, 38.639057 ], [ -90.269152, 38.639018 ], [ -90.269103, 38.638955 ], [ -90.26908, 38.638887 ], [ -90.26908, 38.638796 ], [ -90.269104, 38.638719 ], [ -90.269146, 38.638645 ], [ -90.269192, 38.638597 ], [ -90.26927, 38.63855 ], [ -90.269347, 38.638516 ], [ -90.269447, 38.638484 ], [ -90.269508, 38.638453 ], [ -90.269557, 38.638414 ], [ -90.269576, 38.638388 ], [ -90.269589, 38.638357 ], [ -90.2696, 38.638322 ], [ -90.269611, 38.638301 ], [ -90.269624, 38.638293 ], [ -90.269648, 38.63829 ] ] } },
{ "type": "Feature", "properties": { "cls": "shared", "highway": "cycleway", "name": "Wheels Path" }, "geometry": { "type": "LineString", "coordinates": [ [ -90.269839, 38.640633 ], [ -90.269659, 38.640443 ] ] } },
{ "type": "Feature", "properties": { "cls": "shared", "highway": "cycleway", "name": "Wheels Path" }, "geometry": { "type": "LineString", "coordinates": [ [ -90.271584, 38.641619 ], [ -90.271411, 38.641574 ], [ -90.27134, 38.641558 ], [ -90.271256, 38.641543 ], [ -90.271192, 38.641526 ], [ -90.271132, 38.641502 ], [ -90.271063, 38.641464 ], [ -90.270999, 38.64142 ], [ -90.270929, 38.64137 ], [ -90.270866, 38.641316 ], [ -90.270839, 38.641294 ], [ -90.270756, 38.641215 ], [ -90.270692, 38.641161 ], [ -90.270601, 38.641098 ], [ -90.270534, 38.641058 ], [ -90.270474, 38.641028 ], [ -90.270403, 38.641002 ], [ -90.270334, 38.640976 ], [ -90.270275, 38.64095 ], [ -90.270208, 38.64091 ], [ -90.270134, 38.640855 ], [ -90.270057, 38.640805 ], [ -90.269982, 38.640758 ], [ -90.269922, 38.640717 ], [ -90.269877, 38.640675 ], [ -90.269839, 38.640633 ] ] } },
{ "type": "Feature", "properties": { "cls": "shared", "highway": "cycleway", "name": "Temporary Pedestrian & Cyclist Path" }, "geometry": { "type": "LineString", "coordinates": [ [ -90.272647, 38.641181 ], [ -90.272369, 38.641315 ] ] } },
{ "type": "Feature", "properties": { "cls": "shared", "highway": "cycleway", "name": "Temporary Pedestrian & Cyclist Path" }, "geometry": { "type": "LineString", "coordinates": [ [ -90.272369, 38.641315 ], [ -90.271739, 38.641622 ], [ -90.271684, 38.641649 ] ] } },
{ "type": "Feature", "properties": { "cls": "shared", "highway": "cycleway", "name": null }, "geometry": { "type": "LineString", "coordinates": [ [ -90.28229, 38.638211 ], [ -90.282314, 38.638274 ], [ -90.282338, 38.638336 ], [ -90.282349, 38.63838 ], [ -90.282351, 38.638418 ], [ -90.282343, 38.638454 ], [ -90.282331, 38.638495 ], [ -90.282305, 38.638567 ], [ -90.28224, 38.638726 ], [ -90.282208, 38.638801 ], [ -90.282189, 38.638858 ], [ -90.282181, 38.638897 ], [ -90.282182, 38.638944 ], [ -90.282191, 38.638991 ], [ -90.282205, 38.639028 ], [ -90.282238, 38.639085 ], [ -90.282275, 38.639147 ], [ -90.282325, 38.639211 ], [ -90.282416, 38.639312 ], [ -90.282461, 38.639359 ], [ -90.28253, 38.639429 ], [ -90.282577, 38.639477 ], [ -90.282618, 38.639525 ], [ -90.282639, 38.639552 ], [ -90.282652, 38.639584 ], [ -90.282655, 38.639619 ], [ -90.282654, 38.639667 ], [ -90.282656, 38.639728 ], [ -90.282663, 38.639764 ], [ -90.282674, 38.639795 ], [ -90.282688, 38.63982 ], [ -90.282711, 38.639844 ], [ -90.282735, 38.639863 ], [ -90.282808, 38.639897 ], [ -90.282878, 38.63992 ], [ -90.282941, 38.639939 ], [ -90.282997, 38.639952 ], [ -90.283064, 38.639965 ], [ -90.283122, 38.639971 ], [ -90.28318, 38.639974 ], [ -90.283268, 38.639975 ], [ -90.283322, 38.639979 ], [ -90.283378, 38.639992 ], [ -90.283424, 38.640011 ], [ -90.283484, 38.640045 ], [ -90.283491, 38.640049 ] ] } },
{ "type": "Feature", "properties": { "cls": "shared", "highway": "cycleway", "name": null }, "geometry": { "type": "LineString", "coordinates": [ [ -90.284448, 38.63928 ], [ -90.284441, 38.639273 ], [ -90.284433, 38.639265 ] ] } },
{ "type": "Feature", "properties": { "cls": "shared", "highway": "cycleway", "name": null }, "geometry": { "type": "LineString", "coordinates": [ [ -90.284544, 38.639366 ], [ -90.284542, 38.639364 ], [ -90.284494, 38.639321 ], [ -90.284448, 38.63928 ] ] } },
{ "type": "Feature", "properties": { "cls": "shared", "highway": "cycleway", "name": null }, "geometry": { "type": "LineString", "coordinates": [ [ -90.284433, 38.639265 ], [ -90.284395, 38.639232 ], [ -90.28436, 38.639204 ], [ -90.284306, 38.639167 ], [ -90.284267, 38.639145 ], [ -90.284233, 38.63913 ], [ -90.284199, 38.639126 ], [ -90.28417, 38.63913 ], [ -90.284145, 38.639138 ], [ -90.284082, 38.639169 ], [ -90.284021, 38.639209 ], [ -90.28396, 38.63925 ], [ -90.283881, 38.639308 ], [ -90.283823, 38.639356 ], [ -90.283768, 38.639412 ], [ -90.28373, 38.639465 ], [ -90.283692, 38.639525 ], [ -90.283657, 38.639586 ], [ -90.283634, 38.639621 ], [ -90.283608, 38.639652 ], [ -90.28358, 38.639679 ], [ -90.283547, 38.639697 ], [ -90.283506, 38.639712 ], [ -90.283459, 38.639719 ], [ -90.283401, 38.639722 ], [ -90.283333, 38.63972 ], [ -90.283249, 38.639719 ], [ -90.283174, 38.639722 ], [ -90.283123, 38.639731 ], [ -90.283085, 38.639745 ], [ -90.28305, 38.639769 ], [ -90.283011, 38.639805 ], [ -90.282988, 38.639836 ], [ -90.282969, 38.63987 ], [ -90.282954, 38.639905 ], [ -90.282941, 38.639939 ] ] } },
{ "type": "Feature", "properties": { "cls": "shared", "highway": "cycleway", "name": null }, "geometry": { "type": "LineString", "coordinates": [ [ -90.283491, 38.640049 ], [ -90.283499, 38.640054 ] ] } },
{ "type": "Feature", "properties": { "cls": "shared", "highway": "cycleway", "name": null }, "geometry": { "type": "LineString", "coordinates": [ [ -90.283499, 38.640054 ], [ -90.283557, 38.640088 ], [ -90.283609, 38.640121 ] ] } },
{ "type": "Feature", "properties": { "cls": "shared", "highway": "cycleway", "name": null }, "geometry": { "type": "LineString", "coordinates": [ [ -90.283609, 38.640121 ], [ -90.283637, 38.64014 ] ] } },
{ "type": "Feature", "properties": { "cls": "shared", "highway": "cycleway", "name": null }, "geometry": { "type": "LineString", "coordinates": [ [ -90.283637, 38.64014 ], [ -90.283646, 38.640146 ], [ -90.283698, 38.640183 ], [ -90.283835, 38.640292 ], [ -90.283916, 38.640344 ], [ -90.284007, 38.640393 ], [ -90.284071, 38.640417 ], [ -90.284167, 38.640447 ], [ -90.284282, 38.640473 ], [ -90.284444, 38.6405 ], [ -90.284495, 38.640515 ], [ -90.284525, 38.640532 ], [ -90.284543, 38.640552 ], [ -90.284573, 38.640594 ], [ -90.284595, 38.640644 ], [ -90.284611, 38.640695 ], [ -90.284619, 38.640727 ], [ -90.284623, 38.640761 ], [ -90.284639, 38.640825 ], [ -90.284609, 38.640874 ], [ -90.284584, 38.640917 ], [ -90.284563, 38.640959 ] ] } },
{ "type": "Feature", "properties": { "cls": "shared", "highway": "cycleway", "name": null }, "geometry": { "type": "LineString", "coordinates": [ [ -90.284563, 38.640959 ], [ -90.284441, 38.641165 ] ] } },
{ "type": "Feature", "properties": { "cls": "shared", "highway": "cycleway", "name": null }, "geometry": { "type": "LineString", "coordinates": [ [ -90.284441, 38.641165 ], [ -90.284286, 38.641429 ], [ -90.284209, 38.64156 ], [ -90.284146, 38.641685 ], [ -90.284109, 38.64177 ], [ -90.284075, 38.641859 ], [ -90.28406, 38.64191 ], [ -90.284046, 38.64197 ], [ -90.284026, 38.642063 ], [ -90.284016, 38.642151 ], [ -90.284003, 38.642303 ], [ -90.283992, 38.642433 ], [ -90.283963, 38.642784 ], [ -90.283932, 38.6432 ], [ -90.283923, 38.64328 ] ] } },
{ "type": "Feature", "properties": { "cls": "shared", "highway": "cycleway", "name": "Wheels Path" }, "geometry": { "type": "LineString", "coordinates": [ [ -90.287171, 38.632794 ], [ -90.287227, 38.632786 ], [ -90.287289, 38.63278 ], [ -90.287373, 38.632778 ], [ -90.28746, 38.632773 ], [ -90.287576, 38.632765 ], [ -90.287707, 38.632756 ], [ -90.287995, 38.632744 ], [ -90.288189, 38.632737 ], [ -90.288306, 38.632729 ], [ -90.288421, 38.632716 ], [ -90.28849, 38.632704 ], [ -90.288565, 38.632692 ], [ -90.288635, 38.632676 ], [ -90.288705, 38.632652 ], [ -90.288804, 38.632607 ], [ -90.288898, 38.632558 ], [ -90.289034, 38.632474 ], [ -90.289139, 38.632409 ], [ -90.289181, 38.632384 ], [ -90.289226, 38.632367 ], [ -90.289287, 38.632354 ], [ -90.289394, 38.632335 ], [ -90.2895, 38.632321 ], [ -90.289642, 38.632303 ], [ -90.289777, 38.632292 ], [ -90.289884, 38.632289 ], [ -90.290039, 38.632295 ], [ -90.29022, 38.632302 ], [ -90.290486, 38.632317 ], [ -90.290819, 38.632336 ], [ -90.2911, 38.632357 ], [ -90.291442, 38.632387 ], [ -90.29191, 38.632433 ], [ -90.292114, 38.632449 ], [ -90.2923, 38.632464 ], [ -90.292435, 38.632477 ], [ -90.292652, 38.632501 ], [ -90.292749, 38.632513 ], [ -90.292872, 38.632534 ], [ -90.292972, 38.632555 ], [ -90.293057, 38.632573 ], [ -90.293121, 38.632583 ], [ -90.293245, 38.632594 ], [ -90.293288, 38.6326 ], [ -90.293326, 38.632612 ], [ -90.293353, 38.632627 ], [ -90.293374, 38.632646 ], [ -90.293393, 38.632674 ], [ -90.293406, 38.63271 ], [ -90.293408, 38.632735 ], [ -90.293406, 38.632764 ], [ -90.293372, 38.632936 ], [ -90.293367, 38.632975 ], [ -90.293365, 38.633013 ], [ -90.293367, 38.633036 ], [ -90.293378, 38.633061 ], [ -90.293398, 38.633083 ] ] } },
{ "type": "Feature", "properties": { "cls": "shared", "highway": "footway", "name": null }, "geometry": { "type": "Point", "coordinates": [ -90.303895, 38.632663 ] } },
{ "type": "Feature", "properties": { "cls": "separated", "highway": "cycleway", "name": null }, "geometry": { "type": "LineString", "coordinates": [ [ -90.302652, 38.63257 ], [ -90.303115, 38.632616 ] ] } },
{ "type": "Feature", "properties": { "cls": "shared", "highway": "footway", "name": null }, "geometry": { "type": "Point", "coordinates": [ -90.304274, 38.632723 ] } },
{ "type": "Feature", "properties": { "cls": "shared", "highway": "footway", "name": null }, "geometry": { "type": "LineString", "coordinates": [ [ -90.303891, 38.632701 ], [ -90.303895, 38.632663 ] ] } },
{ "type": "Feature", "properties": { "cls": "shared", "highway": "footway", "name": null }, "geometry": { "type": "LineString", "coordinates": [ [ -90.304099, 38.632886 ], [ -90.304154, 38.632868 ], [ -90.304192, 38.632853 ], [ -90.304222, 38.632833 ], [ -90.304242, 38.632814 ], [ -90.304255, 38.63279 ], [ -90.304264, 38.632765 ], [ -90.304274, 38.632723 ] ] } },
{ "type": "Feature", "properties": { "cls": "shared", "highway": "cycleway", "name": null }, "geometry": { "type": "LineString", "coordinates": [ [ -90.304096, 38.633257 ], [ -90.304127, 38.633086 ], [ -90.304132, 38.633025 ], [ -90.304127, 38.632964 ], [ -90.304113, 38.632916 ], [ -90.304099, 38.632886 ], [ -90.304075, 38.632847 ], [ -90.30405, 38.632815 ], [ -90.304016, 38.632781 ], [ -90.30398, 38.632754 ], [ -90.30393, 38.632721 ], [ -90.303891, 38.632701 ], [ -90.303843, 38.632681 ], [ -90.303783, 38.632667 ], [ -90.303313, 38.632622 ], [ -90.303268, 38.63262 ], [ -90.303165, 38.632619 ], [ -90.303115, 38.632616 ] ] } },
{ "type": "Feature", "properties": { "cls": "shared", "highway": "cycleway", "name": null }, "geometry": { "type": "LineString", "coordinates": [ [ -90.304062, 38.633501 ], [ -90.304062, 38.6335 ], [ -90.304073, 38.633426 ], [ -90.304089, 38.633309 ], [ -90.304096, 38.633257 ] ] } },
{ "type": "Feature", "properties": { "cls": "shared", "highway": "cycleway", "name": "Wheels Path" }, "geometry": { "type": "LineString", "coordinates": [ [ -90.304062, 38.633501 ], [ -90.304057, 38.633527 ], [ -90.30405, 38.633548 ], [ -90.304048, 38.633569 ], [ -90.304028, 38.633573 ], [ -90.304014, 38.633578 ] ] } },
{ "type": "Feature", "properties": { "cls": "shared", "highway": "cycleway", "name": null }, "geometry": { "type": "LineString", "coordinates": [ [ -90.304014, 38.633578 ], [ -90.303932, 38.633598 ], [ -90.303827, 38.633618 ], [ -90.303793, 38.633629 ], [ -90.30377, 38.633646 ], [ -90.303758, 38.633669 ], [ -90.303754, 38.633695 ], [ -90.303759, 38.633722 ], [ -90.303768, 38.633748 ], [ -90.303775, 38.633774 ], [ -90.303775, 38.6338 ], [ -90.303766, 38.633825 ], [ -90.303748, 38.63385 ], [ -90.303729, 38.633865 ], [ -90.303697, 38.633881 ], [ -90.30366, 38.633891 ], [ -90.30361, 38.633903 ], [ -90.303559, 38.633913 ], [ -90.303535, 38.633917 ], [ -90.30351, 38.633917 ] ] } },
{ "type": "Feature", "properties": { "cls": "shared", "highway": "cycleway", "name": null }, "geometry": { "type": "LineString", "coordinates": [ [ -90.302107, 38.634094 ], [ -90.302242, 38.634027 ], [ -90.302318, 38.633995 ], [ -90.302398, 38.633972 ], [ -90.302493, 38.633949 ], [ -90.302593, 38.633938 ], [ -90.302726, 38.633937 ], [ -90.302792, 38.63394 ], [ -90.30286, 38.633943 ], [ -90.302963, 38.633957 ], [ -90.303067, 38.633982 ], [ -90.303133, 38.63401 ], [ -90.303197, 38.634038 ], [ -90.303257, 38.634071 ] ] } },
{ "type": "Feature", "properties": { "cls": "shared", "highway": "cycleway", "name": "Wheels Path" }, "geometry": { "type": "LineString", "coordinates": [ [ -90.303521, 38.634046 ], [ -90.303521, 38.634077 ], [ -90.303521, 38.63411 ] ] } },
{ "type": "Feature", "properties": { "cls": "shared", "highway": "cycleway", "name": null }, "geometry": { "type": "LineString", "coordinates": [ [ -90.303257, 38.634071 ], [ -90.303316, 38.634093 ], [ -90.303471, 38.634143 ], [ -90.303501, 38.634153 ], [ -90.303524, 38.63416 ], [ -90.303564, 38.634172 ] ] } },
{ "type": "Feature", "properties": { "cls": "separated", "highway": "cycleway", "name": "Heels & Wheels Path" }, "geometry": { "type": "LineString", "coordinates": [ [ -90.285626, 38.632717 ], [ -90.286044, 38.632848 ] ] } },
{ "type": "Feature", "properties": { "cls": "separated", "highway": "cycleway", "name": "Heels & Wheels Path" }, "geometry": { "type": "LineString", "coordinates": [ [ -90.286044, 38.632848 ], [ -90.286077, 38.632859 ], [ -90.286141, 38.632872 ], [ -90.286208, 38.632881 ], [ -90.286279, 38.632882 ], [ -90.286354, 38.632875 ], [ -90.286443, 38.632862 ], [ -90.286646, 38.632829 ], [ -90.286779, 38.632809 ], [ -90.28689, 38.632797 ], [ -90.286984, 38.632794 ], [ -90.287171, 38.632794 ] ] } },
{ "type": "Feature", "properties": { "cls": "shared", "highway": "cycleway", "name": "Wheels Path" }, "geometry": { "type": "LineString", "coordinates": [ [ -90.293655, 38.633086 ], [ -90.293668, 38.63307 ], [ -90.293677, 38.633056 ] ] } },
{ "type": "Feature", "properties": { "cls": "shared", "highway": "cycleway", "name": "Heels & Wheels Path" }, "geometry": { "type": "LineString", "coordinates": [ [ -90.293638, 38.633097 ], [ -90.293647, 38.633092 ], [ -90.293655, 38.633086 ] ] } },
{ "type": "Feature", "properties": { "cls": "shared", "highway": "cycleway", "name": "Wheels Path" }, "geometry": { "type": "LineString", "coordinates": [ [ -90.293398, 38.633083 ], [ -90.293413, 38.633092 ], [ -90.293433, 38.633102 ] ] } },
{ "type": "Feature", "properties": { "cls": "shared", "highway": "cycleway", "name": "Heels & Wheels Path" }, "geometry": { "type": "LineString", "coordinates": [ [ -90.293446, 38.633102 ], [ -90.293518, 38.6331 ], [ -90.293638, 38.633097 ] ] } },
{ "type": "Feature", "properties": { "cls": "shared", "highway": "cycleway", "name": "Heels & Wheels Path" }, "geometry": { "type": "LineString", "coordinates": [ [ -90.293433, 38.633102 ], [ -90.293439, 38.633102 ], [ -90.293446, 38.633102 ] ] } },
{ "type": "Feature", "properties": { "cls": "shared", "highway": "cycleway", "name": "Wheels Path" }, "geometry": { "type": "LineString", "coordinates": [ [ -90.293677, 38.633056 ], [ -90.293685, 38.633044 ], [ -90.293703, 38.633017 ], [ -90.293722, 38.632995 ], [ -90.293797, 38.632934 ], [ -90.293871, 38.632874 ], [ -90.293907, 38.632847 ], [ -90.293956, 38.632823 ], [ -90.294025, 38.6328 ], [ -90.294096, 38.632783 ], [ -90.294207, 38.632769 ], [ -90.294366, 38.632771 ], [ -90.294573, 38.632796 ], [ -90.294645, 38.632797 ], [ -90.294692, 38.632794 ], [ -90.294738, 38.632787 ], [ -90.294824, 38.63277 ], [ -90.294897, 38.632769 ], [ -90.294955, 38.632778 ], [ -90.295105, 38.632846 ], [ -90.295255, 38.632908 ], [ -90.295315, 38.632926 ], [ -90.295382, 38.632931 ], [ -90.295448, 38.632924 ], [ -90.295546, 38.632903 ], [ -90.295643, 38.632877 ], [ -90.295725, 38.632866 ], [ -90.295797, 38.632865 ], [ -90.295876, 38.632874 ], [ -90.295941, 38.632895 ], [ -90.295986, 38.632915 ], [ -90.296033, 38.632933 ], [ -90.29608, 38.632952 ], [ -90.296128, 38.632966 ], [ -90.296204, 38.632981 ], [ -90.296279, 38.632991 ], [ -90.296428, 38.633008 ], [ -90.296629, 38.633024 ], [ -90.296917, 38.633064 ], [ -90.297083, 38.633077 ], [ -90.29723, 38.633071 ], [ -90.297425, 38.633054 ], [ -90.297505, 38.633053 ], [ -90.298739, 38.63318 ], [ -90.298871, 38.6332 ], [ -90.298907, 38.63321 ], [ -90.298935, 38.633224 ], [ -90.298984, 38.633251 ], [ -90.299021, 38.633268 ], [ -90.299072, 38.633292 ], [ -90.299225, 38.633349 ], [ -90.299342, 38.633413 ], [ -90.299411, 38.63347 ], [ -90.299466, 38.633529 ], [ -90.299524, 38.633598 ], [ -90.299558, 38.633646 ], [ -90.299597, 38.633692 ], [ -90.299635, 38.633726 ], [ -90.299677, 38.633753 ], [ -90.299753, 38.633793 ], [ -90.299794, 38.633813 ], [ -90.299921, 38.633894 ], [ -90.300002, 38.633934 ], [ -90.300065, 38.633957 ], [ -90.300134, 38.633971 ], [ -90.300197, 38.633969 ], [ -90.300246, 38.633964 ], [ -90.300297, 38.633948 ], [ -90.30035, 38.633929 ], [ -90.300443, 38.633896 ], [ -90.300497, 38.633873 ], [ -90.300553, 38.633865 ], [ -90.300614, 38.633865 ], [ -90.300675, 38.633867 ], [ -90.300805, 38.633868 ], [ -90.300926, 38.633866 ], [ -90.301041, 38.633857 ], [ -90.301146, 38.633838 ], [ -90.301246, 38.633809 ], [ -90.301346, 38.63378 ], [ -90.301419, 38.633767 ], [ -90.301488, 38.633762 ], [ -90.301572, 38.633762 ], [ -90.301657, 38.633758 ], [ -90.301723, 38.633758 ], [ -90.30178, 38.63375 ], [ -90.301834, 38.633739 ], [ -90.301896, 38.633729 ], [ -90.301959, 38.633722 ], [ -90.30202, 38.633715 ], [ -90.302083, 38.633711 ], [ -90.302167, 38.633699 ], [ -90.302285, 38.633685 ], [ -90.302402, 38.633667 ], [ -90.302496, 38.633668 ], [ -90.302581, 38.633679 ], [ -90.302678, 38.633703 ], [ -90.302775, 38.633722 ], [ -90.30288, 38.633727 ], [ -90.302949, 38.633727 ], [ -90.303018, 38.633729 ], [ -90.303143, 38.633746 ], [ -90.303217, 38.633762 ], [ -90.30329, 38.633781 ], [ -90.303349, 38.633798 ], [ -90.303407, 38.633817 ], [ -90.303456, 38.633844 ], [ -90.303477, 38.633864 ], [ -90.303492, 38.633885 ], [ -90.30351, 38.633917 ], [ -90.303521, 38.633954 ], [ -90.303521, 38.634046 ] ] } },
{ "type": "Feature", "properties": { "cls": "shared", "highway": "cycleway", "name": null }, "geometry": { "type": "LineString", "coordinates": [ [ -90.299635, 38.633726 ], [ -90.29962, 38.633736 ], [ -90.299568, 38.633773 ], [ -90.299524, 38.633802 ], [ -90.299488, 38.633831 ], [ -90.299372, 38.633973 ], [ -90.299305, 38.634043 ], [ -90.29923, 38.634107 ], [ -90.299168, 38.634156 ], [ -90.299111, 38.634186 ], [ -90.299044, 38.634216 ], [ -90.298951, 38.634273 ], [ -90.298915, 38.634303 ], [ -90.298882, 38.634336 ], [ -90.298823, 38.63441 ], [ -90.29864, 38.634667 ], [ -90.298489, 38.634848 ], [ -90.2983, 38.635072 ], [ -90.298286, 38.635108 ], [ -90.298287, 38.635185 ], [ -90.298281, 38.635247 ], [ -90.29828, 38.635258 ], [ -90.298277, 38.635289 ] ] } },
{ "type": "Feature", "properties": { "cls": "shared", "highway": "cycleway", "name": null }, "geometry": { "type": "LineString", "coordinates": [ [ -90.300935, 38.634951 ], [ -90.300984, 38.634968 ], [ -90.301017, 38.634978 ] ] } },
{ "type": "Feature", "properties": { "cls": "shared", "highway": "cycleway", "name": null }, "geometry": { "type": "LineString", "coordinates": [ [ -90.298277, 38.635289 ], [ -90.298273, 38.635323 ], [ -90.29827, 38.635354 ] ] } },
{ "type": "Feature", "properties": { "cls": "shared", "highway": "cycleway", "name": null }, "geometry": { "type": "LineString", "coordinates": [ [ -90.29827, 38.635354 ], [ -90.298269, 38.635371 ], [ -90.298266, 38.635385 ] ] } },
{ "type": "Feature", "properties": { "cls": "shared", "highway": "cycleway", "name": null }, "geometry": { "type": "LineString", "coordinates": [ [ -90.298266, 38.635385 ], [ -90.298254, 38.635402 ], [ -90.298211, 38.635428 ], [ -90.29819, 38.635448 ], [ -90.298181, 38.635469 ], [ -90.298179, 38.635478 ], [ -90.298185, 38.635496 ], [ -90.298209, 38.635535 ], [ -90.298238, 38.635572 ], [ -90.29827, 38.635607 ], [ -90.29831, 38.635646 ], [ -90.298351, 38.635686 ], [ -90.298395, 38.635728 ], [ -90.298444, 38.635767 ], [ -90.298629, 38.635889 ], [ -90.298809, 38.636017 ], [ -90.298938, 38.636105 ], [ -90.299071, 38.636187 ], [ -90.299189, 38.636243 ], [ -90.299273, 38.636276 ], [ -90.299351, 38.6363 ], [ -90.29943, 38.636313 ], [ -90.29952, 38.636306 ], [ -90.299604, 38.636286 ], [ -90.299669, 38.636249 ], [ -90.29972, 38.636196 ], [ -90.299856, 38.636023 ], [ -90.299993, 38.635863 ], [ -90.300062, 38.635796 ], [ -90.30014, 38.635736 ], [ -90.300207, 38.635685 ], [ -90.300279, 38.635646 ], [ -90.300397, 38.63559 ], [ -90.300468, 38.635539 ], [ -90.300516, 38.635499 ], [ -90.300554, 38.635458 ], [ -90.300636, 38.635359 ], [ -90.300648, 38.635334 ], [ -90.300652, 38.635226 ], [ -90.300656, 38.635166 ], [ -90.300663, 38.635134 ], [ -90.300676, 38.635104 ], [ -90.300714, 38.635043 ], [ -90.300751, 38.63499 ], [ -90.300766, 38.634969 ], [ -90.300786, 38.634957 ], [ -90.300808, 38.634947 ], [ -90.300832, 38.634942 ], [ -90.300864, 38.634939 ], [ -90.300885, 38.63494 ], [ -90.300901, 38.634941 ], [ -90.300922, 38.634946 ], [ -90.300935, 38.634951 ] ] } },
{ "type": "Feature", "properties": { "cls": "shared", "highway": "cycleway", "name": null }, "geometry": { "type": "LineString", "coordinates": [ [ -90.301017, 38.634978 ], [ -90.301062, 38.634993 ], [ -90.301105, 38.634999 ], [ -90.301122, 38.635001 ], [ -90.301162, 38.635025 ], [ -90.301207, 38.635052 ], [ -90.301245, 38.635081 ], [ -90.30127, 38.63511 ], [ -90.30129, 38.63514 ], [ -90.301301, 38.635158 ], [ -90.301308, 38.635176 ], [ -90.301313, 38.635196 ], [ -90.301313, 38.635215 ], [ -90.301309, 38.635239 ], [ -90.301301, 38.635262 ], [ -90.301209, 38.635411 ], [ -90.30111, 38.635559 ], [ -90.30109, 38.635624 ], [ -90.301089, 38.635749 ], [ -90.301089, 38.635773 ], [ -90.301091, 38.635869 ], [ -90.301102, 38.635908 ], [ -90.30113, 38.635941 ], [ -90.301165, 38.635974 ], [ -90.301195, 38.636016 ], [ -90.301198, 38.636063 ], [ -90.301184, 38.636109 ], [ -90.301152, 38.636154 ], [ -90.301136, 38.636184 ], [ -90.301129, 38.636224 ], [ -90.301143, 38.636335 ], [ -90.301168, 38.636471 ], [ -90.301185, 38.636592 ], [ -90.301191, 38.636709 ], [ -90.301186, 38.636762 ], [ -90.301173, 38.636815 ], [ -90.301143, 38.636921 ], [ -90.301096, 38.637101 ], [ -90.301032, 38.637255 ], [ -90.300917, 38.637446 ], [ -90.300875, 38.637503 ] ] } },
{ "type": "Feature", "properties": { "cls": "shared", "highway": "cycleway", "name": null }, "geometry": { "type": "LineString", "coordinates": [ [ -90.300875, 38.637503 ], [ -90.300837, 38.637587 ] ] } },
{ "type": "Feature", "properties": { "cls": "separated", "highway": "cycleway", "name": "Wheels Path" }, "geometry": { "type": "LineString", "coordinates": [ [ -90.288963, 38.637563 ], [ -90.288991, 38.637613 ], [ -90.289012, 38.637651 ] ] } },
{ "type": "Feature", "properties": { "cls": "shared", "highway": "cycleway", "name": null }, "geometry": { "type": "LineString", "coordinates": [ [ -90.289012, 38.637651 ], [ -90.289017, 38.63766 ], [ -90.289069, 38.637765 ], [ -90.289109, 38.637861 ], [ -90.289188, 38.638073 ] ] } },
{ "type": "Feature", "properties": { "cls": "shared", "highway": "cycleway", "name": null }, "geometry": { "type": "LineString", "coordinates": [ [ -90.300837, 38.637587 ], [ -90.300807, 38.637655 ], [ -90.300766, 38.637713 ], [ -90.300719, 38.637745 ], [ -90.300668, 38.637765 ], [ -90.300621, 38.637813 ], [ -90.300568, 38.6379 ], [ -90.300509, 38.637992 ], [ -90.300397, 38.638192 ], [ -90.30022, 38.638486 ], [ -90.300209, 38.638506 ], [ -90.299979, 38.638846 ], [ -90.299885, 38.638979 ] ] } },
{ "type": "Feature", "properties": { "cls": "shared", "highway": "cycleway", "name": null }, "geometry": { "type": "LineString", "coordinates": [ [ -90.292346, 38.638329 ], [ -90.292349, 38.638323 ], [ -90.292356, 38.638316 ], [ -90.292373, 38.6383 ], [ -90.292412, 38.638271 ], [ -90.292469, 38.638238 ], [ -90.292496, 38.638229 ], [ -90.292524, 38.63822 ], [ -90.292555, 38.638212 ], [ -90.292587, 38.638206 ], [ -90.292616, 38.638204 ], [ -90.292646, 38.6382 ], [ -90.292706, 38.638192 ], [ -90.292824, 38.638171 ], [ -90.292935, 38.638148 ], [ -90.293011, 38.638128 ], [ -90.293083, 38.638103 ], [ -90.293157, 38.638065 ], [ -90.293228, 38.638025 ], [ -90.293292, 38.637986 ], [ -90.293355, 38.637944 ], [ -90.293405, 38.637905 ], [ -90.293454, 38.637865 ], [ -90.2935, 38.637811 ], [ -90.293535, 38.63777 ], [ -90.293572, 38.637733 ], [ -90.293601, 38.637704 ], [ -90.293633, 38.637676 ], [ -90.29369, 38.637628 ], [ -90.293754, 38.637582 ], [ -90.293835, 38.63753 ], [ -90.293933, 38.637475 ], [ -90.29401, 38.637455 ], [ -90.294057, 38.637452 ], [ -90.294103, 38.637454 ], [ -90.294168, 38.637468 ], [ -90.294323, 38.637509 ], [ -90.294456, 38.63755 ], [ -90.294485, 38.637562 ], [ -90.294512, 38.637576 ], [ -90.294606, 38.63763 ], [ -90.294694, 38.637683 ], [ -90.294722, 38.637699 ], [ -90.294753, 38.637713 ], [ -90.294808, 38.637724 ], [ -90.294863, 38.637732 ], [ -90.294972, 38.637749 ], [ -90.295029, 38.63776 ], [ -90.295103, 38.637779 ], [ -90.295154, 38.637798 ], [ -90.295221, 38.637825 ], [ -90.295302, 38.637854 ], [ -90.2954, 38.637889 ], [ -90.295474, 38.637924 ], [ -90.295564, 38.637993 ], [ -90.295685, 38.638089 ], [ -90.295722, 38.638127 ], [ -90.295733, 38.63814 ], [ -90.295739, 38.638155 ], [ -90.295738, 38.638173 ], [ -90.295735, 38.638191 ], [ -90.295725, 38.63826 ], [ -90.295726, 38.638318 ], [ -90.295751, 38.638375 ], [ -90.295782, 38.638425 ], [ -90.295815, 38.638476 ], [ -90.295862, 38.638531 ], [ -90.295958, 38.638615 ], [ -90.296075, 38.638699 ], [ -90.296204, 38.638773 ], [ -90.296321, 38.638812 ], [ -90.296395, 38.638826 ], [ -90.296448, 38.638831 ], [ -90.2965, 38.638834 ], [ -90.296569, 38.638837 ], [ -90.296638, 38.638832 ], [ -90.296721, 38.638822 ], [ -90.296826, 38.638802 ], [ -90.29692, 38.638777 ], [ -90.297007, 38.638748 ], [ -90.297055, 38.63873 ], [ -90.29719, 38.638688 ], [ -90.297233, 38.638679 ], [ -90.297275, 38.638671 ], [ -90.29732, 38.638668 ], [ -90.297443, 38.638677 ], [ -90.297516, 38.638688 ], [ -90.297566, 38.638699 ], [ -90.297617, 38.638716 ], [ -90.297678, 38.638742 ], [ -90.297721, 38.638761 ], [ -90.297775, 38.638783 ], [ -90.297857, 38.638814 ], [ -90.297938, 38.638838 ], [ -90.298082, 38.638868 ], [ -90.298224, 38.63889 ], [ -90.298514, 38.638932 ], [ -90.298687, 38.63897 ], [ -90.298763, 38.638988 ], [ -90.298818, 38.639001 ], [ -90.298884, 38.63901 ], [ -90.298985, 38.639011 ], [ -90.299084, 38.639013 ], [ -90.29925, 38.63905 ], [ -90.299318, 38.639067 ], [ -90.299383, 38.639081 ], [ -90.299418, 38.639087 ], [ -90.299459, 38.639093 ], [ -90.299562, 38.639107 ], [ -90.299624, 38.639109 ], [ -90.299689, 38.639103 ], [ -90.299744, 38.639086 ], [ -90.299789, 38.63906 ], [ -90.299885, 38.638979 ] ] } },
{ "type": "Feature", "properties": { "cls": "shared", "highway": "cycleway", "name": null }, "geometry": { "type": "LineString", "coordinates": [ [ -90.29228, 38.638441 ], [ -90.292312, 38.638386 ], [ -90.292346, 38.638329 ] ] } },
{ "type": "Feature", "properties": { "cls": "separated", "highway": "cycleway", "name": null }, "geometry": { "type": "Point", "coordinates": [ -90.302596, 38.63255 ] } },
{ "type": "Feature", "properties": { "cls": "separated", "highway": "cycleway", "name": null }, "geometry": { "type": "LineString", "coordinates": [ [ -90.302596, 38.63255 ], [ -90.302627, 38.632563 ], [ -90.302652, 38.63257 ] ] } },
{ "type": "Feature", "properties": { "cls": "shared", "highway": "cycleway", "name": null }, "geometry": { "type": "LineString", "coordinates": [ [ -90.301122, 38.635001 ], [ -90.301124, 38.634975 ], [ -90.301123, 38.634922 ], [ -90.301155, 38.63484 ], [ -90.301186, 38.634774 ], [ -90.301232, 38.634692 ], [ -90.301289, 38.634611 ], [ -90.301357, 38.634536 ], [ -90.301423, 38.634473 ], [ -90.301475, 38.634443 ], [ -90.301766, 38.634278 ], [ -90.301889, 38.634189 ], [ -90.301958, 38.634158 ], [ -90.302107, 38.634094 ] ] } },
{ "type": "Feature", "properties": { "cls": "shared", "highway": "cycleway", "name": null }, "geometry": { "type": "LineString", "coordinates": [ [ -90.299885, 38.638979 ], [ -90.299904, 38.638985 ], [ -90.299961, 38.639006 ], [ -90.30002, 38.639029 ], [ -90.300085, 38.639045 ], [ -90.30015, 38.639053 ], [ -90.300197, 38.639053 ], [ -90.300245, 38.639049 ], [ -90.300309, 38.639035 ], [ -90.300525, 38.638953 ], [ -90.300903, 38.638798 ], [ -90.301304, 38.638632 ], [ -90.301687, 38.63847 ], [ -90.301759, 38.638428 ], [ -90.3018, 38.638398 ], [ -90.301827, 38.638369 ], [ -90.301868, 38.638319 ], [ -90.301923, 38.638217 ], [ -90.301953, 38.638155 ], [ -90.302014, 38.638008 ], [ -90.302034, 38.637924 ], [ -90.302053, 38.637838 ], [ -90.302071, 38.637684 ], [ -90.302083, 38.637582 ], [ -90.302087, 38.637515 ], [ -90.302082, 38.637456 ], [ -90.30207, 38.637357 ], [ -90.302065, 38.637308 ], [ -90.302033, 38.637166 ], [ -90.302015, 38.637024 ], [ -90.302022, 38.636936 ], [ -90.30203, 38.636869 ], [ -90.302051, 38.636777 ], [ -90.302071, 38.636695 ], [ -90.302094, 38.63665 ], [ -90.302121, 38.636608 ], [ -90.302144, 38.636582 ], [ -90.302175, 38.636561 ], [ -90.302243, 38.636524 ], [ -90.302402, 38.636474 ], [ -90.302488, 38.636449 ], [ -90.302563, 38.636435 ], [ -90.302728, 38.636374 ], [ -90.302812, 38.636339 ], [ -90.302898, 38.636311 ], [ -90.302996, 38.636275 ], [ -90.30309, 38.636228 ], [ -90.303183, 38.636167 ], [ -90.303264, 38.6361 ], [ -90.303308, 38.63607 ], [ -90.303353, 38.636042 ], [ -90.303432, 38.635999 ], [ -90.303445, 38.635996 ], [ -90.303458, 38.635996 ], [ -90.303475, 38.635997 ], [ -90.303509, 38.636006 ], [ -90.303527, 38.636008 ] ] } },
{ "type": "Feature", "properties": { "cls": "shared", "highway": "cycleway", "name": "Wheels Path" }, "geometry": { "type": "LineString", "coordinates": [ [ -90.303521, 38.63411 ], [ -90.303521, 38.634126 ], [ -90.30353, 38.634141 ], [ -90.303564, 38.634172 ], [ -90.303686, 38.634225 ], [ -90.30373, 38.634257 ], [ -90.303756, 38.634278 ], [ -90.303779, 38.634301 ], [ -90.303802, 38.634333 ], [ -90.303821, 38.634365 ], [ -90.303832, 38.634399 ], [ -90.303841, 38.634436 ], [ -90.303841, 38.6345 ], [ -90.303755, 38.634828 ], [ -90.303677, 38.635155 ], [ -90.303607, 38.635508 ], [ -90.303557, 38.635819 ], [ -90.303527, 38.636008 ], [ -90.303506, 38.636143 ], [ -90.30346, 38.636499 ], [ -90.303424, 38.636838 ], [ -90.303374, 38.637277 ], [ -90.303357, 38.637401 ], [ -90.303304, 38.637836 ], [ -90.303297, 38.637888 ], [ -90.303266, 38.638101 ], [ -90.30324, 38.63826 ], [ -90.303195, 38.638553 ], [ -90.303126, 38.638897 ], [ -90.303098, 38.639046 ], [ -90.303047, 38.639304 ], [ -90.303016, 38.639457 ], [ -90.302972, 38.639653 ], [ -90.302947, 38.639766 ], [ -90.302879, 38.64009 ], [ -90.302814, 38.640404 ], [ -90.302744, 38.640721 ], [ -90.302706, 38.640882 ], [ -90.302663, 38.641037 ], [ -90.302618, 38.641206 ], [ -90.30257, 38.641376 ], [ -90.302521, 38.641539 ], [ -90.302464, 38.641699 ], [ -90.302388, 38.641921 ], [ -90.302294, 38.642173 ], [ -90.302253, 38.642278 ], [ -90.302158, 38.642531 ], [ -90.302137, 38.642593 ], [ -90.301976, 38.643026 ], [ -90.30189, 38.643239 ], [ -90.301823, 38.643416 ], [ -90.301678, 38.6438 ], [ -90.30159, 38.644021 ], [ -90.301532, 38.644176 ], [ -90.301506, 38.644268 ], [ -90.301499, 38.644287 ], [ -90.301472, 38.644349 ], [ -90.301424, 38.644496 ] ] } },
{ "type": "Feature", "properties": { "cls": "shared", "highway": "cycleway", "name": null }, "geometry": { "type": "LineString", "coordinates": [ [ -90.289012, 38.637651 ], [ -90.288913, 38.637688 ], [ -90.287816, 38.63808 ], [ -90.28763, 38.638153 ], [ -90.287403, 38.638232 ], [ -90.286866, 38.638424 ], [ -90.286664, 38.638501 ], [ -90.286034, 38.638727 ], [ -90.285817, 38.638807 ], [ -90.285706, 38.638849 ], [ -90.285543, 38.638906 ], [ -90.285385, 38.638969 ], [ -90.28518, 38.639057 ], [ -90.28498, 38.639153 ], [ -90.284862, 38.639223 ], [ -90.284612, 38.639368 ], [ -90.284599, 38.639376 ], [ -90.284585, 38.639383 ], [ -90.284569, 38.639382 ], [ -90.284554, 38.639374 ], [ -90.284544, 38.639366 ] ] } },
{ "type": "Feature", "properties": { "cls": "shared", "highway": "cycleway", "name": null }, "geometry": { "type": "LineString", "coordinates": [ [ -90.289188, 38.638073 ], [ -90.289205, 38.638087 ], [ -90.289468, 38.638301 ], [ -90.289576, 38.638376 ], [ -90.289656, 38.638408 ], [ -90.289729, 38.638422 ], [ -90.289804, 38.63842 ], [ -90.289892, 38.638409 ], [ -90.290134, 38.638372 ], [ -90.290226, 38.638364 ], [ -90.290297, 38.638369 ], [ -90.290358, 38.638382 ], [ -90.290417, 38.638405 ], [ -90.290467, 38.638435 ], [ -90.290521, 38.638476 ], [ -90.290607, 38.638533 ], [ -90.290768, 38.638625 ], [ -90.290802, 38.638649 ], [ -90.290833, 38.638673 ], [ -90.290897, 38.638738 ], [ -90.290948, 38.638805 ], [ -90.290994, 38.63885 ], [ -90.291077, 38.638921 ], [ -90.291128, 38.638967 ], [ -90.291163, 38.639012 ], [ -90.291202, 38.639075 ], [ -90.29124, 38.639124 ], [ -90.291263, 38.639142 ], [ -90.291288, 38.639157 ], [ -90.291327, 38.639174 ], [ -90.29137, 38.639187 ], [ -90.29141, 38.639192 ], [ -90.291451, 38.639186 ], [ -90.2915, 38.639172 ], [ -90.29157, 38.639142 ], [ -90.291655, 38.639102 ], [ -90.291812, 38.639047 ], [ -90.291867, 38.639021 ], [ -90.291919, 38.638988 ], [ -90.291959, 38.638949 ], [ -90.291984, 38.638914 ], [ -90.292003, 38.638877 ], [ -90.292047, 38.638726 ], [ -90.292068, 38.638669 ], [ -90.292102, 38.638616 ], [ -90.292143, 38.638561 ], [ -90.2922, 38.638505 ], [ -90.292267, 38.638455 ], [ -90.292275, 38.638449 ], [ -90.29228, 38.638441 ] ] } },
{ "type": "Feature", "properties": { "cls": "shared", "highway": "cycleway", "name": null }, "geometry": { "type": "LineString", "coordinates": [ [ -90.289188, 38.638073 ], [ -90.289216, 38.638192 ], [ -90.289248, 38.638309 ], [ -90.289371, 38.638588 ], [ -90.289506, 38.638973 ], [ -90.289518, 38.638996 ], [ -90.289533, 38.639018 ], [ -90.289625, 38.639128 ], [ -90.289721, 38.63925 ], [ -90.289759, 38.639303 ], [ -90.289792, 38.639353 ], [ -90.289868, 38.639504 ], [ -90.289912, 38.639595 ], [ -90.289961, 38.639685 ], [ -90.290126, 38.639862 ], [ -90.290266, 38.639998 ], [ -90.290508, 38.640196 ], [ -90.290647, 38.640305 ], [ -90.290817, 38.640419 ], [ -90.290918, 38.640461 ], [ -90.291, 38.640482 ], [ -90.291285, 38.640554 ], [ -90.291343, 38.640573 ], [ -90.29157, 38.640621 ], [ -90.291801, 38.640657 ], [ -90.29197, 38.640643 ], [ -90.292098, 38.640639 ], [ -90.292267, 38.640635 ], [ -90.292383, 38.640643 ], [ -90.292554, 38.640669 ], [ -90.292781, 38.640734 ], [ -90.292953, 38.640803 ], [ -90.293111, 38.640893 ], [ -90.293264, 38.640998 ], [ -90.293387, 38.641119 ], [ -90.293495, 38.641255 ], [ -90.293509, 38.641285 ], [ -90.293572, 38.641412 ], [ -90.293621, 38.641534 ], [ -90.293643, 38.641653 ], [ -90.29365, 38.641689 ], [ -90.293659, 38.641797 ], [ -90.293661, 38.641905 ], [ -90.29376, 38.64201 ], [ -90.293867, 38.642106 ], [ -90.293973, 38.642186 ], [ -90.294082, 38.64226 ], [ -90.294153, 38.642295 ], [ -90.294224, 38.642329 ], [ -90.294285, 38.642345 ], [ -90.294347, 38.642358 ], [ -90.294419, 38.642365 ], [ -90.294493, 38.642365 ], [ -90.294567, 38.64236 ], [ -90.294631, 38.642347 ], [ -90.294734, 38.642311 ], [ -90.29488, 38.642241 ], [ -90.294957, 38.642197 ], [ -90.295054, 38.642152 ], [ -90.295143, 38.642136 ], [ -90.295219, 38.64213 ], [ -90.295304, 38.642134 ], [ -90.295389, 38.642152 ], [ -90.295604, 38.642219 ], [ -90.295924, 38.642313 ] ] } },
{ "type": "Feature", "properties": { "cls": "separated", "highway": "cycleway", "name": "Wheels Path" }, "geometry": { "type": "LineString", "coordinates": [ [ -90.286042, 38.646018 ], [ -90.285321, 38.645946 ] ] } },
{ "type": "Feature", "properties": { "cls": "separated", "highway": "cycleway", "name": "Wheels Path" }, "geometry": { "type": "LineString", "coordinates": [ [ -90.286181, 38.646032 ], [ -90.286098, 38.646024 ], [ -90.286042, 38.646018 ] ] } },
{ "type": "Feature", "properties": { "cls": "shared", "highway": "cycleway", "name": "Wheels Path" }, "geometry": { "type": "LineString", "coordinates": [ [ -90.286327, 38.646047 ], [ -90.286302, 38.646044 ], [ -90.286181, 38.646032 ] ] } },
{ "type": "Feature", "properties": { "cls": "shared", "highway": "cycleway", "name": "Wheels Path" }, "geometry": { "type": "LineString", "coordinates": [ [ -90.301019, 38.646062 ], [ -90.300946, 38.646446 ], [ -90.300894, 38.646783 ], [ -90.300883, 38.646843 ], [ -90.300869, 38.646902 ], [ -90.300856, 38.646942 ], [ -90.300839, 38.646982 ], [ -90.30081, 38.647032 ], [ -90.300774, 38.647085 ], [ -90.300752, 38.647114 ], [ -90.300726, 38.647142 ], [ -90.300671, 38.647185 ], [ -90.300622, 38.64722 ], [ -90.300561, 38.647257 ], [ -90.300488, 38.647298 ], [ -90.300459, 38.647312 ], [ -90.300405, 38.647333 ], [ -90.300338, 38.647353 ], [ -90.300262, 38.64737 ], [ -90.300192, 38.647377 ], [ -90.30011, 38.647381 ], [ -90.30002, 38.647378 ], [ -90.299948, 38.647372 ], [ -90.299564, 38.647334 ], [ -90.298378, 38.647218 ], [ -90.297572, 38.647139 ], [ -90.296723, 38.647056 ], [ -90.295541, 38.646941 ], [ -90.295043, 38.646906 ], [ -90.294912, 38.646893 ], [ -90.294811, 38.646885 ], [ -90.294683, 38.646864 ], [ -90.29444, 38.646836 ], [ -90.294195, 38.646808 ], [ -90.293081, 38.646697 ], [ -90.292943, 38.646686 ], [ -90.292276, 38.646622 ], [ -90.291933, 38.646587 ], [ -90.291407, 38.646537 ], [ -90.291162, 38.646514 ], [ -90.290668, 38.646466 ], [ -90.290176, 38.646418 ], [ -90.289569, 38.646361 ], [ -90.289253, 38.646327 ], [ -90.288209, 38.646226 ], [ -90.287149, 38.646125 ], [ -90.2865, 38.646062 ], [ -90.286327, 38.646047 ] ] } },
{ "type": "Feature", "properties": { "cls": "separated", "highway": "cycleway", "name": null }, "geometry": { "type": "LineString", "coordinates": [ [ -90.301466, 38.644504 ], [ -90.301442, 38.644499 ], [ -90.301424, 38.644496 ] ] } },
{ "type": "Feature", "properties": { "cls": "separated", "highway": "cycleway", "name": null }, "geometry": { "type": "Point", "coordinates": [ -90.301466, 38.644504 ] } },
{ "type": "Feature", "properties": { "cls": "shared", "highway": "cycleway", "name": "Wheels Path" }, "geometry": { "type": "LineString", "coordinates": [ [ -90.301424, 38.644496 ], [ -90.301381, 38.644637 ], [ -90.301282, 38.644963 ], [ -90.301202, 38.645274 ], [ -90.301152, 38.645544 ], [ -90.30114, 38.64559 ], [ -90.301125, 38.645633 ], [ -90.301108, 38.645679 ], [ -90.301089, 38.645729 ], [ -90.301076, 38.645768 ], [ -90.301065, 38.64581 ], [ -90.301058, 38.64585 ] ] } },
{ "type": "Feature", "properties": { "cls": "shared", "highway": "cycleway", "name": "Wheels Path" }, "geometry": { "type": "LineString", "coordinates": [ [ -90.301058, 38.64585 ], [ -90.301056, 38.645862 ], [ -90.301054, 38.645873 ], [ -90.301052, 38.645884 ] ] } },
{ "type": "Feature", "properties": { "cls": "shared", "highway": "cycleway", "name": "Wheels Path" }, "geometry": { "type": "LineString", "coordinates": [ [ -90.301052, 38.645884 ], [ -90.301047, 38.645912 ], [ -90.301041, 38.645942 ] ] } },
{ "type": "Feature", "properties": { "cls": "shared", "highway": "cycleway", "name": "Wheels Path" }, "geometry": { "type": "LineString", "coordinates": [ [ -90.301041, 38.645942 ], [ -90.301036, 38.64597 ] ] } },
{ "type": "Feature", "properties": { "cls": "shared", "highway": "cycleway", "name": "Wheels Path" }, "geometry": { "type": "LineString", "coordinates": [ [ -90.301036, 38.64597 ], [ -90.301031, 38.645999 ], [ -90.301025, 38.646031 ], [ -90.301024, 38.646032 ] ] } },
{ "type": "Feature", "properties": { "cls": "shared", "highway": "cycleway", "name": "Wheels Path" }, "geometry": { "type": "LineString", "coordinates": [ [ -90.301024, 38.646032 ], [ -90.301022, 38.646044 ] ] } },
{ "type": "Feature", "properties": { "cls": "separated", "highway": "cycleway", "name": "Centennial Greenway" }, "geometry": { "type": "LineString", "coordinates": [ [ -90.301022, 38.646044 ], [ -90.301074, 38.64605 ] ] } },
{ "type": "Feature", "properties": { "cls": "shared", "highway": "cycleway", "name": "Wheels Path" }, "geometry": { "type": "LineString", "coordinates": [ [ -90.301022, 38.646044 ], [ -90.301019, 38.646062 ] ] } },
{ "type": "Feature", "properties": { "cls": "separated", "highway": "cycleway", "name": "Centennial Greenway" }, "geometry": { "type": "LineString", "coordinates": [ [ -90.301074, 38.64605 ], [ -90.301076, 38.64605 ], [ -90.301102, 38.646052 ] ] } },
{ "type": "Feature", "properties": { "cls": "shared", "highway": "cycleway", "name": null }, "geometry": { "type": "LineString", "coordinates": [ [ -90.300714, 38.647386 ], [ -90.30068, 38.647362 ], [ -90.300656, 38.647339 ] ] } },
{ "type": "Feature", "properties": { "cls": "shared", "highway": "cycleway", "name": null }, "geometry": { "type": "LineString", "coordinates": [ [ -90.300714, 38.647386 ], [ -90.300803, 38.647448 ] ] } },
{ "type": "Feature", "properties": { "cls": "separated", "highway": "cycleway", "name": null }, "geometry": { "type": "LineString", "coordinates": [ [ -90.300803, 38.647448 ], [ -90.300848, 38.647483 ] ] } },
{ "type": "Feature", "properties": { "cls": "separated", "highway": "cycleway", "name": null }, "geometry": { "type": "Point", "coordinates": [ -90.300848, 38.647483 ] } },
{ "type": "Feature", "properties": { "cls": "shared", "highway": "cycleway", "name": "Saint Vincent Greenway" }, "geometry": { "type": "LineString", "coordinates": [ [ -90.285235, 38.646132 ], [ -90.285248, 38.646147 ], [ -90.285271, 38.646167 ], [ -90.285287, 38.646181 ], [ -90.285299, 38.646192 ], [ -90.285314, 38.646211 ], [ -90.285338, 38.646256 ], [ -90.285363, 38.646329 ], [ -90.285379, 38.646388 ], [ -90.285388, 38.646457 ], [ -90.285391, 38.646538 ], [ -90.285383, 38.646607 ], [ -90.285365, 38.646745 ], [ -90.28525, 38.647414 ], [ -90.285239, 38.647478 ], [ -90.285238, 38.647504 ], [ -90.285239, 38.647522 ], [ -90.285244, 38.647544 ] ] } },
{ "type": "Feature", "properties": { "cls": "shared", "highway": "cycleway", "name": null }, "geometry": { "type": "LineString", "coordinates": [ [ -90.300656, 38.647339 ], [ -90.300652, 38.647324 ], [ -90.300647, 38.647308 ], [ -90.300644, 38.647275 ], [ -90.300646, 38.647249 ], [ -90.30065, 38.647228 ], [ -90.300671, 38.647185 ] ] } },
{ "type": "Feature", "properties": { "cls": "shared", "highway": "cycleway", "name": null }, "geometry": { "type": "LineString", "coordinates": [ [ -90.300656, 38.647339 ], [ -90.300611, 38.647322 ], [ -90.300576, 38.647311 ], [ -90.300537, 38.647308 ], [ -90.300501, 38.647308 ], [ -90.300459, 38.647312 ] ] } },
{ "type": "Feature", "properties": { "cls": "shared", "highway": "cycleway", "name": null }, "geometry": { "type": "LineString", "coordinates": [ [ -90.285244, 38.647544 ], [ -90.285244, 38.647549 ] ] } },
{ "type": "Feature", "properties": { "cls": "shared", "highway": "cycleway", "name": "Wheels Path" }, "geometry": { "type": "LineString", "coordinates": [ [ -90.271664, 38.641643 ], [ -90.271638, 38.641635 ], [ -90.271584, 38.641619 ] ] } },
{ "type": "Feature", "properties": { "cls": "separated", "highway": "cycleway", "name": "Wheels Path" }, "geometry": { "type": "LineString", "coordinates": [ [ -90.271834, 38.641693 ], [ -90.27175, 38.641668 ], [ -90.271684, 38.641649 ], [ -90.271664, 38.641643 ] ] } },
{ "type": "Feature", "properties": { "cls": "painted", "highway": "residential", "name": "Grand Drive" }, "geometry": { "type": "LineString", "coordinates": [ [ -90.27171, 38.641688 ], [ -90.27175, 38.641668 ] ] } },
{ "type": "Feature", "properties": { "cls": "painted", "highway": "residential", "name": "Grand Drive" }, "geometry": { "type": "LineString", "coordinates": [ [ -90.270129, 38.643043 ], [ -90.270901, 38.642266 ], [ -90.270981, 38.642189 ], [ -90.271076, 38.642102 ], [ -90.271188, 38.642013 ], [ -90.271312, 38.64192 ], [ -90.271475, 38.641815 ], [ -90.271654, 38.641716 ], [ -90.271678, 38.641703 ], [ -90.27171, 38.641688 ] ] } },
{ "type": "Feature", "properties": { "cls": "separated", "highway": "cycleway", "name": "Wheels Path" }, "geometry": { "type": "LineString", "coordinates": [ [ -90.275455, 38.643408 ], [ -90.27545, 38.643406 ], [ -90.275422, 38.643397 ], [ -90.275374, 38.643386 ], [ -90.275315, 38.643377 ], [ -90.275259, 38.643376 ], [ -90.275204, 38.643382 ], [ -90.275083, 38.643401 ], [ -90.275005, 38.643412 ], [ -90.274929, 38.64342 ], [ -90.274853, 38.643419 ], [ -90.274781, 38.643414 ], [ -90.274709, 38.643403 ], [ -90.274647, 38.643383 ], [ -90.274585, 38.643356 ], [ -90.274521, 38.643323 ], [ -90.274473, 38.643287 ], [ -90.274425, 38.643245 ], [ -90.274384, 38.643204 ], [ -90.27435, 38.643159 ], [ -90.274297, 38.643081 ], [ -90.27423, 38.642983 ], [ -90.274168, 38.64291 ], [ -90.274106, 38.642841 ], [ -90.274043, 38.642773 ], [ -90.273984, 38.642721 ], [ -90.27392, 38.642676 ], [ -90.273852, 38.642628 ], [ -90.273781, 38.642578 ], [ -90.273719, 38.642529 ], [ -90.273647, 38.642465 ], [ -90.273591, 38.642407 ], [ -90.27354, 38.642346 ], [ -90.273492, 38.642285 ], [ -90.273437, 38.642229 ], [ -90.273372, 38.64218 ], [ -90.27329, 38.642134 ], [ -90.273221, 38.642106 ], [ -90.273139, 38.642079 ], [ -90.273062, 38.64206 ], [ -90.272926, 38.642031 ], [ -90.272809, 38.642002 ], [ -90.272719, 38.641974 ], [ -90.272618, 38.64194 ], [ -90.272503, 38.641896 ], [ -90.272377, 38.641851 ], [ -90.272265, 38.641817 ], [ -90.272074, 38.641763 ], [ -90.2719, 38.64171 ], [ -90.271874, 38.641703 ], [ -90.271834, 38.641693 ] ] } },
{ "type": "Feature", "properties": { "cls": "painted", "highway": "residential", "name": "Grand Drive" }, "geometry": { "type": "LineString", "coordinates": [ [ -90.269806, 38.643361 ], [ -90.270129, 38.643043 ] ] } },
{ "type": "Feature", "properties": { "cls": "separated", "highway": "cycleway", "name": "Wheels Path" }, "geometry": { "type": "LineString", "coordinates": [ [ -90.275474, 38.643419 ], [ -90.275465, 38.643413 ], [ -90.275455, 38.643408 ] ] } },
{ "type": "Feature", "properties": { "cls": "shared", "highway": "cycleway", "name": "Wheels Path" }, "geometry": { "type": "LineString", "coordinates": [ [ -90.275629, 38.643587 ], [ -90.275601, 38.643556 ], [ -90.275505, 38.643453 ], [ -90.275474, 38.643419 ] ] } },
{ "type": "Feature", "properties": { "cls": "shared", "highway": "cycleway", "name": "Wheels Path" }, "geometry": { "type": "LineString", "coordinates": [ [ -90.275642, 38.6436 ], [ -90.275638, 38.643597 ], [ -90.275629, 38.643587 ] ] } },
{ "type": "Feature", "properties": { "cls": "painted", "highway": "unclassified", "name": "Union Boulevard" }, "geometry": { "type": "LineString", "coordinates": [ [ -90.274721, 38.644203 ], [ -90.274697, 38.644312 ], [ -90.274635, 38.644669 ], [ -90.274641, 38.644763 ], [ -90.274668, 38.644883 ] ] } },
{ "type": "Feature", "properties": { "cls": "painted", "highway": "residential", "name": "West Pine Boulevard" }, "geometry": { "type": "LineString", "coordinates": [ [ -90.26555, 38.64253 ], [ -90.265434, 38.642506 ], [ -90.265394, 38.642497 ] ] } },
{ "type": "Feature", "properties": { "cls": "painted", "highway": "residential", "name": "West Pine Boulevard" }, "geometry": { "type": "LineString", "coordinates": [ [ -90.26555, 38.64253 ], [ -90.265854, 38.642591 ], [ -90.26606, 38.642637 ], [ -90.266254, 38.64269 ], [ -90.266406, 38.642748 ], [ -90.266545, 38.642813 ], [ -90.26675, 38.642937 ], [ -90.266874, 38.643034 ], [ -90.266985, 38.643135 ], [ -90.267076, 38.643249 ], [ -90.267157, 38.643371 ], [ -90.267237, 38.643508 ], [ -90.26729, 38.64363 ], [ -90.267306, 38.643687 ], [ -90.26731, 38.643741 ], [ -90.267309, 38.643803 ] ] } },
{ "type": "Feature", "properties": { "cls": "painted", "highway": "residential", "name": "Grand Drive" }, "geometry": { "type": "LineString", "coordinates": [ [ -90.267309, 38.643803 ], [ -90.267459, 38.643815 ], [ -90.26817, 38.643878 ], [ -90.268375, 38.643886 ], [ -90.268541, 38.643882 ], [ -90.2687, 38.643866 ], [ -90.268871, 38.643837 ], [ -90.269025, 38.643799 ], [ -90.26918, 38.643749 ], [ -90.269319, 38.643688 ], [ -90.269448, 38.643625 ], [ -90.269582, 38.64354 ], [ -90.269707, 38.643446 ], [ -90.269806, 38.643361 ] ] } },
{ "type": "Feature", "properties": { "cls": "painted", "highway": "residential", "name": "West Pine Boulevard" }, "geometry": { "type": "LineString", "coordinates": [ [ -90.267309, 38.643803 ], [ -90.267306, 38.643868 ], [ -90.267302, 38.643908 ], [ -90.2673, 38.64393 ], [ -90.267251, 38.644219 ] ] } },
{ "type": "Feature", "properties": { "cls": "shared", "highway": "cycleway", "name": null }, "geometry": { "type": "LineString", "coordinates": [ [ -90.283923, 38.64328 ], [ -90.283919, 38.643319 ], [ -90.283916, 38.643339 ], [ -90.283912, 38.643372 ] ] } },
{ "type": "Feature", "properties": { "cls": "shared", "highway": "cycleway", "name": null }, "geometry": { "type": "LineString", "coordinates": [ [ -90.283912, 38.643372 ], [ -90.283899, 38.643423 ], [ -90.283885, 38.643483 ] ] } },
{ "type": "Feature", "properties": { "cls": "shared", "highway": "cycleway", "name": null }, "geometry": { "type": "LineString", "coordinates": [ [ -90.283885, 38.643483 ], [ -90.283873, 38.643525 ], [ -90.283865, 38.64354 ], [ -90.283859, 38.643549 ], [ -90.283849, 38.643564 ], [ -90.283791, 38.643627 ], [ -90.283806, 38.643637 ] ] } },
{ "type": "Feature", "properties": { "cls": "shared", "highway": "cycleway", "name": null }, "geometry": { "type": "LineString", "coordinates": [ [ -90.283806, 38.643637 ], [ -90.283825, 38.64365 ], [ -90.28388, 38.643687 ], [ -90.283918, 38.643718 ], [ -90.283956, 38.643757 ], [ -90.283987, 38.643787 ], [ -90.284021, 38.643808 ], [ -90.284067, 38.643822 ], [ -90.284124, 38.643829 ], [ -90.284182, 38.643831 ], [ -90.284199, 38.643832 ], [ -90.284341, 38.643838 ], [ -90.284409, 38.643845 ], [ -90.284479, 38.643862 ], [ -90.284537, 38.643884 ], [ -90.284581, 38.643911 ], [ -90.284626, 38.643947 ], [ -90.284657, 38.643985 ], [ -90.284684, 38.644032 ], [ -90.284699, 38.644077 ], [ -90.284705, 38.644123 ], [ -90.284703, 38.644164 ], [ -90.28469, 38.644205 ], [ -90.284672, 38.644244 ], [ -90.284641, 38.644286 ], [ -90.284608, 38.644323 ], [ -90.284569, 38.644355 ], [ -90.284521, 38.644379 ], [ -90.28443, 38.644421 ], [ -90.284384, 38.644448 ], [ -90.284343, 38.644479 ], [ -90.284316, 38.644511 ], [ -90.284295, 38.644554 ], [ -90.284281, 38.644608 ], [ -90.284268, 38.644692 ], [ -90.284258, 38.644731 ], [ -90.284242, 38.644766 ], [ -90.284224, 38.644795 ], [ -90.284199, 38.644824 ], [ -90.284165, 38.644851 ], [ -90.284107, 38.644887 ], [ -90.284045, 38.644918 ], [ -90.283964, 38.644957 ], [ -90.283762, 38.645043 ], [ -90.283645, 38.645091 ], [ -90.283573, 38.645125 ], [ -90.283533, 38.645148 ], [ -90.283496, 38.645173 ], [ -90.283464, 38.6452 ], [ -90.283441, 38.645226 ], [ -90.283423, 38.645257 ], [ -90.283406, 38.645292 ], [ -90.283388, 38.645344 ], [ -90.283372, 38.645404 ], [ -90.283359, 38.645476 ] ] } },
{ "type": "Feature", "properties": { "cls": "shared", "highway": "cycleway", "name": "Wheels Path" }, "geometry": { "type": "LineString", "coordinates": [ [ -90.280299, 38.645079 ], [ -90.280091, 38.645058 ], [ -90.28001, 38.645059 ], [ -90.279928, 38.645068 ], [ -90.279857, 38.645083 ], [ -90.279781, 38.645106 ], [ -90.279719, 38.645131 ], [ -90.279636, 38.645174 ], [ -90.279558, 38.645217 ], [ -90.27948, 38.645252 ], [ -90.27941, 38.645271 ], [ -90.279317, 38.645284 ], [ -90.279221, 38.645287 ], [ -90.279122, 38.645284 ], [ -90.27894, 38.645265 ], [ -90.277955, 38.645167 ], [ -90.277654, 38.645134 ], [ -90.277474, 38.645113 ], [ -90.277318, 38.645085 ], [ -90.277166, 38.645048 ], [ -90.277022, 38.645005 ], [ -90.276895, 38.644962 ], [ -90.276763, 38.644908 ], [ -90.276634, 38.644852 ], [ -90.276502, 38.64478 ], [ -90.27638, 38.644708 ], [ -90.276265, 38.644626 ], [ -90.276161, 38.644542 ], [ -90.276067, 38.644453 ], [ -90.276017, 38.644398 ], [ -90.275994, 38.644355 ], [ -90.275985, 38.644302 ], [ -90.275982, 38.644237 ], [ -90.275994, 38.644192 ], [ -90.276021, 38.64413 ], [ -90.276059, 38.644049 ], [ -90.276074, 38.643998 ], [ -90.276077, 38.643946 ], [ -90.276064, 38.643894 ], [ -90.276043, 38.643842 ], [ -90.276005, 38.643794 ], [ -90.275959, 38.643758 ], [ -90.275907, 38.643725 ], [ -90.275762, 38.643675 ], [ -90.275715, 38.643652 ], [ -90.275668, 38.643622 ], [ -90.275642, 38.6436 ] ] } },
{ "type": "Feature", "properties": { "cls": "shared", "highway": "cycleway", "name": "Wheels Path" }, "geometry": { "type": "LineString", "coordinates": [ [ -90.280333, 38.645083 ], [ -90.280299, 38.645079 ] ] } },
{ "type": "Feature", "properties": { "cls": "shared", "highway": "cycleway", "name": "Wheels Path" }, "geometry": { "type": "LineString", "coordinates": [ [ -90.280441, 38.645094 ], [ -90.280386, 38.645089 ], [ -90.280333, 38.645083 ] ] } },
{ "type": "Feature", "properties": { "cls": "shared", "highway": "cycleway", "name": "Wheels Path" }, "geometry": { "type": "LineString", "coordinates": [ [ -90.280475, 38.645099 ], [ -90.280441, 38.645094 ] ] } },
{ "type": "Feature", "properties": { "cls": "shared", "highway": "cycleway", "name": "Wheels Path" }, "geometry": { "type": "LineString", "coordinates": [ [ -90.285039, 38.645917 ], [ -90.284912, 38.645901 ], [ -90.284806, 38.645887 ], [ -90.28475, 38.645877 ], [ -90.284683, 38.645855 ], [ -90.284634, 38.645833 ], [ -90.284566, 38.6458 ], [ -90.284443, 38.645739 ], [ -90.284373, 38.645707 ], [ -90.284293, 38.645672 ], [ -90.284174, 38.645625 ], [ -90.284062, 38.645583 ], [ -90.284, 38.645562 ], [ -90.283952, 38.64555 ], [ -90.283873, 38.645536 ], [ -90.28377, 38.645522 ], [ -90.283635, 38.645505 ], [ -90.28355, 38.645494 ], [ -90.283452, 38.645484 ], [ -90.283359, 38.645476 ], [ -90.283288, 38.645473 ], [ -90.283146, 38.645469 ], [ -90.283023, 38.645467 ], [ -90.282886, 38.645464 ], [ -90.282778, 38.645459 ], [ -90.282666, 38.64545 ], [ -90.282503, 38.645436 ], [ -90.282349, 38.64542 ], [ -90.282215, 38.645402 ], [ -90.28193, 38.64536 ], [ -90.281686, 38.645323 ], [ -90.281562, 38.645306 ], [ -90.281446, 38.645294 ], [ -90.281338, 38.645284 ], [ -90.281262, 38.645274 ], [ -90.281189, 38.64526 ], [ -90.281114, 38.645242 ], [ -90.281017, 38.645214 ], [ -90.280876, 38.645168 ], [ -90.280814, 38.64515 ], [ -90.280743, 38.645134 ], [ -90.280658, 38.64512 ], [ -90.280475, 38.645099 ] ] } },
{ "type": "Feature", "properties": { "cls": "shared", "highway": "cycleway", "name": "Wheels Path" }, "geometry": { "type": "LineString", "coordinates": [ [ -90.285182, 38.645934 ], [ -90.285072, 38.645921 ], [ -90.285039, 38.645917 ] ] } },
{ "type": "Feature", "properties": { "cls": "separated", "highway": "cycleway", "name": "Wheels Path" }, "geometry": { "type": "LineString", "coordinates": [ [ -90.285321, 38.645946 ], [ -90.285297, 38.645944 ], [ -90.28524, 38.645939 ], [ -90.285182, 38.645934 ] ] } },
{ "type": "Feature", "properties": { "cls": "shared", "highway": "cycleway", "name": "Saint Vincent Greenway" }, "geometry": { "type": "LineString", "coordinates": [ [ -90.285072, 38.645921 ], [ -90.285114, 38.645975 ] ] } },
{ "type": "Feature", "properties": { "cls": "shared", "highway": "cycleway", "name": "Saint Vincent Greenway" }, "geometry": { "type": "MultiLineString", "coordinates": [ [ [ -90.285114, 38.645975 ], [ -90.285117, 38.645979 ] ], [ [ -90.285233, 38.646129 ], [ -90.285235, 38.646132 ] ] ] } },
{ "type": "Feature", "properties": { "cls": "shared", "highway": "cycleway", "name": null }, "geometry": { "type": "LineString", "coordinates": [ [ -90.28525, 38.647414 ], [ -90.285204, 38.647381 ], [ -90.285164, 38.647343 ], [ -90.285135, 38.647305 ], [ -90.285115, 38.64726 ], [ -90.285102, 38.647214 ], [ -90.285096, 38.647178 ], [ -90.285103, 38.647125 ], [ -90.285125, 38.647069 ], [ -90.285151, 38.647027 ], [ -90.285181, 38.646987 ], [ -90.285203, 38.646944 ], [ -90.285218, 38.646905 ], [ -90.285224, 38.646872 ], [ -90.285222, 38.646835 ], [ -90.285216, 38.6468 ], [ -90.285203, 38.64676 ], [ -90.28518, 38.646712 ], [ -90.28515, 38.64665 ], [ -90.285127, 38.646595 ], [ -90.285116, 38.646549 ], [ -90.285112, 38.64649 ], [ -90.285116, 38.646436 ], [ -90.285125, 38.646384 ], [ -90.285147, 38.646326 ], [ -90.285173, 38.646284 ], [ -90.285197, 38.646255 ], [ -90.285222, 38.646233 ], [ -90.285252, 38.646208 ], [ -90.285287, 38.646181 ] ] } },
{ "type": "Feature", "properties": { "cls": "painted", "highway": "unclassified", "name": "Union Boulevard" }, "geometry": { "type": "LineString", "coordinates": [ [ -90.274668, 38.644883 ], [ -90.27466, 38.644956 ] ] } }
]
}
