{
"type": "FeatureCollection",
"name": "157-colorado-springs-garden-of-the-gods-park",
"crs": { "type": "name", "properties": { "name": "urn:ogc:def:crs:OGC:1.3:CRS84" } },
"xy_coordinate_resolution": 1e-06,
"features": [
{ "type": "Feature", "properties": { "cls": "shared", "highway": "path", "name": null }, "geometry": { "type": "LineString", "coordinates": [ [ -104.869828, 38.871608 ], [ -104.869814, 38.871592 ] ] } },
{ "type": "Feature", "properties": { "cls": "shared", "highway": "path", "name": null }, "geometry": { "type": "LineString", "coordinates": [ [ -104.86969, 38.871761 ], [ -104.869828, 38.871608 ] ] } },
{ "type": "Feature", "properties": { "cls": "shared", "highway": "path", "name": "Foothills Trail" }, "geometry": { "type": "LineString", "coordinates": [ [ -104.869533, 38.872022 ], [ -104.869427, 38.871698 ], [ -104.869429, 38.87169 ], [ -104.869436, 38.871672 ] ] } },
{ "type": "Feature", "properties": { "cls": "shared", "highway": "path", "name": "Neighborhood Access" }, "geometry": { "type": "LineString", "coordinates": [ [ -104.875051, 38.864372 ], [ -104.875128, 38.864426 ], [ -104.875294, 38.864453 ], [ -104.875467, 38.864457 ], [ -104.875544, 38.864467 ], [ -104.875688, 38.864462 ], [ -104.875802, 38.864472 ], [ -104.875898, 38.864527 ], [ -104.875987, 38.864589 ], [ -104.876064, 38.864681 ], [ -104.876123, 38.864784 ], [ -104.87616, 38.864853 ], [ -104.876168, 38.864898 ] ] } },
{ "type": "Feature", "properties": { "cls": "shared", "highway": "path", "name": "Niobrara Trail" }, "geometry": { "type": "LineString", "coordinates": [ [ -104.877033, 38.865681 ], [ -104.876966, 38.86558 ], [ -104.876863, 38.865507 ], [ -104.876828, 38.865466 ], [ -104.87676, 38.865393 ], [ -104.876708, 38.865346 ], [ -104.876648, 38.865319 ], [ -104.876554, 38.865286 ], [ -104.876416, 38.865199 ], [ -104.876294, 38.865133 ] ] } },
{ "type": "Feature", "properties": { "cls": "painted", "highway": "unclassified", "name": "Garden Lane" }, "geometry": { "type": "LineString", "coordinates": [ [ -104.895953, 38.865856 ], [ -104.895867, 38.865823 ], [ -104.895781, 38.865783 ], [ -104.895678, 38.865723 ], [ -104.895558, 38.865643 ], [ -104.895412, 38.865542 ], [ -104.895215, 38.865409 ], [ -104.895094, 38.865342 ], [ -104.895, 38.865302 ], [ -104.894897, 38.865268 ], [ -104.894639, 38.865208 ], [ -104.894279, 38.865128 ], [ -104.894167, 38.865101 ], [ -104.894056, 38.865068 ], [ -104.89385, 38.865008 ], [ -104.893644, 38.864934 ], [ -104.893447, 38.864839 ], [ -104.893412, 38.864827 ], [ -104.893352, 38.864794 ], [ -104.893216, 38.864732 ], [ -104.893103, 38.86468 ], [ -104.892997, 38.864632 ], [ -104.892957, 38.864613 ], [ -104.892768, 38.864517 ], [ -104.892675, 38.864483 ], [ -104.892558, 38.864454 ], [ -104.892432, 38.864436 ], [ -104.892327, 38.864426 ], [ -104.892218, 38.864419 ], [ -104.892094, 38.864425 ], [ -104.891942, 38.864439 ], [ -104.891661, 38.86448 ], [ -104.891527, 38.864504 ], [ -104.891401, 38.864535 ], [ -104.891282, 38.864571 ], [ -104.891155, 38.864613 ], [ -104.890988, 38.864681 ], [ -104.890857, 38.864743 ], [ -104.890667, 38.864839 ], [ -104.89042, 38.864996 ], [ -104.890185, 38.865155 ], [ -104.889945, 38.865355 ], [ -104.889807, 38.865496 ], [ -104.889704, 38.865662 ], [ -104.889587, 38.865825 ], [ -104.889535, 38.865883 ], [ -104.889378, 38.86611 ], [ -104.889249, 38.866364 ], [ -104.889121, 38.866571 ], [ -104.889, 38.866705 ], [ -104.888829, 38.866839 ], [ -104.888657, 38.866959 ], [ -104.888503, 38.867093 ], [ -104.888434, 38.867186 ], [ -104.888365, 38.867293 ], [ -104.888279, 38.867454 ], [ -104.888237, 38.867561 ], [ -104.888194, 38.867601 ], [ -104.888134, 38.867694 ], [ -104.888082, 38.867761 ], [ -104.888039, 38.867801 ], [ -104.888008, 38.867858 ] ] } },
{ "type": "Feature", "properties": { "cls": "shared", "highway": "path", "name": "Niobrara Trail" }, "geometry": { "type": "LineString", "coordinates": [ [ -104.87712, 38.86689 ], [ -104.877189, 38.866876 ], [ -104.87724, 38.866856 ], [ -104.877283, 38.866816 ], [ -104.8773, 38.86675 ], [ -104.877283, 38.866649 ], [ -104.877197, 38.866362 ], [ -104.877155, 38.866202 ], [ -104.87712, 38.866088 ], [ -104.877094, 38.865954 ], [ -104.877077, 38.865821 ], [ -104.877051, 38.865707 ], [ -104.877033, 38.865681 ] ] } },
{ "type": "Feature", "properties": { "cls": "shared", "highway": "path", "name": null }, "geometry": { "type": "LineString", "coordinates": [ [ -104.877412, 38.86697 ], [ -104.877338, 38.866837 ], [ -104.8773, 38.86675 ] ] } },
{ "type": "Feature", "properties": { "cls": "painted", "highway": "unclassified", "name": "Garden Drive" }, "geometry": { "type": "LineString", "coordinates": [ [ -104.888008, 38.867858 ], [ -104.888094, 38.867825 ], [ -104.88818, 38.867771 ], [ -104.888291, 38.867724 ], [ -104.888403, 38.867691 ], [ -104.8886, 38.867664 ], [ -104.888892, 38.867644 ], [ -104.889192, 38.867637 ], [ -104.88933, 38.867624 ], [ -104.889424, 38.867597 ], [ -104.889519, 38.867551 ], [ -104.889587, 38.867497 ], [ -104.889673, 38.867397 ], [ -104.889785, 38.867237 ], [ -104.889922, 38.867056 ], [ -104.889954, 38.867028 ], [ -104.889991, 38.866996 ], [ -104.890068, 38.866949 ], [ -104.890162, 38.866929 ], [ -104.890257, 38.866943 ], [ -104.890394, 38.866996 ], [ -104.890514, 38.867083 ], [ -104.890643, 38.86719 ], [ -104.890823, 38.86739 ], [ -104.890892, 38.867457 ], [ -104.890978, 38.867504 ], [ -104.891064, 38.867531 ], [ -104.891166, 38.867531 ], [ -104.891261, 38.867511 ], [ -104.89133, 38.867471 ], [ -104.891398, 38.867404 ], [ -104.891543, 38.867232 ], [ -104.891613, 38.86715 ], [ -104.891767, 38.866983 ], [ -104.891913, 38.866862 ], [ -104.892051, 38.866789 ], [ -104.892188, 38.866729 ], [ -104.892351, 38.866675 ], [ -104.892505, 38.866622 ], [ -104.892677, 38.866548 ], [ -104.8929, 38.866441 ], [ -104.893278, 38.866261 ], [ -104.893407, 38.866214 ], [ -104.893527, 38.866181 ], [ -104.893698, 38.866147 ], [ -104.89387, 38.866141 ], [ -104.893914, 38.866142 ], [ -104.894042, 38.866147 ], [ -104.894256, 38.866161 ], [ -104.89448, 38.866181 ], [ -104.894711, 38.866194 ], [ -104.895063, 38.866201 ], [ -104.895364, 38.866181 ], [ -104.895578, 38.866161 ], [ -104.895827, 38.866114 ], [ -104.895924, 38.866085 ], [ -104.895967, 38.866077 ] ] } },
{ "type": "Feature", "properties": { "cls": "shared", "highway": "path", "name": null }, "geometry": { "type": "LineString", "coordinates": [ [ -104.878544, 38.867119 ], [ -104.878527, 38.867135 ], [ -104.878484, 38.867191 ], [ -104.878433, 38.867214 ], [ -104.878381, 38.867238 ], [ -104.878293, 38.867241 ], [ -104.878186, 38.867261 ], [ -104.878075, 38.867282 ], [ -104.877887, 38.867327 ], [ -104.877826, 38.867326 ], [ -104.877767, 38.867319 ], [ -104.877725, 38.86732 ], [ -104.87765, 38.867355 ], [ -104.877617, 38.867379 ] ] } },
{ "type": "Feature", "properties": { "cls": "shared", "highway": "path", "name": null }, "geometry": { "type": "LineString", "coordinates": [ [ -104.87712, 38.86689 ], [ -104.877412, 38.86697 ], [ -104.877515, 38.867077 ], [ -104.877592, 38.867204 ], [ -104.877622, 38.867248 ], [ -104.877631, 38.867286 ], [ -104.877617, 38.867379 ], [ -104.877622, 38.867566 ], [ -104.877652, 38.867792 ], [ -104.877689, 38.868159 ], [ -104.877705, 38.868285 ], [ -104.877773, 38.868466 ], [ -104.87785, 38.868679 ], [ -104.877936, 38.868915 ], [ -104.877992, 38.869137 ], [ -104.878009, 38.869199 ], [ -104.877987, 38.869262 ], [ -104.87803, 38.869296 ] ] } },
{ "type": "Feature", "properties": { "cls": "painted", "highway": "unclassified", "name": "Garden Drive" }, "geometry": { "type": "LineString", "coordinates": [ [ -104.888008, 38.867858 ], [ -104.887725, 38.868045 ], [ -104.887322, 38.868419 ], [ -104.887141, 38.868633 ], [ -104.886858, 38.869094 ], [ -104.886575, 38.869575 ], [ -104.886295, 38.869915 ] ] } },
{ "type": "Feature", "properties": { "cls": "shared", "highway": "path", "name": "Ute Trail Connection" }, "geometry": { "type": "LineString", "coordinates": [ [ -104.877978, 38.869383 ], [ -104.877911, 38.869387 ], [ -104.877763, 38.869363 ], [ -104.877622, 38.869324 ], [ -104.87746, 38.86923 ], [ -104.877284, 38.869117 ], [ -104.877172, 38.868999 ], [ -104.877087, 38.86891 ], [ -104.876998, 38.868885 ], [ -104.876961, 38.86893 ], [ -104.876925, 38.869165 ], [ -104.87704, 38.86933 ], [ -104.877104, 38.869463 ], [ -104.876975, 38.86953 ], [ -104.876845, 38.869545 ], [ -104.876802, 38.869631 ], [ -104.876765, 38.869765 ], [ -104.876716, 38.869881 ], [ -104.876623, 38.869929 ], [ -104.876559, 38.869946 ], [ -104.87653, 38.869995 ], [ -104.876416, 38.869988 ], [ -104.876295, 38.869928 ], [ -104.876231, 38.869934 ], [ -104.876158, 38.869948 ], [ -104.876078, 38.869988 ], [ -104.875879, 38.870065 ], [ -104.875807, 38.870101 ], [ -104.875729, 38.870178 ], [ -104.875675, 38.870216 ], [ -104.875584, 38.870239 ], [ -104.875488, 38.870283 ], [ -104.875404, 38.870328 ], [ -104.875327, 38.87036 ] ] } },
{ "type": "Feature", "properties": { "cls": "shared", "highway": "path", "name": "Niobrara Trail" }, "geometry": { "type": "LineString", "coordinates": [ [ -104.874115, 38.864718 ], [ -104.874003, 38.864624 ] ] } },
{ "type": "Feature", "properties": { "cls": "shared", "highway": "path", "name": "Niobrara Trail" }, "geometry": { "type": "LineString", "coordinates": [ [ -104.874042, 38.864772 ], [ -104.874003, 38.864624 ] ] } },
{ "type": "Feature", "properties": { "cls": "shared", "highway": "path", "name": "Niobrara Trail" }, "geometry": { "type": "LineString", "coordinates": [ [ -104.876294, 38.865133 ], [ -104.876236, 38.865079 ], [ -104.876219, 38.865039 ], [ -104.87621, 38.864985 ], [ -104.876202, 38.864932 ], [ -104.876168, 38.864898 ], [ -104.876116, 38.864865 ], [ -104.87579, 38.864631 ], [ -104.875721, 38.864598 ], [ -104.875635, 38.864591 ], [ -104.87555, 38.864598 ], [ -104.875275, 38.864678 ], [ -104.874966, 38.864771 ], [ -104.874811, 38.864811 ], [ -104.874545, 38.864892 ], [ -104.874391, 38.864938 ], [ -104.874279, 38.864989 ], [ -104.874115, 38.864718 ] ] } },
{ "type": "Feature", "properties": { "cls": "shared", "highway": "path", "name": "Niobrara Trail" }, "geometry": { "type": "LineString", "coordinates": [ [ -104.87533, 38.871353 ], [ -104.875289, 38.871354 ], [ -104.875246, 38.871368 ], [ -104.875187, 38.871402 ], [ -104.875131, 38.87145 ], [ -104.875074, 38.8715 ], [ -104.875034, 38.871538 ], [ -104.875016, 38.871519 ], [ -104.87501, 38.871412 ], [ -104.874999, 38.871333 ], [ -104.875002, 38.871241 ], [ -104.874951, 38.871297 ], [ -104.874895, 38.871358 ], [ -104.874868, 38.8714 ], [ -104.87486, 38.871442 ], [ -104.874838, 38.871364 ], [ -104.87482, 38.871291 ], [ -104.874798, 38.871139 ], [ -104.874771, 38.871126 ], [ -104.874739, 38.871076 ], [ -104.87472, 38.870955 ], [ -104.87471, 38.870725 ], [ -104.874712, 38.870579 ], [ -104.874686, 38.870516 ], [ -104.874686, 38.870397 ], [ -104.874683, 38.870324 ], [ -104.874667, 38.870272 ], [ -104.874667, 38.870157 ], [ -104.874691, 38.870095 ], [ -104.87468, 38.870013 ], [ -104.874691, 38.869934 ], [ -104.874672, 38.869857 ], [ -104.874618, 38.869723 ], [ -104.874608, 38.869683 ], [ -104.874621, 38.869629 ], [ -104.874616, 38.869564 ], [ -104.874581, 38.869506 ], [ -104.874567, 38.869439 ], [ -104.874589, 38.869336 ], [ -104.87461, 38.869226 ], [ -104.874643, 38.869094 ], [ -104.874645, 38.869015 ], [ -104.874664, 38.868961 ], [ -104.874637, 38.86891 ], [ -104.874643, 38.868875 ], [ -104.874659, 38.868852 ], [ -104.874664, 38.868668 ], [ -104.874643, 38.868614 ], [ -104.874635, 38.868562 ], [ -104.874639, 38.868477 ], [ -104.87464, 38.868454 ], [ -104.874644, 38.868393 ], [ -104.874655, 38.868338 ], [ -104.874643, 38.868258 ], [ -104.874636, 38.868169 ], [ -104.874637, 38.868132 ], [ -104.87461, 38.868036 ], [ -104.874605, 38.86799 ], [ -104.874623, 38.867927 ], [ -104.874623, 38.867886 ], [ -104.874601, 38.867817 ], [ -104.874593, 38.867736 ], [ -104.874589, 38.867663 ], [ -104.874559, 38.867602 ], [ -104.874527, 38.867561 ], [ -104.874519, 38.867533 ], [ -104.874514, 38.867443 ], [ -104.87453, 38.867365 ], [ -104.87451, 38.867309 ], [ -104.874504, 38.867271 ], [ -104.874505, 38.86722 ], [ -104.874489, 38.867173 ], [ -104.874477, 38.867116 ], [ -104.87444, 38.867067 ], [ -104.87441, 38.867001 ], [ -104.874408, 38.866939 ], [ -104.874365, 38.866889 ], [ -104.87433, 38.866842 ], [ -104.874307, 38.866775 ], [ -104.874307, 38.866731 ], [ -104.874282, 38.866663 ], [ -104.874259, 38.866605 ], [ -104.874235, 38.866562 ], [ -104.87422, 38.866445 ], [ -104.874182, 38.866352 ], [ -104.874157, 38.866308 ], [ -104.874142, 38.866267 ], [ -104.874162, 38.866244 ], [ -104.874155, 38.866186 ], [ -104.874145, 38.866128 ], [ -104.874113, 38.866051 ], [ -104.874093, 38.865979 ], [ -104.874092, 38.865907 ], [ -104.874131, 38.865845 ], [ -104.874124, 38.865782 ], [ -104.874121, 38.865738 ], [ -104.874161, 38.865668 ], [ -104.874193, 38.865602 ], [ -104.874225, 38.865548 ], [ -104.874222, 38.865428 ], [ -104.874174, 38.865311 ], [ -104.874165, 38.865253 ], [ -104.874158, 38.865186 ], [ -104.874137, 38.865118 ], [ -104.874123, 38.865074 ], [ -104.874113, 38.865032 ], [ -104.874103, 38.864992 ], [ -104.874087, 38.864944 ], [ -104.87407, 38.864885 ], [ -104.874042, 38.864772 ] ] } },
{ "type": "Feature", "properties": { "cls": "shared", "highway": "path", "name": "Ute Valley Trail" }, "geometry": { "type": "LineString", "coordinates": [ [ -104.874639, 38.868477 ], [ -104.874687, 38.868507 ] ] } },
{ "type": "Feature", "properties": { "cls": "shared", "highway": "path", "name": "Ute Valley Trail" }, "geometry": { "type": "LineString", "coordinates": [ [ -104.874687, 38.868507 ], [ -104.874635, 38.868562 ] ] } },
{ "type": "Feature", "properties": { "cls": "shared", "highway": "path", "name": "Ute Valley Trail" }, "geometry": { "type": "LineString", "coordinates": [ [ -104.874687, 38.868507 ], [ -104.874758, 38.868503 ], [ -104.874817, 38.86852 ], [ -104.874871, 38.868568 ], [ -104.874946, 38.868626 ], [ -104.875045, 38.868681 ] ] } },
{ "type": "Feature", "properties": { "cls": "shared", "highway": "path", "name": "Valley Reservoir Trail" }, "geometry": { "type": "LineString", "coordinates": [ [ -104.87506, 38.873024 ], [ -104.87506, 38.872931 ], [ -104.875077, 38.872824 ], [ -104.875077, 38.87269 ], [ -104.875077, 38.872537 ], [ -104.875095, 38.872209 ], [ -104.875112, 38.872076 ], [ -104.875112, 38.872022 ], [ -104.875112, 38.871949 ], [ -104.875155, 38.871882 ], [ -104.875172, 38.871828 ], [ -104.875241, 38.871782 ], [ -104.875249, 38.871741 ], [ -104.875232, 38.871675 ], [ -104.875206, 38.871628 ], [ -104.875215, 38.871574 ], [ -104.875318, 38.871394 ], [ -104.87533, 38.871353 ], [ -104.875352, 38.87128 ], [ -104.875378, 38.871187 ], [ -104.875464, 38.871073 ], [ -104.875481, 38.87102 ], [ -104.875498, 38.870853 ], [ -104.875498, 38.870679 ] ] } },
{ "type": "Feature", "properties": { "cls": "shared", "highway": "path", "name": null }, "geometry": { "type": "LineString", "coordinates": [ [ -104.873736, 38.877244 ], [ -104.873645, 38.877263 ], [ -104.873504, 38.877341 ], [ -104.873395, 38.877407 ], [ -104.87328, 38.877437 ], [ -104.873201, 38.877453 ] ] } },
{ "type": "Feature", "properties": { "cls": "shared", "highway": "path", "name": null }, "geometry": { "type": "LineString", "coordinates": [ [ -104.873201, 38.877453 ], [ -104.873083, 38.877456 ], [ -104.873026, 38.877458 ] ] } },
{ "type": "Feature", "properties": { "cls": "shared", "highway": "path", "name": "Ute Trail" }, "geometry": { "type": "LineString", "coordinates": [ [ -104.877258, 38.873017 ], [ -104.877212, 38.87298 ], [ -104.87715, 38.872857 ], [ -104.877086, 38.872736 ], [ -104.877024, 38.872613 ], [ -104.876963, 38.872527 ], [ -104.876831, 38.872415 ], [ -104.876743, 38.872348 ], [ -104.876678, 38.872214 ], [ -104.876593, 38.872129 ], [ -104.876493, 38.872085 ], [ -104.876386, 38.872028 ], [ -104.876351, 38.871951 ], [ -104.876306, 38.871857 ], [ -104.876265, 38.871778 ], [ -104.876231, 38.871686 ], [ -104.876244, 38.871598 ], [ -104.876265, 38.871546 ], [ -104.876252, 38.871504 ], [ -104.876185, 38.871452 ], [ -104.876139, 38.87141 ], [ -104.876067, 38.871314 ], [ -104.875954, 38.871203 ], [ -104.875804, 38.871074 ], [ -104.875759, 38.871028 ], [ -104.875697, 38.870963 ], [ -104.875608, 38.870838 ], [ -104.875533, 38.870717 ], [ -104.875498, 38.870679 ], [ -104.875455, 38.870592 ], [ -104.875438, 38.870539 ], [ -104.875327, 38.87036 ], [ -104.875318, 38.870345 ], [ -104.875292, 38.870291 ], [ -104.875301, 38.870204 ], [ -104.875309, 38.870098 ], [ -104.875266, 38.870031 ], [ -104.875129, 38.869764 ], [ -104.875034, 38.86953 ], [ -104.874992, 38.869356 ], [ -104.875, 38.869142 ], [ -104.875032, 38.868808 ], [ -104.875045, 38.868681 ], [ -104.875052, 38.868487 ], [ -104.875129, 38.868407 ], [ -104.875189, 38.86836 ], [ -104.875421, 38.868293 ], [ -104.875489, 38.868287 ], [ -104.875635, 38.86832 ], [ -104.875695, 38.86832 ], [ -104.875747, 38.868307 ], [ -104.87579, 38.86828 ], [ -104.875922, 38.868212 ], [ -104.876086, 38.868086 ], [ -104.87614, 38.868029 ], [ -104.876184, 38.867959 ], [ -104.87621, 38.867872 ], [ -104.876253, 38.867759 ], [ -104.876288, 38.867679 ], [ -104.87633, 38.867605 ], [ -104.876391, 38.867538 ], [ -104.876416, 38.867478 ], [ -104.876442, 38.867378 ], [ -104.876476, 38.867244 ], [ -104.876511, 38.867177 ], [ -104.876537, 38.867164 ], [ -104.876588, 38.867077 ], [ -104.876639, 38.86701 ], [ -104.876717, 38.866943 ], [ -104.876785, 38.866903 ], [ -104.87694, 38.86689 ], [ -104.87712, 38.86689 ] ] } },
{ "type": "Feature", "properties": { "cls": "shared", "highway": "path", "name": null }, "geometry": { "type": "LineString", "coordinates": [ [ -104.878143, 38.869831 ], [ -104.878062, 38.869852 ], [ -104.878084, 38.869913 ], [ -104.878116, 38.869964 ], [ -104.87815, 38.870004 ], [ -104.87821, 38.870084 ], [ -104.878253, 38.870191 ], [ -104.87839, 38.870565 ], [ -104.878449, 38.870647 ], [ -104.878433, 38.870697 ], [ -104.8785, 38.870724 ], [ -104.878415, 38.870721 ], [ -104.878383, 38.870817 ], [ -104.878403, 38.870896 ], [ -104.878503, 38.870929 ], [ -104.878433, 38.871013 ], [ -104.878408, 38.87118 ], [ -104.878365, 38.871274 ], [ -104.878296, 38.871374 ], [ -104.878227, 38.871467 ], [ -104.878064, 38.871621 ], [ -104.878004, 38.871701 ], [ -104.877936, 38.871875 ], [ -104.877858, 38.872136 ], [ -104.877781, 38.87231 ], [ -104.877798, 38.87251 ], [ -104.877824, 38.872757 ], [ -104.877833, 38.872791 ] ] } },
{ "type": "Feature", "properties": { "cls": "painted", "highway": "unclassified", "name": "Juniper Way Loop" }, "geometry": { "type": "LineString", "coordinates": [ [ -104.883077, 38.876452 ], [ -104.882863, 38.876251 ], [ -104.882691, 38.876071 ], [ -104.882562, 38.875911 ], [ -104.88245, 38.875697 ], [ -104.882399, 38.87545 ], [ -104.88239, 38.875196 ], [ -104.882408, 38.874608 ], [ -104.882433, 38.874487 ], [ -104.882519, 38.874294 ], [ -104.882528, 38.874187 ], [ -104.882442, 38.87404 ], [ -104.88227, 38.873832 ], [ -104.882202, 38.873719 ], [ -104.881979, 38.873298 ], [ -104.881781, 38.872984 ], [ -104.881438, 38.872122 ], [ -104.881249, 38.87144 ], [ -104.881129, 38.870992 ], [ -104.880974, 38.870692 ], [ -104.880914, 38.870531 ], [ -104.88088, 38.870171 ], [ -104.880837, 38.87007 ], [ -104.880768, 38.86999 ], [ -104.879996, 38.869496 ], [ -104.879816, 38.869409 ], [ -104.879404, 38.869248 ], [ -104.879249, 38.869142 ], [ -104.878983, 38.868901 ], [ -104.87888, 38.868754 ], [ -104.878854, 38.868614 ], [ -104.878897, 38.868466 ], [ -104.879095, 38.868099 ], [ -104.879086, 38.867972 ], [ -104.879009, 38.867832 ] ] } },
{ "type": "Feature", "properties": { "cls": "painted", "highway": "unclassified", "name": "Juniper Way Loop" }, "geometry": { "type": "LineString", "coordinates": [ [ -104.878717, 38.867758 ], [ -104.878554, 38.867812 ], [ -104.878428, 38.867911 ], [ -104.878325, 38.868032 ], [ -104.878282, 38.868205 ], [ -104.878299, 38.868386 ], [ -104.878377, 38.868573 ], [ -104.878523, 38.868887 ], [ -104.878594, 38.869144 ], [ -104.878634, 38.869288 ], [ -104.878634, 38.869509 ], [ -104.878576, 38.870171 ], [ -104.878573, 38.870204 ], [ -104.87854, 38.870585 ], [ -104.878541, 38.870661 ], [ -104.878544, 38.870733 ], [ -104.878548, 38.870919 ], [ -104.878554, 38.870986 ], [ -104.878591, 38.87138 ], [ -104.878591, 38.871807 ], [ -104.8786, 38.872516 ], [ -104.878574, 38.872796 ], [ -104.878471, 38.873017 ], [ -104.878368, 38.873231 ], [ -104.87836, 38.873404 ], [ -104.878437, 38.873618 ], [ -104.878454, 38.873739 ], [ -104.878402, 38.873886 ], [ -104.878257, 38.874133 ], [ -104.878214, 38.87432 ], [ -104.878196, 38.874781 ], [ -104.878239, 38.875149 ], [ -104.878308, 38.87563 ], [ -104.878282, 38.875843 ], [ -104.87827, 38.875878 ], [ -104.878196, 38.876091 ], [ -104.878012, 38.876696 ], [ -104.877986, 38.876786 ], [ -104.87797, 38.876861 ], [ -104.877963, 38.876889 ] ] } },
{ "type": "Feature", "properties": { "cls": "shared", "highway": "path", "name": "Ute Trail" }, "geometry": { "type": "LineString", "coordinates": [ [ -104.877284, 38.873037 ], [ -104.877258, 38.873017 ] ] } },
{ "type": "Feature", "properties": { "cls": "painted", "highway": "unclassified", "name": "Garden Drive" }, "geometry": { "type": "LineString", "coordinates": [ [ -104.886295, 38.869915 ], [ -104.886242, 38.869972 ], [ -104.886103, 38.870123 ], [ -104.885837, 38.870491 ], [ -104.885665, 38.870698 ], [ -104.885382, 38.870958 ], [ -104.88521, 38.871192 ], [ -104.885125, 38.871453 ], [ -104.885125, 38.871687 ], [ -104.885227, 38.872001 ], [ -104.885258, 38.872124 ], [ -104.885267, 38.872161 ], [ -104.885288, 38.872242 ], [ -104.885298, 38.872344 ], [ -104.885305, 38.872412 ], [ -104.885351, 38.872871 ], [ -104.885356, 38.872923 ], [ -104.885339, 38.87309 ], [ -104.88525, 38.873411 ], [ -104.88515, 38.873772 ], [ -104.885047, 38.874066 ], [ -104.88491, 38.874326 ], [ -104.884755, 38.87454 ], [ -104.88406, 38.875242 ], [ -104.883863, 38.875382 ], [ -104.883786, 38.875427 ], [ -104.883614, 38.875529 ], [ -104.883498, 38.875637 ], [ -104.883412, 38.87577 ], [ -104.883378, 38.875924 ], [ -104.883386, 38.876251 ], [ -104.883381, 38.876298 ] ] } },
{ "type": "Feature", "properties": { "cls": "shared", "highway": "path", "name": "Ute Trail" }, "geometry": { "type": "LineString", "coordinates": [ [ -104.877743, 38.873525 ], [ -104.877631, 38.873415 ], [ -104.877475, 38.873252 ], [ -104.877344, 38.873089 ], [ -104.877284, 38.873037 ] ] } },
{ "type": "Feature", "properties": { "cls": "shared", "highway": "path", "name": "Chambers Trail" }, "geometry": { "type": "LineString", "coordinates": [ [ -104.877636, 38.876948 ], [ -104.877622, 38.876892 ], [ -104.877605, 38.876822 ], [ -104.877533, 38.876704 ], [ -104.877489, 38.876626 ], [ -104.877419, 38.876497 ], [ -104.8773, 38.876279 ], [ -104.877146, 38.876025 ], [ -104.877034, 38.875838 ], [ -104.876966, 38.875657 ], [ -104.876717, 38.875243 ], [ -104.876571, 38.875136 ], [ -104.876502, 38.875083 ], [ -104.876434, 38.874976 ], [ -104.876339, 38.874925 ], [ -104.876262, 38.874882 ], [ -104.87615, 38.874815 ], [ -104.87597, 38.874662 ], [ -104.875953, 38.874615 ], [ -104.87591, 38.874568 ], [ -104.87585, 38.874521 ], [ -104.875816, 38.874441 ], [ -104.875781, 38.874394 ], [ -104.875764, 38.874334 ], [ -104.875687, 38.874227 ], [ -104.875661, 38.87414 ], [ -104.875618, 38.87406 ], [ -104.875592, 38.874007 ], [ -104.875558, 38.87398 ], [ -104.875524, 38.873947 ], [ -104.875489, 38.873886 ], [ -104.875446, 38.873746 ], [ -104.875395, 38.873506 ], [ -104.875386, 38.873405 ], [ -104.875335, 38.873345 ], [ -104.875309, 38.873292 ], [ -104.875275, 38.873245 ], [ -104.875232, 38.873205 ], [ -104.875103, 38.873091 ], [ -104.87506, 38.873024 ], [ -104.874954, 38.872941 ], [ -104.874849, 38.872845 ], [ -104.874755, 38.872738 ], [ -104.874605, 38.872585 ] ] } },
{ "type": "Feature", "properties": { "cls": "shared", "highway": "path", "name": "Chambers Trail" }, "geometry": { "type": "LineString", "coordinates": [ [ -104.87766, 38.877059 ], [ -104.877648, 38.876998 ], [ -104.877636, 38.876948 ] ] } },
{ "type": "Feature", "properties": { "cls": "painted", "highway": "unclassified", "name": "Juniper Way Loop" }, "geometry": { "type": "LineString", "coordinates": [ [ -104.877963, 38.876889 ], [ -104.877957, 38.876956 ], [ -104.877954, 38.876996 ], [ -104.877955, 38.877044 ], [ -104.877958, 38.877094 ], [ -104.877966, 38.877153 ], [ -104.877973, 38.877187 ] ] } },
{ "type": "Feature", "properties": { "cls": "shared", "highway": "path", "name": null }, "geometry": { "type": "LineString", "coordinates": [ [ -104.869533, 38.872022 ], [ -104.869609, 38.871909 ], [ -104.869658, 38.871828 ], [ -104.869682, 38.871775 ], [ -104.86969, 38.871761 ] ] } },
{ "type": "Feature", "properties": { "cls": "shared", "highway": "path", "name": "Foothills Trail" }, "geometry": { "type": "LineString", "coordinates": [ [ -104.869533, 38.872022 ], [ -104.869562, 38.872217 ], [ -104.869574, 38.872639 ], [ -104.869537, 38.873234 ], [ -104.869414, 38.873753 ], [ -104.869352, 38.874223 ], [ -104.869482, 38.874852 ], [ -104.869612, 38.875331 ], [ -104.869617, 38.875593 ], [ -104.869663, 38.875937 ], [ -104.869796, 38.876372 ], [ -104.869933, 38.87658 ], [ -104.870151, 38.87671 ] ] } },
{ "type": "Feature", "properties": { "cls": "shared", "highway": "path", "name": "Garden of the Gods Parking lot access" }, "geometry": { "type": "LineString", "coordinates": [ [ -104.870151, 38.87671 ], [ -104.870632, 38.876671 ], [ -104.871178, 38.876627 ], [ -104.871261, 38.876627 ] ] } },
{ "type": "Feature", "properties": { "cls": "shared", "highway": "path", "name": "Garden of the Gods Parking lot access" }, "geometry": { "type": "LineString", "coordinates": [ [ -104.870632, 38.876671 ], [ -104.870409, 38.876972 ] ] } },
{ "type": "Feature", "properties": { "cls": "shared", "highway": "path", "name": "Foothills Trail" }, "geometry": { "type": "LineString", "coordinates": [ [ -104.870808, 38.877437 ], [ -104.870569, 38.877261 ], [ -104.870448, 38.877101 ], [ -104.870409, 38.876972 ], [ -104.870341, 38.876857 ], [ -104.870151, 38.87671 ] ] } },
{ "type": "Feature", "properties": { "cls": "shared", "highway": "path", "name": null }, "geometry": { "type": "LineString", "coordinates": [ [ -104.870896, 38.877535 ], [ -104.870808, 38.877437 ] ] } },
{ "type": "Feature", "properties": { "cls": "shared", "highway": "cycleway", "name": null }, "geometry": { "type": "LineString", "coordinates": [ [ -104.870977, 38.877576 ], [ -104.870903, 38.877586 ], [ -104.870876, 38.877583 ] ] } },
{ "type": "Feature", "properties": { "cls": "shared", "highway": "path", "name": "Gateway Trail" }, "geometry": { "type": "LineString", "coordinates": [ [ -104.87693, 38.876921 ], [ -104.876806, 38.876965 ], [ -104.876707, 38.876979 ], [ -104.876588, 38.876982 ], [ -104.876477, 38.876978 ], [ -104.876376, 38.876965 ], [ -104.876233, 38.876943 ], [ -104.876151, 38.876933 ], [ -104.875953, 38.876933 ], [ -104.87579, 38.876986 ], [ -104.875619, 38.877033 ], [ -104.875464, 38.877067 ], [ -104.875323, 38.87716 ], [ -104.87527, 38.877188 ], [ -104.875182, 38.877246 ], [ -104.874923, 38.877419 ], [ -104.874842, 38.877528 ], [ -104.874561, 38.877943 ], [ -104.874529, 38.878141 ], [ -104.874466, 38.878152 ], [ -104.874402, 38.877893 ], [ -104.874353, 38.877573 ], [ -104.874365, 38.877487 ], [ -104.87425, 38.877378 ], [ -104.874035, 38.877245 ], [ -104.873873, 38.877238 ], [ -104.873736, 38.877244 ] ] } },
{ "type": "Feature", "properties": { "cls": "shared", "highway": "path", "name": null }, "geometry": { "type": "LineString", "coordinates": [ [ -104.873026, 38.877458 ], [ -104.872951, 38.877476 ], [ -104.872899, 38.877515 ], [ -104.872821, 38.877567 ], [ -104.872752, 38.87761 ], [ -104.872653, 38.877651 ], [ -104.872542, 38.877676 ], [ -104.872477, 38.877684 ], [ -104.872381, 38.877673 ], [ -104.872247, 38.877665 ] ] } },
{ "type": "Feature", "properties": { "cls": "shared", "highway": "path", "name": null }, "geometry": { "type": "LineString", "coordinates": [ [ -104.871149, 38.877715 ], [ -104.870896, 38.877535 ] ] } },
{ "type": "Feature", "properties": { "cls": "shared", "highway": "path", "name": "Gateway Trail" }, "geometry": { "type": "LineString", "coordinates": [ [ -104.871424, 38.877812 ], [ -104.87149, 38.877721 ], [ -104.871636, 38.877678 ], [ -104.871941, 38.877668 ], [ -104.872247, 38.877665 ] ] } },
{ "type": "Feature", "properties": { "cls": "shared", "highway": "path", "name": null }, "geometry": { "type": "LineString", "coordinates": [ [ -104.871218, 38.877765 ], [ -104.871149, 38.877715 ] ] } },
{ "type": "Feature", "properties": { "cls": "shared", "highway": "cycleway", "name": null }, "geometry": { "type": "LineString", "coordinates": [ [ -104.871121, 38.877678 ], [ -104.871053, 38.877745 ], [ -104.871051, 38.877749 ] ] } },
{ "type": "Feature", "properties": { "cls": "shared", "highway": "path", "name": "Foothills Trail" }, "geometry": { "type": "LineString", "coordinates": [ [ -104.871867, 38.87844 ], [ -104.871816, 38.878326 ], [ -104.871687, 38.878033 ], [ -104.871669, 38.877986 ], [ -104.871567, 38.877886 ], [ -104.871512, 38.877833 ], [ -104.871424, 38.877812 ], [ -104.871218, 38.877765 ] ] } },
{ "type": "Feature", "properties": { "cls": "shared", "highway": "path", "name": "Gateway Trail" }, "geometry": { "type": "LineString", "coordinates": [ [ -104.871867, 38.87844 ], [ -104.871735, 38.878498 ] ] } },
{ "type": "Feature", "properties": { "cls": "shared", "highway": "path", "name": "Foothills Trail" }, "geometry": { "type": "LineString", "coordinates": [ [ -104.871987, 38.878666 ], [ -104.871867, 38.87844 ] ] } },
{ "type": "Feature", "properties": { "cls": "shared", "highway": "path", "name": "Gateway Trail" }, "geometry": { "type": "LineString", "coordinates": [ [ -104.871735, 38.878498 ], [ -104.871633, 38.878651 ], [ -104.871419, 38.878779 ] ] } },
{ "type": "Feature", "properties": { "cls": "painted", "highway": "unclassified", "name": "Juniper Way Loop" }, "geometry": { "type": "LineString", "coordinates": [ [ -104.877973, 38.877187 ], [ -104.877974, 38.877194 ], [ -104.878, 38.8774 ], [ -104.878077, 38.877841 ], [ -104.878118, 38.878295 ], [ -104.878154, 38.878876 ], [ -104.878163, 38.87919 ], [ -104.878146, 38.879444 ], [ -104.878111, 38.879658 ], [ -104.878043, 38.879952 ], [ -104.878043, 38.880072 ], [ -104.878077, 38.880206 ], [ -104.878214, 38.8804 ], [ -104.878824, 38.881081 ], [ -104.878935, 38.881181 ], [ -104.879081, 38.881268 ], [ -104.879261, 38.881315 ], [ -104.879722, 38.8814 ], [ -104.879773, 38.881409 ], [ -104.879853, 38.881424 ], [ -104.879924, 38.881437 ], [ -104.880317, 38.881509 ], [ -104.880404, 38.881524 ], [ -104.880671, 38.881569 ], [ -104.880755, 38.881583 ], [ -104.881459, 38.881703 ], [ -104.881596, 38.881749 ], [ -104.881708, 38.881836 ], [ -104.881845, 38.881963 ], [ -104.881974, 38.882123 ], [ -104.882051, 38.882271 ], [ -104.882111, 38.882484 ], [ -104.882171, 38.882591 ], [ -104.882283, 38.882678 ], [ -104.882362, 38.8827 ], [ -104.882429, 38.882718 ], [ -104.882566, 38.882725 ], [ -104.882703, 38.882678 ], [ -104.882755, 38.882625 ], [ -104.882798, 38.882531 ], [ -104.882798, 38.882417 ], [ -104.882772, 38.882277 ], [ -104.882721, 38.882043 ], [ -104.882712, 38.881916 ], [ -104.882755, 38.881649 ], [ -104.882746, 38.881549 ], [ -104.882707, 38.881434 ], [ -104.882703, 38.881422 ], [ -104.882635, 38.881242 ], [ -104.882626, 38.881108 ], [ -104.882643, 38.881018 ], [ -104.882652, 38.880974 ], [ -104.882772, 38.88074 ], [ -104.882824, 38.8806 ], [ -104.882918, 38.880433 ], [ -104.883064, 38.88032 ], [ -104.883235, 38.880226 ], [ -104.883399, 38.880173 ], [ -104.883613, 38.880173 ], [ -104.883708, 38.880179 ], [ -104.883768, 38.880152 ], [ -104.883819, 38.880079 ], [ -104.883828, 38.879965 ], [ -104.883785, 38.879792 ], [ -104.883639, 38.879498 ], [ -104.883519, 38.879284 ], [ -104.883467, 38.879207 ], [ -104.883433, 38.879157 ], [ -104.883407, 38.879017 ], [ -104.883353, 38.878147 ], [ -104.883338, 38.877757 ], [ -104.883317, 38.877303 ], [ -104.883292, 38.876742 ] ] } },
{ "type": "Feature", "properties": { "cls": "shared", "highway": "footway", "name": null }, "geometry": { "type": "LineString", "coordinates": [ [ -104.880065, 38.8806 ], [ -104.88004, 38.880628 ], [ -104.880022, 38.880648 ], [ -104.880005, 38.880664 ], [ -104.879983, 38.880685 ], [ -104.880015, 38.880721 ], [ -104.88006, 38.880723 ], [ -104.88009, 38.880721 ], [ -104.880111, 38.880715 ], [ -104.88013, 38.8807 ], [ -104.880146, 38.88068 ] ] } },
{ "type": "Feature", "properties": { "cls": "shared", "highway": "footway", "name": null }, "geometry": { "type": "LineString", "coordinates": [ [ -104.879963, 38.880898 ], [ -104.879845, 38.88088 ], [ -104.879825, 38.880875 ], [ -104.879801, 38.880861 ], [ -104.87979, 38.880843 ], [ -104.879788, 38.880828 ], [ -104.879795, 38.880807 ], [ -104.879805, 38.880792 ], [ -104.879853, 38.880763 ] ] } },
{ "type": "Feature", "properties": { "cls": "shared", "highway": "path", "name": "Gateway Trail" }, "geometry": { "type": "LineString", "coordinates": [ [ -104.871419, 38.878779 ], [ -104.871376, 38.878789 ] ] } },
{ "type": "Feature", "properties": { "cls": "shared", "highway": "path", "name": "Foothills Trail" }, "geometry": { "type": "LineString", "coordinates": [ [ -104.873721, 38.883034 ], [ -104.873688, 38.882929 ], [ -104.873653, 38.88263 ], [ -104.873636, 38.882169 ], [ -104.873507, 38.881762 ], [ -104.873267, 38.88118 ], [ -104.872967, 38.880479 ], [ -104.872675, 38.879964 ], [ -104.8723, 38.87916 ], [ -104.872193, 38.878953 ], [ -104.871987, 38.878666 ] ] } },
{ "type": "Feature", "properties": { "cls": "shared", "highway": "path", "name": "Foothills Trail" }, "geometry": { "type": "LineString", "coordinates": [ [ -104.874594, 38.887045 ], [ -104.874552, 38.886982 ], [ -104.874537, 38.88696 ], [ -104.874481, 38.886767 ], [ -104.874491, 38.886661 ], [ -104.87453, 38.886474 ], [ -104.874533, 38.886361 ], [ -104.874525, 38.886325 ], [ -104.87451, 38.886133 ], [ -104.874591, 38.88594 ], [ -104.874639, 38.88575 ], [ -104.874635, 38.885691 ], [ -104.874448, 38.885204 ], [ -104.874398, 38.88495 ], [ -104.87442, 38.884797 ], [ -104.874506, 38.884627 ], [ -104.874523, 38.88453 ], [ -104.874503, 38.884448 ], [ -104.874251, 38.88402 ], [ -104.874139, 38.883838 ], [ -104.874088, 38.883575 ], [ -104.874014, 38.883443 ], [ -104.873901, 38.883303 ], [ -104.873811, 38.883156 ], [ -104.873751, 38.88309 ], [ -104.873721, 38.883034 ] ] } }
]
}
