{
"type": "FeatureCollection",
"name": "158-new-orleans-city-park",
"crs": { "type": "name", "properties": { "name": "urn:ogc:def:crs:OGC:1.3:CRS84" } },
"xy_coordinate_resolution": 1e-06,
"features": [
{ "type": "Feature", "properties": { "cls": "sharrow", "highway": "unclassified", "name": "Dreyfous Drive" }, "geometry": { "type": "LineString", "coordinates": [ [ -90.090386, 29.984261 ], [ -90.090259, 29.984442 ] ] } },
{ "type": "Feature", "properties": { "cls": "shared", "highway": "cycleway", "name": null }, "geometry": { "type": "LineString", "coordinates": [ [ -90.088061, 29.989456 ], [ -90.08812, 29.989469 ], [ -90.088174, 29.989521 ], [ -90.088209, 29.989591 ], [ -90.088259, 29.98962 ], [ -90.088442, 29.989666 ] ] } },
{ "type": "Feature", "properties": { "cls": "shared", "highway": "cycleway", "name": null }, "geometry": { "type": "LineString", "coordinates": [ [ -90.089996, 29.984424 ], [ -90.090013, 29.984432 ], [ -90.090036, 29.984419 ], [ -90.090111, 29.984441 ], [ -90.090156, 29.984466 ], [ -90.0903, 29.985033 ] ] } },
{ "type": "Feature", "properties": { "cls": "sharrow", "highway": "unclassified", "name": "Lelong Drive" }, "geometry": { "type": "LineString", "coordinates": [ [ -90.090042, 29.984354 ], [ -90.090069, 29.984363 ], [ -90.09007, 29.984363 ], [ -90.090259, 29.984442 ], [ -90.090423, 29.984519 ], [ -90.090519, 29.984576 ], [ -90.092867, 29.986206 ] ] } },
{ "type": "Feature", "properties": { "cls": "separated", "highway": "cycleway", "name": null }, "geometry": { "type": "LineString", "coordinates": [ [ -90.091599, 29.986005 ], [ -90.09152, 29.98608 ], [ -90.091424, 29.986127 ], [ -90.091313, 29.986149 ], [ -90.091197, 29.986141 ], [ -90.091107, 29.986111 ], [ -90.091038, 29.986067 ], [ -90.090954, 29.985988 ] ] } },
{ "type": "Feature", "properties": { "cls": "separated", "highway": "cycleway", "name": "Big Lake Path" }, "geometry": { "type": "LineString", "coordinates": [ [ -90.090954, 29.985988 ], [ -90.090919, 29.985928 ], [ -90.090895, 29.98579 ], [ -90.090888, 29.985637 ], [ -90.090829, 29.985512 ], [ -90.090712, 29.985394 ], [ -90.090633, 29.9853 ], [ -90.090579, 29.985234 ], [ -90.090523, 29.985148 ], [ -90.090459, 29.985061 ], [ -90.090384, 29.985035 ], [ -90.0903, 29.985033 ], [ -90.090204, 29.985063 ], [ -90.090161, 29.985108 ], [ -90.090138, 29.985168 ], [ -90.090108, 29.985306 ], [ -90.090059, 29.985415 ], [ -90.089994, 29.985499 ], [ -90.089862, 29.985636 ], [ -90.089785, 29.985757 ], [ -90.08977, 29.985877 ], [ -90.089728, 29.986052 ], [ -90.089656, 29.986195 ], [ -90.089577, 29.986276 ], [ -90.089566, 29.986288 ], [ -90.089532, 29.986322 ], [ -90.089416, 29.98643 ], [ -90.089311, 29.986558 ], [ -90.089178, 29.986749 ], [ -90.089084, 29.986902 ], [ -90.089015, 29.986966 ], [ -90.088937, 29.987013 ], [ -90.088837, 29.987066 ], [ -90.08875, 29.987148 ], [ -90.088701, 29.987223 ], [ -90.088672, 29.98728 ], [ -90.088656, 29.987348 ], [ -90.088666, 29.987407 ], [ -90.088687, 29.987471 ], [ -90.088734, 29.987521 ], [ -90.088807, 29.987569 ], [ -90.088874, 29.9876 ], [ -90.088963, 29.987639 ], [ -90.089061, 29.987667 ], [ -90.089094, 29.98767 ], [ -90.089132, 29.987669 ], [ -90.089198, 29.987658 ], [ -90.089259, 29.987631 ], [ -90.089331, 29.987578 ], [ -90.089412, 29.987512 ], [ -90.089536, 29.987431 ], [ -90.08965, 29.987375 ], [ -90.089755, 29.987336 ], [ -90.08985, 29.987314 ], [ -90.089873, 29.98731 ], [ -90.089948, 29.987296 ], [ -90.090074, 29.987295 ], [ -90.0901, 29.987294 ], [ -90.090198, 29.9873 ], [ -90.090293, 29.987311 ], [ -90.090389, 29.987332 ], [ -90.090485, 29.987364 ], [ -90.090533, 29.987386 ], [ -90.090584, 29.987408 ], [ -90.090692, 29.987466 ], [ -90.09081, 29.987541 ], [ -90.090874, 29.98759 ], [ -90.090938, 29.987651 ], [ -90.09101, 29.987708 ], [ -90.091074, 29.987756 ], [ -90.091142, 29.987787 ], [ -90.091208, 29.987806 ], [ -90.091289, 29.987823 ], [ -90.091385, 29.987824 ], [ -90.09146, 29.987815 ], [ -90.091524, 29.987794 ], [ -90.091554, 29.987763 ], [ -90.091588, 29.987729 ], [ -90.091631, 29.987672 ], [ -90.091682, 29.987629 ], [ -90.091819, 29.987567 ], [ -90.091908, 29.987529 ], [ -90.091991, 29.987491 ], [ -90.092083, 29.987454 ], [ -90.09216, 29.98744 ], [ -90.092236, 29.987456 ], [ -90.09235, 29.987501 ], [ -90.092433, 29.987408 ] ] } },
{ "type": "Feature", "properties": { "cls": "shared", "highway": "cycleway", "name": null }, "geometry": { "type": "LineString", "coordinates": [ [ -90.089061, 29.987667 ], [ -90.089052, 29.987757 ], [ -90.089046, 29.987827 ], [ -90.089033, 29.987954 ], [ -90.089012, 29.988052 ], [ -90.088966, 29.988155 ], [ -90.088917, 29.988264 ], [ -90.088884, 29.988362 ], [ -90.088878, 29.988423 ], [ -90.088882, 29.988509 ] ] } },
{ "type": "Feature", "properties": { "cls": "separated", "highway": "path", "name": "Festival Grounds Path" }, "geometry": { "type": "LineString", "coordinates": [ [ -90.092306, 29.992229 ], [ -90.092394, 29.992201 ], [ -90.092535, 29.992069 ], [ -90.092573, 29.992027 ], [ -90.092629, 29.991957 ], [ -90.092702, 29.991862 ], [ -90.092771, 29.991738 ], [ -90.092791, 29.991676 ], [ -90.092797, 29.991616 ], [ -90.092796, 29.991561 ], [ -90.092795, 29.991514 ], [ -90.092781, 29.991414 ], [ -90.092757, 29.991335 ], [ -90.092704, 29.991222 ], [ -90.092649, 29.991125 ], [ -90.092562, 29.99102 ], [ -90.092486, 29.990954 ], [ -90.092375, 29.990864 ], [ -90.092313, 29.9908 ], [ -90.092261, 29.99072 ], [ -90.092224, 29.990625 ], [ -90.092207, 29.99056 ], [ -90.09221, 29.990514 ], [ -90.092229, 29.990467 ], [ -90.092282, 29.990377 ], [ -90.092314, 29.990319 ], [ -90.092352, 29.990199 ], [ -90.09237, 29.990092 ], [ -90.092361, 29.990037 ], [ -90.092339, 29.989993 ], [ -90.092308, 29.989963 ], [ -90.09224, 29.989925 ], [ -90.092176, 29.989889 ], [ -90.092107, 29.989854 ], [ -90.092039, 29.989838 ], [ -90.091916, 29.989832 ], [ -90.091843, 29.989825 ], [ -90.091748, 29.989805 ], [ -90.091648, 29.989764 ], [ -90.091498, 29.989695 ], [ -90.091349, 29.989635 ], [ -90.091138, 29.989578 ], [ -90.090937, 29.989515 ], [ -90.090832, 29.989498 ], [ -90.090658, 29.989484 ], [ -90.090556, 29.989464 ], [ -90.090479, 29.98942 ], [ -90.090352, 29.989323 ], [ -90.090309, 29.989278 ], [ -90.090283, 29.989229 ], [ -90.090252, 29.989155 ], [ -90.090207, 29.989091 ], [ -90.090142, 29.989025 ], [ -90.089949, 29.98891 ], [ -90.089846, 29.988849 ], [ -90.089773, 29.988792 ], [ -90.089761, 29.988782 ], [ -90.089638, 29.988678 ], [ -90.089541, 29.9886 ], [ -90.089459, 29.98855 ], [ -90.089385, 29.988525 ], [ -90.089309, 29.988514 ], [ -90.089195, 29.988498 ], [ -90.0891, 29.988487 ], [ -90.089015, 29.98849 ], [ -90.088882, 29.988509 ], [ -90.088804, 29.988546 ], [ -90.088751, 29.988588 ], [ -90.088698, 29.988652 ], [ -90.088657, 29.988724 ], [ -90.088635, 29.988797 ], [ -90.088622, 29.988898 ], [ -90.088592, 29.989102 ], [ -90.088564, 29.989246 ], [ -90.088534, 29.989427 ], [ -90.088517, 29.989501 ], [ -90.088483, 29.989587 ], [ -90.088442, 29.989666 ], [ -90.088392, 29.989763 ], [ -90.088248, 29.990051 ], [ -90.088059, 29.990465 ], [ -90.087932, 29.990824 ], [ -90.087862, 29.990995 ], [ -90.0878, 29.991191 ], [ -90.087804, 29.991316 ], [ -90.087834, 29.991432 ], [ -90.087879, 29.991557 ], [ -90.087975, 29.99171 ], [ -90.088083, 29.991796 ], [ -90.088229, 29.991844 ], [ -90.088413, 29.991859 ], [ -90.088645, 29.99187 ], [ -90.088838, 29.991925 ], [ -90.089074, 29.99199 ], [ -90.089279, 29.992009 ], [ -90.089531, 29.991989 ], [ -90.089795, 29.991956 ], [ -90.090068, 29.991933 ], [ -90.090567, 29.991939 ], [ -90.091057, 29.99196 ], [ -90.091257, 29.991986 ], [ -90.091429, 29.992052 ], [ -90.091484, 29.992074 ], [ -90.091695, 29.992132 ], [ -90.091943, 29.992196 ], [ -90.092015, 29.992215 ], [ -90.092184, 29.992237 ], [ -90.092306, 29.992229 ] ] } },
{ "type": "Feature", "properties": { "cls": "sharrow", "highway": "tertiary", "name": "Harrison Avenue" }, "geometry": { "type": "LineString", "coordinates": [ [ -90.089599, 30.000033 ], [ -90.089288, 29.999864 ] ] } },
{ "type": "Feature", "properties": { "cls": "painted", "highway": "tertiary", "name": "Harrison Avenue" }, "geometry": { "type": "LineString", "coordinates": [ [ -90.091767, 30.001189 ], [ -90.089599, 30.000033 ] ] } },
{ "type": "Feature", "properties": { "cls": "painted", "highway": "tertiary", "name": "Harrison Avenue" }, "geometry": { "type": "LineString", "coordinates": [ [ -90.086528, 29.999262 ], [ -90.086407, 29.999262 ], [ -90.086308, 29.999266 ], [ -90.086284, 29.999267 ] ] } },
{ "type": "Feature", "properties": { "cls": "painted", "highway": "tertiary", "name": "Harrison Avenue" }, "geometry": { "type": "LineString", "coordinates": [ [ -90.087272, 29.999384 ], [ -90.086929, 29.999316 ], [ -90.086724, 29.999283 ], [ -90.086528, 29.999262 ] ] } },
{ "type": "Feature", "properties": { "cls": "painted", "highway": "tertiary", "name": "Harrison Avenue" }, "geometry": { "type": "LineString", "coordinates": [ [ -90.086565, 29.99937 ], [ -90.086721, 29.999375 ], [ -90.087272, 29.999384 ] ] } },
{ "type": "Feature", "properties": { "cls": "painted", "highway": "tertiary", "name": "Harrison Avenue" }, "geometry": { "type": "LineString", "coordinates": [ [ -90.086296, 29.99938 ], [ -90.086315, 29.999379 ], [ -90.086565, 29.99937 ] ] } },
{ "type": "Feature", "properties": { "cls": "separated", "highway": "cycleway", "name": null }, "geometry": { "type": "LineString", "coordinates": [ [ -90.087584, 29.999406 ], [ -90.087476, 29.999455 ], [ -90.087422, 29.999471 ], [ -90.087352, 29.999471 ], [ -90.087296, 29.999467 ] ] } },
{ "type": "Feature", "properties": { "cls": "painted", "highway": "tertiary", "name": "Harrison Avenue" }, "geometry": { "type": "LineString", "coordinates": [ [ -90.089288, 29.999864 ], [ -90.088641, 29.999631 ], [ -90.088498, 29.999579 ], [ -90.087688, 29.999414 ], [ -90.087584, 29.999406 ], [ -90.087272, 29.999384 ] ] } },
{ "type": "Feature", "properties": { "cls": "painted", "highway": "tertiary", "name": "Filmore Avenue" }, "geometry": { "type": "LineString", "coordinates": [ [ -90.0874, 30.011245 ], [ -90.086924, 30.011146 ], [ -90.086673, 30.011103 ] ] } },
{ "type": "Feature", "properties": { "cls": "painted", "highway": "tertiary", "name": "Filmore Avenue" }, "geometry": { "type": "LineString", "coordinates": [ [ -90.086646, 30.011247 ], [ -90.087099, 30.011243 ], [ -90.0874, 30.011245 ] ] } },
{ "type": "Feature", "properties": { "cls": "separated", "highway": "cycleway", "name": "Marconi Drive Bike Path" }, "geometry": { "type": "LineString", "coordinates": [ [ -90.102103, 29.984146 ], [ -90.102089, 29.984259 ], [ -90.101954, 29.985418 ], [ -90.101946, 29.985484 ], [ -90.101941, 29.98553 ], [ -90.101838, 29.98639 ], [ -90.10183, 29.986456 ], [ -90.101828, 29.98647 ], [ -90.101672, 29.987721 ], [ -90.10153, 29.989042 ], [ -90.101522, 29.989114 ], [ -90.101515, 29.989177 ], [ -90.101513, 29.989197 ], [ -90.10145, 29.989775 ], [ -90.101366, 29.990422 ], [ -90.101357, 29.990498 ], [ -90.101355, 29.990511 ], [ -90.10126, 29.991323 ], [ -90.101253, 29.991388 ], [ -90.101233, 29.991557 ], [ -90.101179, 29.991908 ], [ -90.101135, 29.992049 ], [ -90.101103, 29.992141 ], [ -90.100776, 29.992633 ], [ -90.100555, 29.993094 ], [ -90.100525, 29.993217 ], [ -90.100459, 29.993494 ], [ -90.10041, 29.994002 ], [ -90.100283, 29.995063 ], [ -90.100223, 29.995099 ] ] } },
{ "type": "Feature", "properties": { "cls": "separated", "highway": "cycleway", "name": null }, "geometry": { "type": "LineString", "coordinates": [ [ -90.100107, 29.99627 ], [ -90.100196, 29.99616 ], [ -90.100236, 29.995949 ], [ -90.100282, 29.995691 ], [ -90.100336, 29.995391 ], [ -90.100398, 29.99512 ], [ -90.100508, 29.99444 ], [ -90.100553, 29.994094 ], [ -90.100563, 29.993926 ], [ -90.100589, 29.993758 ], [ -90.100637, 29.993467 ], [ -90.100751, 29.99317 ], [ -90.100823, 29.992981 ], [ -90.100953, 29.992738 ], [ -90.101079, 29.992577 ], [ -90.10123, 29.992439 ], [ -90.10145, 29.992243 ], [ -90.101628, 29.992048 ], [ -90.101809, 29.991768 ] ] } },
{ "type": "Feature", "properties": { "cls": "painted", "highway": "tertiary", "name": "Marconi Drive" }, "geometry": { "type": "LineString", "coordinates": [ [ -90.100619, 29.99346 ], [ -90.100701, 29.993167 ], [ -90.100833, 29.992862 ], [ -90.100917, 29.992705 ], [ -90.100971, 29.992622 ], [ -90.101124, 29.99247 ], [ -90.101358, 29.992299 ], [ -90.101459, 29.992207 ], [ -90.101569, 29.992081 ], [ -90.101809, 29.991768 ] ] } },
{ "type": "Feature", "properties": { "cls": "painted", "highway": "tertiary", "name": "Marconi Drive" }, "geometry": { "type": "LineString", "coordinates": [ [ -90.100461, 29.994171 ], [ -90.100619, 29.99346 ] ] } },
{ "type": "Feature", "properties": { "cls": "sharrow", "highway": "unclassified", "name": "Lelong Drive" }, "geometry": { "type": "LineString", "coordinates": [ [ -90.092958, 29.986081 ], [ -90.090596, 29.984444 ], [ -90.090386, 29.984261 ], [ -90.090223, 29.984126 ], [ -90.090205, 29.984111 ] ] } },
{ "type": "Feature", "properties": { "cls": "separated", "highway": "cycleway", "name": "Big Lake Path" }, "geometry": { "type": "LineString", "coordinates": [ [ -90.092629, 29.987186 ], [ -90.092663, 29.987126 ], [ -90.092635, 29.987095 ], [ -90.092623, 29.987022 ], [ -90.092628, 29.986958 ], [ -90.092653, 29.986893 ], [ -90.092699, 29.986817 ], [ -90.092731, 29.986718 ], [ -90.092737, 29.986584 ], [ -90.092694, 29.986455 ], [ -90.09267, 29.98642 ], [ -90.092632, 29.986364 ], [ -90.092524, 29.986263 ], [ -90.092327, 29.986127 ], [ -90.092172, 29.986 ], [ -90.092028, 29.98586 ], [ -90.091897, 29.985808 ], [ -90.091804, 29.985816 ], [ -90.091723, 29.985841 ], [ -90.091661, 29.9859 ], [ -90.091599, 29.986005 ] ] } },
{ "type": "Feature", "properties": { "cls": "separated", "highway": "cycleway", "name": "Big Lake Path" }, "geometry": { "type": "LineString", "coordinates": [ [ -90.092433, 29.987408 ], [ -90.092629, 29.987186 ] ] } },
{ "type": "Feature", "properties": { "cls": "separated", "highway": "cycleway", "name": null }, "geometry": { "type": "LineString", "coordinates": [ [ -90.09296, 29.9923 ], [ -90.092804, 29.992259 ], [ -90.092701, 29.992209 ], [ -90.092535, 29.992069 ] ] } },
{ "type": "Feature", "properties": { "cls": "sharrow", "highway": "unclassified", "name": "Henry Thomas Drive" }, "geometry": { "type": "LineString", "coordinates": [ [ -90.093605, 29.990507 ], [ -90.093622, 29.990671 ], [ -90.093621, 29.990709 ], [ -90.09362, 29.990764 ], [ -90.093619, 29.990802 ], [ -90.093607, 29.990921 ], [ -90.093578, 29.991032 ], [ -90.093537, 29.991135 ], [ -90.093532, 29.991148 ], [ -90.093514, 29.991187 ], [ -90.093475, 29.991276 ], [ -90.093406, 29.991381 ], [ -90.093324, 29.991499 ], [ -90.093234, 29.991642 ], [ -90.093138, 29.991814 ], [ -90.093081, 29.99193 ], [ -90.092988, 29.992169 ], [ -90.09296, 29.9923 ], [ -90.092935, 29.99255 ], [ -90.092929, 29.992584 ], [ -90.0929, 29.992759 ], [ -90.092841, 29.993361 ], [ -90.092753, 29.994131 ] ] } },
{ "type": "Feature", "properties": { "cls": "shared", "highway": "cycleway", "name": null }, "geometry": { "type": "LineString", "coordinates": [ [ -90.093037, 30.001139 ], [ -90.092972, 30.001109 ], [ -90.092928, 30.001089 ], [ -90.092881, 30.001116 ], [ -90.092806, 30.001149 ], [ -90.092687, 30.001186 ], [ -90.092517, 30.001227 ], [ -90.092378, 30.001249 ], [ -90.092237, 30.001252 ], [ -90.092117, 30.001246 ], [ -90.092, 30.001225 ], [ -90.091892, 30.001203 ], [ -90.091767, 30.001189 ] ] } },
{ "type": "Feature", "properties": { "cls": "shared", "highway": "cycleway", "name": null }, "geometry": { "type": "LineString", "coordinates": [ [ -90.093582, 30.002172 ], [ -90.09339, 30.001942 ], [ -90.093223, 30.001746 ], [ -90.093168, 30.001668 ], [ -90.093137, 30.001592 ], [ -90.093116, 30.001504 ], [ -90.093121, 30.001402 ], [ -90.093116, 30.001324 ], [ -90.093125, 30.001248 ], [ -90.093111, 30.001197 ], [ -90.093071, 30.001164 ], [ -90.093037, 30.001139 ] ] } },
{ "type": "Feature", "properties": { "cls": "shared", "highway": "cycleway", "name": null }, "geometry": { "type": "LineString", "coordinates": [ [ -90.091767, 30.001189 ], [ -90.091891, 30.001336 ], [ -90.091955, 30.001371 ], [ -90.092129, 30.001503 ], [ -90.092178, 30.001591 ], [ -90.092215, 30.001652 ], [ -90.092234, 30.001719 ], [ -90.092234, 30.001752 ], [ -90.092247, 30.001817 ], [ -90.09228, 30.00188 ], [ -90.092363, 30.001945 ], [ -90.09247, 30.002017 ], [ -90.09258, 30.002049 ], [ -90.092738, 30.002065 ], [ -90.092854, 30.002054 ], [ -90.092998, 30.002054 ], [ -90.093167, 30.002063 ], [ -90.09326, 30.002086 ], [ -90.093344, 30.002107 ], [ -90.093582, 30.002172 ] ] } },
{ "type": "Feature", "properties": { "cls": "painted", "highway": "tertiary", "name": "Harrison Avenue" }, "geometry": { "type": "LineString", "coordinates": [ [ -90.094611, 30.002721 ], [ -90.094532, 30.002679 ], [ -90.094446, 30.002633 ], [ -90.094217, 30.002511 ], [ -90.093582, 30.002172 ] ] } },
{ "type": "Feature", "properties": { "cls": "sharrow", "highway": "tertiary", "name": "Marconi Drive" }, "geometry": { "type": "LineString", "coordinates": [ [ -90.100461, 29.994171 ], [ -90.100429, 29.994448 ], [ -90.100418, 29.994543 ], [ -90.100335, 29.995113 ], [ -90.100251, 29.995605 ] ] } },
{ "type": "Feature", "properties": { "cls": "painted", "highway": "tertiary", "name": "Marconi Drive" }, "geometry": { "type": "LineString", "coordinates": [ [ -90.100251, 29.995605 ], [ -90.100175, 29.995968 ] ] } },
{ "type": "Feature", "properties": { "cls": "shared", "highway": "cycleway", "name": null }, "geometry": { "type": "LineString", "coordinates": [ [ -90.100223, 29.995099 ], [ -90.100197, 29.995173 ], [ -90.100158, 29.995245 ], [ -90.100112, 29.995258 ], [ -90.100091, 29.995436 ], [ -90.100083, 29.995462 ], [ -90.100044, 29.995512 ], [ -90.100001, 29.995554 ], [ -90.099975, 29.995603 ], [ -90.099954, 29.995695 ], [ -90.099936, 29.99585 ], [ -90.099943, 29.996018 ], [ -90.099918, 29.996144 ], [ -90.099879, 29.996279 ], [ -90.099824, 29.996414 ], [ -90.099796, 29.996476 ], [ -90.099802, 29.996626 ], [ -90.099767, 29.996803 ], [ -90.099728, 29.997224 ], [ -90.099721, 29.997301 ], [ -90.099623, 29.997425 ], [ -90.099569, 29.99749 ], [ -90.099534, 29.997554 ], [ -90.099454, 29.997818 ], [ -90.099458, 29.997898 ], [ -90.09942, 29.997964 ], [ -90.099346, 29.9981 ], [ -90.09927, 29.998237 ], [ -90.099242, 29.998318 ], [ -90.099211, 29.998495 ], [ -90.099188, 29.998572 ], [ -90.099155, 29.998622 ], [ -90.099138, 29.998897 ], [ -90.099116, 29.999015 ], [ -90.09905, 29.999326 ], [ -90.099014, 29.999441 ], [ -90.098983, 29.999504 ], [ -90.098966, 29.999566 ], [ -90.098941, 29.999724 ], [ -90.098933, 29.999804 ], [ -90.098872, 29.999961 ], [ -90.098868, 30.000044 ], [ -90.098855, 30.000104 ], [ -90.098848, 30.000223 ], [ -90.09885, 30.000364 ], [ -90.098779, 30.000958 ], [ -90.098729, 30.001106 ], [ -90.09872, 30.001164 ], [ -90.098701, 30.001301 ], [ -90.098662, 30.001834 ], [ -90.098636, 30.002288 ], [ -90.098666, 30.002619 ], [ -90.09864, 30.002749 ], [ -90.098636, 30.002863 ], [ -90.09864, 30.002952 ], [ -90.098656, 30.002979 ], [ -90.098684, 30.00301 ], [ -90.098679, 30.003073 ], [ -90.098696, 30.003203 ], [ -90.098699, 30.003568 ], [ -90.098724, 30.003728 ], [ -90.098735, 30.003857 ], [ -90.098755, 30.003919 ], [ -90.098794, 30.00394 ] ] } },
{ "type": "Feature", "properties": { "cls": "sharrow", "highway": "tertiary", "name": "Marconi Drive" }, "geometry": { "type": "LineString", "coordinates": [ [ -90.100175, 29.995968 ], [ -90.100107, 29.99627 ], [ -90.099939, 29.997009 ], [ -90.09987, 29.997256 ], [ -90.099829, 29.997405 ], [ -90.099191, 29.999531 ], [ -90.09905, 30.000034 ], [ -90.09896, 30.000635 ], [ -90.098842, 30.001721 ], [ -90.098839, 30.002128 ], [ -90.098836, 30.002558 ], [ -90.098834, 30.003002 ], [ -90.098834, 30.003605 ], [ -90.098871, 30.003936 ], [ -90.098877, 30.003988 ], [ -90.098886, 30.004068 ], [ -90.098958, 30.004724 ], [ -90.099004, 30.005203 ], [ -90.099021, 30.005535 ], [ -90.099032, 30.00596 ], [ -90.099029, 30.006201 ], [ -90.099018, 30.006481 ], [ -90.098981, 30.006973 ], [ -90.098912, 30.007697 ], [ -90.098809, 30.008394 ], [ -90.098744, 30.008832 ], [ -90.098731, 30.008907 ], [ -90.098453, 30.010505 ], [ -90.098284, 30.011367 ], [ -90.098276, 30.011408 ], [ -90.09827, 30.011438 ] ] } },
{ "type": "Feature", "properties": { "cls": "painted", "highway": "tertiary", "name": "Harrison Avenue" }, "geometry": { "type": "LineString", "coordinates": [ [ -90.098877, 30.003988 ], [ -90.098798, 30.00399 ], [ -90.098406, 30.003999 ], [ -90.097873, 30.003962 ] ] } },
{ "type": "Feature", "properties": { "cls": "shared", "highway": "cycleway", "name": "Marconi Multi-Use Path" }, "geometry": { "type": "LineString", "coordinates": [ [ -90.098794, 30.00394 ], [ -90.098798, 30.00399 ], [ -90.098804, 30.004072 ] ] } },
{ "type": "Feature", "properties": { "cls": "sharrow", "highway": "tertiary", "name": "Harrison Avenue" }, "geometry": { "type": "LineString", "coordinates": [ [ -90.094861, 30.002855 ], [ -90.094611, 30.002721 ] ] } },
{ "type": "Feature", "properties": { "cls": "painted", "highway": "tertiary", "name": "Harrison Avenue" }, "geometry": { "type": "LineString", "coordinates": [ [ -90.096126, 30.0035 ], [ -90.095051, 30.002952 ], [ -90.094992, 30.002922 ], [ -90.094861, 30.002855 ] ] } },
{ "type": "Feature", "properties": { "cls": "sharrow", "highway": "tertiary", "name": "Harrison Avenue" }, "geometry": { "type": "LineString", "coordinates": [ [ -90.09642, 30.00362 ], [ -90.096126, 30.0035 ] ] } },
{ "type": "Feature", "properties": { "cls": "painted", "highway": "tertiary", "name": "Harrison Avenue" }, "geometry": { "type": "LineString", "coordinates": [ [ -90.097218, 30.003851 ], [ -90.096819, 30.00374 ], [ -90.09642, 30.00362 ] ] } },
{ "type": "Feature", "properties": { "cls": "painted", "highway": "tertiary", "name": "Harrison Avenue" }, "geometry": { "type": "LineString", "coordinates": [ [ -90.097873, 30.003962 ], [ -90.097218, 30.003851 ] ] } },
{ "type": "Feature", "properties": { "cls": "sharrow", "highway": "tertiary", "name": "Filmore Avenue" }, "geometry": { "type": "LineString", "coordinates": [ [ -90.097124, 30.011345 ], [ -90.097249, 30.011358 ], [ -90.097645, 30.011394 ] ] } },
{ "type": "Feature", "properties": { "cls": "sharrow", "highway": "tertiary", "name": "Filmore Avenue" }, "geometry": { "type": "LineString", "coordinates": [ [ -90.098276, 30.011408 ], [ -90.098245, 30.011404 ], [ -90.098191, 30.011402 ], [ -90.098045, 30.011397 ], [ -90.097645, 30.011394 ] ] } },
{ "type": "Feature", "properties": { "cls": "sharrow", "highway": "tertiary", "name": "Filmore Avenue" }, "geometry": { "type": "LineString", "coordinates": [ [ -90.097645, 30.011394 ], [ -90.098023, 30.01145 ], [ -90.098171, 30.011475 ], [ -90.098215, 30.011483 ], [ -90.09826, 30.011485 ] ] } },
{ "type": "Feature", "properties": { "cls": "painted", "highway": "tertiary", "name": "Filmore Avenue" }, "geometry": { "type": "LineString", "coordinates": [ [ -90.0874, 30.011245 ], [ -90.087468, 30.011255 ], [ -90.087771, 30.011302 ], [ -90.088177, 30.011395 ], [ -90.08839, 30.011462 ], [ -90.088649, 30.011561 ], [ -90.088823, 30.01163 ], [ -90.088886, 30.011653 ], [ -90.089161, 30.011771 ], [ -90.089619, 30.011979 ], [ -90.08993, 30.012087 ], [ -90.090176, 30.012158 ], [ -90.090408, 30.012211 ], [ -90.090681, 30.012254 ], [ -90.090966, 30.012281 ], [ -90.091189, 30.012298 ], [ -90.091401, 30.012296 ], [ -90.09164, 30.012287 ], [ -90.091954, 30.012251 ], [ -90.092268, 30.012192 ], [ -90.092596, 30.01211 ], [ -90.093467, 30.011821 ], [ -90.09412, 30.011594 ], [ -90.094712, 30.011405 ], [ -90.09506, 30.011318 ], [ -90.095205, 30.011292 ], [ -90.095382, 30.011273 ], [ -90.095546, 30.011261 ], [ -90.095757, 30.011253 ], [ -90.09593, 30.011252 ], [ -90.096184, 30.011256 ], [ -90.09644, 30.011277 ], [ -90.096899, 30.011323 ], [ -90.097124, 30.011345 ] ] } },
{ "type": "Feature", "properties": { "cls": "shared", "highway": "cycleway", "name": "Marconi Trail" }, "geometry": { "type": "LineString", "coordinates": [ [ -90.098154, 30.011524 ], [ -90.098123, 30.011617 ], [ -90.098051, 30.011694 ], [ -90.097991, 30.011783 ], [ -90.097953, 30.011957 ], [ -90.097841, 30.012518 ], [ -90.097817, 30.012696 ], [ -90.097751, 30.012894 ], [ -90.097743, 30.012991 ], [ -90.097704, 30.013143 ], [ -90.097686, 30.013239 ], [ -90.097679, 30.013316 ], [ -90.097704, 30.013413 ], [ -90.097698, 30.013482 ], [ -90.097626, 30.013643 ], [ -90.09759, 30.01371 ], [ -90.097576, 30.013802 ], [ -90.097584, 30.01386 ], [ -90.09752, 30.014017 ], [ -90.097492, 30.014126 ], [ -90.097461, 30.014319 ], [ -90.097425, 30.014412 ], [ -90.097397, 30.014466 ], [ -90.097333, 30.01463 ], [ -90.097306, 30.014733 ], [ -90.097298, 30.014849 ], [ -90.097228, 30.014935 ], [ -90.097197, 30.014987 ], [ -90.097191, 30.015106 ], [ -90.09714, 30.01523 ], [ -90.097112, 30.015339 ], [ -90.097087, 30.015432 ], [ -90.096998, 30.015642 ], [ -90.096919, 30.01589 ], [ -90.096844, 30.016125 ], [ -90.09679, 30.016426 ], [ -90.096722, 30.016733 ], [ -90.096675, 30.016847 ], [ -90.096668, 30.016973 ], [ -90.096646, 30.017069 ], [ -90.096613, 30.017273 ], [ -90.096574, 30.017406 ], [ -90.096552, 30.017497 ], [ -90.096553, 30.017552 ], [ -90.096528, 30.017699 ], [ -90.096474, 30.017883 ], [ -90.096406, 30.018031 ], [ -90.096369, 30.018285 ], [ -90.096366, 30.01834 ], [ -90.096359, 30.018408 ] ] } },
{ "type": "Feature", "properties": { "cls": "shared", "highway": "cycleway", "name": "Marconi Trail" }, "geometry": { "type": "LineString", "coordinates": [ [ -90.098804, 30.004072 ], [ -90.098778, 30.004168 ], [ -90.098738, 30.004259 ], [ -90.098733, 30.004362 ], [ -90.098751, 30.004431 ], [ -90.098783, 30.004709 ], [ -90.098743, 30.004886 ], [ -90.098762, 30.005183 ], [ -90.098755, 30.005277 ], [ -90.098786, 30.005432 ], [ -90.0988, 30.005651 ], [ -90.098782, 30.005815 ], [ -90.098722, 30.00599 ], [ -90.09867, 30.006092 ], [ -90.098694, 30.006191 ], [ -90.098751, 30.006281 ], [ -90.098765, 30.006342 ], [ -90.098766, 30.006487 ], [ -90.098745, 30.00666 ], [ -90.098731, 30.007051 ], [ -90.098662, 30.00746 ], [ -90.098611, 30.007751 ], [ -90.098548, 30.008124 ], [ -90.098525, 30.008365 ], [ -90.09845, 30.008654 ], [ -90.098429, 30.008752 ], [ -90.098422, 30.009008 ], [ -90.098355, 30.009542 ], [ -90.098275, 30.009945 ], [ -90.098208, 30.010229 ], [ -90.098141, 30.010423 ], [ -90.098124, 30.010582 ], [ -90.098152, 30.010757 ], [ -90.098158, 30.010945 ], [ -90.09813, 30.011056 ], [ -90.098118, 30.011123 ], [ -90.098143, 30.011188 ], [ -90.098194, 30.01127 ], [ -90.098203, 30.011313 ], [ -90.098198, 30.011354 ] ] } },
{ "type": "Feature", "properties": { "cls": "shared", "highway": "cycleway", "name": null }, "geometry": { "type": "LineString", "coordinates": [ [ -90.098154, 30.011524 ], [ -90.098171, 30.011475 ], [ -90.098186, 30.011433 ], [ -90.098191, 30.011402 ], [ -90.098198, 30.011354 ] ] } },
{ "type": "Feature", "properties": { "cls": "sharrow", "highway": "tertiary", "name": "Marconi Drive" }, "geometry": { "type": "LineString", "coordinates": [ [ -90.09827, 30.011438 ], [ -90.09826, 30.011485 ], [ -90.098249, 30.011533 ], [ -90.097853, 30.013369 ], [ -90.097487, 30.014762 ], [ -90.097129, 30.01603 ], [ -90.096875, 30.017029 ], [ -90.096794, 30.017455 ], [ -90.096711, 30.017971 ], [ -90.0967, 30.018065 ], [ -90.096653, 30.018475 ], [ -90.096641, 30.018544 ], [ -90.096626, 30.018631 ] ] } },
{ "type": "Feature", "properties": { "cls": "painted", "highway": "tertiary", "name": "Marconi Drive" }, "geometry": { "type": "Point", "coordinates": [ -90.096626, 30.018631 ] } },
{ "type": "Feature", "properties": { "cls": "shared", "highway": "cycleway", "name": "Allen Toussaint Trail" }, "geometry": { "type": "LineString", "coordinates": [ [ -90.096626, 30.018631 ], [ -90.096575, 30.018536 ], [ -90.096557, 30.018502 ], [ -90.096563, 30.018444 ], [ -90.096546, 30.018416 ], [ -90.096359, 30.018408 ], [ -90.096285, 30.018412 ], [ -90.096192, 30.018421 ], [ -90.096074, 30.018402 ], [ -90.095879, 30.018356 ], [ -90.095742, 30.018363 ], [ -90.095554, 30.0184 ], [ -90.095452, 30.018377 ], [ -90.095259, 30.018304 ], [ -90.095061, 30.018293 ], [ -90.094926, 30.018311 ], [ -90.094653, 30.018302 ], [ -90.09441, 30.018258 ], [ -90.094263, 30.018209 ], [ -90.094137, 30.018205 ], [ -90.093868, 30.018219 ], [ -90.093563, 30.018198 ], [ -90.093364, 30.018168 ], [ -90.093107, 30.01813 ], [ -90.092857, 30.018112 ], [ -90.092586, 30.018119 ], [ -90.092323, 30.018149 ], [ -90.092045, 30.018186 ], [ -90.091733, 30.018172 ], [ -90.091559, 30.018179 ], [ -90.091438, 30.018209 ], [ -90.091183, 30.018295 ], [ -90.090958, 30.018335 ], [ -90.090722, 30.018346 ], [ -90.090566, 30.018323 ], [ -90.090443, 30.018314 ], [ -90.090311, 30.018344 ], [ -90.090164, 30.018437 ], [ -90.090046, 30.018539 ], [ -90.089821, 30.018658 ], [ -90.089783, 30.018671 ] ] } },
{ "type": "Feature", "properties": { "cls": "sharrow", "highway": "secondary", "name": "Allen Toussaint Boulevard" }, "geometry": { "type": "MultiLineString", "coordinates": [ [ [ -90.097909, 30.018782 ], [ -90.09757, 30.018763 ] ], [ [ -90.09757, 30.018763 ], [ -90.097406, 30.01875 ] ], [ [ -90.097406, 30.01875 ], [ -90.097213, 30.018725 ] ], [ [ -90.097213, 30.018725 ], [ -90.096966, 30.018671 ] ], [ [ -90.096966, 30.018671 ], [ -90.096784, 30.018643 ] ], [ [ -90.096784, 30.018643 ], [ -90.096752, 30.01864 ] ], [ [ -90.096752, 30.01864 ], [ -90.096626, 30.018631 ] ], [ [ -90.096626, 30.018631 ], [ -90.096498, 30.018621 ] ], [ [ -90.095994, 30.018579 ], [ -90.095566, 30.01854 ] ], [ [ -90.095566, 30.01854 ], [ -90.095085, 30.018501 ] ], [ [ -90.095085, 30.018501 ], [ -90.094489, 30.018444 ] ], [ [ -90.094489, 30.018444 ], [ -90.093699, 30.018372 ] ], [ [ -90.093699, 30.018372 ], [ -90.093676, 30.01837 ] ], [ [ -90.093676, 30.01837 ], [ -90.093172, 30.018337 ] ], [ [ -90.093172, 30.018337 ], [ -90.092715, 30.018325 ] ], [ [ -90.092715, 30.018325 ], [ -90.092182, 30.018337 ] ], [ [ -90.092182, 30.018337 ], [ -90.09155, 30.018391 ] ], [ [ -90.09155, 30.018391 ], [ -90.09109, 30.018461 ] ], [ [ -90.09109, 30.018461 ], [ -90.09066, 30.018538 ] ], [ [ -90.09066, 30.018538 ], [ -90.090355, 30.018604 ] ], [ [ -90.090355, 30.018604 ], [ -90.090172, 30.018648 ] ], [ [ -90.090172, 30.018648 ], [ -90.090006, 30.018689 ] ], [ [ -90.090006, 30.018689 ], [ -90.089796, 30.01875 ] ] ] } }
]
}
