{
"type": "FeatureCollection",
"name": "159-san-diego-balboa-park",
"crs": { "type": "name", "properties": { "name": "urn:ogc:def:crs:OGC:1.3:CRS84" } },
"xy_coordinate_resolution": 1e-06,
"features": [
{ "type": "Feature", "properties": { "cls": "separated", "highway": "cycleway", "name": null }, "geometry": { "type": "Point", "coordinates": [ -117.147189, 32.719598 ] } },
{ "type": "Feature", "properties": { "cls": "sharrow", "highway": "primary", "name": "Park Boulevard" }, "geometry": { "type": "LineString", "coordinates": [ [ -117.151018, 32.724415 ], [ -117.151011, 32.724431 ] ] } },
{ "type": "Feature", "properties": { "cls": "separated", "highway": "primary", "name": "Park Boulevard" }, "geometry": { "type": "LineString", "coordinates": [ [ -117.151083, 32.724619 ], [ -117.151107, 32.72457 ] ] } },
{ "type": "Feature", "properties": { "cls": "separated", "highway": "primary", "name": "Park Boulevard" }, "geometry": { "type": "LineString", "coordinates": [ [ -117.151011, 32.724431 ], [ -117.150868, 32.72471 ] ] } },
{ "type": "Feature", "properties": { "cls": "separated", "highway": "primary", "name": "Park Boulevard" }, "geometry": { "type": "LineString", "coordinates": [ [ -117.150851, 32.725081 ], [ -117.151013, 32.724758 ], [ -117.151083, 32.724619 ] ] } },
{ "type": "Feature", "properties": { "cls": "separated", "highway": "primary", "name": "Park Boulevard" }, "geometry": { "type": "LineString", "coordinates": [ [ -117.150868, 32.72471 ], [ -117.150687, 32.725092 ], [ -117.150625, 32.725217 ] ] } },
{ "type": "Feature", "properties": { "cls": "separated", "highway": "primary", "name": "Park Boulevard" }, "geometry": { "type": "LineString", "coordinates": [ [ -117.150595, 32.725598 ], [ -117.150633, 32.725517 ], [ -117.150642, 32.725499 ], [ -117.150851, 32.725081 ] ] } },
{ "type": "Feature", "properties": { "cls": "sharrow", "highway": "primary", "name": "Park Boulevard" }, "geometry": { "type": "LineString", "coordinates": [ [ -117.150625, 32.725217 ], [ -117.150512, 32.72545 ], [ -117.150504, 32.725466 ], [ -117.150499, 32.725476 ], [ -117.15046, 32.725548 ] ] } },
{ "type": "Feature", "properties": { "cls": "sharrow", "highway": "primary", "name": "Park Boulevard" }, "geometry": { "type": "LineString", "coordinates": [ [ -117.15035, 32.726039 ], [ -117.150536, 32.725701 ], [ -117.150541, 32.725692 ], [ -117.150549, 32.725678 ], [ -117.150595, 32.725598 ] ] } },
{ "type": "Feature", "properties": { "cls": "sharrow", "highway": "primary", "name": "Park Boulevard" }, "geometry": { "type": "LineString", "coordinates": [ [ -117.15025, 32.726188 ], [ -117.150302, 32.726118 ], [ -117.15035, 32.726039 ] ] } },
{ "type": "Feature", "properties": { "cls": "separated", "highway": "primary", "name": "Park Boulevard" }, "geometry": { "type": "LineString", "coordinates": [ [ -117.15023, 32.725962 ], [ -117.150168, 32.726062 ], [ -117.150083, 32.726175 ], [ -117.149983, 32.726287 ], [ -117.149867, 32.726397 ], [ -117.149738, 32.726508 ], [ -117.149565, 32.726639 ], [ -117.149381, 32.726757 ], [ -117.149055, 32.726915 ] ] } },
{ "type": "Feature", "properties": { "cls": "separated", "highway": "primary", "name": "Park Boulevard" }, "geometry": { "type": "LineString", "coordinates": [ [ -117.149157, 32.727017 ], [ -117.149455, 32.726873 ], [ -117.149618, 32.726772 ], [ -117.149835, 32.726615 ], [ -117.149991, 32.726478 ], [ -117.150182, 32.726274 ], [ -117.15025, 32.726188 ] ] } },
{ "type": "Feature", "properties": { "cls": "sharrow", "highway": "primary", "name": "Park Boulevard" }, "geometry": { "type": "LineString", "coordinates": [ [ -117.149055, 32.726915 ], [ -117.148631, 32.727072 ], [ -117.148483, 32.727126 ] ] } },
{ "type": "Feature", "properties": { "cls": "separated", "highway": "primary", "name": "Park Boulevard" }, "geometry": { "type": "LineString", "coordinates": [ [ -117.14877, 32.727159 ], [ -117.148871, 32.727121 ], [ -117.149157, 32.727017 ] ] } },
{ "type": "Feature", "properties": { "cls": "sharrow", "highway": "primary", "name": "Park Boulevard" }, "geometry": { "type": "LineString", "coordinates": [ [ -117.148539, 32.727243 ], [ -117.14877, 32.727159 ] ] } },
{ "type": "Feature", "properties": { "cls": "separated", "highway": "primary", "name": "Park Boulevard" }, "geometry": { "type": "LineString", "coordinates": [ [ -117.148483, 32.727126 ], [ -117.148365, 32.727167 ], [ -117.148078, 32.727277 ], [ -117.147778, 32.727416 ] ] } },
{ "type": "Feature", "properties": { "cls": "separated", "highway": "primary", "name": "Park Boulevard" }, "geometry": { "type": "LineString", "coordinates": [ [ -117.148089, 32.727413 ], [ -117.148408, 32.727291 ], [ -117.148434, 32.727281 ], [ -117.148539, 32.727243 ] ] } },
{ "type": "Feature", "properties": { "cls": "sharrow", "highway": "primary", "name": "Park Boulevard" }, "geometry": { "type": "LineString", "coordinates": [ [ -117.147778, 32.727416 ], [ -117.147564, 32.727532 ], [ -117.14739, 32.727639 ] ] } },
{ "type": "Feature", "properties": { "cls": "sharrow", "highway": "tertiary", "name": "Westpark Drive" }, "geometry": { "type": "LineString", "coordinates": [ [ -117.157813, 32.72475 ], [ -117.157778, 32.724721 ], [ -117.157747, 32.724709 ], [ -117.157654, 32.724701 ], [ -117.157602, 32.724711 ], [ -117.157547, 32.724739 ], [ -117.157519, 32.724778 ], [ -117.157502, 32.724822 ], [ -117.157499, 32.725504 ], [ -117.157505, 32.725791 ], [ -117.157517, 32.72649 ], [ -117.157611, 32.726908 ], [ -117.157684, 32.727287 ], [ -117.157692, 32.727391 ], [ -117.15769, 32.727482 ], [ -117.157661, 32.727661 ], [ -117.15755, 32.728063 ], [ -117.157516, 32.728214 ], [ -117.157498, 32.728329 ], [ -117.157501, 32.728462 ], [ -117.157529, 32.728665 ], [ -117.157592, 32.728891 ], [ -117.157627, 32.728961 ], [ -117.157687, 32.729068 ], [ -117.157744, 32.729143 ], [ -117.157822, 32.729221 ], [ -117.157836, 32.72923 ], [ -117.157883, 32.729257 ], [ -117.157945, 32.729283 ], [ -117.158007, 32.729298 ], [ -117.158138, 32.729317 ], [ -117.158252, 32.729331 ] ] } },
{ "type": "Feature", "properties": { "cls": "sharrow", "highway": "tertiary", "name": "Juniper Road" }, "geometry": { "type": "LineString", "coordinates": [ [ -117.158252, 32.729331 ], [ -117.158597, 32.729332 ], [ -117.159135, 32.729337 ] ] } },
{ "type": "Feature", "properties": { "cls": "sharrow", "highway": "tertiary", "name": "El Prado" }, "geometry": { "type": "LineString", "coordinates": [ [ -117.159103, 32.731395 ], [ -117.158277, 32.7314 ], [ -117.158251, 32.7314 ], [ -117.158042, 32.7314 ] ] } },
{ "type": "Feature", "properties": { "cls": "sharrow", "highway": "tertiary", "name": "El Prado" }, "geometry": { "type": "LineString", "coordinates": [ [ -117.158042, 32.7314 ], [ -117.157861, 32.731401 ], [ -117.157008, 32.731405 ], [ -117.15596, 32.731412 ], [ -117.155885, 32.731412 ] ] } },
{ "type": "Feature", "properties": { "cls": "sharrow", "highway": "tertiary", "name": "El Prado" }, "geometry": { "type": "LineString", "coordinates": [ [ -117.155885, 32.731412 ], [ -117.153114, 32.731435 ] ] } },
{ "type": "Feature", "properties": { "cls": "sharrow", "highway": "tertiary", "name": "El Prado" }, "geometry": { "type": "LineString", "coordinates": [ [ -117.153114, 32.731435 ], [ -117.152882, 32.731433 ] ] } },
{ "type": "Feature", "properties": { "cls": "sharrow", "highway": "tertiary", "name": "El Prado" }, "geometry": { "type": "LineString", "coordinates": [ [ -117.152882, 32.731433 ], [ -117.152713, 32.731436 ] ] } },
{ "type": "Feature", "properties": { "cls": "sharrow", "highway": "tertiary", "name": "El Prado" }, "geometry": { "type": "LineString", "coordinates": [ [ -117.152713, 32.731436 ], [ -117.152584, 32.731436 ] ] } },
{ "type": "Feature", "properties": { "cls": "sharrow", "highway": "tertiary", "name": "Juniper Road" }, "geometry": { "type": "LineString", "coordinates": [ [ -117.159135, 32.729337 ], [ -117.159252, 32.729337 ], [ -117.159264, 32.729341 ] ] } },
{ "type": "Feature", "properties": { "cls": "sharrow", "highway": "tertiary", "name": "El Prado" }, "geometry": { "type": "LineString", "coordinates": [ [ -117.159274, 32.731394 ], [ -117.159103, 32.731395 ] ] } },
{ "type": "Feature", "properties": { "cls": "sharrow", "highway": "tertiary", "name": "El Prado" }, "geometry": { "type": "LineString", "coordinates": [ [ -117.152584, 32.731436 ], [ -117.152163, 32.731439 ] ] } },
{ "type": "Feature", "properties": { "cls": "sharrow", "highway": "tertiary", "name": "El Prado" }, "geometry": { "type": "LineString", "coordinates": [ [ -117.152163, 32.731439 ], [ -117.152101, 32.731439 ] ] } },
{ "type": "Feature", "properties": { "cls": "sharrow", "highway": "tertiary", "name": "El Prado" }, "geometry": { "type": "LineString", "coordinates": [ [ -117.152101, 32.731439 ], [ -117.151906, 32.73144 ] ] } },
{ "type": "Feature", "properties": { "cls": "sharrow", "highway": "tertiary", "name": "El Prado" }, "geometry": { "type": "LineString", "coordinates": [ [ -117.151906, 32.73144 ], [ -117.150861, 32.731446 ] ] } },
{ "type": "Feature", "properties": { "cls": "sharrow", "highway": "tertiary", "name": "Westpark Drive" }, "geometry": { "type": "LineString", "coordinates": [ [ -117.159313, 32.740809 ], [ -117.159296, 32.740807 ], [ -117.159224, 32.740795 ], [ -117.159161, 32.740776 ], [ -117.159103, 32.740754 ], [ -117.159034, 32.74072 ], [ -117.158965, 32.74067 ], [ -117.158902, 32.740614 ], [ -117.158835, 32.740528 ], [ -117.158695, 32.740291 ], [ -117.158506, 32.739951 ], [ -117.158354, 32.739558 ], [ -117.158334, 32.739503 ], [ -117.158272, 32.739323 ], [ -117.158224, 32.739107 ], [ -117.158185, 32.738898 ], [ -117.158157, 32.7384 ], [ -117.158211, 32.738071 ], [ -117.158289, 32.737815 ], [ -117.158305, 32.737775 ], [ -117.158453, 32.737332 ], [ -117.158498, 32.737176 ], [ -117.158531, 32.737019 ], [ -117.158554, 32.736873 ], [ -117.158568, 32.736738 ], [ -117.158575, 32.736663 ], [ -117.158579, 32.736577 ], [ -117.158581, 32.736485 ], [ -117.158561, 32.734363 ], [ -117.158549, 32.734132 ], [ -117.158538, 32.734 ], [ -117.158519, 32.733874 ], [ -117.15848, 32.733708 ], [ -117.158421, 32.733528 ], [ -117.158324, 32.733303 ], [ -117.158241, 32.733128 ], [ -117.158221, 32.733082 ], [ -117.158096, 32.732792 ], [ -117.158066, 32.732593 ], [ -117.158043, 32.732441 ], [ -117.158037, 32.732111 ], [ -117.158044, 32.731596 ], [ -117.158044, 32.731573 ], [ -117.158042, 32.7314 ], [ -117.158037, 32.731227 ], [ -117.158038, 32.731189 ], [ -117.158043, 32.730925 ], [ -117.15805, 32.730811 ], [ -117.158068, 32.73067 ], [ -117.158106, 32.730511 ], [ -117.158161, 32.730246 ], [ -117.158197, 32.730105 ], [ -117.158211, 32.730044 ], [ -117.158227, 32.729953 ], [ -117.158244, 32.729847 ], [ -117.158253, 32.729734 ], [ -117.158259, 32.729609 ], [ -117.158257, 32.729477 ], [ -117.158258, 32.729413 ], [ -117.158252, 32.729331 ], [ -117.158232, 32.729144 ], [ -117.158215, 32.729001 ], [ -117.158186, 32.72878 ], [ -117.158169, 32.728673 ], [ -117.158152, 32.728509 ], [ -117.158145, 32.72834 ], [ -117.15815, 32.728229 ], [ -117.158158, 32.728115 ], [ -117.158169, 32.727993 ], [ -117.158186, 32.727877 ], [ -117.158209, 32.727755 ], [ -117.158384, 32.727062 ], [ -117.15846, 32.726761 ], [ -117.15848, 32.726647 ], [ -117.158496, 32.726498 ], [ -117.158507, 32.726367 ], [ -117.158511, 32.726197 ], [ -117.158508, 32.72608 ], [ -117.158499, 32.725984 ], [ -117.158484, 32.725843 ], [ -117.158452, 32.725735 ], [ -117.158408, 32.725618 ], [ -117.158376, 32.725508 ], [ -117.158304, 32.725407 ], [ -117.158279, 32.72537 ], [ -117.158258, 32.725341 ], [ -117.158185, 32.72524 ], [ -117.158063, 32.72507 ], [ -117.157813, 32.72475 ] ] } },
{ "type": "Feature", "properties": { "cls": "shared", "highway": "cycleway", "name": "Upas Bike Path" }, "geometry": { "type": "LineString", "coordinates": [ [ -117.156773, 32.740727 ], [ -117.156165, 32.740756 ] ] } },
{ "type": "Feature", "properties": { "cls": "shared", "highway": "cycleway", "name": "Upas Bike Path" }, "geometry": { "type": "LineString", "coordinates": [ [ -117.156773, 32.740727 ], [ -117.156816, 32.740726 ], [ -117.15687, 32.740753 ], [ -117.156937, 32.740803 ], [ -117.156981, 32.740847 ], [ -117.157013, 32.740888 ], [ -117.15704, 32.740929 ], [ -117.157049, 32.740961 ], [ -117.157056, 32.740985 ], [ -117.157067, 32.741049 ], [ -117.157073, 32.741114 ], [ -117.157087, 32.741149 ], [ -117.157103, 32.741152 ], [ -117.157121, 32.741149 ], [ -117.157138, 32.741129 ], [ -117.157139, 32.741097 ], [ -117.157151, 32.741052 ], [ -117.157163, 32.741021 ], [ -117.157187, 32.740968 ], [ -117.157209, 32.740935 ], [ -117.157233, 32.740896 ], [ -117.157257, 32.740844 ], [ -117.157265, 32.740803 ], [ -117.157268, 32.740766 ], [ -117.15727, 32.74071 ], [ -117.157273, 32.740654 ], [ -117.157281, 32.740618 ], [ -117.157305, 32.740573 ], [ -117.15732, 32.740552 ], [ -117.157347, 32.740529 ], [ -117.157375, 32.740513 ], [ -117.157415, 32.740499 ], [ -117.157453, 32.740498 ], [ -117.157484, 32.740507 ], [ -117.157494, 32.740527 ], [ -117.157494, 32.740548 ], [ -117.157482, 32.740582 ], [ -117.157481, 32.740618 ], [ -117.157485, 32.740667 ], [ -117.157508, 32.740754 ], [ -117.157563, 32.74085 ], [ -117.157615, 32.740907 ], [ -117.157672, 32.74095 ], [ -117.157713, 32.740966 ], [ -117.157761, 32.740968 ], [ -117.157855, 32.740967 ], [ -117.157969, 32.740955 ], [ -117.15806, 32.740951 ], [ -117.158158, 32.740959 ], [ -117.158236, 32.74097 ], [ -117.158303, 32.74098 ] ] } },
{ "type": "Feature", "properties": { "cls": "shared", "highway": "cycleway", "name": "Upas Bike Path" }, "geometry": { "type": "LineString", "coordinates": [ [ -117.156165, 32.740756 ], [ -117.156062, 32.740766 ], [ -117.15553, 32.740949 ], [ -117.155466, 32.740964 ], [ -117.155377, 32.740966 ], [ -117.155063, 32.740969 ], [ -117.154406, 32.740997 ], [ -117.15423, 32.741004 ], [ -117.153475, 32.74104 ], [ -117.153428, 32.741055 ], [ -117.153394, 32.741098 ] ] } },
{ "type": "Feature", "properties": { "cls": "shared", "highway": "cycleway", "name": null }, "geometry": { "type": "LineString", "coordinates": [ [ -117.158303, 32.74098 ], [ -117.15833, 32.741002 ] ] } },
{ "type": "Feature", "properties": { "cls": "separated", "highway": "primary", "name": "Park Boulevard" }, "geometry": { "type": "LineString", "coordinates": [ [ -117.147456, 32.727754 ], [ -117.147646, 32.727639 ], [ -117.14775, 32.727577 ], [ -117.14784, 32.727524 ], [ -117.148089, 32.727413 ] ] } },
{ "type": "Feature", "properties": { "cls": "separated", "highway": "primary", "name": "Park Boulevard" }, "geometry": { "type": "LineString", "coordinates": [ [ -117.147131, 32.728008 ], [ -117.147274, 32.727882 ], [ -117.147456, 32.727754 ] ] } },
{ "type": "Feature", "properties": { "cls": "sharrow", "highway": "unclassified", "name": "Village Place" }, "geometry": { "type": "LineString", "coordinates": [ [ -117.147924, 32.731831 ], [ -117.147924, 32.732453 ], [ -117.147925, 32.732814 ], [ -117.147921, 32.732863 ], [ -117.147919, 32.732924 ], [ -117.147906, 32.732984 ], [ -117.147893, 32.733022 ], [ -117.147871, 32.733047 ], [ -117.147828, 32.733063 ], [ -117.147781, 32.733066 ], [ -117.147731, 32.733066 ], [ -117.146943, 32.733077 ], [ -117.146837, 32.733078 ] ] } },
{ "type": "Feature", "properties": { "cls": "shared", "highway": "cycleway", "name": null }, "geometry": { "type": "LineString", "coordinates": [ [ -117.148305, 32.734257 ], [ -117.148283, 32.734223 ], [ -117.148217, 32.73419 ], [ -117.148032, 32.733901 ], [ -117.147993, 32.733822 ], [ -117.147981, 32.733753 ], [ -117.147948, 32.733133 ], [ -117.147919, 32.732924 ] ] } },
{ "type": "Feature", "properties": { "cls": "shared", "highway": "cycleway", "name": null }, "geometry": { "type": "LineString", "coordinates": [ [ -117.148454, 32.735008 ], [ -117.148426, 32.734755 ], [ -117.148363, 32.734377 ], [ -117.14831, 32.734268 ], [ -117.148305, 32.734257 ], [ -117.14809, 32.734269 ] ] } },
{ "type": "Feature", "properties": { "cls": "separated", "highway": "primary", "name": "Park Boulevard" }, "geometry": { "type": "LineString", "coordinates": [ [ -117.147451, 32.740203 ], [ -117.147424, 32.740114 ], [ -117.147413, 32.740077 ], [ -117.147236, 32.739728 ], [ -117.147093, 32.739514 ] ] } },
{ "type": "Feature", "properties": { "cls": "sharrow", "highway": "primary", "name": "Park Boulevard" }, "geometry": { "type": "LineString", "coordinates": [ [ -117.147112, 32.739755 ], [ -117.147128, 32.739779 ], [ -117.147294, 32.740113 ], [ -117.147297, 32.740122 ], [ -117.147307, 32.74015 ], [ -117.147335, 32.740231 ] ] } },
{ "type": "Feature", "properties": { "cls": "separated", "highway": "primary", "name": "Park Boulevard" }, "geometry": { "type": "LineString", "coordinates": [ [ -117.147542, 32.740569 ], [ -117.147514, 32.740428 ], [ -117.147492, 32.740352 ], [ -117.147481, 32.740312 ], [ -117.147476, 32.740292 ], [ -117.147451, 32.740203 ] ] } },
{ "type": "Feature", "properties": { "cls": "separated", "highway": "primary", "name": "Park Boulevard" }, "geometry": { "type": "LineString", "coordinates": [ [ -117.147335, 32.740231 ], [ -117.147353, 32.740316 ], [ -117.147358, 32.740339 ], [ -117.147384, 32.740444 ], [ -117.147411, 32.740587 ], [ -117.147428, 32.740725 ], [ -117.14744, 32.74088 ] ] } },
{ "type": "Feature", "properties": { "cls": "separated", "highway": "primary", "name": "Park Boulevard" }, "geometry": { "type": "LineString", "coordinates": [ [ -117.147582, 32.740903 ], [ -117.147571, 32.740752 ], [ -117.147547, 32.740591 ], [ -117.147542, 32.740569 ] ] } },
{ "type": "Feature", "properties": { "cls": "separated", "highway": "secondary", "name": "26th Street" }, "geometry": { "type": "LineString", "coordinates": [ [ -117.138259, 32.719596 ], [ -117.138344, 32.719788 ], [ -117.138443, 32.720062 ], [ -117.138519, 32.720294 ], [ -117.138565, 32.720514 ], [ -117.138676, 32.721433 ], [ -117.138757, 32.721761 ], [ -117.13881, 32.721903 ], [ -117.139036, 32.722368 ], [ -117.13927, 32.722765 ], [ -117.139414, 32.722958 ], [ -117.139557, 32.723095 ], [ -117.139757, 32.723249 ], [ -117.139885, 32.72333 ], [ -117.140036, 32.723396 ], [ -117.140166, 32.723416 ], [ -117.140287, 32.723414 ], [ -117.140423, 32.723391 ], [ -117.140543, 32.723335 ], [ -117.140662, 32.723236 ], [ -117.140771, 32.723123 ], [ -117.141115, 32.722711 ], [ -117.141188, 32.722637 ], [ -117.141279, 32.722572 ], [ -117.141393, 32.722525 ], [ -117.141524, 32.7225 ], [ -117.141652, 32.722494 ], [ -117.14174, 32.722508 ] ] } },
{ "type": "Feature", "properties": { "cls": "separated", "highway": "cycleway", "name": null }, "geometry": { "type": "LineString", "coordinates": [ [ -117.143316, 32.721823 ], [ -117.143104, 32.721929 ] ] } },
{ "type": "Feature", "properties": { "cls": "separated", "highway": "cycleway", "name": null }, "geometry": { "type": "LineString", "coordinates": [ [ -117.143104, 32.721929 ], [ -117.142981, 32.721997 ], [ -117.142867, 32.722093 ], [ -117.142504, 32.722445 ], [ -117.142447, 32.722517 ], [ -117.142432, 32.72255 ] ] } },
{ "type": "Feature", "properties": { "cls": "separated", "highway": "secondary", "name": "26th Street" }, "geometry": { "type": "LineString", "coordinates": [ [ -117.142588, 32.72268 ], [ -117.142402, 32.722641 ], [ -117.142052, 32.722569 ], [ -117.14191, 32.722529 ], [ -117.14174, 32.722508 ] ] } },
{ "type": "Feature", "properties": { "cls": "sharrow", "highway": "secondary", "name": "26th Street" }, "geometry": { "type": "LineString", "coordinates": [ [ -117.14174, 32.722508 ], [ -117.142024, 32.722608 ], [ -117.14229, 32.722681 ], [ -117.142381, 32.722701 ], [ -117.142464, 32.722724 ], [ -117.142534, 32.722743 ] ] } },
{ "type": "Feature", "properties": { "cls": "shared", "highway": "cycleway", "name": null }, "geometry": { "type": "LineString", "coordinates": [ [ -117.142432, 32.72255 ], [ -117.142406, 32.722628 ], [ -117.142402, 32.722641 ], [ -117.142381, 32.722701 ], [ -117.14237, 32.722736 ] ] } },
{ "type": "Feature", "properties": { "cls": "painted", "highway": "secondary", "name": "Florida Drive" }, "geometry": { "type": "LineString", "coordinates": [ [ -117.142723, 32.72272 ], [ -117.142588, 32.72268 ] ] } },
{ "type": "Feature", "properties": { "cls": "painted", "highway": "secondary", "name": "Pershing Drive" }, "geometry": { "type": "LineString", "coordinates": [ [ -117.142662, 32.722787 ], [ -117.142723, 32.72272 ] ] } },
{ "type": "Feature", "properties": { "cls": "painted", "highway": "secondary", "name": "Florida Drive" }, "geometry": { "type": "LineString", "coordinates": [ [ -117.142534, 32.722743 ], [ -117.142662, 32.722787 ] ] } },
{ "type": "Feature", "properties": { "cls": "painted", "highway": "secondary", "name": "Pershing Drive" }, "geometry": { "type": "LineString", "coordinates": [ [ -117.146481, 32.719747 ], [ -117.146634, 32.719686 ], [ -117.146983, 32.719556 ] ] } },
{ "type": "Feature", "properties": { "cls": "painted", "highway": "motorway_link", "name": null }, "geometry": { "type": "LineString", "coordinates": [ [ -117.146481, 32.719747 ], [ -117.146862, 32.719676 ], [ -117.147189, 32.719598 ] ] } },
{ "type": "Feature", "properties": { "cls": "separated", "highway": "cycleway", "name": null }, "geometry": { "type": "LineString", "coordinates": [ [ -117.146157, 32.719422 ], [ -117.146147, 32.719432 ], [ -117.145157, 32.720274 ], [ -117.144515, 32.720846 ], [ -117.143794, 32.721495 ], [ -117.143635, 32.721628 ], [ -117.143453, 32.721753 ], [ -117.143316, 32.721823 ] ] } },
{ "type": "Feature", "properties": { "cls": "painted", "highway": "secondary", "name": "Pershing Drive" }, "geometry": { "type": "LineString", "coordinates": [ [ -117.145821, 32.720128 ], [ -117.14596, 32.720023 ], [ -117.146106, 32.719923 ], [ -117.146225, 32.719855 ], [ -117.146346, 32.7198 ], [ -117.146481, 32.719747 ] ] } },
{ "type": "Feature", "properties": { "cls": "separated", "highway": "cycleway", "name": null }, "geometry": { "type": "LineString", "coordinates": [ [ -117.145914, 32.720203 ], [ -117.145821, 32.720128 ] ] } },
{ "type": "Feature", "properties": { "cls": "painted", "highway": "motorway_link", "name": null }, "geometry": { "type": "LineString", "coordinates": [ [ -117.144889, 32.720821 ], [ -117.145355, 32.720532 ], [ -117.145914, 32.720203 ] ] } },
{ "type": "Feature", "properties": { "cls": "painted", "highway": "secondary", "name": "Pershing Drive" }, "geometry": { "type": "LineString", "coordinates": [ [ -117.142723, 32.72272 ], [ -117.142788, 32.722657 ], [ -117.142838, 32.722613 ], [ -117.143307, 32.722184 ], [ -117.144, 32.721546 ], [ -117.144889, 32.720821 ] ] } },
{ "type": "Feature", "properties": { "cls": "separated", "highway": "primary", "name": "Park Boulevard" }, "geometry": { "type": "LineString", "coordinates": [ [ -117.14739, 32.727639 ], [ -117.147257, 32.727728 ], [ -117.147124, 32.727841 ], [ -117.14699, 32.727962 ], [ -117.146862, 32.72809 ], [ -117.146697, 32.728306 ], [ -117.146532, 32.728565 ], [ -117.146445, 32.728757 ] ] } },
{ "type": "Feature", "properties": { "cls": "separated", "highway": "primary", "name": "Park Boulevard" }, "geometry": { "type": "LineString", "coordinates": [ [ -117.146411, 32.729593 ], [ -117.146421, 32.729477 ], [ -117.146424, 32.729441 ], [ -117.146465, 32.729169 ], [ -117.146567, 32.728843 ], [ -117.146665, 32.728624 ], [ -117.146815, 32.728386 ], [ -117.146912, 32.728244 ], [ -117.147012, 32.728125 ], [ -117.147131, 32.728008 ] ] } },
{ "type": "Feature", "properties": { "cls": "separated", "highway": "primary", "name": "Park Boulevard" }, "geometry": { "type": "LineString", "coordinates": [ [ -117.146445, 32.728757 ], [ -117.146421, 32.728811 ], [ -117.146319, 32.729137 ], [ -117.146272, 32.729475 ], [ -117.146262, 32.729582 ] ] } },
{ "type": "Feature", "properties": { "cls": "painted", "highway": "secondary", "name": "Florida Drive" }, "geometry": { "type": "LineString", "coordinates": [ [ -117.143168, 32.723109 ], [ -117.143088, 32.722995 ], [ -117.142976, 32.722874 ], [ -117.142864, 32.72279 ], [ -117.142826, 32.722765 ], [ -117.142723, 32.72272 ] ] } },
{ "type": "Feature", "properties": { "cls": "painted", "highway": "secondary", "name": "Pershing Drive" }, "geometry": { "type": "LineString", "coordinates": [ [ -117.142444, 32.723214 ], [ -117.142481, 32.723092 ], [ -117.142523, 32.722992 ], [ -117.142577, 32.722897 ], [ -117.142603, 32.722865 ], [ -117.142662, 32.722787 ] ] } },
{ "type": "Feature", "properties": { "cls": "painted", "highway": "secondary", "name": "Pershing Drive" }, "geometry": { "type": "LineString", "coordinates": [ [ -117.142367, 32.723694 ], [ -117.142413, 32.72335 ], [ -117.142444, 32.723214 ] ] } },
{ "type": "Feature", "properties": { "cls": "painted", "highway": "secondary", "name": "Florida Drive" }, "geometry": { "type": "LineString", "coordinates": [ [ -117.142662, 32.722787 ], [ -117.142764, 32.722841 ], [ -117.142847, 32.722913 ], [ -117.142917, 32.722991 ], [ -117.143023, 32.723126 ], [ -117.143118, 32.723293 ], [ -117.143208, 32.723559 ], [ -117.143228, 32.723694 ], [ -117.143236, 32.723842 ], [ -117.143216, 32.72403 ], [ -117.143175, 32.724168 ], [ -117.143071, 32.724416 ], [ -117.14275, 32.725117 ], [ -117.1427, 32.725293 ], [ -117.142691, 32.725378 ], [ -117.142685, 32.725509 ] ] } },
{ "type": "Feature", "properties": { "cls": "painted", "highway": "secondary", "name": "Florida Drive" }, "geometry": { "type": "LineString", "coordinates": [ [ -117.142755, 32.726708 ], [ -117.142836, 32.726514 ], [ -117.142828, 32.725516 ], [ -117.142839, 32.72537 ], [ -117.142852, 32.725297 ], [ -117.142902, 32.72514 ], [ -117.143194, 32.724452 ], [ -117.143304, 32.724197 ], [ -117.143347, 32.724045 ], [ -117.143364, 32.723849 ], [ -117.143363, 32.723686 ], [ -117.143335, 32.723508 ], [ -117.143237, 32.723238 ], [ -117.143168, 32.723109 ] ] } },
{ "type": "Feature", "properties": { "cls": "painted", "highway": "secondary", "name": "Florida Drive" }, "geometry": { "type": "LineString", "coordinates": [ [ -117.142685, 32.725509 ], [ -117.142684, 32.72554 ], [ -117.142706, 32.726519 ], [ -117.142755, 32.726708 ] ] } },
{ "type": "Feature", "properties": { "cls": "painted", "highway": "secondary", "name": "Pershing Drive" }, "geometry": { "type": "LineString", "coordinates": [ [ -117.139577, 32.730172 ], [ -117.1397, 32.730122 ], [ -117.139827, 32.730077 ], [ -117.139945, 32.730038 ], [ -117.140039, 32.730013 ], [ -117.140131, 32.729992 ], [ -117.140362, 32.729945 ], [ -117.141031, 32.729803 ], [ -117.141148, 32.729771 ], [ -117.141202, 32.729753 ], [ -117.141252, 32.729735 ], [ -117.141311, 32.729711 ], [ -117.141363, 32.729687 ], [ -117.141407, 32.729665 ], [ -117.141453, 32.72964 ], [ -117.141501, 32.729609 ], [ -117.141549, 32.729576 ], [ -117.141617, 32.729524 ], [ -117.141674, 32.729471 ], [ -117.141732, 32.729407 ], [ -117.141772, 32.729353 ], [ -117.141808, 32.729302 ], [ -117.141843, 32.729241 ], [ -117.141872, 32.729174 ], [ -117.141901, 32.729098 ], [ -117.141915, 32.729039 ], [ -117.141929, 32.728969 ], [ -117.141937, 32.72884 ], [ -117.14193, 32.728207 ], [ -117.141921, 32.727381 ], [ -117.14191, 32.726678 ], [ -117.141926, 32.725983 ], [ -117.142012, 32.725479 ], [ -117.142218, 32.724707 ], [ -117.142285, 32.724455 ], [ -117.142328, 32.724213 ], [ -117.142351, 32.723937 ], [ -117.142367, 32.723694 ] ] } },
{ "type": "Feature", "properties": { "cls": "painted", "highway": "secondary", "name": "Florida Drive" }, "geometry": { "type": "LineString", "coordinates": [ [ -117.142755, 32.726708 ], [ -117.142763, 32.726838 ], [ -117.142798, 32.727477 ], [ -117.142845, 32.72791 ] ] } },
{ "type": "Feature", "properties": { "cls": "painted", "highway": "secondary", "name": "Florida Drive" }, "geometry": { "type": "LineString", "coordinates": [ [ -117.142845, 32.72791 ], [ -117.142937, 32.728828 ] ] } },
{ "type": "Feature", "properties": { "cls": "painted", "highway": "secondary", "name": "Florida Drive" }, "geometry": { "type": "LineString", "coordinates": [ [ -117.142937, 32.728828 ], [ -117.143029, 32.729707 ] ] } },
{ "type": "Feature", "properties": { "cls": "painted", "highway": "secondary", "name": "Florida Drive" }, "geometry": { "type": "LineString", "coordinates": [ [ -117.143029, 32.729707 ], [ -117.143103, 32.730381 ] ] } },
{ "type": "Feature", "properties": { "cls": "painted", "highway": "secondary", "name": "Pershing Drive" }, "geometry": { "type": "LineString", "coordinates": [ [ -117.138355, 32.731086 ], [ -117.1385, 32.730935 ], [ -117.138752, 32.730689 ], [ -117.138954, 32.730532 ], [ -117.139179, 32.73039 ], [ -117.139306, 32.730316 ], [ -117.13947, 32.73023 ], [ -117.139577, 32.730172 ] ] } },
{ "type": "Feature", "properties": { "cls": "painted", "highway": "tertiary", "name": "Florida Drive" }, "geometry": { "type": "LineString", "coordinates": [ [ -117.143103, 32.730381 ], [ -117.143137, 32.730877 ], [ -117.143151, 32.731108 ] ] } },
{ "type": "Feature", "properties": { "cls": "painted", "highway": "secondary", "name": "Pershing Drive" }, "geometry": { "type": "LineString", "coordinates": [ [ -117.137593, 32.731822 ], [ -117.138275, 32.731171 ], [ -117.138355, 32.731086 ] ] } },
{ "type": "Feature", "properties": { "cls": "separated", "highway": "cycleway", "name": null }, "geometry": { "type": "LineString", "coordinates": [ [ -117.14237, 32.722736 ], [ -117.142353, 32.722802 ], [ -117.142353, 32.722884 ], [ -117.142346, 32.722928 ], [ -117.142328, 32.722973 ], [ -117.142288, 32.723071 ], [ -117.142264, 32.723154 ], [ -117.142247, 32.723252 ], [ -117.14224, 32.723352 ], [ -117.142249, 32.723644 ], [ -117.142253, 32.723876 ], [ -117.142245, 32.724057 ], [ -117.142222, 32.724274 ], [ -117.142189, 32.724468 ], [ -117.142144, 32.724648 ], [ -117.142095, 32.72482 ], [ -117.142, 32.725163 ], [ -117.141917, 32.725479 ], [ -117.14187, 32.7257 ], [ -117.141843, 32.725889 ], [ -117.141827, 32.726114 ], [ -117.141815, 32.726319 ], [ -117.141818, 32.726652 ], [ -117.141822, 32.727085 ], [ -117.141828, 32.727503 ], [ -117.141832, 32.727913 ], [ -117.141844, 32.728364 ], [ -117.141851, 32.728863 ], [ -117.141841, 32.728974 ], [ -117.141814, 32.729083 ], [ -117.141784, 32.729172 ], [ -117.141726, 32.72928 ], [ -117.141644, 32.72939 ], [ -117.141575, 32.729467 ], [ -117.141481, 32.729543 ], [ -117.141358, 32.729621 ], [ -117.141244, 32.729669 ], [ -117.141104, 32.729722 ], [ -117.140965, 32.72975 ], [ -117.140721, 32.729801 ], [ -117.140513, 32.729841 ], [ -117.140297, 32.729887 ], [ -117.140089, 32.729935 ], [ -117.139907, 32.729985 ], [ -117.139693, 32.730051 ], [ -117.139502, 32.730122 ], [ -117.139371, 32.730185 ], [ -117.139157, 32.730275 ], [ -117.139008, 32.730348 ], [ -117.138871, 32.730427 ], [ -117.138679, 32.730576 ], [ -117.138477, 32.730751 ], [ -117.13825, 32.730981 ], [ -117.13815, 32.73108 ], [ -117.13805, 32.731177 ], [ -117.137662, 32.731585 ], [ -117.137538, 32.731739 ], [ -117.137427, 32.731878 ], [ -117.137255, 32.732128 ], [ -117.137131, 32.732325 ], [ -117.13696, 32.732627 ], [ -117.136832, 32.7329 ], [ -117.136734, 32.733141 ], [ -117.136642, 32.733404 ], [ -117.136569, 32.733664 ], [ -117.136478, 32.733953 ], [ -117.136395, 32.734228 ], [ -117.136338, 32.734421 ], [ -117.13631, 32.734518 ], [ -117.136271, 32.7346 ], [ -117.136186, 32.734777 ], [ -117.13609, 32.734938 ], [ -117.135911, 32.735218 ], [ -117.135802, 32.735364 ], [ -117.135625, 32.735587 ], [ -117.135473, 32.735802 ], [ -117.135203, 32.736148 ], [ -117.135115, 32.736267 ], [ -117.134826, 32.73663 ], [ -117.1347, 32.736804 ], [ -117.134551, 32.73699 ], [ -117.134439, 32.737127 ], [ -117.134371, 32.737196 ], [ -117.134287, 32.737252 ], [ -117.134262, 32.737268 ], [ -117.134112, 32.737339 ], [ -117.134075, 32.737352 ], [ -117.134034, 32.737372 ], [ -117.134016, 32.737387 ], [ -117.134005, 32.737422 ], [ -117.134007, 32.737447 ], [ -117.134007, 32.737482 ], [ -117.134008, 32.737502 ], [ -117.134024, 32.737552 ], [ -117.13408, 32.737597 ], [ -117.134196, 32.737695 ], [ -117.134239, 32.73775 ], [ -117.134277, 32.737801 ], [ -117.134317, 32.737891 ], [ -117.134352, 32.737967 ], [ -117.134455, 32.738236 ], [ -117.134541, 32.738458 ], [ -117.134608, 32.738656 ], [ -117.134653, 32.73884 ], [ -117.134664, 32.738951 ], [ -117.134677, 32.739041 ], [ -117.134678, 32.739059 ], [ -117.134682, 32.739196 ], [ -117.134677, 32.739322 ], [ -117.134667, 32.739469 ], [ -117.134644, 32.739589 ], [ -117.134615, 32.739713 ], [ -117.13458, 32.739809 ], [ -117.134538, 32.739915 ], [ -117.134504, 32.739994 ], [ -117.134411, 32.740172 ], [ -117.134331, 32.740288 ], [ -117.134257, 32.740392 ], [ -117.134166, 32.740499 ], [ -117.13409, 32.740586 ], [ -117.133975, 32.740693 ], [ -117.133884, 32.740774 ], [ -117.133837, 32.740808 ], [ -117.133793, 32.740841 ] ] } },
{ "type": "Feature", "properties": { "cls": "painted", "highway": "secondary", "name": "Pershing Drive" }, "geometry": { "type": "LineString", "coordinates": [ [ -117.136651, 32.733767 ], [ -117.136783, 32.733301 ], [ -117.136949, 32.73289 ], [ -117.137196, 32.73239 ], [ -117.137371, 32.732114 ], [ -117.137593, 32.731822 ] ] } },
{ "type": "Feature", "properties": { "cls": "painted", "highway": "secondary", "name": "Pershing Drive" }, "geometry": { "type": "LineString", "coordinates": [ [ -117.136216, 32.734909 ], [ -117.136286, 32.734826 ], [ -117.136379, 32.734642 ], [ -117.136451, 32.734467 ], [ -117.13652, 32.734265 ], [ -117.136651, 32.733767 ] ] } },
{ "type": "Feature", "properties": { "cls": "painted", "highway": "secondary", "name": "Pershing Drive" }, "geometry": { "type": "LineString", "coordinates": [ [ -117.136185, 32.734959 ], [ -117.136216, 32.734909 ] ] } },
{ "type": "Feature", "properties": { "cls": "painted", "highway": "secondary", "name": "Pershing Drive" }, "geometry": { "type": "LineString", "coordinates": [ [ -117.136042, 32.735188 ], [ -117.136185, 32.734959 ] ] } },
{ "type": "Feature", "properties": { "cls": "painted", "highway": "tertiary", "name": "Florida Drive" }, "geometry": { "type": "LineString", "coordinates": [ [ -117.143151, 32.731108 ], [ -117.143188, 32.73154 ], [ -117.143322, 32.73283 ], [ -117.143638, 32.73573 ], [ -117.143678, 32.736148 ], [ -117.143695, 32.736613 ], [ -117.143702, 32.737211 ], [ -117.143716, 32.739346 ] ] } },
{ "type": "Feature", "properties": { "cls": "separated", "highway": "primary", "name": "Park Boulevard" }, "geometry": { "type": "LineString", "coordinates": [ [ -117.146369, 32.73009 ], [ -117.146402, 32.729705 ], [ -117.146411, 32.729593 ] ] } },
{ "type": "Feature", "properties": { "cls": "separated", "highway": "primary", "name": "Park Boulevard" }, "geometry": { "type": "LineString", "coordinates": [ [ -117.146262, 32.729582 ], [ -117.146251, 32.729682 ], [ -117.146221, 32.730023 ], [ -117.146164, 32.730814 ], [ -117.146158, 32.730907 ], [ -117.146141, 32.73115 ], [ -117.14607, 32.731881 ], [ -117.146066, 32.731924 ], [ -117.146043, 32.732154 ] ] } },
{ "type": "Feature", "properties": { "cls": "separated", "highway": "primary", "name": "Park Boulevard" }, "geometry": { "type": "LineString", "coordinates": [ [ -117.146088, 32.733091 ], [ -117.146101, 32.732982 ], [ -117.146148, 32.732594 ], [ -117.146203, 32.732061 ], [ -117.14624, 32.731697 ], [ -117.146322, 32.730755 ], [ -117.146358, 32.730226 ], [ -117.146369, 32.73009 ] ] } },
{ "type": "Feature", "properties": { "cls": "separated", "highway": "primary", "name": "Park Boulevard" }, "geometry": { "type": "LineString", "coordinates": [ [ -117.146043, 32.732154 ], [ -117.145993, 32.732649 ] ] } },
{ "type": "Feature", "properties": { "cls": "sharrow", "highway": "primary", "name": "Park Boulevard" }, "geometry": { "type": "LineString", "coordinates": [ [ -117.145993, 32.732649 ], [ -117.145964, 32.732948 ], [ -117.14596, 32.732984 ], [ -117.145954, 32.733089 ] ] } },
{ "type": "Feature", "properties": { "cls": "sharrow", "highway": "unclassified", "name": "Village Place" }, "geometry": { "type": "LineString", "coordinates": [ [ -117.146837, 32.733078 ], [ -117.14621, 32.733089 ], [ -117.146187, 32.733088 ], [ -117.146088, 32.733091 ] ] } },
{ "type": "Feature", "properties": { "cls": "separated", "highway": "primary", "name": "Park Boulevard" }, "geometry": { "type": "LineString", "coordinates": [ [ -117.145954, 32.733089 ], [ -117.145942, 32.73319 ], [ -117.145935, 32.733258 ] ] } },
{ "type": "Feature", "properties": { "cls": "separated", "highway": "primary", "name": "Park Boulevard" }, "geometry": { "type": "LineString", "coordinates": [ [ -117.146059, 32.733378 ], [ -117.146069, 32.733267 ], [ -117.146073, 32.733227 ], [ -117.146077, 32.733198 ], [ -117.146088, 32.733091 ] ] } },
{ "type": "Feature", "properties": { "cls": "separated", "highway": "primary", "name": "Park Boulevard" }, "geometry": { "type": "LineString", "coordinates": [ [ -117.145935, 32.733258 ], [ -117.145887, 32.733683 ], [ -117.145883, 32.733717 ], [ -117.145835, 32.73423 ], [ -117.145819, 32.734386 ] ] } },
{ "type": "Feature", "properties": { "cls": "separated", "highway": "primary", "name": "Park Boulevard" }, "geometry": { "type": "LineString", "coordinates": [ [ -117.14587, 32.735211 ], [ -117.145879, 32.735133 ], [ -117.145887, 32.73507 ], [ -117.145974, 32.734238 ], [ -117.146029, 32.733725 ], [ -117.146059, 32.733378 ] ] } },
{ "type": "Feature", "properties": { "cls": "separated", "highway": "primary", "name": "Park Boulevard" }, "geometry": { "type": "LineString", "coordinates": [ [ -117.145819, 32.734386 ], [ -117.145763, 32.734934 ] ] } },
{ "type": "Feature", "properties": { "cls": "sharrow", "highway": "primary", "name": "Park Boulevard" }, "geometry": { "type": "LineString", "coordinates": [ [ -117.145763, 32.734934 ], [ -117.145751, 32.735059 ], [ -117.145742, 32.735119 ], [ -117.145731, 32.735201 ] ] } },
{ "type": "Feature", "properties": { "cls": "sharrow", "highway": "primary", "name": "Park Boulevard" }, "geometry": { "type": "LineString", "coordinates": [ [ -117.145824, 32.735638 ], [ -117.145851, 32.735362 ], [ -117.145853, 32.735339 ], [ -117.145858, 32.735299 ], [ -117.14587, 32.735211 ] ] } },
{ "type": "Feature", "properties": { "cls": "separated", "highway": "primary", "name": "Park Boulevard" }, "geometry": { "type": "LineString", "coordinates": [ [ -117.145731, 32.735201 ], [ -117.145721, 32.735293 ], [ -117.145716, 32.735348 ], [ -117.145683, 32.735734 ] ] } },
{ "type": "Feature", "properties": { "cls": "sharrow", "highway": "primary", "name": "Park Boulevard" }, "geometry": { "type": "LineString", "coordinates": [ [ -117.145809, 32.73586 ], [ -117.145813, 32.73575 ], [ -117.145824, 32.735638 ] ] } },
{ "type": "Feature", "properties": { "cls": "separated", "highway": "primary", "name": "Park Boulevard" }, "geometry": { "type": "LineString", "coordinates": [ [ -117.145683, 32.735734 ], [ -117.14567, 32.736105 ], [ -117.145685, 32.736597 ], [ -117.145732, 32.736921 ], [ -117.145787, 32.737179 ], [ -117.14588, 32.737548 ], [ -117.145976, 32.737816 ], [ -117.146081, 32.738084 ], [ -117.146254, 32.738433 ], [ -117.146407, 32.738717 ], [ -117.146766, 32.739252 ], [ -117.146976, 32.739557 ] ] } },
{ "type": "Feature", "properties": { "cls": "separated", "highway": "primary", "name": "Park Boulevard" }, "geometry": { "type": "LineString", "coordinates": [ [ -117.147093, 32.739514 ], [ -117.146876, 32.739188 ], [ -117.146532, 32.738662 ], [ -117.146372, 32.738387 ], [ -117.146199, 32.738042 ], [ -117.14609, 32.737774 ], [ -117.145993, 32.737505 ], [ -117.145906, 32.737153 ], [ -117.145855, 32.736882 ], [ -117.145815, 32.736557 ], [ -117.1458, 32.736105 ], [ -117.145809, 32.73586 ] ] } },
{ "type": "Feature", "properties": { "cls": "painted", "highway": "tertiary", "name": "Florida Drive" }, "geometry": { "type": "LineString", "coordinates": [ [ -117.143716, 32.739346 ], [ -117.14371, 32.73954 ] ] } },
{ "type": "Feature", "properties": { "cls": "separated", "highway": "cycleway", "name": null }, "geometry": { "type": "LineString", "coordinates": [ [ -117.143774, 32.739622 ], [ -117.143732, 32.73962 ], [ -117.143679, 32.739618 ], [ -117.143636, 32.739616 ] ] } },
{ "type": "Feature", "properties": { "cls": "painted", "highway": "tertiary", "name": "Florida Drive" }, "geometry": { "type": "LineString", "coordinates": [ [ -117.14371, 32.73954 ], [ -117.143679, 32.739618 ], [ -117.14366, 32.739666 ], [ -117.143625, 32.739716 ] ] } },
{ "type": "Feature", "properties": { "cls": "painted", "highway": "secondary", "name": "Pershing Drive" }, "geometry": { "type": "LineString", "coordinates": [ [ -117.135153, 32.736388 ], [ -117.135328, 32.736207 ], [ -117.135734, 32.735657 ], [ -117.135984, 32.735299 ], [ -117.136042, 32.735188 ] ] } },
{ "type": "Feature", "properties": { "cls": "separated", "highway": "secondary", "name": "Pershing Drive" }, "geometry": { "type": "LineString", "coordinates": [ [ -117.135005, 32.736585 ], [ -117.135153, 32.736388 ] ] } },
{ "type": "Feature", "properties": { "cls": "painted", "highway": "secondary", "name": "Pershing Drive" }, "geometry": { "type": "LineString", "coordinates": [ [ -117.134401, 32.73742 ], [ -117.134448, 32.737327 ], [ -117.134485, 32.737253 ], [ -117.134591, 32.737124 ], [ -117.134972, 32.736678 ], [ -117.135005, 32.736585 ] ] } },
{ "type": "Feature", "properties": { "cls": "painted", "highway": "secondary", "name": "Pershing Drive" }, "geometry": { "type": "LineString", "coordinates": [ [ -117.134794, 32.738944 ], [ -117.134765, 32.73879 ], [ -117.134719, 32.738604 ], [ -117.134636, 32.73836 ], [ -117.134511, 32.738021 ], [ -117.134451, 32.737866 ], [ -117.134377, 32.737738 ], [ -117.134373, 32.737698 ], [ -117.134361, 32.737583 ] ] } },
{ "type": "Feature", "properties": { "cls": "painted", "highway": "secondary", "name": "Pershing Drive" }, "geometry": { "type": "LineString", "coordinates": [ [ -117.134556, 32.740053 ], [ -117.134626, 32.739955 ], [ -117.134677, 32.739843 ], [ -117.134711, 32.739748 ], [ -117.134742, 32.739644 ], [ -117.134775, 32.739467 ], [ -117.13479, 32.73935 ], [ -117.1348, 32.739225 ], [ -117.1348, 32.739096 ], [ -117.134803, 32.739062 ], [ -117.134798, 32.73899 ], [ -117.134794, 32.738944 ] ] } },
{ "type": "Feature", "properties": { "cls": "separated", "highway": "cycleway", "name": null }, "geometry": { "type": "LineString", "coordinates": [ [ -117.143636, 32.739616 ], [ -117.143621, 32.739652 ], [ -117.143598, 32.739685 ], [ -117.143566, 32.739707 ], [ -117.143492, 32.739741 ], [ -117.143446, 32.739757 ] ] } },
{ "type": "Feature", "properties": { "cls": "painted", "highway": "tertiary", "name": null }, "geometry": { "type": "LineString", "coordinates": [ [ -117.143625, 32.739716 ], [ -117.143589, 32.739734 ], [ -117.143571, 32.73975 ] ] } },
{ "type": "Feature", "properties": { "cls": "painted", "highway": "tertiary", "name": "Morley Field Drive" }, "geometry": { "type": "LineString", "coordinates": [ [ -117.143571, 32.73975 ], [ -117.14351, 32.739771 ], [ -117.143447, 32.739781 ], [ -117.143343, 32.739818 ] ] } },
{ "type": "Feature", "properties": { "cls": "separated", "highway": "cycleway", "name": null }, "geometry": { "type": "LineString", "coordinates": [ [ -117.143446, 32.739757 ], [ -117.143447, 32.739781 ], [ -117.143447, 32.739832 ], [ -117.143448, 32.73986 ] ] } },
{ "type": "Feature", "properties": { "cls": "painted", "highway": "tertiary", "name": "Morley Field Drive" }, "geometry": { "type": "LineString", "coordinates": [ [ -117.143343, 32.739818 ], [ -117.143447, 32.739832 ], [ -117.143501, 32.739835 ], [ -117.143565, 32.739844 ] ] } },
{ "type": "Feature", "properties": { "cls": "painted", "highway": "tertiary", "name": "Florida Drive" }, "geometry": { "type": "LineString", "coordinates": [ [ -117.143747, 32.739731 ], [ -117.143734, 32.739669 ], [ -117.143732, 32.73962 ], [ -117.14371, 32.73954 ] ] } },
{ "type": "Feature", "properties": { "cls": "separated", "highway": "primary", "name": "Park Boulevard" }, "geometry": { "type": "LineString", "coordinates": [ [ -117.146976, 32.739557 ], [ -117.147112, 32.739755 ] ] } },
{ "type": "Feature", "properties": { "cls": "separated", "highway": "cycleway", "name": null }, "geometry": { "type": "LineString", "coordinates": [ [ -117.143878, 32.739756 ], [ -117.143832, 32.739744 ], [ -117.143802, 32.739724 ], [ -117.143784, 32.739703 ], [ -117.143775, 32.739668 ], [ -117.143774, 32.739622 ] ] } },
{ "type": "Feature", "properties": { "cls": "painted", "highway": "tertiary", "name": null }, "geometry": { "type": "LineString", "coordinates": [ [ -117.143761, 32.739749 ], [ -117.143747, 32.739731 ] ] } },
{ "type": "Feature", "properties": { "cls": "painted", "highway": "tertiary", "name": "Morley Field Drive" }, "geometry": { "type": "LineString", "coordinates": [ [ -117.143971, 32.739794 ], [ -117.143941, 32.739787 ], [ -117.143877, 32.73979 ], [ -117.143835, 32.739786 ], [ -117.143761, 32.739749 ] ] } },
{ "type": "Feature", "properties": { "cls": "separated", "highway": "cycleway", "name": null }, "geometry": { "type": "LineString", "coordinates": [ [ -117.143878, 32.739847 ], [ -117.143878, 32.739821 ], [ -117.143877, 32.73979 ], [ -117.143878, 32.739756 ] ] } },
{ "type": "Feature", "properties": { "cls": "sharrow", "highway": "tertiary", "name": "Morley Field Drive" }, "geometry": { "type": "LineString", "coordinates": [ [ -117.143764, 32.739848 ], [ -117.143841, 32.739827 ], [ -117.143878, 32.739821 ], [ -117.143942, 32.73981 ], [ -117.143971, 32.739794 ] ] } },
{ "type": "Feature", "properties": { "cls": "separated", "highway": "cycleway", "name": null }, "geometry": { "type": "LineString", "coordinates": [ [ -117.143777, 32.739964 ], [ -117.143792, 32.739919 ], [ -117.14382, 32.739885 ], [ -117.143851, 32.739863 ], [ -117.143878, 32.739847 ] ] } },
{ "type": "Feature", "properties": { "cls": "separated", "highway": "cycleway", "name": null }, "geometry": { "type": "LineString", "coordinates": [ [ -117.143646, 32.739991 ], [ -117.143687, 32.739983 ], [ -117.143732, 32.739973 ], [ -117.143777, 32.739964 ] ] } },
{ "type": "Feature", "properties": { "cls": "painted", "highway": "tertiary", "name": "Florida Drive" }, "geometry": { "type": "LineString", "coordinates": [ [ -117.143726, 32.740087 ], [ -117.143735, 32.74002 ], [ -117.143732, 32.739973 ], [ -117.143727, 32.739881 ] ] } },
{ "type": "Feature", "properties": { "cls": "separated", "highway": "cycleway", "name": null }, "geometry": { "type": "LineString", "coordinates": [ [ -117.143448, 32.73986 ], [ -117.143513, 32.739874 ], [ -117.143569, 32.739895 ], [ -117.143613, 32.739932 ], [ -117.143636, 32.739964 ], [ -117.143646, 32.739991 ] ] } },
{ "type": "Feature", "properties": { "cls": "painted", "highway": "tertiary", "name": "Morley Field Drive" }, "geometry": { "type": "LineString", "coordinates": [ [ -117.143343, 32.739818 ], [ -117.143224, 32.739817 ], [ -117.142953, 32.739861 ], [ -117.142715, 32.739947 ], [ -117.142598, 32.740014 ], [ -117.142502, 32.740081 ], [ -117.142387, 32.740192 ], [ -117.142326, 32.740315 ], [ -117.142298, 32.740387 ], [ -117.142284, 32.740503 ], [ -117.14228, 32.74093 ] ] } },
{ "type": "Feature", "properties": { "cls": "painted", "highway": "secondary", "name": "Pershing Drive" }, "geometry": { "type": "LineString", "coordinates": [ [ -117.133859, 32.740875 ], [ -117.133889, 32.740849 ], [ -117.133911, 32.740829 ], [ -117.133948, 32.740798 ], [ -117.134019, 32.740734 ], [ -117.134135, 32.740629 ], [ -117.134253, 32.740501 ], [ -117.134345, 32.740382 ], [ -117.134438, 32.740248 ], [ -117.134556, 32.740053 ] ] } },
{ "type": "Feature", "properties": { "cls": "painted", "highway": "tertiary", "name": "Florida Drive" }, "geometry": { "type": "LineString", "coordinates": [ [ -117.143616, 32.739882 ], [ -117.143669, 32.739935 ], [ -117.143687, 32.739983 ], [ -117.143726, 32.740087 ] ] } },
{ "type": "Feature", "properties": { "cls": "sharrow", "highway": "tertiary", "name": "Morley Field Drive" }, "geometry": { "type": "LineString", "coordinates": [ [ -117.146921, 32.740326 ], [ -117.146843, 32.740341 ], [ -117.146446, 32.740353 ], [ -117.146111, 32.740299 ], [ -117.144722, 32.73988 ], [ -117.144409, 32.739819 ], [ -117.144297, 32.739801 ], [ -117.144091, 32.739791 ], [ -117.143971, 32.739794 ] ] } },
{ "type": "Feature", "properties": { "cls": "sharrow", "highway": "tertiary", "name": "Morley Field Drive" }, "geometry": { "type": "LineString", "coordinates": [ [ -117.147335, 32.740231 ], [ -117.147237, 32.740248 ], [ -117.147213, 32.740254 ], [ -117.147057, 32.740299 ], [ -117.146921, 32.740326 ] ] } },
{ "type": "Feature", "properties": { "cls": "painted", "highway": "tertiary", "name": "Florida Drive" }, "geometry": { "type": "LineString", "coordinates": [ [ -117.143726, 32.740087 ], [ -117.143719, 32.74112 ], [ -117.143721, 32.741149 ] ] } },
{ "type": "Feature", "properties": { "cls": "separated", "highway": "primary", "name": "Park Boulevard" }, "geometry": { "type": "LineString", "coordinates": [ [ -117.14744, 32.74088 ], [ -117.147441, 32.7409 ], [ -117.147445, 32.741041 ], [ -117.147445, 32.74106 ], [ -117.147446, 32.741095 ], [ -117.147447, 32.741102 ] ] } },
{ "type": "Feature", "properties": { "cls": "separated", "highway": "primary", "name": "Park Boulevard" }, "geometry": { "type": "LineString", "coordinates": [ [ -117.147574, 32.741148 ], [ -117.147577, 32.74109 ], [ -117.147577, 32.741081 ], [ -117.147582, 32.740903 ] ] } }
]
}
