{
"type": "FeatureCollection",
"name": "160-san-diego-black-mountain-open-space-park",
"crs": { "type": "name", "properties": { "name": "urn:ogc:def:crs:OGC:1.3:CRS84" } },
"xy_coordinate_resolution": 1e-06,
"features": [
{ "type": "Feature", "properties": { "cls": "shared", "highway": "cycleway", "name": "Lusardi Creek Loop Trail" }, "geometry": { "type": "LineString", "coordinates": [ [ -117.131869, 32.990686 ], [ -117.132143, 32.990731 ], [ -117.132361, 32.99014 ], [ -117.132384, 32.990078 ], [ -117.132861, 32.989127 ], [ -117.132835, 32.988292 ], [ -117.132957, 32.98802 ] ] } },
{ "type": "Feature", "properties": { "cls": "shared", "highway": "cycleway", "name": "Lusardi Creek Loop Trail" }, "geometry": { "type": "LineString", "coordinates": [ [ -117.129687, 32.997775 ], [ -117.129713, 32.997727 ], [ -117.129711, 32.997397 ], [ -117.129667, 32.997139 ] ] } },
{ "type": "Feature", "properties": { "cls": "shared", "highway": "cycleway", "name": "Lusardi Creek Loop Trail" }, "geometry": { "type": "LineString", "coordinates": [ [ -117.14524, 33.004491 ], [ -117.145034, 33.004471 ], [ -117.144783, 33.004404 ], [ -117.144615, 33.004291 ], [ -117.144524, 33.004133 ], [ -117.144529, 33.003926 ], [ -117.144401, 33.003805 ], [ -117.143306, 33.003531 ], [ -117.142518, 33.003487 ], [ -117.142491, 33.003486 ], [ -117.140919, 33.00313 ], [ -117.140399, 33.003072 ], [ -117.139817, 33.002829 ] ] } },
{ "type": "Feature", "properties": { "cls": "shared", "highway": "cycleway", "name": "Lusardi Creek Loop Trail" }, "geometry": { "type": "MultiLineString", "coordinates": [ [ [ -117.163812, 33.004567 ], [ -117.164032, 33.004676 ], [ -117.164477, 33.004905 ], [ -117.164898, 33.005116 ], [ -117.165222, 33.005209 ], [ -117.165426, 33.005214 ], [ -117.165619, 33.0052 ], [ -117.165924, 33.005169 ], [ -117.166246, 33.005104 ], [ -117.16633, 33.005102 ], [ -117.166385, 33.005108 ], [ -117.166503, 33.005098 ], [ -117.16665, 33.005049 ], [ -117.166784, 33.005008 ], [ -117.166881, 33.005007 ], [ -117.166935, 33.005029 ] ], [ [ -117.166997, 33.005165 ], [ -117.166998, 33.005175 ], [ -117.166986, 33.005278 ], [ -117.166948, 33.005384 ], [ -117.166916, 33.005429 ], [ -117.166855, 33.005502 ], [ -117.166593, 33.005661 ], [ -117.166254, 33.005803 ], [ -117.165903, 33.005895 ], [ -117.165676, 33.005932 ], [ -117.165403, 33.005958 ], [ -117.165031, 33.006009 ], [ -117.164842, 33.006028 ], [ -117.164668, 33.006037 ], [ -117.164447, 33.006044 ], [ -117.164368, 33.006033 ], [ -117.164266, 33.005991 ], [ -117.164174, 33.005942 ], [ -117.16407, 33.005864 ], [ -117.163869, 33.005715 ], [ -117.163743, 33.005654 ], [ -117.163619, 33.005627 ], [ -117.163537, 33.005633 ], [ -117.163439, 33.005656 ], [ -117.163295, 33.00571 ], [ -117.163169, 33.005746 ], [ -117.163063, 33.005749 ], [ -117.162968, 33.005738 ], [ -117.162892, 33.005701 ], [ -117.162808, 33.00566 ], [ -117.162751, 33.005615 ], [ -117.162688, 33.00555 ], [ -117.16265, 33.005486 ], [ -117.162575, 33.005326 ], [ -117.162536, 33.005258 ], [ -117.162503, 33.005215 ], [ -117.16247, 33.005182 ], [ -117.162417, 33.005164 ], [ -117.162396, 33.005155 ], [ -117.162343, 33.00516 ], [ -117.162263, 33.005197 ], [ -117.162133, 33.005262 ], [ -117.161958, 33.005312 ], [ -117.161859, 33.005332 ], [ -117.161781, 33.005346 ], [ -117.161669, 33.005348 ], [ -117.161586, 33.005334 ], [ -117.161491, 33.005292 ], [ -117.161341, 33.005215 ], [ -117.161298, 33.005193 ], [ -117.161066, 33.005074 ], [ -117.16074, 33.004939 ], [ -117.160505, 33.004837 ], [ -117.160374, 33.004807 ], [ -117.160279, 33.004798 ], [ -117.1602, 33.004802 ], [ -117.159891, 33.004837 ], [ -117.159597, 33.004876 ], [ -117.159456, 33.004891 ], [ -117.159352, 33.004895 ], [ -117.159243, 33.004892 ], [ -117.159133, 33.004852 ], [ -117.15904, 33.004786 ], [ -117.158972, 33.004706 ], [ -117.158878, 33.004579 ], [ -117.158777, 33.004438 ], [ -117.158718, 33.00437 ], [ -117.158677, 33.00434 ], [ -117.158647, 33.004318 ], [ -117.158593, 33.004308 ], [ -117.158528, 33.004316 ], [ -117.158483, 33.004336 ], [ -117.158461, 33.00435 ], [ -117.158436, 33.004392 ], [ -117.158408, 33.004455 ], [ -117.158389, 33.004535 ], [ -117.158351, 33.004614 ], [ -117.158292, 33.0047 ], [ -117.158164, 33.004813 ], [ -117.158049, 33.004897 ], [ -117.157932, 33.004966 ], [ -117.15784, 33.005026 ], [ -117.157787, 33.00508 ], [ -117.157706, 33.005188 ], [ -117.157587, 33.005318 ], [ -117.157397, 33.005506 ], [ -117.157237, 33.005656 ], [ -117.157096, 33.005779 ], [ -117.156966, 33.005887 ], [ -117.156876, 33.005957 ], [ -117.156782, 33.005997 ], [ -117.156665, 33.005999 ], [ -117.156492, 33.005986 ], [ -117.15639, 33.005956 ], [ -117.156348, 33.005918 ], [ -117.156326, 33.005866 ], [ -117.156336, 33.005798 ], [ -117.15636, 33.005694 ], [ -117.156359, 33.005632 ], [ -117.156331, 33.00558 ], [ -117.156274, 33.005527 ], [ -117.156204, 33.005492 ], [ -117.156118, 33.005469 ], [ -117.155913, 33.005392 ], [ -117.155828, 33.005341 ], [ -117.15574, 33.005263 ], [ -117.155339, 33.004882 ], [ -117.15521, 33.004778 ], [ -117.155084, 33.004713 ], [ -117.154968, 33.004668 ], [ -117.154832, 33.004621 ], [ -117.154695, 33.004552 ], [ -117.154657, 33.004514 ], [ -117.154632, 33.004457 ], [ -117.154588, 33.004349 ], [ -117.154506, 33.00415 ], [ -117.154406, 33.004019 ], [ -117.154183, 33.003645 ], [ -117.154144, 33.003582 ], [ -117.154085, 33.003519 ], [ -117.15396, 33.003406 ], [ -117.153858, 33.003319 ], [ -117.153825, 33.003292 ], [ -117.153778, 33.003263 ], [ -117.153718, 33.003234 ], [ -117.153648, 33.003223 ], [ -117.153618, 33.003219 ], [ -117.153576, 33.003231 ], [ -117.153526, 33.003259 ], [ -117.153487, 33.003302 ], [ -117.153375, 33.003473 ], [ -117.15325, 33.003654 ], [ -117.153183, 33.003741 ], [ -117.153128, 33.00378 ], [ -117.153086, 33.003787 ], [ -117.15304, 33.003786 ], [ -117.152993, 33.003775 ], [ -117.152916, 33.003732 ], [ -117.152725, 33.003605 ], [ -117.152592, 33.003509 ], [ -117.152457, 33.003421 ], [ -117.152312, 33.00335 ], [ -117.152133, 33.003272 ], [ -117.152048, 33.003242 ], [ -117.151954, 33.003225 ], [ -117.15187, 33.003224 ], [ -117.151806, 33.003236 ], [ -117.151754, 33.003266 ], [ -117.151709, 33.003316 ], [ -117.151696, 33.003351 ], [ -117.151683, 33.003404 ], [ -117.151658, 33.003522 ], [ -117.151657, 33.003622 ], [ -117.151675, 33.003727 ], [ -117.151706, 33.003806 ], [ -117.151758, 33.003877 ], [ -117.151878, 33.003971 ], [ -117.151921, 33.004026 ], [ -117.151933, 33.004098 ], [ -117.151931, 33.004231 ], [ -117.151916, 33.004345 ], [ -117.151895, 33.00456 ], [ -117.1519, 33.00472 ], [ -117.151927, 33.00498 ], [ -117.15194, 33.005126 ], [ -117.151927, 33.005209 ], [ -117.151913, 33.005256 ], [ -117.151876, 33.005304 ], [ -117.151834, 33.005355 ], [ -117.151753, 33.005396 ], [ -117.151689, 33.005402 ], [ -117.151635, 33.005386 ], [ -117.151577, 33.005355 ], [ -117.15151, 33.005278 ], [ -117.151378, 33.005125 ], [ -117.151307, 33.005058 ], [ -117.15122, 33.004979 ], [ -117.151142, 33.004901 ], [ -117.151026, 33.004805 ], [ -117.150871, 33.004715 ], [ -117.150785, 33.004675 ], [ -117.150707, 33.004658 ], [ -117.150637, 33.00468 ], [ -117.150547, 33.004726 ], [ -117.150328, 33.004855 ], [ -117.150145, 33.004965 ], [ -117.14997, 33.005054 ], [ -117.149944, 33.005085 ], [ -117.149938, 33.005104 ], [ -117.149938, 33.005146 ] ] ] } },
{ "type": "Feature", "properties": { "cls": "shared", "highway": "cycleway", "name": "Lusardi Creek Loop Trail" }, "geometry": { "type": "LineString", "coordinates": [ [ -117.149945, 33.005213 ], [ -117.149944, 33.005224 ], [ -117.149939, 33.005252 ], [ -117.149927, 33.005275 ], [ -117.149904, 33.005298 ], [ -117.149882, 33.005323 ], [ -117.149851, 33.00536 ], [ -117.149821, 33.005394 ], [ -117.149791, 33.005405 ], [ -117.149745, 33.005411 ], [ -117.149694, 33.005407 ], [ -117.149602, 33.005389 ], [ -117.149145, 33.005282 ], [ -117.149015, 33.005252 ], [ -117.148927, 33.005236 ], [ -117.148854, 33.005231 ], [ -117.148371, 33.005109 ], [ -117.148281, 33.005086 ], [ -117.148224, 33.005059 ], [ -117.148163, 33.00502 ], [ -117.14807, 33.004968 ], [ -117.147943, 33.004898 ], [ -117.147818, 33.004832 ], [ -117.147757, 33.004805 ] ] } },
{ "type": "Feature", "properties": { "cls": "shared", "highway": "cycleway", "name": "Lusardi Creek Loop Trail" }, "geometry": { "type": "LineString", "coordinates": [ [ -117.149938, 33.005146 ], [ -117.149945, 33.005213 ] ] } }
]
}
