{
"type": "FeatureCollection",
"name": "161-colorado-springs-north-cheyenne-canon-park",
"crs": { "type": "name", "properties": { "name": "urn:ogc:def:crs:OGC:1.3:CRS84" } },
"xy_coordinate_resolution": 1e-06,
"features": [
{ "type": "Feature", "properties": { "cls": "shared", "highway": "path", "name": "Daniels Pass Trail" }, "geometry": { "type": "LineString", "coordinates": [ [ -104.895071, 38.785271 ], [ -104.895207, 38.785353 ], [ -104.895202, 38.785408 ], [ -104.895146, 38.785399 ], [ -104.895008, 38.785353 ], [ -104.894796, 38.785388 ], [ -104.894528, 38.785332 ], [ -104.89419, 38.785345 ], [ -104.894051, 38.78552 ], [ -104.893971, 38.785715 ], [ -104.893851, 38.785868 ], [ -104.893733, 38.785872 ], [ -104.893593, 38.785941 ], [ -104.893263, 38.785926 ], [ -104.893126, 38.786006 ], [ -104.893113, 38.786163 ], [ -104.892968, 38.786487 ], [ -104.892912, 38.786643 ], [ -104.893, 38.786574 ], [ -104.893105, 38.786459 ], [ -104.893027, 38.786669 ], [ -104.893, 38.786934 ], [ -104.893081, 38.787166 ], [ -104.893175, 38.787404 ], [ -104.893177, 38.787517 ], [ -104.89325, 38.787517 ], [ -104.893298, 38.78748 ], [ -104.893314, 38.786986 ], [ -104.893371, 38.786809 ], [ -104.893526, 38.78662 ], [ -104.893674, 38.786505 ], [ -104.893827, 38.786554 ], [ -104.893904, 38.786618 ] ] } },
{ "type": "Feature", "properties": { "cls": "shared", "highway": "path", "name": "Bruin Trail" }, "geometry": { "type": "LineString", "coordinates": [ [ -104.893904, 38.786618 ], [ -104.894028, 38.786641 ], [ -104.894253, 38.786636 ], [ -104.89451, 38.786437 ], [ -104.894721, 38.786307 ], [ -104.894929, 38.786395 ], [ -104.895023, 38.786657 ], [ -104.895082, 38.786913 ], [ -104.89516, 38.787223 ], [ -104.89525, 38.787356 ], [ -104.895342, 38.787576 ], [ -104.895358, 38.787691 ], [ -104.895433, 38.787628 ], [ -104.895701, 38.787264 ], [ -104.895776, 38.787206 ], [ -104.895854, 38.787229 ], [ -104.895887, 38.787227 ], [ -104.896141, 38.78706 ], [ -104.89667, 38.786846 ], [ -104.896994, 38.786735 ], [ -104.897115, 38.786758 ], [ -104.897211, 38.786777 ], [ -104.897327, 38.786715 ], [ -104.89738, 38.786629 ], [ -104.897555, 38.786593 ], [ -104.89774, 38.786625 ], [ -104.898021, 38.78674 ], [ -104.898158, 38.786744 ], [ -104.898327, 38.786646 ], [ -104.898502, 38.786468 ], [ -104.898582, 38.786359 ], [ -104.898724, 38.786393 ], [ -104.898832, 38.786541 ], [ -104.898861, 38.786696 ], [ -104.898987, 38.786748 ], [ -104.899223, 38.786744 ], [ -104.899355, 38.786811 ], [ -104.89943, 38.786896 ], [ -104.899644, 38.786949 ], [ -104.899963, 38.787108 ], [ -104.900207, 38.787283 ], [ -104.900242, 38.78735 ], [ -104.900014, 38.787262 ], [ -104.899878, 38.787256 ], [ -104.899722, 38.787196 ], [ -104.899671, 38.787189 ], [ -104.899722, 38.787346 ] ] } },
{ "type": "Feature", "properties": { "cls": "shared", "highway": "cycleway", "name": "Bruin Trail" }, "geometry": { "type": "LineString", "coordinates": [ [ -104.899722, 38.787346 ], [ -104.899722, 38.787496 ] ] } },
{ "type": "Feature", "properties": { "cls": "shared", "highway": "path", "name": "Daniels Pass Trail" }, "geometry": { "type": "LineString", "coordinates": [ [ -104.893904, 38.786618 ], [ -104.893717, 38.786612 ], [ -104.893706, 38.78674 ], [ -104.893655, 38.786949 ], [ -104.893655, 38.787189 ], [ -104.893663, 38.787281 ], [ -104.893746, 38.787137 ], [ -104.893837, 38.786932 ], [ -104.893894, 38.786805 ], [ -104.894108, 38.786811 ], [ -104.894344, 38.786805 ], [ -104.894578, 38.786712 ], [ -104.894532, 38.78679 ], [ -104.894409, 38.786901 ], [ -104.894181, 38.786959 ], [ -104.894127, 38.78703 ], [ -104.894253, 38.787037 ], [ -104.894218, 38.787181 ], [ -104.894237, 38.787279 ], [ -104.894317, 38.787185 ], [ -104.89439, 38.787321 ], [ -104.894401, 38.787486 ], [ -104.894532, 38.787392 ], [ -104.894527, 38.787296 ], [ -104.894567, 38.787254 ], [ -104.894631, 38.787405 ], [ -104.894564, 38.787572 ], [ -104.894411, 38.78772 ], [ -104.894403, 38.787902 ], [ -104.894307, 38.788017 ], [ -104.894202, 38.788065 ], [ -104.894156, 38.788193 ], [ -104.894148, 38.78836 ], [ -104.893915, 38.788567 ], [ -104.8938, 38.788598 ], [ -104.89351, 38.788563 ], [ -104.893392, 38.788521 ], [ -104.893265, 38.788563 ], [ -104.893221, 38.788639 ], [ -104.893285, 38.788654 ], [ -104.893171, 38.788772 ], [ -104.893035, 38.788915 ], [ -104.893063, 38.788936 ], [ -104.893136, 38.78889 ], [ -104.893299, 38.788792 ], [ -104.89344, 38.788777 ], [ -104.893442, 38.788831 ], [ -104.893275, 38.788963 ], [ -104.893271, 38.789 ], [ -104.893366, 38.78902 ], [ -104.893513, 38.788952 ], [ -104.89344, 38.789056 ], [ -104.893212, 38.789184 ], [ -104.893003, 38.789276 ], [ -104.892919, 38.789395 ], [ -104.893013, 38.789356 ], [ -104.893132, 38.789335 ], [ -104.893302, 38.789351 ], [ -104.89353, 38.789262 ], [ -104.893632, 38.789274 ], [ -104.893456, 38.789431 ], [ -104.893306, 38.789498 ], [ -104.893389, 38.789539 ], [ -104.893762, 38.789491 ], [ -104.894159, 38.789419 ], [ -104.89434, 38.789448 ], [ -104.894442, 38.789524 ] ] } },
{ "type": "Feature", "properties": { "cls": "shared", "highway": "path", "name": "Bruin Trail" }, "geometry": { "type": "LineString", "coordinates": [ [ -104.900348, 38.787958 ], [ -104.900354, 38.787973 ], [ -104.900382, 38.788051 ], [ -104.900307, 38.788105 ], [ -104.900098, 38.788147 ], [ -104.899969, 38.788065 ], [ -104.899829, 38.787965 ], [ -104.899676, 38.787931 ], [ -104.899467, 38.787971 ], [ -104.899398, 38.787917 ], [ -104.899357, 38.787791 ], [ -104.899269, 38.787699 ], [ -104.899207, 38.787699 ], [ -104.899137, 38.787752 ], [ -104.899068, 38.787852 ], [ -104.899062, 38.787908 ], [ -104.899151, 38.787881 ], [ -104.89922, 38.787865 ], [ -104.899274, 38.787896 ], [ -104.899339, 38.787986 ], [ -104.899368, 38.78809 ], [ -104.899419, 38.788118 ], [ -104.899545, 38.788115 ], [ -104.899577, 38.788151 ], [ -104.899462, 38.788186 ], [ -104.899395, 38.788197 ], [ -104.899269, 38.788172 ], [ -104.899148, 38.788122 ], [ -104.899006, 38.788124 ], [ -104.898896, 38.788163 ], [ -104.89883, 38.788228 ], [ -104.899054, 38.788196 ], [ -104.899195, 38.788303 ], [ -104.899404, 38.788422 ], [ -104.899527, 38.788489 ], [ -104.899388, 38.788511 ], [ -104.899197, 38.788462 ], [ -104.899061, 38.788439 ], [ -104.898987, 38.788486 ], [ -104.899083, 38.78868 ], [ -104.899181, 38.788667 ], [ -104.899332, 38.788642 ], [ -104.899503, 38.788761 ] ] } },
{ "type": "Feature", "properties": { "cls": "shared", "highway": "path", "name": "South Canyon Trail" }, "geometry": { "type": "LineString", "coordinates": [ [ -104.866039, 38.787404 ], [ -104.866068, 38.78739 ], [ -104.866176, 38.787484 ], [ -104.866276, 38.787581 ], [ -104.866345, 38.787607 ], [ -104.866415, 38.787609 ], [ -104.866473, 38.78759 ], [ -104.866658, 38.787472 ], [ -104.866823, 38.787357 ], [ -104.866896, 38.787314 ], [ -104.866956, 38.787263 ], [ -104.867054, 38.787219 ], [ -104.867102, 38.787183 ], [ -104.86724, 38.787069 ], [ -104.867334, 38.787021 ], [ -104.867389, 38.78702 ], [ -104.867404, 38.78702 ], [ -104.867509, 38.78702 ], [ -104.867576, 38.78702 ], [ -104.867646, 38.787 ], [ -104.867766, 38.786931 ], [ -104.868029, 38.786791 ], [ -104.868214, 38.786708 ], [ -104.868372, 38.786606 ], [ -104.868501, 38.786523 ], [ -104.868541, 38.786497 ], [ -104.868659, 38.786418 ], [ -104.868865, 38.786278 ], [ -104.869157, 38.786051 ], [ -104.8693, 38.785976 ], [ -104.869434, 38.785913 ], [ -104.869558, 38.785869 ], [ -104.869597, 38.785853 ] ] } },
{ "type": "Feature", "properties": { "cls": "shared", "highway": "path", "name": "South Canyon Trail" }, "geometry": { "type": "LineString", "coordinates": [ [ -104.86592, 38.787491 ], [ -104.866039, 38.787404 ] ] } },
{ "type": "Feature", "properties": { "cls": "shared", "highway": "path", "name": "South Canyon Trail" }, "geometry": { "type": "LineString", "coordinates": [ [ -104.865175, 38.789685 ], [ -104.865179, 38.789658 ], [ -104.865181, 38.789628 ], [ -104.865069, 38.789621 ], [ -104.865032, 38.7896 ], [ -104.864967, 38.789562 ], [ -104.864788, 38.789545 ], [ -104.864471, 38.789525 ], [ -104.864335, 38.789496 ], [ -104.864229, 38.78945 ], [ -104.864254, 38.789398 ], [ -104.864341, 38.789342 ], [ -104.864425, 38.789298 ], [ -104.864493, 38.789246 ], [ -104.864472, 38.789121 ], [ -104.864495, 38.789076 ], [ -104.86455, 38.789035 ], [ -104.864637, 38.789014 ], [ -104.864661, 38.788962 ], [ -104.86468, 38.788906 ], [ -104.864713, 38.788816 ], [ -104.864726, 38.788771 ], [ -104.864702, 38.788727 ], [ -104.864656, 38.78869 ], [ -104.864576, 38.788654 ], [ -104.864479, 38.788627 ], [ -104.864436, 38.788605 ], [ -104.864404, 38.788572 ], [ -104.864384, 38.788547 ], [ -104.864317, 38.788457 ], [ -104.864273, 38.788399 ], [ -104.864258, 38.788333 ], [ -104.864297, 38.788245 ], [ -104.864324, 38.788194 ], [ -104.864387, 38.788154 ], [ -104.864457, 38.788083 ], [ -104.864536, 38.788039 ], [ -104.86461, 38.787975 ], [ -104.864672, 38.787973 ], [ -104.864715, 38.787959 ], [ -104.864755, 38.787919 ], [ -104.864852, 38.787807 ], [ -104.864908, 38.787752 ], [ -104.865001, 38.787695 ], [ -104.865119, 38.787667 ], [ -104.865223, 38.787642 ], [ -104.865276, 38.787626 ], [ -104.865342, 38.787623 ], [ -104.865417, 38.787643 ], [ -104.865511, 38.787688 ], [ -104.865665, 38.787689 ], [ -104.86574, 38.787689 ], [ -104.865809, 38.787671 ], [ -104.865856, 38.787648 ], [ -104.865891, 38.787614 ], [ -104.865898, 38.787542 ], [ -104.86592, 38.787491 ] ] } },
{ "type": "Feature", "properties": { "cls": "shared", "highway": "path", "name": "Columbine Trail" }, "geometry": { "type": "LineString", "coordinates": [ [ -104.87082, 38.7906 ], [ -104.870956, 38.790546 ], [ -104.871069, 38.790497 ], [ -104.871138, 38.790426 ], [ -104.871285, 38.79035 ], [ -104.871415, 38.790354 ], [ -104.871476, 38.790326 ], [ -104.871582, 38.790264 ], [ -104.871647, 38.790199 ], [ -104.871761, 38.790105 ], [ -104.871869, 38.790041 ], [ -104.872129, 38.789889 ], [ -104.872202, 38.789853 ], [ -104.87232, 38.789793 ], [ -104.872384, 38.789765 ], [ -104.872449, 38.789741 ], [ -104.872525, 38.789684 ], [ -104.87261, 38.789656 ] ] } },
{ "type": "Feature", "properties": { "cls": "shared", "highway": "path", "name": "Columbine Trail" }, "geometry": { "type": "LineString", "coordinates": [ [ -104.868987, 38.790904 ], [ -104.869082, 38.79091 ], [ -104.869152, 38.790926 ], [ -104.869246, 38.790938 ], [ -104.869345, 38.790928 ], [ -104.869429, 38.790934 ], [ -104.869511, 38.790954 ], [ -104.869579, 38.790965 ], [ -104.869674, 38.790956 ], [ -104.869823, 38.79095 ], [ -104.869948, 38.790942 ], [ -104.870033, 38.790929 ], [ -104.87011, 38.790907 ], [ -104.87022, 38.790882 ], [ -104.870294, 38.790858 ], [ -104.870426, 38.790832 ], [ -104.870499, 38.79074 ], [ -104.87058, 38.790687 ], [ -104.870612, 38.790647 ], [ -104.870685, 38.790624 ], [ -104.87082, 38.7906 ] ] } },
{ "type": "Feature", "properties": { "cls": "shared", "highway": "path", "name": "Columbine Trail" }, "geometry": { "type": "LineString", "coordinates": [ [ -104.868834, 38.7909 ], [ -104.868987, 38.790904 ] ] } },
{ "type": "Feature", "properties": { "cls": "shared", "highway": "path", "name": null }, "geometry": { "type": "LineString", "coordinates": [ [ -104.865867, 38.791045 ], [ -104.86595, 38.790996 ], [ -104.866057, 38.790985 ], [ -104.866152, 38.790992 ], [ -104.866236, 38.79102 ], [ -104.86632, 38.791047 ], [ -104.866469, 38.79109 ], [ -104.866585, 38.79115 ], [ -104.866793, 38.791195 ] ] } },
{ "type": "Feature", "properties": { "cls": "shared", "highway": "path", "name": "Columbine Trail" }, "geometry": { "type": "LineString", "coordinates": [ [ -104.866793, 38.791195 ], [ -104.866964, 38.791251 ], [ -104.867081, 38.791302 ], [ -104.867189, 38.791339 ], [ -104.867324, 38.791368 ], [ -104.867501, 38.79137 ], [ -104.867676, 38.791344 ], [ -104.867761, 38.791318 ], [ -104.86789, 38.791268 ], [ -104.867954, 38.791249 ], [ -104.868056, 38.791211 ], [ -104.868193, 38.791178 ], [ -104.868263, 38.791135 ], [ -104.868319, 38.791074 ], [ -104.868358, 38.79107 ], [ -104.868551, 38.79103 ], [ -104.868698, 38.790946 ], [ -104.868834, 38.7909 ] ] } },
{ "type": "Feature", "properties": { "cls": "shared", "highway": "path", "name": "Columbine Trail" }, "geometry": { "type": "LineString", "coordinates": [ [ -104.864817, 38.791044 ], [ -104.865056, 38.791128 ], [ -104.865618, 38.791306 ], [ -104.865733, 38.791362 ], [ -104.865759, 38.79138 ], [ -104.865816, 38.791395 ] ] } },
{ "type": "Feature", "properties": { "cls": "shared", "highway": "path", "name": "Columbine Trail" }, "geometry": { "type": "LineString", "coordinates": [ [ -104.867082, 38.791196 ], [ -104.867143, 38.791202 ], [ -104.867237, 38.791249 ], [ -104.867314, 38.791216 ] ] } },
{ "type": "Feature", "properties": { "cls": "shared", "highway": "path", "name": "Columbine Trail" }, "geometry": { "type": "LineString", "coordinates": [ [ -104.87261, 38.789656 ], [ -104.87268, 38.789621 ], [ -104.872808, 38.789586 ], [ -104.872925, 38.789561 ], [ -104.873031, 38.789565 ], [ -104.873143, 38.789583 ], [ -104.87323, 38.789598 ], [ -104.873314, 38.789621 ], [ -104.873394, 38.789653 ], [ -104.873489, 38.789673 ], [ -104.873603, 38.789724 ], [ -104.87374, 38.789789 ], [ -104.873848, 38.789856 ], [ -104.873915, 38.789919 ], [ -104.873988, 38.790069 ], [ -104.874032, 38.790186 ], [ -104.874056, 38.790292 ], [ -104.874079, 38.790343 ], [ -104.874085, 38.790388 ], [ -104.874124, 38.790487 ] ] } },
{ "type": "Feature", "properties": { "cls": "shared", "highway": "path", "name": "Columbine Trail" }, "geometry": { "type": "LineString", "coordinates": [ [ -104.874124, 38.790487 ], [ -104.874141, 38.790531 ], [ -104.874165, 38.790603 ], [ -104.874216, 38.790745 ], [ -104.874265, 38.790798 ], [ -104.874279, 38.790824 ], [ -104.874285, 38.790815 ], [ -104.874305, 38.790774 ], [ -104.874301, 38.790711 ], [ -104.874301, 38.790678 ], [ -104.874319, 38.790671 ], [ -104.874331, 38.790687 ], [ -104.874325, 38.790791 ], [ -104.874354, 38.790837 ], [ -104.874445, 38.790974 ], [ -104.874503, 38.791014 ], [ -104.87454, 38.790995 ], [ -104.874533, 38.79092 ], [ -104.874474, 38.790816 ], [ -104.874499, 38.790788 ], [ -104.874543, 38.790831 ], [ -104.874587, 38.790899 ], [ -104.874611, 38.790986 ], [ -104.874664, 38.791064 ] ] } },
{ "type": "Feature", "properties": { "cls": "shared", "highway": "path", "name": "Columbine Trail" }, "geometry": { "type": "LineString", "coordinates": [ [ -104.876816, 38.79178 ], [ -104.876918, 38.79176 ], [ -104.877004, 38.791755 ], [ -104.877081, 38.79174 ], [ -104.877146, 38.791717 ], [ -104.877227, 38.791676 ], [ -104.87731, 38.791556 ], [ -104.877379, 38.791453 ], [ -104.87752, 38.791417 ], [ -104.877661, 38.791375 ], [ -104.877819, 38.791254 ], [ -104.877915, 38.791136 ], [ -104.878004, 38.791039 ], [ -104.878072, 38.79098 ], [ -104.878164, 38.790917 ], [ -104.878233, 38.790895 ], [ -104.87835, 38.790856 ], [ -104.878456, 38.790857 ], [ -104.878609, 38.790911 ] ] } },
{ "type": "Feature", "properties": { "cls": "shared", "highway": "path", "name": "Columbine Trail" }, "geometry": { "type": "LineString", "coordinates": [ [ -104.878609, 38.790911 ], [ -104.878686, 38.790968 ], [ -104.87869, 38.791091 ], [ -104.878707, 38.791204 ], [ -104.878721, 38.791308 ], [ -104.878724, 38.791375 ], [ -104.878765, 38.791449 ], [ -104.878938, 38.791525 ], [ -104.879048, 38.791555 ], [ -104.879117, 38.791597 ], [ -104.879259, 38.79165 ], [ -104.879461, 38.791687 ], [ -104.879685, 38.791753 ], [ -104.879739, 38.791801 ], [ -104.879799, 38.791844 ], [ -104.879865, 38.791859 ], [ -104.879918, 38.791856 ] ] } },
{ "type": "Feature", "properties": { "cls": "shared", "highway": "path", "name": "Columbine Trail" }, "geometry": { "type": "LineString", "coordinates": [ [ -104.874664, 38.791064 ], [ -104.874767, 38.791167 ], [ -104.874838, 38.791261 ], [ -104.874912, 38.791339 ], [ -104.874981, 38.791427 ], [ -104.875013, 38.791465 ], [ -104.875017, 38.791509 ], [ -104.875006, 38.791597 ], [ -104.875004, 38.791647 ], [ -104.875011, 38.791707 ], [ -104.875014, 38.791765 ], [ -104.875028, 38.79184 ], [ -104.87502, 38.791896 ], [ -104.875045, 38.791937 ], [ -104.875094, 38.791972 ], [ -104.875131, 38.791994 ], [ -104.875179, 38.792021 ], [ -104.875239, 38.792051 ], [ -104.875313, 38.79208 ], [ -104.87539, 38.792126 ] ] } },
{ "type": "Feature", "properties": { "cls": "shared", "highway": "path", "name": "Columbine Trail" }, "geometry": { "type": "LineString", "coordinates": [ [ -104.880432, 38.79175 ], [ -104.880538, 38.791749 ] ] } },
{ "type": "Feature", "properties": { "cls": "shared", "highway": "path", "name": "Columbine Trail" }, "geometry": { "type": "LineString", "coordinates": [ [ -104.879918, 38.791856 ], [ -104.880234, 38.791776 ], [ -104.880432, 38.79175 ] ] } },
{ "type": "Feature", "properties": { "cls": "shared", "highway": "path", "name": "Columbine Trail" }, "geometry": { "type": "LineString", "coordinates": [ [ -104.880538, 38.791749 ], [ -104.880622, 38.791763 ], [ -104.88073, 38.791821 ], [ -104.880926, 38.791877 ], [ -104.881169, 38.791932 ], [ -104.881384, 38.791945 ], [ -104.881555, 38.791979 ], [ -104.881744, 38.792019 ] ] } },
{ "type": "Feature", "properties": { "cls": "shared", "highway": "path", "name": "Columbine Trail" }, "geometry": { "type": "LineString", "coordinates": [ [ -104.87539, 38.792126 ], [ -104.875472, 38.792134 ], [ -104.875565, 38.792141 ], [ -104.875716, 38.792121 ], [ -104.875824, 38.792107 ], [ -104.875926, 38.792094 ], [ -104.876036, 38.792065 ], [ -104.87617, 38.792024 ], [ -104.876253, 38.791992 ], [ -104.876277, 38.791983 ], [ -104.876382, 38.791964 ], [ -104.87654, 38.791943 ], [ -104.876624, 38.791901 ], [ -104.876681, 38.791831 ], [ -104.876736, 38.791793 ], [ -104.876816, 38.79178 ] ] } },
{ "type": "Feature", "properties": { "cls": "shared", "highway": "path", "name": "Columbine Trail" }, "geometry": { "type": "LineString", "coordinates": [ [ -104.881744, 38.792019 ], [ -104.881839, 38.792025 ], [ -104.881908, 38.792016 ], [ -104.881967, 38.792012 ], [ -104.88201, 38.792024 ], [ -104.882113, 38.792099 ], [ -104.882207, 38.79221 ], [ -104.882254, 38.79225 ], [ -104.88228, 38.792271 ], [ -104.88236, 38.792319 ], [ -104.882386, 38.792343 ], [ -104.882387, 38.792368 ], [ -104.882372, 38.792388 ], [ -104.882321, 38.792389 ], [ -104.882054, 38.79229 ], [ -104.88182, 38.792221 ], [ -104.881774, 38.792224 ], [ -104.881748, 38.79223 ], [ -104.881745, 38.792252 ], [ -104.881784, 38.792274 ], [ -104.881895, 38.792321 ], [ -104.882002, 38.7924 ], [ -104.882088, 38.792494 ], [ -104.882208, 38.792567 ], [ -104.882294, 38.792599 ], [ -104.882369, 38.792605 ] ] } },
{ "type": "Feature", "properties": { "cls": "shared", "highway": "path", "name": "Columbine Trail" }, "geometry": { "type": "LineString", "coordinates": [ [ -104.899829, 38.788868 ], [ -104.899966, 38.788931 ], [ -104.900093, 38.788941 ], [ -104.900258, 38.788902 ], [ -104.90038, 38.788839 ], [ -104.900479, 38.78882 ], [ -104.900614, 38.788845 ], [ -104.900734, 38.788855 ], [ -104.900799, 38.788939 ], [ -104.900865, 38.789026 ], [ -104.900934, 38.789103 ], [ -104.900985, 38.789168 ], [ -104.901028, 38.789255 ], [ -104.90105, 38.789381 ], [ -104.901073, 38.789558 ], [ -104.901092, 38.789707 ], [ -104.901104, 38.78976 ], [ -104.901146, 38.789805 ], [ -104.901216, 38.789828 ], [ -104.901294, 38.789836 ], [ -104.901381, 38.789789 ], [ -104.901521, 38.789746 ], [ -104.901682, 38.789715 ], [ -104.901795, 38.789703 ], [ -104.901896, 38.789703 ], [ -104.901973, 38.789677 ], [ -104.902086, 38.78962 ], [ -104.902171, 38.789609 ], [ -104.90227, 38.789613 ], [ -104.902303, 38.789638 ], [ -104.902218, 38.789662 ], [ -104.902092, 38.789736 ], [ -104.902004, 38.789775 ], [ -104.902, 38.789802 ], [ -104.902021, 38.789801 ], [ -104.902104, 38.789767 ], [ -104.902166, 38.789767 ], [ -104.902252, 38.789773 ], [ -104.902256, 38.789783 ], [ -104.902226, 38.789799 ], [ -104.902168, 38.78981 ], [ -104.902132, 38.789836 ], [ -104.902065, 38.789897 ], [ -104.902002, 38.789925 ], [ -104.901932, 38.789932 ], [ -104.901838, 38.789953 ], [ -104.901797, 38.789994 ], [ -104.901753, 38.790041 ], [ -104.901766, 38.790044 ], [ -104.901812, 38.79003 ], [ -104.901885, 38.790009 ], [ -104.902007, 38.789987 ], [ -104.902047, 38.789975 ], [ -104.902095, 38.78998 ], [ -104.902175, 38.789969 ], [ -104.902282, 38.789972 ], [ -104.9024, 38.789973 ], [ -104.902489, 38.789984 ], [ -104.902619, 38.789976 ], [ -104.902742, 38.789987 ], [ -104.902858, 38.789998 ], [ -104.902985, 38.790021 ], [ -104.90308, 38.790049 ], [ -104.903162, 38.79007 ], [ -104.903268, 38.790081 ], [ -104.90335, 38.790113 ], [ -104.903431, 38.790149 ], [ -104.90348, 38.790186 ], [ -104.903567, 38.790206 ], [ -104.903658, 38.790221 ], [ -104.903753, 38.790233 ], [ -104.903855, 38.790243 ], [ -104.903907, 38.790248 ], [ -104.903938, 38.790282 ] ] } },
{ "type": "Feature", "properties": { "cls": "shared", "highway": "cycleway", "name": "Daniels Pass Trail" }, "geometry": { "type": "LineString", "coordinates": [ [ -104.894442, 38.789524 ], [ -104.894545, 38.789615 ] ] } },
{ "type": "Feature", "properties": { "cls": "shared", "highway": "path", "name": "Columbine Trail" }, "geometry": { "type": "MultiLineString", "coordinates": [ [ [ -104.895648, 38.792168 ], [ -104.895986, 38.792556 ] ], [ [ -104.896525, 38.792561 ], [ -104.896473, 38.792407 ], [ -104.896301, 38.792186 ], [ -104.896301, 38.792019 ], [ -104.896275, 38.791778 ], [ -104.896387, 38.79141 ], [ -104.896349, 38.791227 ], [ -104.896319, 38.791129 ], [ -104.896344, 38.791069 ], [ -104.896352, 38.791011 ], [ -104.896371, 38.790954 ], [ -104.896399, 38.790946 ], [ -104.896482, 38.790969 ], [ -104.896809, 38.791017 ], [ -104.896963, 38.791072 ], [ -104.897121, 38.791084 ], [ -104.897207, 38.791146 ], [ -104.897295, 38.791169 ], [ -104.89737, 38.79116 ], [ -104.897501, 38.791064 ], [ -104.89763, 38.790925 ], [ -104.897697, 38.790746 ], [ -104.897634, 38.790624 ], [ -104.897568, 38.7905 ], [ -104.897486, 38.79036 ], [ -104.897314, 38.790152 ], [ -104.897202, 38.790052 ], [ -104.897254, 38.789972 ], [ -104.897606, 38.789898 ], [ -104.89782, 38.789851 ], [ -104.898009, 38.789711 ], [ -104.898129, 38.789577 ], [ -104.898335, 38.789409 ], [ -104.898455, 38.789376 ], [ -104.89867, 38.789396 ], [ -104.89885, 38.78945 ], [ -104.899074, 38.789443 ], [ -104.899254, 38.789403 ], [ -104.899305, 38.789336 ], [ -104.899245, 38.789195 ], [ -104.899237, 38.789001 ], [ -104.899262, 38.788854 ], [ -104.899331, 38.788767 ], [ -104.899503, 38.788761 ], [ -104.899829, 38.788868 ] ] ] } },
{ "type": "Feature", "properties": { "cls": "shared", "highway": "path", "name": "Columbine Trail" }, "geometry": { "type": "MultiLineString", "coordinates": [ [ [ -104.893679, 38.792532 ], [ -104.893811, 38.7922 ], [ -104.893813, 38.79241 ], [ -104.893793, 38.792533 ] ], [ [ -104.894016, 38.792535 ], [ -104.894065, 38.792341 ], [ -104.894257, 38.792478 ], [ -104.894496, 38.792524 ], [ -104.89455, 38.792541 ] ], [ [ -104.894681, 38.792542 ], [ -104.894527, 38.792424 ], [ -104.894419, 38.792408 ], [ -104.894285, 38.792346 ], [ -104.894039, 38.791773 ], [ -104.894457, 38.792195 ], [ -104.894822, 38.792383 ], [ -104.894654, 38.792217 ], [ -104.89458, 38.792104 ], [ -104.894554, 38.791982 ], [ -104.894517, 38.791909 ], [ -104.894393, 38.791719 ], [ -104.894264, 38.791585 ], [ -104.894114, 38.791467 ], [ -104.894316, 38.791508 ], [ -104.894448, 38.791543 ], [ -104.894493, 38.791571 ], [ -104.894818, 38.791918 ], [ -104.89495, 38.792024 ], [ -104.895143, 38.792128 ], [ -104.895291, 38.792248 ], [ -104.895319, 38.792306 ], [ -104.895383, 38.792341 ], [ -104.89551, 38.792378 ], [ -104.895514, 38.792336 ], [ -104.895429, 38.792228 ], [ -104.895535, 38.792152 ], [ -104.895599, 38.792143 ], [ -104.895648, 38.792168 ] ] ] } },
{ "type": "Feature", "properties": { "cls": "shared", "highway": "path", "name": "Columbine Trail" }, "geometry": { "type": "MultiLineString", "coordinates": [ [ [ -104.890945, 38.793424 ], [ -104.891083, 38.793517 ], [ -104.89128, 38.793631 ], [ -104.891443, 38.793731 ], [ -104.891444, 38.793731 ] ], [ [ -104.891444, 38.793661 ], [ -104.891212, 38.793429 ], [ -104.890981, 38.793152 ], [ -104.89141, 38.793454 ], [ -104.891445, 38.793474 ] ] ] } },
{ "type": "Feature", "properties": { "cls": "shared", "highway": "path", "name": "Columbine Trail" }, "geometry": { "type": "LineString", "coordinates": [ [ -104.885152, 38.793209 ], [ -104.88528, 38.793303 ], [ -104.885366, 38.793383 ], [ -104.885418, 38.793464 ], [ -104.885443, 38.79351 ] ] } },
{ "type": "Feature", "properties": { "cls": "shared", "highway": "path", "name": "Columbine Trail" }, "geometry": { "type": "LineString", "coordinates": [ [ -104.885443, 38.79351 ], [ -104.885332, 38.793484 ], [ -104.885306, 38.793517 ], [ -104.885384, 38.793591 ], [ -104.885486, 38.793644 ], [ -104.885615, 38.793684 ], [ -104.885761, 38.793658 ], [ -104.885976, 38.793618 ], [ -104.886027, 38.793638 ], [ -104.886036, 38.793725 ] ] } },
{ "type": "Feature", "properties": { "cls": "shared", "highway": "path", "name": "Columbine Trail" }, "geometry": { "type": "LineString", "coordinates": [ [ -104.887555, 38.79434 ], [ -104.887589, 38.794233 ], [ -104.887701, 38.794199 ], [ -104.88783, 38.794019 ], [ -104.887855, 38.793932 ], [ -104.887924, 38.793898 ], [ -104.888001, 38.793925 ], [ -104.88807, 38.793972 ], [ -104.888259, 38.794099 ], [ -104.888379, 38.794133 ], [ -104.888533, 38.794159 ], [ -104.888662, 38.794233 ], [ -104.888782, 38.794347 ], [ -104.888911, 38.79446 ], [ -104.888971, 38.794514 ], [ -104.889203, 38.79446 ], [ -104.889289, 38.794427 ], [ -104.889538, 38.794293 ], [ -104.889623, 38.794246 ], [ -104.889666, 38.794213 ], [ -104.889778, 38.793972 ], [ -104.889855, 38.793838 ], [ -104.889993, 38.793704 ], [ -104.89013, 38.793604 ], [ -104.89043, 38.793517 ], [ -104.890679, 38.793417 ], [ -104.890816, 38.793403 ], [ -104.890945, 38.793424 ] ] } },
{ "type": "Feature", "properties": { "cls": "shared", "highway": "path", "name": "Chamberlain" }, "geometry": { "type": "MultiLineString", "coordinates": [ [ [ -104.869139, 38.791558 ], [ -104.869254, 38.791515 ], [ -104.869372, 38.791509 ], [ -104.86947, 38.79157 ], [ -104.869674, 38.791611 ], [ -104.869868, 38.791566 ], [ -104.86995, 38.791533 ], [ -104.870064, 38.791523 ], [ -104.870133, 38.791577 ], [ -104.870164, 38.791635 ], [ -104.870198, 38.791668 ], [ -104.870273, 38.791647 ], [ -104.870408, 38.791637 ], [ -104.870508, 38.791601 ], [ -104.87067, 38.791574 ], [ -104.87077, 38.791578 ], [ -104.870852, 38.791555 ], [ -104.870948, 38.791525 ], [ -104.871027, 38.791522 ], [ -104.871073, 38.791523 ], [ -104.871109, 38.791533 ], [ -104.871118, 38.791574 ], [ -104.871093, 38.791621 ], [ -104.871067, 38.791678 ], [ -104.871042, 38.791764 ], [ -104.870965, 38.791816 ], [ -104.870846, 38.791787 ], [ -104.870765, 38.791799 ], [ -104.870674, 38.791849 ], [ -104.870652, 38.791928 ], [ -104.870663, 38.791978 ], [ -104.870763, 38.792104 ], [ -104.870809, 38.79215 ], [ -104.870857, 38.792174 ], [ -104.871003, 38.792162 ], [ -104.871055, 38.79212 ], [ -104.87113, 38.79212 ], [ -104.871186, 38.792138 ], [ -104.871267, 38.792173 ], [ -104.871343, 38.792198 ], [ -104.871432, 38.792293 ], [ -104.871514, 38.79237 ], [ -104.87151, 38.792411 ] ], [ [ -104.8717, 38.792415 ], [ -104.871697, 38.792391 ], [ -104.871651, 38.792317 ], [ -104.871497, 38.792137 ], [ -104.871444, 38.79207 ], [ -104.871448, 38.792026 ], [ -104.87149, 38.791977 ], [ -104.871567, 38.791906 ], [ -104.871665, 38.791872 ], [ -104.871719, 38.791839 ], [ -104.871738, 38.791724 ], [ -104.871809, 38.79169 ], [ -104.87192, 38.79163 ], [ -104.872201, 38.791571 ], [ -104.872263, 38.791523 ], [ -104.872332, 38.791484 ], [ -104.872368, 38.791444 ], [ -104.872452, 38.791381 ], [ -104.872439, 38.791356 ], [ -104.872424, 38.791274 ], [ -104.872444, 38.791217 ], [ -104.872478, 38.791153 ], [ -104.872535, 38.791102 ], [ -104.872604, 38.791021 ], [ -104.872632, 38.791016 ], [ -104.872642, 38.791038 ], [ -104.872604, 38.791117 ], [ -104.872554, 38.791178 ], [ -104.872534, 38.791218 ], [ -104.872531, 38.791277 ], [ -104.872631, 38.791417 ], [ -104.872629, 38.791453 ], [ -104.872569, 38.791489 ], [ -104.87253, 38.791515 ], [ -104.872473, 38.791629 ], [ -104.872412, 38.791713 ], [ -104.872343, 38.791805 ], [ -104.872281, 38.791856 ], [ -104.872229, 38.791913 ], [ -104.872238, 38.792255 ] ] ] } },
{ "type": "Feature", "properties": { "cls": "shared", "highway": "path", "name": "Columbine Trail" }, "geometry": { "type": "LineString", "coordinates": [ [ -104.882369, 38.792605 ], [ -104.882448, 38.792594 ], [ -104.882654, 38.79254 ], [ -104.882954, 38.792473 ], [ -104.883109, 38.792467 ], [ -104.883263, 38.792453 ], [ -104.883366, 38.79242 ], [ -104.883572, 38.792454 ] ] } },
{ "type": "Feature", "properties": { "cls": "shared", "highway": "path", "name": "Columbine Trail" }, "geometry": { "type": "LineString", "coordinates": [ [ -104.883572, 38.792454 ], [ -104.883654, 38.792493 ], [ -104.883715, 38.792496 ], [ -104.883932, 38.792466 ], [ -104.883958, 38.792471 ], [ -104.883973, 38.792482 ], [ -104.883967, 38.792503 ], [ -104.883934, 38.792519 ], [ -104.883804, 38.792547 ], [ -104.883667, 38.792574 ], [ -104.883573, 38.792569 ], [ -104.883557, 38.792574 ], [ -104.883557, 38.792589 ], [ -104.883585, 38.792605 ], [ -104.883667, 38.792627 ], [ -104.883821, 38.792654 ], [ -104.884045, 38.792601 ] ] } },
{ "type": "Feature", "properties": { "cls": "shared", "highway": "path", "name": "Columbine Trail" }, "geometry": { "type": "LineString", "coordinates": [ [ -104.884045, 38.792601 ], [ -104.884225, 38.792567 ], [ -104.884345, 38.792594 ], [ -104.884474, 38.792661 ], [ -104.88462, 38.792801 ], [ -104.884697, 38.792882 ], [ -104.884757, 38.792928 ], [ -104.884911, 38.793015 ], [ -104.884989, 38.793056 ] ] } },
{ "type": "Feature", "properties": { "cls": "shared", "highway": "path", "name": "Columbine Trail" }, "geometry": { "type": "LineString", "coordinates": [ [ -104.884989, 38.793056 ], [ -104.885126, 38.793062 ], [ -104.885169, 38.793089 ], [ -104.885092, 38.793109 ], [ -104.88498, 38.793129 ], [ -104.884972, 38.793163 ], [ -104.885152, 38.793209 ] ] } },
{ "type": "Feature", "properties": { "cls": "shared", "highway": "path", "name": "Chamberlain" }, "geometry": { "type": "LineString", "coordinates": [ [ -104.872238, 38.792255 ], [ -104.872291, 38.792341 ], [ -104.872299, 38.792428 ] ] } },
{ "type": "Feature", "properties": { "cls": "shared", "highway": "path", "name": "Spring Creek" }, "geometry": { "type": "LineString", "coordinates": [ [ -104.886446, 38.794848 ], [ -104.886501, 38.79493 ], [ -104.886521, 38.795008 ], [ -104.886499, 38.79509 ], [ -104.886478, 38.795149 ], [ -104.886431, 38.795183 ], [ -104.886417, 38.795183 ], [ -104.886384, 38.795183 ], [ -104.886357, 38.795136 ], [ -104.886364, 38.795049 ], [ -104.886333, 38.795007 ], [ -104.886289, 38.794978 ], [ -104.886028, 38.794937 ], [ -104.885922, 38.794898 ], [ -104.885871, 38.794843 ], [ -104.885713, 38.794508 ], [ -104.885542, 38.794241 ], [ -104.885507, 38.794197 ], [ -104.885433, 38.79417 ], [ -104.885362, 38.794155 ], [ -104.885287, 38.794148 ], [ -104.884989, 38.794151 ], [ -104.884906, 38.794139 ], [ -104.88485, 38.794103 ], [ -104.884809, 38.794042 ], [ -104.884786, 38.793982 ], [ -104.884742, 38.793945 ], [ -104.884678, 38.793929 ], [ -104.884508, 38.793916 ], [ -104.884438, 38.793911 ], [ -104.884378, 38.793929 ], [ -104.884347, 38.793979 ], [ -104.884341, 38.794034 ], [ -104.884367, 38.794156 ], [ -104.884431, 38.794268 ], [ -104.884476, 38.794397 ], [ -104.884475, 38.794509 ], [ -104.884396, 38.794777 ], [ -104.884364, 38.794828 ], [ -104.884319, 38.794859 ], [ -104.883972, 38.794863 ], [ -104.88396, 38.794884 ], [ -104.884, 38.794919 ], [ -104.88439, 38.795002 ], [ -104.884484, 38.794993 ], [ -104.884579, 38.794922 ], [ -104.884644, 38.794827 ], [ -104.884749, 38.794723 ], [ -104.884823, 38.794683 ], [ -104.884902, 38.794675 ], [ -104.884967, 38.794716 ], [ -104.884976, 38.794793 ], [ -104.884884, 38.794997 ], [ -104.884736, 38.795171 ], [ -104.884664, 38.795394 ], [ -104.88464, 38.795566 ], [ -104.884596, 38.795625 ], [ -104.884253, 38.795813 ], [ -104.884062, 38.795862 ], [ -104.884, 38.795902 ], [ -104.883981, 38.796002 ], [ -104.884017, 38.796116 ], [ -104.884012, 38.796158 ], [ -104.884001, 38.796193 ], [ -104.883963, 38.796265 ], [ -104.883963, 38.796284 ], [ -104.883976, 38.796298 ], [ -104.884001, 38.796291 ], [ -104.884021, 38.79627 ], [ -104.884078, 38.796188 ], [ -104.884111, 38.796163 ], [ -104.884154, 38.796152 ], [ -104.884212, 38.796154 ], [ -104.884263, 38.796164 ], [ -104.88432, 38.796213 ], [ -104.884413, 38.796599 ], [ -104.884474, 38.796743 ], [ -104.884545, 38.796854 ], [ -104.88471, 38.796981 ], [ -104.884754, 38.797042 ], [ -104.884763, 38.797116 ], [ -104.884775, 38.797162 ], [ -104.884793, 38.797194 ], [ -104.884784, 38.797215 ], [ -104.884759, 38.79722 ], [ -104.884725, 38.797215 ], [ -104.884674, 38.797175 ], [ -104.884644, 38.797142 ], [ -104.8846, 38.797144 ], [ -104.884582, 38.797171 ], [ -104.884558, 38.797199 ], [ -104.884525, 38.797275 ], [ -104.884518, 38.797328 ], [ -104.884598, 38.797472 ], [ -104.884612, 38.797513 ], [ -104.884629, 38.797559 ], [ -104.884627, 38.797607 ], [ -104.884569, 38.797821 ], [ -104.884597, 38.798186 ], [ -104.884565, 38.798388 ], [ -104.884671, 38.798816 ] ] } },
{ "type": "Feature", "properties": { "cls": "shared", "highway": "path", "name": "Penrose" }, "geometry": { "type": "MultiLineString", "coordinates": [ [ [ -104.880927, 38.800764 ], [ -104.880833, 38.800679 ], [ -104.880769, 38.800522 ], [ -104.880751, 38.800219 ], [ -104.880636, 38.799959 ], [ -104.880569, 38.79984 ], [ -104.880473, 38.799552 ], [ -104.880452, 38.799304 ], [ -104.880398, 38.799095 ], [ -104.880229, 38.798865 ], [ -104.880027, 38.798689 ], [ -104.879901, 38.798584 ], [ -104.879888, 38.798464 ], [ -104.87993, 38.798397 ], [ -104.880036, 38.798268 ], [ -104.880102, 38.798127 ], [ -104.880159, 38.797918 ], [ -104.88032, 38.79771 ], [ -104.880315, 38.797423 ], [ -104.880237, 38.797222 ], [ -104.880161, 38.797036 ], [ -104.879962, 38.796939 ], [ -104.879804, 38.796886 ], [ -104.879713, 38.796814 ], [ -104.879549, 38.796674 ], [ -104.879412, 38.79651 ], [ -104.879308, 38.796467 ], [ -104.879136, 38.796426 ], [ -104.87889, 38.796429 ], [ -104.878618, 38.796479 ], [ -104.878464, 38.796469 ], [ -104.878296, 38.796415 ], [ -104.878033, 38.796311 ], [ -104.877832, 38.796258 ], [ -104.87769, 38.796215 ] ], [ [ -104.877263, 38.795808 ], [ -104.877261, 38.795794 ], [ -104.877274, 38.795741 ], [ -104.87732, 38.795703 ], [ -104.877538, 38.795809 ] ], [ [ -104.877668, 38.795867 ], [ -104.877879, 38.795959 ], [ -104.878081, 38.795972 ], [ -104.878272, 38.795971 ], [ -104.878343, 38.795949 ], [ -104.878308, 38.795903 ], [ -104.878127, 38.79583 ], [ -104.877857, 38.795743 ], [ -104.877771, 38.795679 ], [ -104.877812, 38.795657 ], [ -104.877921, 38.795652 ], [ -104.878045, 38.79569 ], [ -104.878295, 38.795724 ], [ -104.878282, 38.795674 ], [ -104.878219, 38.795622 ], [ -104.87813, 38.795573 ], [ -104.878176, 38.795506 ], [ -104.878281, 38.795472 ], [ -104.878453, 38.795463 ], [ -104.878578, 38.795467 ], [ -104.878653, 38.795443 ], [ -104.878719, 38.795373 ] ] ] } },
{ "type": "Feature", "properties": { "cls": "shared", "highway": "path", "name": "Ladders" }, "geometry": { "type": "MultiLineString", "coordinates": [ [ [ -104.876718, 38.799958 ], [ -104.876776, 38.799959 ], [ -104.876846, 38.799965 ], [ -104.876872, 38.799962 ], [ -104.876876, 38.799938 ], [ -104.876837, 38.799915 ], [ -104.876799, 38.799888 ], [ -104.876772, 38.79984 ], [ -104.876741, 38.799741 ], [ -104.876703, 38.799658 ], [ -104.876714, 38.799627 ], [ -104.876735, 38.799591 ], [ -104.876761, 38.79958 ], [ -104.876787, 38.799565 ], [ -104.876829, 38.799551 ], [ -104.876897, 38.799558 ], [ -104.876983, 38.799573 ], [ -104.877049, 38.799591 ], [ -104.877086, 38.799613 ], [ -104.877104, 38.799646 ], [ -104.877121, 38.7997 ], [ -104.877138, 38.799705 ], [ -104.877157, 38.799704 ], [ -104.877161, 38.79968 ], [ -104.877164, 38.799651 ], [ -104.877179, 38.799625 ], [ -104.877203, 38.799613 ], [ -104.877212, 38.799626 ], [ -104.877202, 38.799685 ], [ -104.877208, 38.799727 ], [ -104.877203, 38.79976 ], [ -104.877171, 38.799793 ], [ -104.877135, 38.799841 ], [ -104.877117, 38.799867 ], [ -104.877116, 38.799889 ], [ -104.877125, 38.799903 ], [ -104.877146, 38.799908 ], [ -104.877154, 38.799883 ], [ -104.877161, 38.799864 ], [ -104.877178, 38.799849 ], [ -104.877187, 38.799835 ], [ -104.877208, 38.799818 ], [ -104.87724, 38.799797 ], [ -104.877278, 38.799769 ], [ -104.877311, 38.799749 ], [ -104.877366, 38.799721 ], [ -104.87738, 38.799688 ], [ -104.87737, 38.799627 ], [ -104.877348, 38.799605 ], [ -104.877306, 38.799585 ], [ -104.877265, 38.79956 ], [ -104.877228, 38.799542 ], [ -104.877193, 38.799516 ], [ -104.877177, 38.799506 ], [ -104.877145, 38.799492 ], [ -104.877102, 38.799473 ], [ -104.877067, 38.799449 ], [ -104.877032, 38.799434 ], [ -104.876983, 38.799421 ], [ -104.87694, 38.799403 ], [ -104.876913, 38.799388 ] ], [ [ -104.877759, 38.797334 ], [ -104.877807, 38.797319 ], [ -104.877902, 38.797289 ], [ -104.877961, 38.797256 ], [ -104.878, 38.79722 ], [ -104.878001, 38.797164 ], [ -104.878002, 38.797095 ], [ -104.878008, 38.797061 ], [ -104.878006, 38.796997 ], [ -104.878008, 38.796944 ], [ -104.877974, 38.796861 ], [ -104.877919, 38.796797 ], [ -104.877855, 38.796752 ], [ -104.877802, 38.796712 ], [ -104.877718, 38.796668 ] ], [ [ -104.876998, 38.795807 ], [ -104.876969, 38.795757 ], [ -104.876901, 38.795721 ], [ -104.876844, 38.795673 ], [ -104.876811, 38.795601 ], [ -104.876799, 38.795551 ], [ -104.876758, 38.795525 ], [ -104.876689, 38.795517 ], [ -104.876637, 38.795498 ], [ -104.876538, 38.795472 ], [ -104.876432, 38.795437 ], [ -104.876386, 38.795393 ], [ -104.876362, 38.795349 ], [ -104.876368, 38.795303 ], [ -104.8764, 38.795273 ], [ -104.876465, 38.795243 ], [ -104.876538, 38.795236 ], [ -104.876607, 38.795236 ], [ -104.876685, 38.795253 ], [ -104.876747, 38.795275 ], [ -104.876784, 38.795303 ], [ -104.876848, 38.795343 ], [ -104.876899, 38.795366 ], [ -104.876965, 38.795377 ], [ -104.877056, 38.795362 ], [ -104.877156, 38.795349 ], [ -104.877215, 38.79535 ], [ -104.877304, 38.795367 ], [ -104.87736, 38.79539 ], [ -104.8774, 38.795428 ], [ -104.877434, 38.795473 ], [ -104.877454, 38.795523 ], [ -104.877407, 38.795573 ], [ -104.877333, 38.795633 ], [ -104.87732, 38.795703 ], [ -104.87732, 38.795716 ], [ -104.877331, 38.795778 ], [ -104.877355, 38.795808 ] ], [ [ -104.877683, 38.796101 ], [ -104.877756, 38.796135 ], [ -104.877849, 38.796166 ], [ -104.877933, 38.796193 ], [ -104.878052, 38.796198 ], [ -104.878137, 38.796204 ], [ -104.87822, 38.796219 ], [ -104.878302, 38.796241 ], [ -104.878384, 38.796242 ], [ -104.878452, 38.796225 ], [ -104.878525, 38.79619 ], [ -104.878564, 38.796154 ], [ -104.878647, 38.796131 ], [ -104.878752, 38.796114 ], [ -104.878837, 38.796094 ], [ -104.878885, 38.796063 ], [ -104.878919, 38.796012 ], [ -104.878965, 38.795994 ], [ -104.879034, 38.795981 ], [ -104.879091, 38.795983 ], [ -104.879159, 38.795981 ], [ -104.879247, 38.795979 ], [ -104.879311, 38.795995 ], [ -104.879364, 38.796015 ], [ -104.879436, 38.796051 ], [ -104.879503, 38.796064 ], [ -104.879586, 38.796085 ], [ -104.879704, 38.796119 ], [ -104.879775, 38.796163 ], [ -104.879833, 38.796233 ], [ -104.879885, 38.796307 ], [ -104.879955, 38.796384 ], [ -104.880021, 38.796426 ], [ -104.880108, 38.796449 ], [ -104.880216, 38.796455 ], [ -104.880313, 38.796468 ], [ -104.88043, 38.796491 ], [ -104.880542, 38.796529 ], [ -104.880615, 38.796559 ], [ -104.880688, 38.79662 ], [ -104.880775, 38.796715 ], [ -104.880805, 38.796762 ], [ -104.880826, 38.796842 ], [ -104.880819, 38.796973 ], [ -104.880809, 38.797045 ], [ -104.880844, 38.797096 ], [ -104.880926, 38.797187 ], [ -104.881019, 38.797257 ], [ -104.881072, 38.797348 ], [ -104.881116, 38.797485 ], [ -104.881143, 38.797616 ], [ -104.881114, 38.797722 ], [ -104.881089, 38.797853 ], [ -104.881082, 38.797978 ], [ -104.881092, 38.79802 ], [ -104.881128, 38.798056 ], [ -104.881194, 38.798084 ], [ -104.881274, 38.798094 ], [ -104.881372, 38.798117 ], [ -104.881479, 38.798139 ], [ -104.881537, 38.798145 ], [ -104.881569, 38.798168 ], [ -104.881562, 38.7982 ], [ -104.881532, 38.79824 ], [ -104.881467, 38.798278 ], [ -104.881386, 38.798316 ], [ -104.881338, 38.798363 ], [ -104.881318, 38.798431 ], [ -104.881296, 38.798532 ], [ -104.881306, 38.798629 ], [ -104.881372, 38.798722 ], [ -104.881418, 38.798792 ], [ -104.881467, 38.798853 ], [ -104.881479, 38.798917 ], [ -104.881486, 38.798982 ], [ -104.881457, 38.799073 ], [ -104.881473, 38.799211 ], [ -104.881524, 38.799372 ], [ -104.881582, 38.799479 ], [ -104.881672, 38.7995 ], [ -104.881794, 38.799467 ], [ -104.881966, 38.799439 ], [ -104.882134, 38.799403 ], [ -104.882278, 38.799336 ], [ -104.882431, 38.799354 ], [ -104.882591, 38.799406 ], [ -104.882693, 38.799497 ], [ -104.882799, 38.799613 ], [ -104.882869, 38.799729 ], [ -104.882947, 38.799878 ], [ -104.883029, 38.799973 ], [ -104.883088, 38.800079 ], [ -104.883166, 38.800201 ], [ -104.883237, 38.800387 ], [ -104.883366, 38.800543 ], [ -104.883428, 38.800649 ], [ -104.883409, 38.80075 ], [ -104.883315, 38.800902 ], [ -104.883284, 38.801012 ], [ -104.883244, 38.801103 ], [ -104.883244, 38.80118 ], [ -104.883211, 38.801215 ], [ -104.883196, 38.801294 ], [ -104.88324, 38.801366 ], [ -104.883318, 38.801408 ], [ -104.883408, 38.801418 ], [ -104.883508, 38.801414 ], [ -104.883632, 38.801444 ], [ -104.883763, 38.801461 ], [ -104.883834, 38.801433 ], [ -104.883878, 38.801412 ], [ -104.883936, 38.801374 ], [ -104.884014, 38.801347 ], [ -104.88408, 38.801336 ], [ -104.884124, 38.801336 ], [ -104.884099, 38.801304 ], [ -104.884031, 38.801289 ], [ -104.883965, 38.801289 ], [ -104.883861, 38.801309 ], [ -104.883737, 38.801336 ], [ -104.883649, 38.801336 ], [ -104.883591, 38.801302 ], [ -104.883556, 38.801251 ], [ -104.883598, 38.801184 ], [ -104.883649, 38.801158 ], [ -104.883693, 38.801215 ], [ -104.88372, 38.801243 ], [ -104.883768, 38.801226 ], [ -104.883853, 38.801194 ], [ -104.883968, 38.801156 ], [ -104.884097, 38.80111 ], [ -104.884165, 38.801143 ], [ -104.884241, 38.801215 ], [ -104.884309, 38.801323 ], [ -104.884394, 38.801357 ], [ -104.884443, 38.801406 ], [ -104.88444, 38.801469 ], [ -104.884365, 38.801547 ], [ -104.884355, 38.801581 ], [ -104.884362, 38.801632 ], [ -104.884391, 38.801668 ], [ -104.884464, 38.801793 ], [ -104.884545, 38.801972 ], [ -104.884608, 38.802118 ], [ -104.884688, 38.80225 ], [ -104.884771, 38.802328 ], [ -104.884842, 38.802395 ], [ -104.884915, 38.80245 ], [ -104.884975, 38.802447 ], [ -104.885021, 38.802445 ] ] ] } },
{ "type": "Feature", "properties": { "cls": "shared", "highway": "path", "name": "The Chutes" }, "geometry": { "type": "MultiLineString", "coordinates": [ [ [ -104.876404, 38.802396 ], [ -104.876391, 38.802277 ], [ -104.876389, 38.802198 ], [ -104.876322, 38.802111 ], [ -104.876222, 38.802041 ], [ -104.876124, 38.802007 ], [ -104.875969, 38.801955 ], [ -104.87555, 38.801866 ], [ -104.875322, 38.801789 ], [ -104.875257, 38.801713 ], [ -104.875204, 38.801553 ], [ -104.875139, 38.801507 ], [ -104.875055, 38.801479 ], [ -104.874771, 38.801425 ], [ -104.874186, 38.801185 ], [ -104.874014, 38.801146 ], [ -104.873965, 38.801125 ], [ -104.873897, 38.801068 ], [ -104.873821, 38.800958 ], [ -104.873753, 38.800901 ], [ -104.873627, 38.800859 ], [ -104.873426, 38.800826 ], [ -104.873235, 38.800731 ], [ -104.873176, 38.800679 ], [ -104.873145, 38.80059 ], [ -104.873174, 38.800459 ], [ -104.873168, 38.800419 ], [ -104.87312, 38.800364 ], [ -104.873042, 38.800326 ], [ -104.872762, 38.800256 ] ], [ [ -104.872653, 38.800079 ], [ -104.872698, 38.800005 ], [ -104.872708, 38.799938 ], [ -104.87267, 38.799879 ], [ -104.872598, 38.799837 ], [ -104.872475, 38.79979 ] ] ] } },
{ "type": "Feature", "properties": { "cls": "shared", "highway": "path", "name": "Captain Morgans" }, "geometry": { "type": "LineString", "coordinates": [ [ -104.881668, 38.80098 ], [ -104.881342, 38.800867 ], [ -104.880927, 38.800764 ], [ -104.880804, 38.800752 ], [ -104.880519, 38.800772 ], [ -104.880427, 38.80075 ], [ -104.880378, 38.800676 ], [ -104.880372, 38.800615 ], [ -104.880325, 38.80055 ], [ -104.880147, 38.80046 ], [ -104.880114, 38.800364 ], [ -104.880117, 38.80025 ], [ -104.880079, 38.80019 ], [ -104.879902, 38.800063 ], [ -104.879521, 38.799721 ], [ -104.879315, 38.79961 ], [ -104.879012, 38.799335 ], [ -104.878901, 38.799317 ], [ -104.878569, 38.799411 ], [ -104.878129, 38.799508 ], [ -104.87749, 38.799517 ], [ -104.877145, 38.799492 ], [ -104.876975, 38.79948 ], [ -104.876864, 38.799491 ], [ -104.876674, 38.799534 ], [ -104.876515, 38.799488 ] ] } },
{ "type": "Feature", "properties": { "cls": "shared", "highway": "path", "name": "Ladders" }, "geometry": { "type": "LineString", "coordinates": [ [ -104.884992, 38.802465 ], [ -104.885021, 38.802445 ], [ -104.885035, 38.802434 ], [ -104.885045, 38.802181 ], [ -104.885072, 38.80214 ], [ -104.885212, 38.802081 ], [ -104.885289, 38.801992 ], [ -104.885253, 38.801774 ], [ -104.885289, 38.801706 ], [ -104.885312, 38.801582 ], [ -104.885437, 38.801552 ], [ -104.885508, 38.801455 ], [ -104.885443, 38.801302 ], [ -104.885517, 38.801155 ], [ -104.885489, 38.801045 ], [ -104.885483, 38.801004 ], [ -104.885394, 38.800848 ], [ -104.885449, 38.80074 ], [ -104.885486, 38.800569 ], [ -104.885486, 38.800332 ], [ -104.885566, 38.800216 ], [ -104.885652, 38.799991 ], [ -104.885717, 38.799914 ], [ -104.885662, 38.799758 ], [ -104.885609, 38.799681 ], [ -104.885631, 38.799498 ], [ -104.885631, 38.799258 ], [ -104.885606, 38.799071 ], [ -104.885554, 38.798937 ], [ -104.885458, 38.798821 ], [ -104.885394, 38.798615 ], [ -104.885455, 38.7985 ], [ -104.885572, 38.7985 ], [ -104.885819, 38.798668 ], [ -104.886034, 38.798862 ], [ -104.886287, 38.798857 ], [ -104.886398, 38.798833 ], [ -104.886475, 38.798757 ], [ -104.886586, 38.798584 ], [ -104.886703, 38.798399 ], [ -104.886768, 38.79838 ], [ -104.886977, 38.798356 ], [ -104.886965, 38.798264 ], [ -104.886987, 38.798195 ], [ -104.887057, 38.798079 ], [ -104.887057, 38.797971 ], [ -104.887153, 38.797823 ], [ -104.887273, 38.797729 ], [ -104.887449, 38.797654 ], [ -104.887455, 38.797582 ], [ -104.887495, 38.797426 ], [ -104.887553, 38.797321 ], [ -104.887637, 38.797287 ], [ -104.887902, 38.797277 ], [ -104.887991, 38.797188 ], [ -104.888167, 38.797155 ], [ -104.888364, 38.797042 ], [ -104.888586, 38.796917 ], [ -104.888684, 38.796838 ], [ -104.889076, 38.796821 ], [ -104.889177, 38.796758 ], [ -104.889359, 38.796624 ], [ -104.889297, 38.796531 ], [ -104.889168, 38.796425 ], [ -104.888918, 38.796305 ], [ -104.888767, 38.796211 ], [ -104.888604, 38.796206 ], [ -104.888376, 38.796168 ], [ -104.88825, 38.796093 ], [ -104.888111, 38.796041 ], [ -104.887996, 38.79599 ], [ -104.887901, 38.795917 ], [ -104.887792, 38.795743 ], [ -104.887755, 38.795582 ], [ -104.887797, 38.79545 ], [ -104.887902, 38.795306 ], [ -104.887974, 38.795208 ], [ -104.887935, 38.795123 ], [ -104.887911, 38.794955 ], [ -104.888048, 38.794897 ], [ -104.888145, 38.794845 ], [ -104.888133, 38.794738 ], [ -104.88811, 38.794622 ], [ -104.887998, 38.794665 ], [ -104.887929, 38.794739 ], [ -104.887894, 38.794588 ], [ -104.887936, 38.794415 ], [ -104.887899, 38.794259 ], [ -104.887925, 38.794103 ], [ -104.887998, 38.794016 ], [ -104.88807, 38.793972 ] ] } },
{ "type": "Feature", "properties": { "cls": "shared", "highway": "path", "name": "Captain Jacks Trail 667" }, "geometry": { "type": "LineString", "coordinates": [ [ -104.883557, 38.798953 ], [ -104.883585, 38.799138 ], [ -104.883833, 38.799548 ], [ -104.883893, 38.799663 ], [ -104.883902, 38.799692 ], [ -104.883978, 38.799944 ], [ -104.884007, 38.800068 ], [ -104.884057, 38.800187 ], [ -104.884146, 38.800269 ], [ -104.884274, 38.800352 ], [ -104.884406, 38.800442 ], [ -104.884475, 38.800509 ], [ -104.88451, 38.800589 ], [ -104.884518, 38.800683 ], [ -104.88454, 38.800783 ], [ -104.884596, 38.800846 ], [ -104.884682, 38.800917 ], [ -104.884738, 38.800967 ], [ -104.884881, 38.801267 ], [ -104.884881, 38.801335 ], [ -104.884824, 38.801534 ], [ -104.884827, 38.801594 ], [ -104.884923, 38.801797 ], [ -104.884935, 38.801874 ], [ -104.884921, 38.801986 ], [ -104.884804, 38.802167 ], [ -104.884802, 38.802216 ], [ -104.884841, 38.802299 ], [ -104.884975, 38.802447 ], [ -104.884992, 38.802465 ], [ -104.885127, 38.802614 ], [ -104.885353, 38.802767 ], [ -104.885483, 38.80298 ], [ -104.885503, 38.803046 ], [ -104.885485, 38.803111 ], [ -104.885433, 38.803168 ], [ -104.885315, 38.803252 ], [ -104.885234, 38.803263 ], [ -104.885162, 38.803184 ], [ -104.885077, 38.803025 ], [ -104.884963, 38.802899 ], [ -104.884919, 38.802874 ], [ -104.884831, 38.802841 ], [ -104.884597, 38.802763 ], [ -104.884537, 38.802731 ], [ -104.884307, 38.802511 ], [ -104.884087, 38.802357 ], [ -104.883901, 38.802079 ], [ -104.883659, 38.801762 ], [ -104.883534, 38.80171 ], [ -104.883461, 38.801703 ], [ -104.883085, 38.801719 ], [ -104.882981, 38.801692 ], [ -104.882843, 38.801617 ], [ -104.882705, 38.801585 ], [ -104.882641, 38.801549 ], [ -104.88261, 38.801496 ], [ -104.882599, 38.801423 ], [ -104.882603, 38.801282 ], [ -104.882796, 38.800846 ], [ -104.882824, 38.800716 ], [ -104.882819, 38.800655 ], [ -104.882789, 38.800571 ], [ -104.882567, 38.800212 ], [ -104.882405, 38.800052 ], [ -104.882299, 38.800005 ], [ -104.882222, 38.799994 ], [ -104.881933, 38.800003 ], [ -104.881741, 38.800056 ], [ -104.881647, 38.800118 ], [ -104.881602, 38.800169 ], [ -104.881555, 38.800314 ], [ -104.881565, 38.800402 ], [ -104.881631, 38.800531 ], [ -104.881622, 38.800717 ], [ -104.881644, 38.800894 ], [ -104.881668, 38.80098 ], [ -104.881807, 38.801172 ], [ -104.881825, 38.801248 ], [ -104.881781, 38.801415 ], [ -104.881783, 38.801548 ], [ -104.8819, 38.80191 ], [ -104.882082, 38.802145 ], [ -104.882301, 38.802498 ], [ -104.882389, 38.802601 ], [ -104.882466, 38.802653 ], [ -104.882637, 38.802724 ], [ -104.88293, 38.802789 ], [ -104.883002, 38.80283 ], [ -104.88306, 38.802904 ], [ -104.883157, 38.803415 ], [ -104.883234, 38.803713 ], [ -104.883274, 38.803822 ], [ -104.88329, 38.803929 ], [ -104.883362, 38.804038 ], [ -104.883456, 38.804163 ], [ -104.883572, 38.804345 ], [ -104.883671, 38.804487 ], [ -104.88377, 38.804594 ], [ -104.883885, 38.804711 ], [ -104.884017, 38.804813 ], [ -104.884079, 38.804851 ], [ -104.884151, 38.804928 ], [ -104.884213, 38.805051 ], [ -104.884248, 38.805173 ], [ -104.884242, 38.80529 ], [ -104.884272, 38.805359 ], [ -104.884315, 38.805394 ], [ -104.884438, 38.805415 ], [ -104.884551, 38.805446 ], [ -104.884666, 38.805482 ], [ -104.884717, 38.805536 ], [ -104.88469, 38.805622 ], [ -104.884658, 38.805683 ], [ -104.884642, 38.805752 ], [ -104.884663, 38.805833 ], [ -104.884706, 38.805908 ], [ -104.884805, 38.806009 ], [ -104.884907, 38.806052 ], [ -104.884974, 38.806103 ], [ -104.88502, 38.806172 ], [ -104.885049, 38.806226 ], [ -104.885122, 38.806249 ], [ -104.885219, 38.806253 ], [ -104.885323, 38.806253 ], [ -104.885428, 38.806264 ], [ -104.885554, 38.806299 ], [ -104.885707, 38.806358 ], [ -104.885779, 38.806399 ], [ -104.885865, 38.806425 ], [ -104.885977, 38.806422 ], [ -104.886104, 38.806412 ], [ -104.88623, 38.806429 ], [ -104.886372, 38.806458 ], [ -104.886635, 38.806487 ], [ -104.886831, 38.806494 ], [ -104.887005, 38.806464 ], [ -104.887171, 38.806408 ] ] } },
{ "type": "Feature", "properties": { "cls": "shared", "highway": "path", "name": "Upper Chutes" }, "geometry": { "type": "LineString", "coordinates": [ [ -104.876718, 38.799958 ], [ -104.87666, 38.800024 ], [ -104.8766, 38.800091 ], [ -104.876564, 38.800132 ], [ -104.87651, 38.800193 ], [ -104.876453, 38.800291 ], [ -104.876371, 38.800503 ], [ -104.876346, 38.800722 ], [ -104.87636, 38.800863 ], [ -104.876384, 38.800981 ], [ -104.876365, 38.801017 ], [ -104.876291, 38.800982 ], [ -104.876227, 38.800889 ], [ -104.87619, 38.80087 ], [ -104.876159, 38.80092 ], [ -104.876157, 38.801034 ], [ -104.876186, 38.801175 ], [ -104.87616, 38.80129 ], [ -104.876102, 38.801383 ], [ -104.875989, 38.801479 ], [ -104.87586, 38.801601 ], [ -104.875804, 38.8017 ], [ -104.875849, 38.801775 ], [ -104.876105, 38.801856 ], [ -104.876261, 38.80191 ], [ -104.876392, 38.801986 ], [ -104.876477, 38.802104 ], [ -104.876569, 38.802396 ], [ -104.876532, 38.802436 ], [ -104.876468, 38.80243 ], [ -104.876404, 38.802396 ] ] } },
{ "type": "Feature", "properties": { "cls": "shared", "highway": "path", "name": "Ladders" }, "geometry": { "type": "MultiLineString", "coordinates": [ [ [ -104.876207, 38.802614 ], [ -104.87623, 38.802653 ], [ -104.876253, 38.802733 ], [ -104.876469, 38.80288 ] ], [ [ -104.876706, 38.802879 ], [ -104.876688, 38.802629 ], [ -104.87692, 38.802539 ], [ -104.876947, 38.802453 ], [ -104.876786, 38.80201 ], [ -104.87675, 38.801589 ], [ -104.876618, 38.801419 ], [ -104.876619, 38.801264 ], [ -104.876564, 38.800922 ], [ -104.876528, 38.800483 ], [ -104.876568, 38.800363 ], [ -104.876608, 38.800167 ], [ -104.876618, 38.800102 ], [ -104.876718, 38.799958 ] ] ] } },
{ "type": "Feature", "properties": { "cls": "shared", "highway": "path", "name": "Ladders" }, "geometry": { "type": "MultiLineString", "coordinates": [ [ [ -104.87398, 38.80223 ], [ -104.874003, 38.802157 ], [ -104.874111, 38.802056 ], [ -104.874193, 38.802009 ], [ -104.87428, 38.801986 ], [ -104.874394, 38.802001 ], [ -104.87459, 38.802074 ], [ -104.874746, 38.802179 ], [ -104.874899, 38.802193 ], [ -104.875097, 38.802227 ], [ -104.875122, 38.802259 ], [ -104.875096, 38.802298 ], [ -104.874976, 38.802397 ], [ -104.874981, 38.802507 ], [ -104.875021, 38.802572 ], [ -104.875079, 38.802617 ], [ -104.87512, 38.802673 ], [ -104.875223, 38.802784 ], [ -104.875351, 38.802869 ], [ -104.875364, 38.802886 ] ], [ [ -104.875734, 38.802884 ], [ -104.875734, 38.802883 ], [ -104.875686, 38.802797 ], [ -104.875654, 38.802713 ], [ -104.875674, 38.802593 ], [ -104.875736, 38.802498 ], [ -104.875812, 38.802487 ], [ -104.875848, 38.802508 ], [ -104.875872, 38.802548 ], [ -104.875876, 38.802716 ], [ -104.875939, 38.802797 ], [ -104.876066, 38.802851 ], [ -104.876109, 38.802818 ], [ -104.876096, 38.802752 ], [ -104.876099, 38.802674 ], [ -104.87615, 38.80262 ], [ -104.876207, 38.802614 ] ] ] } },
{ "type": "Feature", "properties": { "cls": "shared", "highway": "path", "name": null }, "geometry": { "type": "LineString", "coordinates": [ [ -104.884597, 38.802763 ], [ -104.884618, 38.802796 ], [ -104.884736, 38.802888 ], [ -104.884878, 38.802982 ], [ -104.884907, 38.80308 ], [ -104.884915, 38.803179 ], [ -104.884926, 38.803252 ], [ -104.884883, 38.803268 ], [ -104.884792, 38.803206 ], [ -104.884679, 38.803128 ], [ -104.884591, 38.803064 ], [ -104.884451, 38.802995 ], [ -104.884379, 38.80293 ], [ -104.884325, 38.802827 ], [ -104.884285, 38.802725 ], [ -104.884248, 38.802627 ], [ -104.884188, 38.802493 ], [ -104.884105, 38.802405 ], [ -104.884087, 38.802357 ] ] } }
]
}
