{
"type": "FeatureCollection",
"name": "162-oakland-middle-harbor-shoreline-park",
"crs": { "type": "name", "properties": { "name": "urn:ogc:def:crs:OGC:1.3:CRS84" } },
"xy_coordinate_resolution": 1e-06,
"features": [
{ "type": "Feature", "properties": { "cls": "shared", "highway": "footway" }, "geometry": { "type": "LineString", "coordinates": [ [ -122.326636, 37.799665 ], [ -122.326858, 37.799585 ], [ -122.327245, 37.799474 ] ] } },
{ "type": "Feature", "properties": { "cls": "shared", "highway": "footway" }, "geometry": { "type": "LineString", "coordinates": [ [ -122.327245, 37.799474 ], [ -122.327538, 37.799397 ], [ -122.328703, 37.799697 ], [ -122.329253, 37.799825 ], [ -122.329962, 37.80003 ], [ -122.33004, 37.800095 ], [ -122.330155, 37.800176 ] ] } },
{ "type": "Feature", "properties": { "cls": "shared", "highway": "footway" }, "geometry": { "type": "LineString", "coordinates": [ [ -122.331667, 37.80626 ], [ -122.331637, 37.806201 ], [ -122.332092, 37.805837 ], [ -122.332734, 37.805317 ], [ -122.332874, 37.805209 ], [ -122.333016, 37.805211 ], [ -122.333092, 37.805213 ], [ -122.333461, 37.805219 ], [ -122.333807, 37.805226 ], [ -122.334153, 37.805113 ], [ -122.334714, 37.804993 ], [ -122.336446, 37.804639 ], [ -122.337407, 37.804509 ], [ -122.33853, 37.804304 ], [ -122.339501, 37.804095 ], [ -122.339869, 37.804016 ] ] } },
{ "type": "Feature", "properties": { "cls": "shared", "highway": "footway" }, "geometry": { "type": "LineString", "coordinates": [ [ -122.331667, 37.80626 ], [ -122.331318, 37.806523 ] ] } },
{ "type": "Feature", "properties": { "cls": "shared", "highway": "footway" }, "geometry": { "type": "LineString", "coordinates": [ [ -122.330987, 37.806702 ], [ -122.331063, 37.806667 ], [ -122.331291, 37.80655 ], [ -122.331318, 37.806523 ] ] } },
{ "type": "Feature", "properties": { "cls": "shared", "highway": "footway" }, "geometry": { "type": "LineString", "coordinates": [ [ -122.329625, 37.807218 ], [ -122.32966, 37.807209 ], [ -122.33002, 37.807094 ], [ -122.330331, 37.806971 ], [ -122.330987, 37.806702 ] ] } },
{ "type": "Feature", "properties": { "cls": "shared", "highway": "footway" }, "geometry": { "type": "LineString", "coordinates": [ [ -122.329625, 37.807218 ], [ -122.32955, 37.807235 ], [ -122.329086, 37.807313 ], [ -122.32851, 37.80736 ], [ -122.328078, 37.80737 ], [ -122.327326, 37.807311 ], [ -122.326985, 37.807287 ], [ -122.326832, 37.807272 ], [ -122.326745, 37.807245 ], [ -122.326637, 37.807178 ], [ -122.32645, 37.807118 ], [ -122.325049, 37.806822 ], [ -122.324945, 37.806771 ], [ -122.324723, 37.806777 ], [ -122.324605, 37.806692 ], [ -122.324523, 37.80651 ] ] } },
{ "type": "Feature", "properties": { "cls": "shared", "highway": "footway" }, "geometry": { "type": "LineString", "coordinates": [ [ -122.325899, 37.799444 ], [ -122.326247, 37.799537 ], [ -122.32642, 37.799589 ], [ -122.326636, 37.799665 ] ] } },
{ "type": "Feature", "properties": { "cls": "shared", "highway": "footway" }, "geometry": { "type": "LineString", "coordinates": [ [ -122.323155, 37.805091 ], [ -122.323226, 37.804922 ], [ -122.323277, 37.80479 ], [ -122.323373, 37.804551 ], [ -122.323336, 37.804458 ], [ -122.323322, 37.804354 ], [ -122.323355, 37.804264 ], [ -122.323453, 37.804044 ], [ -122.323403, 37.803914 ], [ -122.323594, 37.80339 ], [ -122.323789, 37.802944 ], [ -122.324185, 37.801977 ], [ -122.324207, 37.801924 ], [ -122.324338, 37.801605 ], [ -122.324679, 37.800775 ], [ -122.324863, 37.800281 ], [ -122.324927, 37.800127 ], [ -122.324954, 37.800082 ], [ -122.324973, 37.800064 ], [ -122.325064, 37.799999 ], [ -122.325164, 37.799947 ], [ -122.325418, 37.799774 ], [ -122.325469, 37.79974 ], [ -122.325899, 37.799444 ] ] } },
{ "type": "Feature", "properties": { "cls": "shared", "highway": "footway" }, "geometry": { "type": "LineString", "coordinates": [ [ -122.324523, 37.80651 ], [ -122.324498, 37.806459 ], [ -122.324375, 37.806163 ], [ -122.324274, 37.805935 ], [ -122.324078, 37.805471 ], [ -122.324048, 37.805404 ], [ -122.324028, 37.805365 ], [ -122.323923, 37.805166 ], [ -122.323868, 37.805041 ], [ -122.323829, 37.804952 ], [ -122.323812, 37.804914 ], [ -122.323453, 37.804044 ] ] } },
{ "type": "Feature", "properties": { "cls": "shared", "highway": "footway" }, "geometry": { "type": "LineString", "coordinates": [ [ -122.324274, 37.805935 ], [ -122.323594, 37.806116 ], [ -122.323439, 37.806159 ] ] } },
{ "type": "Feature", "properties": { "cls": "shared", "highway": "footway" }, "geometry": { "type": "LineString", "coordinates": [ [ -122.323439, 37.806159 ], [ -122.323384, 37.806172 ], [ -122.323303, 37.806201 ], [ -122.323225, 37.806239 ], [ -122.322797, 37.806446 ], [ -122.322493, 37.806592 ] ] } },
{ "type": "Feature", "properties": { "cls": "shared", "highway": "cycleway" }, "geometry": { "type": "LineString", "coordinates": [ [ -122.322486, 37.806591 ], [ -122.322493, 37.806592 ] ] } }
]
}
