{
"type": "FeatureCollection",
"name": "163-chicago-lincoln-park",
"crs": { "type": "name", "properties": { "name": "urn:ogc:def:crs:OGC:1.3:CRS84" } },
"xy_coordinate_resolution": 1e-06,
"features": [
{ "type": "Feature", "properties": { "cls": "separated", "highway": "cycleway", "name": "Lakefront Trail Connector" }, "geometry": { "type": "LineString", "coordinates": [ [ -87.61389, 41.893287 ], [ -87.613775, 41.893099 ] ] } },
{ "type": "Feature", "properties": { "cls": "separated", "highway": "cycleway", "name": "Lakefront Trail" }, "geometry": { "type": "LineString", "coordinates": [ [ -87.614051, 41.893416 ], [ -87.613944, 41.893271 ], [ -87.613898, 41.893203 ], [ -87.613844, 41.893111 ], [ -87.613835, 41.893097 ] ] } },
{ "type": "Feature", "properties": { "cls": "separated", "highway": "cycleway", "name": "Lakefront Trail Connector" }, "geometry": { "type": "LineString", "coordinates": [ [ -87.6139, 41.893303 ], [ -87.61389, 41.893287 ] ] } },
{ "type": "Feature", "properties": { "cls": "separated", "highway": "cycleway", "name": "Lakefront Trail Connector" }, "geometry": { "type": "LineString", "coordinates": [ [ -87.614011, 41.893456 ], [ -87.613995, 41.893444 ], [ -87.6139, 41.893303 ] ] } },
{ "type": "Feature", "properties": { "cls": "separated", "highway": "cycleway", "name": "Lakefront Trail Connector" }, "geometry": { "type": "LineString", "coordinates": [ [ -87.614079, 41.893473 ], [ -87.614011, 41.893456 ] ] } },
{ "type": "Feature", "properties": { "cls": "shared", "highway": "cycleway", "name": "Lakefront Trail" }, "geometry": { "type": "LineString", "coordinates": [ [ -87.623058, 41.902208 ], [ -87.622904, 41.902095 ], [ -87.622721, 41.901986 ], [ -87.622536, 41.901884 ], [ -87.622347, 41.901801 ], [ -87.622205, 41.901748 ], [ -87.622002, 41.901687 ], [ -87.621844, 41.901643 ], [ -87.621709, 41.901615 ], [ -87.62141, 41.901571 ], [ -87.621136, 41.901543 ], [ -87.62067, 41.901496 ], [ -87.620375, 41.901465 ], [ -87.62014, 41.90144 ], [ -87.620001, 41.901416 ], [ -87.619867, 41.901382 ], [ -87.619731, 41.901332 ], [ -87.619629, 41.901284 ], [ -87.619504, 41.90121 ], [ -87.619437, 41.901161 ], [ -87.619369, 41.901106 ], [ -87.61929, 41.901021 ], [ -87.619219, 41.900924 ], [ -87.619003, 41.900605 ], [ -87.618884, 41.900425 ], [ -87.618875, 41.900412 ], [ -87.61876, 41.900239 ], [ -87.618382, 41.899662 ], [ -87.618214, 41.899409 ], [ -87.618132, 41.899285 ], [ -87.61805, 41.899161 ], [ -87.617936, 41.898983 ], [ -87.617581, 41.898449 ], [ -87.617336, 41.898089 ], [ -87.617116, 41.897779 ], [ -87.61691, 41.897494 ], [ -87.616818, 41.897366 ], [ -87.616768, 41.897296 ], [ -87.616712, 41.897214 ], [ -87.616569, 41.897009 ], [ -87.616461, 41.896841 ], [ -87.616297, 41.896601 ], [ -87.616066, 41.896248 ], [ -87.615832, 41.895899 ], [ -87.615577, 41.895513 ], [ -87.615386, 41.895225 ], [ -87.615221, 41.894984 ], [ -87.615015, 41.894683 ], [ -87.614716, 41.894304 ], [ -87.614432, 41.893949 ], [ -87.614125, 41.893568 ], [ -87.614119, 41.89356 ], [ -87.614095, 41.893519 ], [ -87.614079, 41.893473 ], [ -87.614062, 41.893433 ], [ -87.614051, 41.893416 ] ] } },
{ "type": "Feature", "properties": { "cls": "shared", "highway": "cycleway", "name": "Oak Street Access Path" }, "geometry": { "type": "Point", "coordinates": [ -87.623247, 41.902115 ] } },
{ "type": "Feature", "properties": { "cls": "shared", "highway": "cycleway", "name": "Oak Street Access Path" }, "geometry": { "type": "LineString", "coordinates": [ [ -87.623247, 41.902115 ], [ -87.623037, 41.902253 ] ] } },
{ "type": "Feature", "properties": { "cls": "shared", "highway": "cycleway", "name": "Lakefront Trail" }, "geometry": { "type": "LineString", "coordinates": [ [ -87.623101, 41.90224 ], [ -87.623058, 41.902208 ] ] } },
{ "type": "Feature", "properties": { "cls": "shared", "highway": "cycleway", "name": "Oak Street Access Path" }, "geometry": { "type": "LineString", "coordinates": [ [ -87.623037, 41.902253 ], [ -87.623158, 41.902351 ], [ -87.623238, 41.902433 ], [ -87.623329, 41.902545 ], [ -87.623401, 41.902643 ], [ -87.623448, 41.902724 ] ] } },
{ "type": "Feature", "properties": { "cls": "separated", "highway": "cycleway", "name": "Oak Street Access Path" }, "geometry": { "type": "LineString", "coordinates": [ [ -87.623448, 41.902724 ], [ -87.623491, 41.902709 ] ] } },
{ "type": "Feature", "properties": { "cls": "separated", "highway": "cycleway", "name": "Lakefront Trail" }, "geometry": { "type": "LineString", "coordinates": [ [ -87.625073, 41.910847 ], [ -87.625169, 41.910647 ], [ -87.625271, 41.910499 ], [ -87.625305, 41.910455 ], [ -87.625346, 41.910384 ], [ -87.625376, 41.910308 ], [ -87.625395, 41.910228 ], [ -87.625411, 41.910091 ], [ -87.625421, 41.909939 ], [ -87.625418, 41.909739 ], [ -87.625411, 41.909499 ], [ -87.625395, 41.909279 ], [ -87.625375, 41.909072 ], [ -87.625347, 41.908848 ], [ -87.62532, 41.908649 ], [ -87.625289, 41.908458 ], [ -87.625259, 41.908294 ], [ -87.625203, 41.908059 ], [ -87.625126, 41.90774 ], [ -87.625058, 41.907463 ], [ -87.624958, 41.907103 ], [ -87.624847, 41.906699 ], [ -87.624758, 41.906378 ], [ -87.624681, 41.906114 ], [ -87.624643, 41.905951 ], [ -87.624626, 41.905902 ], [ -87.624612, 41.905862 ], [ -87.624602, 41.905836 ], [ -87.624524, 41.905621 ], [ -87.624386, 41.905249 ], [ -87.624265, 41.90494 ], [ -87.624237, 41.904862 ], [ -87.62418, 41.904708 ], [ -87.6241, 41.904499 ], [ -87.624063, 41.904406 ], [ -87.624031, 41.904321 ], [ -87.624004, 41.904245 ], [ -87.623964, 41.904134 ], [ -87.623925, 41.90403 ], [ -87.623837, 41.903748 ], [ -87.623756, 41.903468 ], [ -87.623702, 41.903288 ], [ -87.623645, 41.903092 ], [ -87.623611, 41.902972 ], [ -87.623568, 41.90286 ], [ -87.623545, 41.902802 ], [ -87.623491, 41.902709 ], [ -87.623431, 41.902593 ], [ -87.623355, 41.902482 ], [ -87.623307, 41.902427 ], [ -87.623209, 41.902326 ], [ -87.623101, 41.90224 ] ] } },
{ "type": "Feature", "properties": { "cls": "shared", "highway": "cycleway", "name": "North Avenue Access Path" }, "geometry": { "type": "LineString", "coordinates": [ [ -87.625073, 41.910847 ], [ -87.625173, 41.910879 ], [ -87.625239, 41.910933 ], [ -87.625465, 41.911116 ], [ -87.625587, 41.911219 ] ] } },
{ "type": "Feature", "properties": { "cls": "separated", "highway": "cycleway", "name": "Lakefront Trail" }, "geometry": { "type": "LineString", "coordinates": [ [ -87.625224, 41.911491 ], [ -87.625222, 41.911331 ], [ -87.625206, 41.911251 ], [ -87.62519, 41.911157 ], [ -87.625148, 41.911073 ], [ -87.625086, 41.910965 ], [ -87.625071, 41.910899 ], [ -87.625073, 41.910847 ] ] } },
{ "type": "Feature", "properties": { "cls": "shared", "highway": "cycleway", "name": "North Avenue Access Path" }, "geometry": { "type": "MultiLineString", "coordinates": [ [ [ -87.625604, 41.911216 ], [ -87.625617, 41.911216 ] ], [ [ -87.626408, 41.911209 ], [ -87.626434, 41.911209 ] ] ] } },
{ "type": "Feature", "properties": { "cls": "shared", "highway": "cycleway", "name": "Lakefront Trail Connector" }, "geometry": { "type": "LineString", "coordinates": [ [ -87.625587, 41.911219 ], [ -87.625604, 41.911216 ] ] } },
{ "type": "Feature", "properties": { "cls": "shared", "highway": "cycleway", "name": "North Avenue Access Path" }, "geometry": { "type": "LineString", "coordinates": [ [ -87.625587, 41.911219 ], [ -87.625224, 41.911491 ] ] } },
{ "type": "Feature", "properties": { "cls": "shared", "highway": "cycleway", "name": "North Avenue Access Path" }, "geometry": { "type": "LineString", "coordinates": [ [ -87.626434, 41.911209 ], [ -87.626451, 41.911209 ], [ -87.626667, 41.911591 ], [ -87.626695, 41.911617 ] ] } },
{ "type": "Feature", "properties": { "cls": "shared", "highway": "cycleway", "name": "Lincoln Park Fitness Course" }, "geometry": { "type": "LineString", "coordinates": [ [ -87.6293, 41.912473 ], [ -87.629309, 41.912388 ], [ -87.6293, 41.912342 ], [ -87.629262, 41.91232 ], [ -87.628947, 41.912242 ], [ -87.628789, 41.912202 ], [ -87.628533, 41.912149 ], [ -87.62813, 41.91206 ], [ -87.627828, 41.912005 ], [ -87.627417, 41.911954 ], [ -87.627264, 41.911915 ], [ -87.627251, 41.911911 ], [ -87.627003, 41.911804 ], [ -87.626695, 41.911617 ] ] } },
{ "type": "Feature", "properties": { "cls": "separated", "highway": "cycleway", "name": "Lakefront Trail" }, "geometry": { "type": "LineString", "coordinates": [ [ -87.625822, 41.913413 ], [ -87.625778, 41.913348 ], [ -87.625735, 41.913304 ], [ -87.625562, 41.913203 ], [ -87.625481, 41.913139 ], [ -87.625396, 41.91303 ], [ -87.625345, 41.91292 ], [ -87.625318, 41.912796 ], [ -87.625288, 41.912578 ], [ -87.625276, 41.912351 ], [ -87.625262, 41.912218 ], [ -87.625246, 41.912156 ], [ -87.625224, 41.912061 ], [ -87.625188, 41.911963 ], [ -87.62517, 41.911897 ], [ -87.62517, 41.911849 ], [ -87.625184, 41.911789 ], [ -87.625216, 41.911711 ], [ -87.625223, 41.911673 ], [ -87.62522, 41.911609 ], [ -87.625224, 41.911491 ] ] } },
{ "type": "Feature", "properties": { "cls": "shared", "highway": "cycleway", "name": "Lincoln Park Fitness Course" }, "geometry": { "type": "MultiLineString", "coordinates": [ [ [ -87.6293, 41.912473 ], [ -87.629299, 41.912477 ] ], [ [ -87.629254, 41.912756 ], [ -87.629247, 41.912796 ] ] ] } },
{ "type": "Feature", "properties": { "cls": "shared", "highway": "cycleway", "name": "Lincoln Park Fitness Course" }, "geometry": { "type": "LineString", "coordinates": [ [ -87.629247, 41.912796 ], [ -87.629209, 41.912891 ] ] } },
{ "type": "Feature", "properties": { "cls": "separated", "highway": "cycleway", "name": "Lakefront Trail" }, "geometry": { "type": "MultiPoint", "coordinates": [ [ -87.625822, 41.913413 ], [ -87.62591, 41.913582 ] ] } },
{ "type": "Feature", "properties": { "cls": "shared", "highway": "cycleway", "name": "Lincoln Park Fitness Course" }, "geometry": { "type": "LineString", "coordinates": [ [ -87.628677, 41.916069 ], [ -87.628719, 41.916013 ], [ -87.628639, 41.91598 ], [ -87.628565, 41.915924 ], [ -87.628494, 41.915847 ], [ -87.628367, 41.915767 ], [ -87.628178, 41.915677 ], [ -87.628039, 41.915494 ], [ -87.627997, 41.915362 ], [ -87.62796, 41.915304 ], [ -87.627936, 41.915267 ], [ -87.627904, 41.915204 ], [ -87.627876, 41.915154 ], [ -87.627809, 41.915041 ], [ -87.627775, 41.914938 ], [ -87.627749, 41.914837 ], [ -87.627741, 41.914632 ], [ -87.627724, 41.914358 ], [ -87.627688, 41.914115 ], [ -87.627654, 41.913976 ], [ -87.62763, 41.913816 ], [ -87.627604, 41.913609 ], [ -87.627616, 41.913469 ], [ -87.627642, 41.913369 ], [ -87.627701, 41.913253 ], [ -87.627786, 41.913133 ], [ -87.627898, 41.91304 ], [ -87.627996, 41.912973 ], [ -87.628111, 41.912913 ], [ -87.628267, 41.91287 ], [ -87.628415, 41.912852 ], [ -87.628561, 41.912851 ], [ -87.628946, 41.912907 ], [ -87.629058, 41.912912 ], [ -87.629209, 41.912891 ] ] } },
{ "type": "Feature", "properties": { "cls": "shared", "highway": "cycleway", "name": "Lakefront Trail Connector" }, "geometry": { "type": "LineString", "coordinates": [ [ -87.627904, 41.915204 ], [ -87.628115, 41.915149 ], [ -87.628129, 41.915151 ], [ -87.628129, 41.915164 ], [ -87.627936, 41.915225 ] ] } },
{ "type": "Feature", "properties": { "cls": "separated", "highway": "cycleway", "name": "Lakefront Trail Connector" }, "geometry": { "type": "LineString", "coordinates": [ [ -87.626769, 41.915407 ], [ -87.62685, 41.915187 ], [ -87.626862, 41.915162 ], [ -87.62688, 41.915134 ], [ -87.626908, 41.915114 ], [ -87.627016, 41.915066 ] ] } },
{ "type": "Feature", "properties": { "cls": "shared", "highway": "cycleway", "name": "Lakefront Trail Connector" }, "geometry": { "type": "MultiLineString", "coordinates": [ [ [ -87.627936, 41.915225 ], [ -87.627907, 41.915247 ], [ -87.62777, 41.915288 ] ], [ [ -87.627334, 41.915417 ], [ -87.627262, 41.915439 ] ] ] } },
{ "type": "Feature", "properties": { "cls": "shared", "highway": "cycleway", "name": "Lakefront Trail Connector" }, "geometry": { "type": "LineString", "coordinates": [ [ -87.626769, 41.915407 ], [ -87.626875, 41.915419 ], [ -87.626988, 41.915437 ], [ -87.627, 41.915458 ], [ -87.627008, 41.915477 ], [ -87.626993, 41.915483 ] ] } },
{ "type": "Feature", "properties": { "cls": "shared", "highway": "cycleway", "name": "Lakefront Trail Connector" }, "geometry": { "type": "LineString", "coordinates": [ [ -87.627262, 41.915439 ], [ -87.627234, 41.915439 ], [ -87.626919, 41.915527 ], [ -87.626902, 41.915522 ], [ -87.626908, 41.915509 ], [ -87.626993, 41.915483 ] ] } },
{ "type": "Feature", "properties": { "cls": "shared", "highway": "cycleway", "name": "Lincoln Park Fitness Course" }, "geometry": { "type": "LineString", "coordinates": [ [ -87.628646, 41.916114 ], [ -87.628664, 41.916088 ], [ -87.628677, 41.916069 ] ] } },
{ "type": "Feature", "properties": { "cls": "shared", "highway": "cycleway", "name": "Lincoln Park Fitness Course" }, "geometry": { "type": "LineString", "coordinates": [ [ -87.632592, 41.925612 ], [ -87.632448, 41.92512 ], [ -87.632388, 41.924955 ], [ -87.632265, 41.924698 ], [ -87.632261, 41.924656 ], [ -87.63227, 41.924615 ], [ -87.6323, 41.924566 ], [ -87.632332, 41.924513 ], [ -87.632415, 41.924424 ], [ -87.632464, 41.924382 ], [ -87.632586, 41.924276 ], [ -87.63262, 41.92423 ], [ -87.63262, 41.924192 ], [ -87.632586, 41.924084 ], [ -87.632401, 41.923656 ], [ -87.632291, 41.92339 ], [ -87.632252, 41.923302 ], [ -87.632183, 41.923257 ], [ -87.632131, 41.923223 ] ] } },
{ "type": "Feature", "properties": { "cls": "shared", "highway": "footway", "name": null }, "geometry": { "type": "LineString", "coordinates": [ [ -87.629881, 41.917176 ], [ -87.629923, 41.917065 ] ] } },
{ "type": "Feature", "properties": { "cls": "shared", "highway": "cycleway", "name": "Lincoln Park Fitness Course" }, "geometry": { "type": "LineString", "coordinates": [ [ -87.632131, 41.923223 ], [ -87.632016, 41.923118 ], [ -87.631829, 41.922934 ], [ -87.631467, 41.922474 ], [ -87.631444, 41.922441 ], [ -87.631401, 41.92236 ], [ -87.631186, 41.92161 ], [ -87.631134, 41.921455 ], [ -87.631048, 41.921253 ], [ -87.631018, 41.921184 ], [ -87.630985, 41.921084 ], [ -87.630947, 41.920958 ], [ -87.6309, 41.920765 ], [ -87.630888, 41.920636 ], [ -87.6309, 41.920539 ], [ -87.630929, 41.920425 ], [ -87.631019, 41.92021 ], [ -87.63103, 41.92012 ], [ -87.631012, 41.920036 ], [ -87.63069, 41.91935 ], [ -87.630649, 41.919222 ], [ -87.630606, 41.919091 ], [ -87.630573, 41.918991 ], [ -87.630283, 41.918374 ], [ -87.630207, 41.918147 ], [ -87.630176, 41.918038 ], [ -87.630145, 41.917852 ], [ -87.63009, 41.917689 ], [ -87.629881, 41.917176 ], [ -87.629746, 41.916942 ], [ -87.629648, 41.916803 ], [ -87.629561, 41.916697 ], [ -87.629476, 41.916624 ], [ -87.629313, 41.916518 ], [ -87.629086, 41.916444 ], [ -87.628968, 41.916393 ], [ -87.628781, 41.916302 ], [ -87.628634, 41.91623 ], [ -87.628608, 41.9162 ], [ -87.628606, 41.916174 ], [ -87.628646, 41.916114 ] ] } },
{ "type": "Feature", "properties": { "cls": "separated", "highway": "cycleway", "name": "Lakefront Trail" }, "geometry": { "type": "LineString", "coordinates": [ [ -87.63176, 41.932398 ], [ -87.631764, 41.932294 ], [ -87.631766, 41.93222 ], [ -87.631758, 41.932149 ], [ -87.631735, 41.932075 ], [ -87.631695, 41.931996 ], [ -87.63164, 41.931931 ], [ -87.631487, 41.931807 ], [ -87.63136, 41.931676 ], [ -87.631309, 41.931557 ], [ -87.631285, 41.931433 ], [ -87.631295, 41.931335 ], [ -87.63135, 41.931085 ], [ -87.631396, 41.930875 ], [ -87.631413, 41.930753 ], [ -87.631434, 41.930429 ], [ -87.63144, 41.930075 ], [ -87.631427, 41.929787 ], [ -87.631405, 41.929567 ], [ -87.63139, 41.929441 ], [ -87.631317, 41.929053 ], [ -87.631215, 41.928685 ], [ -87.631165, 41.928559 ], [ -87.631114, 41.928433 ], [ -87.631043, 41.928267 ], [ -87.630986, 41.928155 ], [ -87.63094, 41.928089 ], [ -87.630849, 41.927943 ], [ -87.63076, 41.927832 ], [ -87.630703, 41.927767 ], [ -87.630648, 41.927704 ], [ -87.630633, 41.927687 ], [ -87.630539, 41.927586 ], [ -87.630464, 41.927495 ], [ -87.630404, 41.927425 ], [ -87.630354, 41.927378 ], [ -87.630301, 41.927337 ], [ -87.630261, 41.927303 ], [ -87.630235, 41.927281 ], [ -87.630096, 41.927139 ], [ -87.629943, 41.927006 ], [ -87.629845, 41.92691 ], [ -87.629798, 41.926842 ], [ -87.629739, 41.926736 ], [ -87.629706, 41.926657 ], [ -87.629689, 41.926617 ], [ -87.629644, 41.926482 ], [ -87.629611, 41.926344 ], [ -87.629586, 41.926213 ], [ -87.629584, 41.926183 ], [ -87.629582, 41.926145 ], [ -87.629595, 41.926079 ], [ -87.629618, 41.926031 ], [ -87.629653, 41.92598 ], [ -87.629694, 41.925942 ], [ -87.629756, 41.925904 ], [ -87.629879, 41.925851 ], [ -87.629936, 41.925826 ], [ -87.629972, 41.925803 ], [ -87.63002, 41.925774 ], [ -87.630149, 41.925574 ], [ -87.630223, 41.92545 ], [ -87.630308, 41.925293 ], [ -87.63035, 41.925176 ], [ -87.630376, 41.925064 ], [ -87.630401, 41.924918 ], [ -87.630414, 41.924772 ], [ -87.630414, 41.924657 ], [ -87.630378, 41.92444 ], [ -87.630292, 41.924145 ], [ -87.630225, 41.923905 ], [ -87.630207, 41.923725 ], [ -87.630186, 41.92356 ], [ -87.630163, 41.923472 ], [ -87.630086, 41.923307 ], [ -87.630016, 41.923141 ], [ -87.629984, 41.923042 ], [ -87.629961, 41.922961 ], [ -87.629956, 41.922863 ], [ -87.629955, 41.922751 ], [ -87.62993, 41.922685 ], [ -87.629871, 41.922546 ], [ -87.629795, 41.922305 ], [ -87.629723, 41.922099 ], [ -87.629688, 41.921942 ], [ -87.629665, 41.921888 ], [ -87.629594, 41.921758 ], [ -87.629574, 41.921697 ], [ -87.629556, 41.921525 ], [ -87.629543, 41.921467 ], [ -87.629511, 41.921347 ], [ -87.62947, 41.92123 ], [ -87.629447, 41.921155 ], [ -87.62942, 41.921067 ], [ -87.629386, 41.920902 ], [ -87.62933, 41.920618 ], [ -87.629283, 41.920382 ], [ -87.629276, 41.920351 ], [ -87.629246, 41.920222 ], [ -87.629159, 41.919969 ], [ -87.629102, 41.919753 ], [ -87.629049, 41.919534 ], [ -87.629043, 41.919511 ], [ -87.629024, 41.919436 ], [ -87.628975, 41.919261 ], [ -87.628929, 41.919079 ], [ -87.628855, 41.918881 ], [ -87.62884, 41.918808 ], [ -87.628823, 41.91872 ], [ -87.628764, 41.918559 ], [ -87.628746, 41.918509 ], [ -87.628686, 41.918367 ], [ -87.628554, 41.917997 ], [ -87.628433, 41.917692 ], [ -87.628428, 41.91768 ], [ -87.628322, 41.917459 ], [ -87.628258, 41.917273 ], [ -87.628177, 41.9171 ], [ -87.62803, 41.916886 ], [ -87.628011, 41.916856 ], [ -87.627959, 41.91677 ], [ -87.627899, 41.916659 ], [ -87.62784, 41.916532 ], [ -87.627743, 41.91635 ], [ -87.627662, 41.916224 ], [ -87.627598, 41.916141 ], [ -87.627538, 41.916064 ], [ -87.627434, 41.915905 ], [ -87.627302, 41.915674 ], [ -87.627292, 41.915622 ], [ -87.627301, 41.915578 ], [ -87.627318, 41.915523 ], [ -87.627313, 41.915459 ], [ -87.62725, 41.915346 ], [ -87.627138, 41.915216 ], [ -87.627016, 41.915066 ], [ -87.626857, 41.914865 ], [ -87.626686, 41.914656 ], [ -87.626619, 41.914571 ], [ -87.626559, 41.914508 ], [ -87.626462, 41.914414 ], [ -87.626397, 41.914364 ], [ -87.626317, 41.91431 ], [ -87.626231, 41.91426 ], [ -87.626162, 41.914222 ], [ -87.626098, 41.914163 ], [ -87.626036, 41.914098 ], [ -87.625997, 41.914017 ], [ -87.625978, 41.913951 ], [ -87.625955, 41.913863 ], [ -87.625948, 41.913765 ], [ -87.625938, 41.913691 ], [ -87.625927, 41.913618 ], [ -87.62591, 41.913582 ] ] } },
{ "type": "Feature", "properties": { "cls": "separated", "highway": "cycleway", "name": "Fullerton Avenue Access Path" }, "geometry": { "type": "LineString", "coordinates": [ [ -87.630341, 41.926114 ], [ -87.630358, 41.926105 ], [ -87.630375, 41.926092 ], [ -87.630385, 41.926078 ], [ -87.630386, 41.926063 ], [ -87.630384, 41.926046 ], [ -87.630364, 41.925993 ], [ -87.630347, 41.925961 ], [ -87.630324, 41.925937 ], [ -87.630293, 41.925919 ], [ -87.630233, 41.925894 ], [ -87.630134, 41.925846 ], [ -87.63002, 41.925774 ] ] } },
{ "type": "Feature", "properties": { "cls": "shared", "highway": "cycleway", "name": "Fullerton Avenue Access Path" }, "geometry": { "type": "Point", "coordinates": [ -87.630665, 41.926343 ] } },
{ "type": "Feature", "properties": { "cls": "shared", "highway": "cycleway", "name": "Fullerton Avenue Access Path" }, "geometry": { "type": "LineString", "coordinates": [ [ -87.630665, 41.926343 ], [ -87.630508, 41.926373 ], [ -87.630422, 41.92639 ], [ -87.630348, 41.926408 ], [ -87.630204, 41.926447 ], [ -87.63008, 41.926497 ], [ -87.630001, 41.926533 ], [ -87.629868, 41.9266 ], [ -87.629706, 41.926657 ] ] } },
{ "type": "Feature", "properties": { "cls": "shared", "highway": "cycleway", "name": "Lincoln Park Fitness Course" }, "geometry": { "type": "LineString", "coordinates": [ [ -87.632637, 41.925759 ], [ -87.632607, 41.925662 ], [ -87.632592, 41.925612 ] ] } },
{ "type": "Feature", "properties": { "cls": "shared", "highway": "cycleway", "name": "Lincoln Park Fitness Course" }, "geometry": { "type": "GeometryCollection", "geometries": [ { "type": "LineString", "coordinates": [ [ -87.632713, 41.926011 ], [ -87.632696, 41.925956 ] ] }, { "type": "Point", "coordinates": [ -87.632637, 41.925759 ] } ] } },
{ "type": "Feature", "properties": { "cls": "shared", "highway": "cycleway", "name": "Fullerton Avenue Access Path" }, "geometry": { "type": "LineString", "coordinates": [ [ -87.632854, 41.925963 ], [ -87.632543, 41.926005 ] ] } },
{ "type": "Feature", "properties": { "cls": "shared", "highway": "cycleway", "name": null }, "geometry": { "type": "LineString", "coordinates": [ [ -87.632719, 41.926031 ], [ -87.632713, 41.926011 ] ] } },
{ "type": "Feature", "properties": { "cls": "shared", "highway": "cycleway", "name": "Fullerton Avenue Access Path" }, "geometry": { "type": "LineString", "coordinates": [ [ -87.632543, 41.926005 ], [ -87.632107, 41.926065 ] ] } },
{ "type": "Feature", "properties": { "cls": "shared", "highway": "cycleway", "name": "Fullerton Avenue Access Path" }, "geometry": { "type": "LineString", "coordinates": [ [ -87.632107, 41.926065 ], [ -87.631954, 41.926092 ] ] } },
{ "type": "Feature", "properties": { "cls": "shared", "highway": "cycleway", "name": "Fullerton Avenue Access Path" }, "geometry": { "type": "LineString", "coordinates": [ [ -87.631954, 41.926092 ], [ -87.631943, 41.926094 ] ] } },
{ "type": "Feature", "properties": { "cls": "shared", "highway": "cycleway", "name": "Fullerton Avenue Access Path" }, "geometry": { "type": "LineString", "coordinates": [ [ -87.633374, 41.92635 ], [ -87.633233, 41.926211 ], [ -87.633107, 41.926106 ], [ -87.633012, 41.926027 ], [ -87.632958, 41.925971 ], [ -87.632904, 41.925956 ], [ -87.632854, 41.925963 ] ] } },
{ "type": "Feature", "properties": { "cls": "shared", "highway": "cycleway", "name": "Lincoln Park Fitness Course" }, "geometry": { "type": "LineString", "coordinates": [ [ -87.633374, 41.92635 ], [ -87.633034, 41.926353 ], [ -87.632919, 41.926348 ], [ -87.632841, 41.926317 ], [ -87.632804, 41.926283 ], [ -87.632777, 41.926237 ], [ -87.632719, 41.926031 ] ] } },
{ "type": "Feature", "properties": { "cls": "shared", "highway": "cycleway", "name": "Lincoln Park Fitness Course" }, "geometry": { "type": "LineString", "coordinates": [ [ -87.633937, 41.926722 ], [ -87.633802, 41.926531 ], [ -87.63357, 41.926407 ], [ -87.633374, 41.92635 ] ] } },
{ "type": "Feature", "properties": { "cls": "shared", "highway": "cycleway", "name": "Lincoln Park Fitness Course" }, "geometry": { "type": "LineString", "coordinates": [ [ -87.633974, 41.92678 ], [ -87.633956, 41.926752 ], [ -87.633937, 41.926722 ] ] } },
{ "type": "Feature", "properties": { "cls": "shared", "highway": "cycleway", "name": "Lincoln Park Fitness Course" }, "geometry": { "type": "LineString", "coordinates": [ [ -87.636096, 41.930101 ], [ -87.635883, 41.92983 ], [ -87.635773, 41.929698 ], [ -87.635252, 41.929013 ], [ -87.635092, 41.92878 ], [ -87.634826, 41.928316 ], [ -87.634563, 41.927802 ], [ -87.634013, 41.926845 ], [ -87.633974, 41.92678 ] ] } },
{ "type": "Feature", "properties": { "cls": "shared", "highway": "cycleway", "name": "Lincoln Park Fitness Course" }, "geometry": { "type": "LineString", "coordinates": [ [ -87.636157, 41.930208 ], [ -87.636137, 41.930173 ], [ -87.63611, 41.930125 ], [ -87.636096, 41.930101 ] ] } },
{ "type": "Feature", "properties": { "cls": "shared", "highway": "cycleway", "name": "Lincoln Park Fitness Course" }, "geometry": { "type": "LineString", "coordinates": [ [ -87.635772, 41.932686 ], [ -87.635998, 41.932285 ], [ -87.636177, 41.931985 ], [ -87.636374, 41.931589 ], [ -87.636416, 41.931498 ], [ -87.636457, 41.931373 ], [ -87.636479, 41.931223 ], [ -87.63648, 41.93106 ], [ -87.63645, 41.930837 ], [ -87.636422, 41.930721 ], [ -87.636381, 41.930614 ], [ -87.636224, 41.930346 ], [ -87.636157, 41.930208 ] ] } },
{ "type": "Feature", "properties": { "cls": "separated", "highway": "cycleway", "name": "Lakefront Trail" }, "geometry": { "type": "LineString", "coordinates": [ [ -87.631757, 41.932639 ], [ -87.63176, 41.932398 ] ] } },
{ "type": "Feature", "properties": { "cls": "shared", "highway": "cycleway", "name": "Lincoln Park Fitness Course" }, "geometry": { "type": "LineString", "coordinates": [ [ -87.635815, 41.933167 ], [ -87.635748, 41.932923 ], [ -87.635737, 41.932789 ], [ -87.635772, 41.932686 ] ] } },
{ "type": "Feature", "properties": { "cls": "shared", "highway": "cycleway", "name": "Lincoln Park Fitness Course" }, "geometry": { "type": "Point", "coordinates": [ -87.635846, 41.93327 ] } },
{ "type": "Feature", "properties": { "cls": "shared", "highway": "cycleway", "name": "Lincoln Park Fitness Course" }, "geometry": { "type": "LineString", "coordinates": [ [ -87.636574, 41.937951 ], [ -87.636783, 41.937659 ], [ -87.636848, 41.937531 ], [ -87.636865, 41.937449 ], [ -87.636828, 41.937291 ], [ -87.636702, 41.936995 ], [ -87.636615, 41.936785 ], [ -87.636578, 41.936573 ], [ -87.636528, 41.93632 ], [ -87.636509, 41.936017 ], [ -87.636498, 41.93555 ], [ -87.636468, 41.935078 ], [ -87.63644, 41.93481 ], [ -87.636413, 41.934662 ], [ -87.636317, 41.934352 ], [ -87.636214, 41.934123 ], [ -87.636102, 41.933865 ], [ -87.635942, 41.933547 ], [ -87.63587, 41.933338 ], [ -87.635846, 41.93327 ] ] } },
{ "type": "Feature", "properties": { "cls": "separated", "highway": "cycleway", "name": "Lakefront Trail" }, "geometry": { "type": "LineString", "coordinates": [ [ -87.636826, 41.939472 ], [ -87.636813, 41.93944 ], [ -87.636786, 41.939377 ], [ -87.636744, 41.939312 ], [ -87.636694, 41.939256 ], [ -87.636628, 41.939196 ], [ -87.636531, 41.939126 ], [ -87.636424, 41.939068 ], [ -87.636257, 41.938988 ], [ -87.635945, 41.938835 ], [ -87.635873, 41.938782 ], [ -87.635823, 41.938728 ], [ -87.635763, 41.938649 ], [ -87.635729, 41.938607 ], [ -87.635721, 41.938595 ], [ -87.63567, 41.938538 ], [ -87.635611, 41.938486 ], [ -87.635528, 41.938436 ], [ -87.635441, 41.938391 ], [ -87.635277, 41.938304 ], [ -87.635156, 41.938231 ], [ -87.634961, 41.938096 ], [ -87.634944, 41.938071 ], [ -87.634916, 41.938008 ], [ -87.634889, 41.937962 ], [ -87.634849, 41.937915 ], [ -87.63393, 41.937258 ], [ -87.633827, 41.9372 ], [ -87.633692, 41.937155 ], [ -87.633602, 41.937116 ], [ -87.633493, 41.937046 ], [ -87.633404, 41.936961 ], [ -87.633291, 41.936817 ], [ -87.633161, 41.936568 ], [ -87.63305, 41.936392 ], [ -87.632967, 41.936283 ], [ -87.632514, 41.935747 ], [ -87.632418, 41.935568 ], [ -87.632331, 41.935402 ], [ -87.632282, 41.935134 ], [ -87.632105, 41.934801 ], [ -87.631904, 41.934419 ], [ -87.631839, 41.934103 ], [ -87.63179, 41.93402 ], [ -87.63174, 41.933962 ], [ -87.631724, 41.933897 ], [ -87.631692, 41.933782 ], [ -87.631636, 41.93353 ], [ -87.631619, 41.933431 ], [ -87.631619, 41.933357 ], [ -87.631634, 41.933271 ], [ -87.631662, 41.93314 ], [ -87.631713, 41.932936 ], [ -87.631744, 41.932809 ], [ -87.631755, 41.93275 ], [ -87.631757, 41.932639 ] ] } },
{ "type": "Feature", "properties": { "cls": "shared", "highway": "cycleway", "name": "Lincoln Park Fitness Course" }, "geometry": { "type": "LineString", "coordinates": [ [ -87.636161, 41.938282 ], [ -87.636574, 41.937951 ] ] } },
{ "type": "Feature", "properties": { "cls": "shared", "highway": "cycleway", "name": "Lincoln Park Fitness Course" }, "geometry": { "type": "MultiPoint", "coordinates": [ [ -87.636161, 41.938282 ], [ -87.635865, 41.938507 ] ] } },
{ "type": "Feature", "properties": { "cls": "shared", "highway": "cycleway", "name": "Lincoln Park Fitness Course" }, "geometry": { "type": "LineString", "coordinates": [ [ -87.635721, 41.938595 ], [ -87.635754, 41.938588 ], [ -87.635819, 41.93854 ], [ -87.635865, 41.938507 ] ] } },
{ "type": "Feature", "properties": { "cls": "separated", "highway": "cycleway", "name": "Lakefront Trail" }, "geometry": { "type": "MultiPoint", "coordinates": [ [ -87.636826, 41.939472 ], [ -87.636847, 41.939535 ] ] } },
{ "type": "Feature", "properties": { "cls": "separated", "highway": "cycleway", "name": "Lakefront Trail" }, "geometry": { "type": "LineString", "coordinates": [ [ -87.642044, 41.948315 ], [ -87.642229, 41.948079 ], [ -87.642273, 41.94801 ], [ -87.642301, 41.947949 ], [ -87.642312, 41.947894 ], [ -87.64231, 41.947841 ], [ -87.642283, 41.947784 ], [ -87.642186, 41.947624 ], [ -87.642056, 41.947405 ], [ -87.641774, 41.946936 ], [ -87.641653, 41.946733 ], [ -87.64159, 41.946633 ], [ -87.64152, 41.946536 ], [ -87.641445, 41.946447 ], [ -87.641371, 41.946368 ], [ -87.641186, 41.946209 ], [ -87.640856, 41.945981 ], [ -87.640806, 41.945936 ], [ -87.640777, 41.945898 ], [ -87.640753, 41.945842 ], [ -87.64074, 41.945785 ], [ -87.640719, 41.945442 ], [ -87.640709, 41.945297 ], [ -87.640691, 41.945175 ], [ -87.640661, 41.94505 ], [ -87.640642, 41.944982 ], [ -87.640609, 41.944895 ], [ -87.640547, 41.944756 ], [ -87.640516, 41.944687 ], [ -87.640475, 41.944607 ], [ -87.640404, 41.944481 ], [ -87.640351, 41.944391 ], [ -87.64026, 41.944259 ], [ -87.640206, 41.944184 ], [ -87.640079, 41.944027 ], [ -87.639905, 41.94382 ], [ -87.639876, 41.943781 ], [ -87.639711, 41.943534 ], [ -87.639631, 41.943414 ], [ -87.639483, 41.943191 ], [ -87.639331, 41.942971 ], [ -87.639298, 41.942907 ], [ -87.6392, 41.942653 ], [ -87.639102, 41.942372 ], [ -87.639072, 41.942299 ], [ -87.639042, 41.942242 ], [ -87.638975, 41.942122 ], [ -87.638961, 41.94208 ], [ -87.638947, 41.942029 ], [ -87.638932, 41.941946 ], [ -87.638926, 41.94192 ], [ -87.638916, 41.941878 ], [ -87.638874, 41.941774 ], [ -87.638854, 41.941739 ], [ -87.638805, 41.941677 ], [ -87.63872, 41.941581 ], [ -87.638675, 41.941543 ], [ -87.638605, 41.94149 ], [ -87.638539, 41.94145 ], [ -87.638509, 41.941424 ], [ -87.638361, 41.941251 ], [ -87.638065, 41.940875 ], [ -87.63794, 41.940722 ], [ -87.637875, 41.940643 ], [ -87.637752, 41.940492 ], [ -87.637428, 41.94011 ], [ -87.637368, 41.94004 ], [ -87.63716, 41.939819 ], [ -87.637086, 41.939741 ], [ -87.637048, 41.939714 ], [ -87.636973, 41.93967 ], [ -87.636913, 41.939628 ], [ -87.636873, 41.939584 ], [ -87.636847, 41.939535 ] ] } },
{ "type": "Feature", "properties": { "cls": "separated", "highway": "cycleway", "name": "Lakefront Trail" }, "geometry": { "type": "MultiPoint", "coordinates": [ [ -87.641991, 41.948384 ], [ -87.642044, 41.948315 ] ] } },
{ "type": "Feature", "properties": { "cls": "separated", "highway": "cycleway", "name": "Lakefront Trail" }, "geometry": { "type": "LineString", "coordinates": [ [ -87.642114, 41.948794 ], [ -87.642044, 41.948688 ], [ -87.641965, 41.948588 ], [ -87.641945, 41.948534 ], [ -87.641945, 41.94849 ], [ -87.641954, 41.948445 ], [ -87.641991, 41.948384 ] ] } },
{ "type": "Feature", "properties": { "cls": "separated", "highway": "cycleway", "name": "Lakefront Trail" }, "geometry": { "type": "MultiLineString", "coordinates": [ [ [ -87.643105, 41.949659 ], [ -87.64309, 41.949641 ], [ -87.643037, 41.949571 ], [ -87.642948, 41.949494 ], [ -87.642905, 41.949459 ] ], [ [ -87.642853, 41.949417 ], [ -87.642707, 41.949295 ], [ -87.642616, 41.949215 ], [ -87.642534, 41.949159 ], [ -87.642376, 41.949089 ], [ -87.642331, 41.949058 ], [ -87.6423, 41.949027 ], [ -87.642244, 41.948949 ], [ -87.642212, 41.948897 ], [ -87.642191, 41.948877 ], [ -87.642158, 41.948859 ], [ -87.64214, 41.948843 ], [ -87.642114, 41.948794 ] ] ] } },
{ "type": "Feature", "properties": { "cls": "shared", "highway": "cycleway", "name": "Addison Street Access Path" }, "geometry": { "type": "LineString", "coordinates": [ [ -87.643444, 41.949539 ], [ -87.643417, 41.949548 ] ] } },
{ "type": "Feature", "properties": { "cls": "shared", "highway": "cycleway", "name": "Roscoe Street Access Path" }, "geometry": { "type": "LineString", "coordinates": [ [ -87.639779, 41.943099 ], [ -87.639774, 41.943101 ] ] } },
{ "type": "Feature", "properties": { "cls": "shared", "highway": "cycleway", "name": "Roscoe Street Access Path" }, "geometry": { "type": "LineString", "coordinates": [ [ -87.639774, 41.943101 ], [ -87.639744, 41.943109 ] ] } },
{ "type": "Feature", "properties": { "cls": "shared", "highway": "cycleway", "name": "Roscoe Street Access Path" }, "geometry": { "type": "LineString", "coordinates": [ [ -87.639631, 41.943414 ], [ -87.639752, 41.943146 ], [ -87.639744, 41.943109 ] ] } },
{ "type": "Feature", "properties": { "cls": "separated", "highway": "cycleway", "name": "Lakefront Trail" }, "geometry": { "type": "LineString", "coordinates": [ [ -87.643576, 41.962241 ], [ -87.643561, 41.962175 ], [ -87.643553, 41.962131 ], [ -87.643552, 41.962087 ], [ -87.643563, 41.962042 ], [ -87.643566, 41.962038 ], [ -87.643588, 41.96199 ], [ -87.643622, 41.961947 ], [ -87.643682, 41.96189 ], [ -87.643723, 41.961863 ], [ -87.643758, 41.961849 ], [ -87.643795, 41.961833 ], [ -87.643876, 41.961823 ], [ -87.644029, 41.961818 ], [ -87.644172, 41.961823 ], [ -87.644374, 41.961841 ], [ -87.644738, 41.961889 ], [ -87.64492, 41.961914 ], [ -87.645081, 41.961921 ], [ -87.645136, 41.961912 ], [ -87.645185, 41.961896 ], [ -87.645223, 41.961876 ], [ -87.645245, 41.961862 ], [ -87.645277, 41.961841 ], [ -87.645325, 41.961797 ], [ -87.645345, 41.961774 ], [ -87.64536, 41.961742 ], [ -87.645376, 41.961696 ], [ -87.645386, 41.961647 ], [ -87.645389, 41.961584 ], [ -87.645393, 41.961503 ], [ -87.645397, 41.961444 ], [ -87.645401, 41.961416 ], [ -87.645408, 41.961383 ], [ -87.645423, 41.961343 ], [ -87.645452, 41.96129 ], [ -87.645531, 41.961154 ], [ -87.645559, 41.961102 ], [ -87.645581, 41.961054 ], [ -87.645603, 41.961 ], [ -87.645618, 41.960954 ], [ -87.645629, 41.960907 ], [ -87.645639, 41.960833 ], [ -87.64564, 41.960806 ], [ -87.645647, 41.960627 ], [ -87.645661, 41.960522 ], [ -87.645685, 41.960437 ], [ -87.645717, 41.960355 ], [ -87.645772, 41.960242 ], [ -87.645819, 41.960127 ], [ -87.645833, 41.960083 ], [ -87.645838, 41.960053 ], [ -87.645841, 41.960006 ], [ -87.645832, 41.959889 ], [ -87.645811, 41.959756 ], [ -87.64579, 41.959657 ], [ -87.645777, 41.959574 ], [ -87.645769, 41.959534 ], [ -87.64575, 41.959493 ], [ -87.645713, 41.959441 ], [ -87.645674, 41.959372 ], [ -87.645656, 41.959313 ], [ -87.645638, 41.959261 ], [ -87.645614, 41.959202 ], [ -87.64555, 41.959096 ], [ -87.64553, 41.959063 ], [ -87.645484, 41.959001 ], [ -87.645426, 41.958942 ], [ -87.64536, 41.958871 ], [ -87.645282, 41.958764 ], [ -87.645269, 41.95874 ], [ -87.645259, 41.958701 ], [ -87.645243, 41.958591 ], [ -87.645239, 41.958512 ], [ -87.645247, 41.958443 ], [ -87.645267, 41.958355 ], [ -87.645307, 41.958278 ], [ -87.645329, 41.958236 ], [ -87.645387, 41.958142 ], [ -87.645434, 41.958066 ], [ -87.645452, 41.957999 ], [ -87.645458, 41.957947 ], [ -87.645447, 41.957893 ], [ -87.645396, 41.957776 ], [ -87.645304, 41.957578 ], [ -87.645275, 41.957501 ], [ -87.645239, 41.957395 ], [ -87.645181, 41.957275 ], [ -87.645138, 41.957184 ], [ -87.645113, 41.957129 ], [ -87.645074, 41.957021 ], [ -87.645017, 41.956857 ], [ -87.644971, 41.95673 ], [ -87.644907, 41.956597 ], [ -87.644829, 41.956473 ], [ -87.644766, 41.95634 ], [ -87.644732, 41.956247 ], [ -87.644672, 41.956047 ], [ -87.644621, 41.95595 ], [ -87.644532, 41.955828 ], [ -87.644467, 41.955735 ], [ -87.644439, 41.95567 ], [ -87.644401, 41.955554 ], [ -87.644369, 41.955462 ], [ -87.644345, 41.955423 ], [ -87.644303, 41.955374 ], [ -87.644146, 41.955233 ], [ -87.644092, 41.955168 ], [ -87.644051, 41.955128 ], [ -87.644037, 41.955109 ], [ -87.644002, 41.95504 ], [ -87.643989, 41.955004 ], [ -87.643952, 41.954888 ], [ -87.643912, 41.954806 ], [ -87.643896, 41.954779 ], [ -87.643846, 41.954716 ], [ -87.643806, 41.954661 ], [ -87.643754, 41.954587 ], [ -87.643732, 41.954539 ], [ -87.643715, 41.954482 ], [ -87.64371, 41.954424 ], [ -87.643719, 41.954351 ], [ -87.643751, 41.954269 ], [ -87.643832, 41.954084 ], [ -87.64385, 41.954012 ], [ -87.643869, 41.953916 ], [ -87.6439, 41.953829 ], [ -87.643967, 41.953672 ], [ -87.64402, 41.953577 ], [ -87.644107, 41.953411 ], [ -87.644127, 41.953368 ], [ -87.644141, 41.953334 ], [ -87.644167, 41.953254 ], [ -87.644174, 41.953228 ], [ -87.644189, 41.95317 ], [ -87.644212, 41.953038 ], [ -87.644226, 41.952973 ], [ -87.644245, 41.952913 ] ] } },
{ "type": "Feature", "properties": { "cls": "shared", "highway": "cycleway", "name": "Buena Avenue Access Path" }, "geometry": { "type": "LineString", "coordinates": [ [ -87.646238, 41.9585 ], [ -87.646196, 41.958506 ] ] } },
{ "type": "Feature", "properties": { "cls": "shared", "highway": "cycleway", "name": "Buena Avenue Access Path" }, "geometry": { "type": "LineString", "coordinates": [ [ -87.646238, 41.9585 ], [ -87.646381, 41.958538 ] ] } },
{ "type": "Feature", "properties": { "cls": "shared", "highway": "cycleway", "name": "Buena Avenue Access Path" }, "geometry": { "type": "MultiPoint", "coordinates": [ [ -87.645729, 41.958571 ], [ -87.646196, 41.958506 ] ] } },
{ "type": "Feature", "properties": { "cls": "separated", "highway": "cycleway", "name": "Buena Avenue Access Path" }, "geometry": { "type": "LineString", "coordinates": [ [ -87.646396, 41.958538 ], [ -87.646381, 41.958538 ] ] } },
{ "type": "Feature", "properties": { "cls": "shared", "highway": "cycleway", "name": "Buena Avenue Access Path" }, "geometry": { "type": "LineString", "coordinates": [ [ -87.645729, 41.958571 ], [ -87.645704, 41.958573 ] ] } },
{ "type": "Feature", "properties": { "cls": "shared", "highway": "cycleway", "name": "Buena Avenue Access Path" }, "geometry": { "type": "LineString", "coordinates": [ [ -87.645704, 41.958573 ], [ -87.645699, 41.958594 ], [ -87.645662, 41.958634 ], [ -87.645626, 41.958692 ], [ -87.645653, 41.958754 ], [ -87.645737, 41.958909 ], [ -87.645748, 41.958967 ], [ -87.645744, 41.959006 ], [ -87.645726, 41.959027 ], [ -87.64555, 41.959096 ] ] } },
{ "type": "Feature", "properties": { "cls": "shared", "highway": "cycleway", "name": "Argyle Street Access Path" }, "geometry": { "type": "GeometryCollection", "geometries": [ { "type": "LineString", "coordinates": [ [ -87.648582, 41.973193 ], [ -87.648704, 41.973188 ] ] }, { "type": "Point", "coordinates": [ -87.64927, 41.973166 ] } ] } },
{ "type": "Feature", "properties": { "cls": "shared", "highway": "cycleway", "name": "Addison Street Access Path" }, "geometry": { "type": "LineString", "coordinates": [ [ -87.643417, 41.949548 ], [ -87.643388, 41.949557 ] ] } },
{ "type": "Feature", "properties": { "cls": "shared", "highway": "cycleway", "name": "Addison Street Access Path" }, "geometry": { "type": "LineString", "coordinates": [ [ -87.643388, 41.949557 ], [ -87.643426, 41.949638 ], [ -87.643441, 41.949706 ], [ -87.643472, 41.949857 ], [ -87.643462, 41.949901 ], [ -87.643447, 41.949917 ], [ -87.643424, 41.949928 ] ] } },
{ "type": "Feature", "properties": { "cls": "shared", "highway": "cycleway", "name": "Addison Street Access Path" }, "geometry": { "type": "MultiPoint", "coordinates": [ [ -87.643321, 41.949963 ], [ -87.643424, 41.949928 ] ] } },
{ "type": "Feature", "properties": { "cls": "shared", "highway": "cycleway", "name": "Addison Street Access Path" }, "geometry": { "type": "LineString", "coordinates": [ [ -87.643321, 41.949963 ], [ -87.643248, 41.949981 ], [ -87.643206, 41.949991 ] ] } },
{ "type": "Feature", "properties": { "cls": "separated", "highway": "cycleway", "name": "Lakefront Trail" }, "geometry": { "type": "LineString", "coordinates": [ [ -87.644245, 41.952913 ], [ -87.644262, 41.952848 ], [ -87.644257, 41.952795 ], [ -87.64424, 41.952751 ], [ -87.644206, 41.952697 ], [ -87.644158, 41.952618 ], [ -87.644112, 41.952491 ], [ -87.643964, 41.952077 ], [ -87.64344, 41.950635 ], [ -87.64342, 41.950581 ], [ -87.643279, 41.950193 ], [ -87.643206, 41.949991 ], [ -87.643185, 41.949926 ], [ -87.643174, 41.949846 ], [ -87.643154, 41.949756 ], [ -87.643105, 41.949659 ] ] } },
{ "type": "Feature", "properties": { "cls": "separated", "highway": "cycleway", "name": "Lakefront Trail" }, "geometry": { "type": "MultiPoint", "coordinates": [ [ -87.643576, 41.962241 ], [ -87.643614, 41.962413 ] ] } },
{ "type": "Feature", "properties": { "cls": "separated", "highway": "cycleway", "name": "Lakefront Trail" }, "geometry": { "type": "LineString", "coordinates": [ [ -87.643857, 41.965528 ], [ -87.643673, 41.965558 ], [ -87.643609, 41.96557 ], [ -87.643496, 41.965592 ], [ -87.643415, 41.965609 ], [ -87.643358, 41.965617 ], [ -87.643316, 41.965622 ], [ -87.643224, 41.965632 ], [ -87.643153, 41.965639 ], [ -87.643048, 41.965649 ], [ -87.642942, 41.965657 ], [ -87.642864, 41.96566 ], [ -87.642829, 41.965661 ], [ -87.64272, 41.965663 ], [ -87.642585, 41.965663 ], [ -87.642466, 41.965663 ], [ -87.642327, 41.965658 ], [ -87.642244, 41.965652 ], [ -87.642153, 41.965642 ], [ -87.642076, 41.965635 ], [ -87.641967, 41.965618 ], [ -87.641809, 41.965579 ], [ -87.641654, 41.965541 ], [ -87.64151, 41.965481 ], [ -87.64134, 41.965408 ], [ -87.641252, 41.965358 ], [ -87.641121, 41.965276 ], [ -87.640993, 41.965175 ], [ -87.640922, 41.965111 ], [ -87.640852, 41.965038 ], [ -87.640784, 41.964963 ], [ -87.640707, 41.964855 ], [ -87.640656, 41.964768 ], [ -87.640605, 41.96466 ], [ -87.640562, 41.964539 ], [ -87.640536, 41.964419 ], [ -87.64052, 41.964269 ], [ -87.640522, 41.964166 ], [ -87.640535, 41.964049 ], [ -87.640547, 41.963995 ], [ -87.64057, 41.96391 ], [ -87.640595, 41.963845 ], [ -87.640637, 41.96375 ], [ -87.640678, 41.963672 ], [ -87.640737, 41.963579 ], [ -87.640786, 41.963508 ], [ -87.640846, 41.963437 ], [ -87.640909, 41.963372 ], [ -87.640984, 41.963302 ], [ -87.641077, 41.963227 ], [ -87.641161, 41.963167 ], [ -87.641242, 41.963116 ], [ -87.641309, 41.963076 ], [ -87.641425, 41.963015 ], [ -87.641503, 41.962981 ], [ -87.641524, 41.962972 ], [ -87.641587, 41.962946 ], [ -87.641648, 41.962923 ], [ -87.641698, 41.962908 ], [ -87.641794, 41.962882 ], [ -87.641892, 41.962859 ], [ -87.641992, 41.962841 ], [ -87.642112, 41.962823 ], [ -87.642228, 41.962812 ], [ -87.642317, 41.962806 ], [ -87.642449, 41.962806 ], [ -87.642549, 41.962802 ], [ -87.642685, 41.962805 ], [ -87.642932, 41.962819 ], [ -87.643108, 41.962829 ], [ -87.643186, 41.962832 ], [ -87.643286, 41.962836 ], [ -87.643365, 41.962828 ], [ -87.643416, 41.962816 ], [ -87.643462, 41.962803 ], [ -87.64349, 41.962791 ], [ -87.643513, 41.962778 ], [ -87.643537, 41.96276 ], [ -87.643563, 41.962737 ], [ -87.643591, 41.962708 ], [ -87.643617, 41.962677 ], [ -87.643637, 41.962645 ], [ -87.643643, 41.962618 ], [ -87.643647, 41.962584 ], [ -87.643643, 41.962545 ], [ -87.643614, 41.962413 ] ] } },
{ "type": "Feature", "properties": { "cls": "shared", "highway": "cycleway", "name": "Wilson Avenue Access Path" }, "geometry": { "type": "LineString", "coordinates": [ [ -87.643857, 41.965528 ], [ -87.64425, 41.965463 ], [ -87.644366, 41.965452 ], [ -87.644474, 41.965451 ] ] } },
{ "type": "Feature", "properties": { "cls": "separated", "highway": "cycleway", "name": "Lakefront Trail" }, "geometry": { "type": "MultiLineString", "coordinates": [ [ [ -87.643857, 41.965528 ], [ -87.643932, 41.965529 ], [ -87.643972, 41.965535 ], [ -87.644016, 41.965545 ], [ -87.644055, 41.965556 ], [ -87.644091, 41.965571 ], [ -87.64415, 41.965602 ], [ -87.644178, 41.96562 ], [ -87.644208, 41.965645 ], [ -87.64423, 41.965661 ], [ -87.644285, 41.965759 ], [ -87.644297, 41.965791 ], [ -87.644316, 41.965855 ], [ -87.644337, 41.965954 ] ], [ [ -87.644373, 41.96613 ], [ -87.644385, 41.966186 ], [ -87.644393, 41.966228 ], [ -87.644393, 41.966269 ], [ -87.64439, 41.966285 ], [ -87.644385, 41.966304 ], [ -87.644378, 41.966319 ], [ -87.64437, 41.966332 ], [ -87.644362, 41.966345 ], [ -87.64435, 41.966356 ], [ -87.644334, 41.966369 ], [ -87.644312, 41.96638 ], [ -87.644268, 41.966397 ], [ -87.64414, 41.96644 ], [ -87.644063, 41.966468 ], [ -87.644014, 41.966493 ], [ -87.643961, 41.966526 ], [ -87.64392, 41.966557 ], [ -87.643884, 41.96659 ], [ -87.64386, 41.966625 ], [ -87.643838, 41.966666 ], [ -87.643822, 41.966712 ], [ -87.643816, 41.96674 ], [ -87.643813, 41.966774 ], [ -87.643816, 41.966815 ], [ -87.643826, 41.966848 ], [ -87.643847, 41.966888 ], [ -87.643862, 41.966912 ], [ -87.643889, 41.966943 ], [ -87.64392, 41.966972 ], [ -87.643948, 41.966997 ], [ -87.643971, 41.967015 ], [ -87.643997, 41.967034 ], [ -87.644032, 41.967058 ], [ -87.644179, 41.967159 ], [ -87.644405, 41.967327 ], [ -87.644644, 41.967536 ], [ -87.644822, 41.967714 ], [ -87.644838, 41.967731 ] ] ] } },
{ "type": "Feature", "properties": { "cls": "shared", "highway": "footway", "name": null }, "geometry": { "type": "LineString", "coordinates": [ [ -87.645595, 41.960406 ], [ -87.645493, 41.960545 ], [ -87.645408, 41.960654 ], [ -87.645335, 41.960737 ], [ -87.645277, 41.960798 ], [ -87.645221, 41.960854 ], [ -87.645142, 41.960926 ], [ -87.645075, 41.960982 ], [ -87.64503, 41.961015 ], [ -87.644997, 41.961038 ], [ -87.644969, 41.961056 ], [ -87.644929, 41.96108 ], [ -87.644886, 41.961103 ], [ -87.644827, 41.961131 ], [ -87.644718, 41.961177 ], [ -87.644609, 41.961225 ], [ -87.644523, 41.961263 ], [ -87.644448, 41.961301 ], [ -87.644373, 41.961345 ], [ -87.64428, 41.961401 ], [ -87.644112, 41.961518 ], [ -87.643965, 41.961634 ], [ -87.643794, 41.961781 ], [ -87.64377, 41.961814 ], [ -87.643758, 41.961849 ] ] } },
{ "type": "Feature", "properties": { "cls": "separated", "highway": "cycleway", "name": "Montrose Avenue Access Path" }, "geometry": { "type": "LineString", "coordinates": [ [ -87.645427, 41.96196 ], [ -87.645427, 41.961912 ], [ -87.645425, 41.961886 ], [ -87.645421, 41.961867 ], [ -87.645411, 41.961851 ], [ -87.645393, 41.961832 ], [ -87.645365, 41.961815 ], [ -87.645325, 41.961797 ] ] } },
{ "type": "Feature", "properties": { "cls": "shared", "highway": "cycleway", "name": "Montrose Avenue Access Path" }, "geometry": { "type": "LineString", "coordinates": [ [ -87.645479, 41.961962 ], [ -87.645427, 41.96196 ] ] } },
{ "type": "Feature", "properties": { "cls": "separated", "highway": "cycleway", "name": "Montrose Avenue Access Path" }, "geometry": { "type": "Point", "coordinates": [ -87.645479, 41.961962 ] } },
{ "type": "Feature", "properties": { "cls": "shared", "highway": "cycleway", "name": "Wilson Avenue Access Path" }, "geometry": { "type": "LineString", "coordinates": [ [ -87.644474, 41.965451 ], [ -87.644694, 41.965476 ], [ -87.644737, 41.965485 ], [ -87.644781, 41.965495 ], [ -87.644835, 41.96551 ], [ -87.644903, 41.965532 ], [ -87.644963, 41.965553 ], [ -87.645115, 41.965607 ], [ -87.645255, 41.965655 ], [ -87.645339, 41.965684 ], [ -87.645379, 41.965696 ], [ -87.64542, 41.965703 ], [ -87.645463, 41.965708 ], [ -87.645518, 41.965711 ], [ -87.645572, 41.965711 ], [ -87.645612, 41.965709 ], [ -87.645698, 41.965701 ], [ -87.645768, 41.965696 ], [ -87.646293, 41.965658 ] ] } },
{ "type": "Feature", "properties": { "cls": "separated", "highway": "cycleway", "name": "Wilson Avenue Access Path" }, "geometry": { "type": "LineString", "coordinates": [ [ -87.64634, 41.965659 ], [ -87.646293, 41.965658 ] ] } },
{ "type": "Feature", "properties": { "cls": "shared", "highway": "cycleway", "name": "Lakefront Trail" }, "geometry": { "type": "MultiLineString", "coordinates": [ [ [ -87.646346, 41.965899 ], [ -87.646344, 41.965885 ] ], [ [ -87.646303, 41.965691 ], [ -87.646298, 41.965673 ], [ -87.646293, 41.965658 ] ] ] } },
{ "type": "Feature", "properties": { "cls": "separated", "highway": "cycleway", "name": "Wilson Avenue Access Path" }, "geometry": { "type": "LineString", "coordinates": [ [ -87.646346, 41.965899 ], [ -87.646376, 41.965894 ] ] } },
{ "type": "Feature", "properties": { "cls": "separated", "highway": "cycleway", "name": "Lakefront Trail" }, "geometry": { "type": "MultiPoint", "coordinates": [ [ -87.644894, 41.967782 ], [ -87.644838, 41.967731 ] ] } },
{ "type": "Feature", "properties": { "cls": "separated", "highway": "cycleway", "name": "Lakefront Trail" }, "geometry": { "type": "LineString", "coordinates": [ [ -87.644894, 41.967782 ], [ -87.644908, 41.967793 ], [ -87.645089, 41.967984 ], [ -87.645236, 41.968173 ], [ -87.645361, 41.96833 ], [ -87.645454, 41.968464 ], [ -87.645523, 41.96858 ], [ -87.645621, 41.96874 ], [ -87.645683, 41.968871 ], [ -87.645754, 41.969028 ], [ -87.64584, 41.969215 ], [ -87.645858, 41.969256 ], [ -87.645891, 41.969312 ], [ -87.645898, 41.969339 ], [ -87.645902, 41.969358 ], [ -87.645902, 41.969381 ], [ -87.645901, 41.969397 ], [ -87.6459, 41.969414 ], [ -87.645897, 41.969428 ] ] } },
{ "type": "Feature", "properties": { "cls": "separated", "highway": "cycleway", "name": "Lawrence Avenue Access Path" }, "geometry": { "type": "LineString", "coordinates": [ [ -87.647198, 41.969364 ], [ -87.647151, 41.969358 ], [ -87.64709, 41.969351 ] ] } },
{ "type": "Feature", "properties": { "cls": "separated", "highway": "cycleway", "name": "Lawrence Avenue Access Path" }, "geometry": { "type": "Point", "coordinates": [ -87.647198, 41.969364 ] } },
{ "type": "Feature", "properties": { "cls": "shared", "highway": "cycleway", "name": "Lawrence Avenue Access Path" }, "geometry": { "type": "LineString", "coordinates": [ [ -87.64709, 41.969351 ], [ -87.646997, 41.96935 ], [ -87.646804, 41.969344 ], [ -87.646737, 41.969343 ], [ -87.646673, 41.969345 ], [ -87.646603, 41.96935 ], [ -87.646488, 41.969361 ], [ -87.646278, 41.969385 ], [ -87.646181, 41.969394 ], [ -87.646086, 41.969394 ], [ -87.645991, 41.969404 ], [ -87.645897, 41.969428 ] ] } },
{ "type": "Feature", "properties": { "cls": "shared", "highway": "cycleway", "name": "Lakefront Trail" }, "geometry": { "type": "LineString", "coordinates": [ [ -87.647117, 41.969441 ], [ -87.64709, 41.969351 ] ] } },
{ "type": "Feature", "properties": { "cls": "separated", "highway": "cycleway", "name": "Lakefront Trail" }, "geometry": { "type": "LineString", "coordinates": [ [ -87.645897, 41.969428 ], [ -87.645899, 41.969455 ], [ -87.645897, 41.969478 ], [ -87.645905, 41.969503 ], [ -87.645915, 41.96952 ], [ -87.645926, 41.96954 ], [ -87.645937, 41.969561 ] ] } },
{ "type": "Feature", "properties": { "cls": "shared", "highway": "cycleway", "name": "Lakefront Trail" }, "geometry": { "type": "MultiPoint", "coordinates": [ [ -87.647117, 41.969441 ], [ -87.647139, 41.969539 ] ] } },
{ "type": "Feature", "properties": { "cls": "separated", "highway": "cycleway", "name": "Lawrence Avenue Access Path" }, "geometry": { "type": "Point", "coordinates": [ -87.647253, 41.969586 ] } },
{ "type": "Feature", "properties": { "cls": "shared", "highway": "cycleway", "name": "Lakefront Trail" }, "geometry": { "type": "LineString", "coordinates": [ [ -87.647152, 41.969616 ], [ -87.647139, 41.969539 ] ] } },
{ "type": "Feature", "properties": { "cls": "separated", "highway": "cycleway", "name": "Lawrence Avenue Access Path" }, "geometry": { "type": "LineString", "coordinates": [ [ -87.647152, 41.969616 ], [ -87.647253, 41.969586 ] ] } },
{ "type": "Feature", "properties": { "cls": "separated", "highway": "cycleway", "name": "Lakefront Trail" }, "geometry": { "type": "Point", "coordinates": [ -87.645937, 41.969561 ] } },
{ "type": "Feature", "properties": { "cls": "separated", "highway": "cycleway", "name": "Lakefront Trail" }, "geometry": { "type": "LineString", "coordinates": [ [ -87.647247, 41.975888 ], [ -87.64731, 41.975872 ], [ -87.647322, 41.975869 ], [ -87.64733, 41.975865 ], [ -87.647344, 41.975853 ], [ -87.647348, 41.975844 ], [ -87.64735, 41.975836 ], [ -87.647351, 41.975829 ], [ -87.647352, 41.975821 ], [ -87.647347, 41.97563 ], [ -87.647343, 41.975531 ], [ -87.647338, 41.975408 ], [ -87.647338, 41.975041 ], [ -87.647333, 41.974817 ], [ -87.647328, 41.974541 ], [ -87.647322, 41.974239 ], [ -87.647319, 41.973944 ], [ -87.647314, 41.973757 ], [ -87.647308, 41.973619 ], [ -87.647289, 41.973304 ], [ -87.647284, 41.973263 ], [ -87.647249, 41.972995 ], [ -87.647226, 41.972858 ], [ -87.647199, 41.972715 ], [ -87.647181, 41.972614 ], [ -87.647138, 41.972399 ], [ -87.647075, 41.972099 ], [ -87.647048, 41.971962 ], [ -87.647012, 41.971793 ], [ -87.646983, 41.971645 ], [ -87.646974, 41.971587 ], [ -87.646966, 41.97152 ], [ -87.646961, 41.971449 ], [ -87.646961, 41.971362 ], [ -87.646963, 41.971332 ], [ -87.646968, 41.971298 ], [ -87.646975, 41.971261 ], [ -87.64698, 41.971231 ], [ -87.646982, 41.971207 ], [ -87.646979, 41.971184 ], [ -87.646972, 41.97116 ], [ -87.646961, 41.971139 ], [ -87.646944, 41.971117 ], [ -87.646904, 41.971072 ], [ -87.646855, 41.971024 ], [ -87.646835, 41.971004 ], [ -87.646814, 41.970981 ], [ -87.646748, 41.97092 ], [ -87.646687, 41.970868 ], [ -87.646621, 41.970813 ], [ -87.646596, 41.970788 ], [ -87.646572, 41.970759 ], [ -87.646535, 41.970719 ], [ -87.646513, 41.970675 ], [ -87.646387, 41.970427 ], [ -87.646208, 41.970047 ], [ -87.646103, 41.969834 ], [ -87.646057, 41.969744 ], [ -87.646029, 41.9697 ] ] } },
{ "type": "Feature", "properties": { "cls": "shared", "highway": "cycleway", "name": "Argyle Street Access Path" }, "geometry": { "type": "LineString", "coordinates": [ [ -87.648582, 41.973193 ], [ -87.648385, 41.973199 ], [ -87.648337, 41.973219 ], [ -87.648313, 41.97323 ], [ -87.648295, 41.973239 ], [ -87.648276, 41.97325 ], [ -87.648258, 41.973263 ], [ -87.648231, 41.973278 ], [ -87.648181, 41.973278 ], [ -87.648142, 41.973264 ], [ -87.647289, 41.973304 ] ] } },
{ "type": "Feature", "properties": { "cls": "separated", "highway": "cycleway", "name": "Lakefront Trail" }, "geometry": { "type": "MultiPoint", "coordinates": [ [ -87.647247, 41.975888 ], [ -87.647127, 41.975923 ] ] } },
{ "type": "Feature", "properties": { "cls": "shared", "highway": "cycleway", "name": "Argyle Street Access Path" }, "geometry": { "type": "LineString", "coordinates": [ [ -87.64927, 41.973166 ], [ -87.649405, 41.973158 ] ] } },
{ "type": "Feature", "properties": { "cls": "separated", "highway": "cycleway", "name": "Foster Avenue Access Path" }, "geometry": { "type": "LineString", "coordinates": [ [ -87.649726, 41.977227 ], [ -87.649753, 41.977185 ], [ -87.649764, 41.97716 ], [ -87.64977, 41.977139 ], [ -87.649772, 41.977115 ], [ -87.649769, 41.977094 ], [ -87.64976, 41.977074 ], [ -87.649736, 41.977047 ], [ -87.649702, 41.977012 ], [ -87.649675, 41.97699 ], [ -87.649654, 41.976978 ], [ -87.649611, 41.976954 ], [ -87.649585, 41.976939 ], [ -87.649569, 41.976924 ], [ -87.649562, 41.976913 ], [ -87.649558, 41.976901 ], [ -87.649555, 41.976884 ] ] } },
{ "type": "Feature", "properties": { "cls": "shared", "highway": "cycleway", "name": "Argyle Street Access Path" }, "geometry": { "type": "LineString", "coordinates": [ [ -87.649405, 41.973158 ], [ -87.649436, 41.973238 ], [ -87.649475, 41.973323 ], [ -87.649527, 41.973405 ], [ -87.649593, 41.973492 ], [ -87.649671, 41.973566 ], [ -87.649768, 41.973639 ], [ -87.649838, 41.973675 ], [ -87.649932, 41.973712 ], [ -87.650019, 41.973733 ], [ -87.650071, 41.973741 ], [ -87.650111, 41.973742 ], [ -87.650165, 41.973732 ], [ -87.650232, 41.973706 ], [ -87.650304, 41.973674 ], [ -87.650366, 41.973634 ], [ -87.650452, 41.973578 ], [ -87.650529, 41.973534 ], [ -87.650612, 41.973496 ], [ -87.650663, 41.973476 ], [ -87.65074, 41.97345 ] ] } },
{ "type": "Feature", "properties": { "cls": "shared", "highway": "cycleway", "name": "Argyle Street Access Path" }, "geometry": { "type": "LineString", "coordinates": [ [ -87.65074, 41.97345 ], [ -87.650778, 41.973438 ], [ -87.650945, 41.973434 ], [ -87.650967, 41.973497 ], [ -87.651007, 41.973488 ] ] } },
{ "type": "Feature", "properties": { "cls": "shared", "highway": "cycleway", "name": "Berwyn Avenue Access Path" }, "geometry": { "type": "LineString", "coordinates": [ [ -87.652106, 41.979468 ], [ -87.652307, 41.979409 ], [ -87.652454, 41.97935 ], [ -87.65254, 41.979305 ], [ -87.652615, 41.979241 ], [ -87.65269, 41.97916 ], [ -87.652753, 41.979071 ], [ -87.652852, 41.978879 ], [ -87.652895, 41.978815 ], [ -87.652929, 41.978764 ], [ -87.652978, 41.978695 ], [ -87.653004, 41.978667 ], [ -87.653045, 41.978647 ], [ -87.653113, 41.978637 ], [ -87.653302, 41.978622 ], [ -87.653343, 41.978618 ], [ -87.653372, 41.978614 ], [ -87.653398, 41.978608 ], [ -87.653444, 41.978596 ], [ -87.653488, 41.978586 ], [ -87.653526, 41.978579 ], [ -87.653562, 41.978577 ], [ -87.653612, 41.978575 ], [ -87.653657, 41.978575 ], [ -87.653684, 41.978577 ], [ -87.653718, 41.97858 ], [ -87.653748, 41.978585 ], [ -87.653774, 41.978589 ], [ -87.653823, 41.978599 ], [ -87.65387, 41.978608 ], [ -87.653904, 41.978613 ], [ -87.653936, 41.978615 ], [ -87.653968, 41.978617 ], [ -87.653999, 41.978616 ], [ -87.654025, 41.978613 ], [ -87.654053, 41.97861 ], [ -87.654079, 41.978605 ], [ -87.654099, 41.978601 ], [ -87.654125, 41.978595 ], [ -87.654177, 41.978581 ], [ -87.654228, 41.97857 ], [ -87.654258, 41.978566 ], [ -87.654281, 41.978564 ], [ -87.654301, 41.978564 ], [ -87.654317, 41.978565 ], [ -87.654334, 41.978569 ] ] } },
{ "type": "Feature", "properties": { "cls": "shared", "highway": "cycleway", "name": "Berwyn Avenue Access Path" }, "geometry": { "type": "MultiLineString", "coordinates": [ [ [ -87.652106, 41.979468 ], [ -87.652069, 41.979477 ] ], [ [ -87.651545, 41.979612 ], [ -87.651514, 41.979621 ] ] ] } },
{ "type": "Feature", "properties": { "cls": "shared", "highway": "cycleway", "name": "Berwyn Avenue Access Path" }, "geometry": { "type": "LineString", "coordinates": [ [ -87.651514, 41.979621 ], [ -87.651242, 41.979695 ] ] } },
{ "type": "Feature", "properties": { "cls": "separated", "highway": "cycleway", "name": "Lakefront Trail" }, "geometry": { "type": "LineString", "coordinates": [ [ -87.653938, 41.98628 ], [ -87.653919, 41.986192 ], [ -87.653905, 41.986153 ], [ -87.65387, 41.986095 ], [ -87.65384, 41.986056 ], [ -87.653783, 41.986008 ], [ -87.653717, 41.985947 ], [ -87.653632, 41.985854 ], [ -87.653542, 41.985765 ], [ -87.653479, 41.985712 ], [ -87.653401, 41.985658 ], [ -87.65329, 41.985593 ], [ -87.653044, 41.98547 ], [ -87.652939, 41.985415 ], [ -87.652832, 41.985351 ], [ -87.652749, 41.985294 ], [ -87.652672, 41.985225 ], [ -87.652603, 41.985161 ], [ -87.652545, 41.985097 ], [ -87.652494, 41.985035 ], [ -87.652456, 41.98498 ], [ -87.652421, 41.98493 ], [ -87.652388, 41.984879 ], [ -87.652333, 41.984765 ], [ -87.652257, 41.984622 ], [ -87.652191, 41.984507 ], [ -87.652131, 41.984415 ], [ -87.652031, 41.98427 ], [ -87.651948, 41.984165 ], [ -87.65186, 41.984057 ], [ -87.651822, 41.984 ], [ -87.651786, 41.983945 ], [ -87.651769, 41.983895 ], [ -87.65176, 41.983833 ], [ -87.651758, 41.983742 ], [ -87.651758, 41.983716 ], [ -87.651765, 41.983634 ], [ -87.651787, 41.983576 ], [ -87.65186, 41.983391 ], [ -87.651928, 41.983226 ], [ -87.651951, 41.983165 ], [ -87.651968, 41.983105 ], [ -87.65199, 41.983015 ], [ -87.652023, 41.982858 ], [ -87.652073, 41.982607 ], [ -87.652099, 41.982434 ], [ -87.652131, 41.982198 ], [ -87.652142, 41.982053 ], [ -87.652149, 41.981926 ], [ -87.652143, 41.981819 ], [ -87.652121, 41.981695 ], [ -87.652069, 41.98149 ], [ -87.652039, 41.981381 ], [ -87.651993, 41.981217 ], [ -87.651953, 41.981073 ], [ -87.65193, 41.980965 ], [ -87.651903, 41.980823 ], [ -87.651884, 41.98075 ], [ -87.651864, 41.980681 ], [ -87.651822, 41.980597 ], [ -87.651727, 41.980429 ], [ -87.651573, 41.980189 ], [ -87.651366, 41.979919 ], [ -87.651268, 41.979739 ], [ -87.651242, 41.979695 ], [ -87.65121, 41.979644 ], [ -87.651039, 41.97916 ], [ -87.650931, 41.978877 ], [ -87.650833, 41.978638 ], [ -87.650726, 41.978433 ], [ -87.650648, 41.978312 ], [ -87.650456, 41.978044 ], [ -87.650201, 41.977706 ], [ -87.650047, 41.977531 ], [ -87.649956, 41.977431 ], [ -87.649903, 41.977365 ], [ -87.649862, 41.977322 ], [ -87.649826, 41.977287 ], [ -87.649793, 41.977261 ], [ -87.649761, 41.977244 ], [ -87.649726, 41.977227 ], [ -87.649686, 41.977212 ], [ -87.649648, 41.9772 ], [ -87.649603, 41.977188 ], [ -87.649553, 41.977179 ], [ -87.649486, 41.977169 ], [ -87.64942, 41.97717 ], [ -87.649358, 41.977173 ], [ -87.649282, 41.977179 ], [ -87.649137, 41.977191 ], [ -87.64887, 41.977211 ], [ -87.648532, 41.977228 ], [ -87.648417, 41.977236 ], [ -87.648357, 41.977237 ], [ -87.648282, 41.97724 ], [ -87.648229, 41.977237 ], [ -87.64806, 41.977225 ], [ -87.648045, 41.977222 ], [ -87.647972, 41.977206 ], [ -87.647879, 41.97718 ], [ -87.647789, 41.977151 ], [ -87.647645, 41.977098 ], [ -87.647464, 41.977028 ], [ -87.647391, 41.976999 ], [ -87.647264, 41.976946 ], [ -87.647149, 41.976888 ], [ -87.647076, 41.976849 ], [ -87.647029, 41.976818 ], [ -87.646956, 41.97676 ], [ -87.646883, 41.976694 ], [ -87.646875, 41.976688 ], [ -87.646846, 41.976663 ], [ -87.646797, 41.976609 ], [ -87.646755, 41.976546 ], [ -87.646734, 41.976512 ], [ -87.646715, 41.976477 ], [ -87.646695, 41.976437 ], [ -87.646675, 41.976393 ], [ -87.646661, 41.976357 ], [ -87.64665, 41.976316 ], [ -87.646638, 41.976258 ], [ -87.646631, 41.976198 ], [ -87.646627, 41.976128 ], [ -87.64663, 41.976008 ], [ -87.646636, 41.975992 ], [ -87.646648, 41.975984 ], [ -87.646662, 41.975977 ], [ -87.646677, 41.975971 ], [ -87.646703, 41.975967 ], [ -87.646727, 41.975966 ], [ -87.646757, 41.975968 ], [ -87.646817, 41.975973 ], [ -87.64689, 41.975978 ], [ -87.646921, 41.975979 ], [ -87.646939, 41.975979 ], [ -87.646954, 41.975977 ], [ -87.646967, 41.975974 ], [ -87.647036, 41.975952 ], [ -87.647127, 41.975923 ] ] } },
{ "type": "Feature", "properties": { "cls": "separated", "highway": "cycleway", "name": "Bryn Mawr Avenue Access Path" }, "geometry": { "type": "LineString", "coordinates": [ [ -87.65206, 41.983953 ], [ -87.652027, 41.983975 ], [ -87.651997, 41.983993 ], [ -87.651961, 41.984012 ], [ -87.651935, 41.984024 ], [ -87.651904, 41.984037 ] ] } },
{ "type": "Feature", "properties": { "cls": "shared", "highway": "cycleway", "name": "Bryn Mawr Avenue Access Path" }, "geometry": { "type": "LineString", "coordinates": [ [ -87.651904, 41.984037 ], [ -87.65186, 41.984057 ] ] } },
{ "type": "Feature", "properties": { "cls": "separated", "highway": "cycleway", "name": "Lakefront Trail" }, "geometry": { "type": "LineString", "coordinates": [ [ -87.65404, 41.98642 ], [ -87.653981, 41.986396 ], [ -87.653944, 41.986391 ], [ -87.653902, 41.986397 ], [ -87.65385, 41.986418 ] ] } },
{ "type": "Feature", "properties": { "cls": "separated", "highway": "cycleway", "name": "Lakefront Trail" }, "geometry": { "type": "LineString", "coordinates": [ [ -87.653938, 41.98628 ], [ -87.65392, 41.986343 ], [ -87.653903, 41.986371 ], [ -87.65385, 41.986418 ], [ -87.65383, 41.98645 ], [ -87.653826, 41.986476 ], [ -87.653828, 41.986491 ], [ -87.653838, 41.986514 ], [ -87.653858, 41.986532 ], [ -87.653915, 41.986579 ], [ -87.65393, 41.986603 ], [ -87.653944, 41.986617 ] ] } },
{ "type": "Feature", "properties": { "cls": "separated", "highway": "cycleway", "name": "Lakefront Trail" }, "geometry": { "type": "LineString", "coordinates": [ [ -87.653944, 41.986617 ], [ -87.653956, 41.986594 ], [ -87.653962, 41.986584 ], [ -87.653972, 41.986573 ], [ -87.653993, 41.986562 ], [ -87.654018, 41.986546 ], [ -87.654045, 41.986525 ], [ -87.654059, 41.986506 ], [ -87.654066, 41.986476 ], [ -87.654063, 41.986451 ], [ -87.654053, 41.986434 ], [ -87.65404, 41.98642 ], [ -87.653992, 41.986376 ], [ -87.653966, 41.986355 ], [ -87.653957, 41.986335 ], [ -87.653938, 41.98628 ] ] } },
{ "type": "Feature", "properties": { "cls": "separated", "highway": "cycleway", "name": "Lakefront Trail" }, "geometry": { "type": "LineString", "coordinates": [ [ -87.653858, 41.986532 ], [ -87.653895, 41.986545 ], [ -87.653924, 41.986553 ], [ -87.653948, 41.986557 ], [ -87.653974, 41.986558 ], [ -87.654018, 41.986546 ] ] } },
{ "type": "Feature", "properties": { "cls": "separated", "highway": "cycleway", "name": "Lakefront Trail" }, "geometry": { "type": "LineString", "coordinates": [ [ -87.65432, 41.987385 ], [ -87.654302, 41.987382 ], [ -87.654283, 41.987378 ], [ -87.654256, 41.987359 ], [ -87.654235, 41.987337 ], [ -87.654221, 41.987314 ], [ -87.654212, 41.987285 ], [ -87.654208, 41.98726 ], [ -87.654208, 41.987235 ], [ -87.654218, 41.987187 ], [ -87.65423, 41.987157 ], [ -87.654238, 41.98711 ], [ -87.654239, 41.987061 ], [ -87.654229, 41.987027 ], [ -87.654216, 41.986995 ], [ -87.654194, 41.986962 ], [ -87.65417, 41.986936 ], [ -87.654117, 41.986889 ], [ -87.65405, 41.986823 ], [ -87.654014, 41.986783 ], [ -87.653988, 41.986738 ], [ -87.653985, 41.986732 ], [ -87.653955, 41.986666 ], [ -87.653944, 41.986617 ] ] } }
]
}
