{
"type": "FeatureCollection",
"name": "164-washington-d-c-anacostia-park",
"crs": { "type": "name", "properties": { "name": "urn:ogc:def:crs:OGC:1.3:CRS84" } },
"xy_coordinate_resolution": 1e-06,
"features": [
{ "type": "Feature", "properties": { "cls": "shared", "highway": "cycleway", "name": null }, "geometry": { "type": "LineString", "coordinates": [ [ -77.00103, 38.86761 ], [ -77.001014, 38.867632 ], [ -77.000944, 38.867774 ], [ -77.000282, 38.869112 ], [ -77.00027, 38.869133 ], [ -77.000263, 38.869146 ], [ -77.000248, 38.869163 ], [ -77.000226, 38.869171 ], [ -77.000214, 38.869196 ] ] } },
{ "type": "Feature", "properties": { "cls": "shared", "highway": "cycleway", "name": null }, "geometry": { "type": "LineString", "coordinates": [ [ -77.002301, 38.867824 ], [ -77.002285, 38.86783 ], [ -77.002198, 38.867838 ], [ -77.002125, 38.867821 ], [ -77.002056, 38.867792 ], [ -77.002042, 38.867775 ] ] } },
{ "type": "Feature", "properties": { "cls": "shared", "highway": "cycleway", "name": "Anacostia Riverwalk Trail" }, "geometry": { "type": "LineString", "coordinates": [ [ -77.000351, 38.869343 ], [ -77.000171, 38.869287 ], [ -77.000088, 38.869261 ], [ -76.999216, 38.868988 ], [ -76.998122, 38.868723 ], [ -76.997025, 38.868453 ], [ -76.99626, 38.868276 ], [ -76.995901, 38.868215 ], [ -76.99552, 38.868178 ], [ -76.994832, 38.868143 ], [ -76.994805, 38.868141 ], [ -76.994262, 38.868113 ], [ -76.993905, 38.868121 ], [ -76.993532, 38.868171 ], [ -76.993079, 38.868255 ], [ -76.992712, 38.86834 ], [ -76.992111, 38.868572 ], [ -76.99173, 38.868767 ], [ -76.991472, 38.868931 ], [ -76.99125, 38.869151 ], [ -76.991025, 38.869373 ] ] } },
{ "type": "Feature", "properties": { "cls": "shared", "highway": "cycleway", "name": null }, "geometry": { "type": "LineString", "coordinates": [ [ -77.000214, 38.869196 ], [ -77.000203, 38.869221 ], [ -77.000187, 38.869254 ] ] } },
{ "type": "Feature", "properties": { "cls": "shared", "highway": "cycleway", "name": null }, "geometry": { "type": "LineString", "coordinates": [ [ -77.000187, 38.869254 ], [ -77.000171, 38.869287 ] ] } },
{ "type": "Feature", "properties": { "cls": "shared", "highway": "cycleway", "name": "Anacostia Riverwalk Trail" }, "geometry": { "type": "LineString", "coordinates": [ [ -77.001198, 38.867634 ], [ -77.001134, 38.867733 ], [ -77.000428, 38.869182 ], [ -77.000401, 38.869237 ] ] } },
{ "type": "Feature", "properties": { "cls": "shared", "highway": "cycleway", "name": "Anacostia Riverwalk Trail" }, "geometry": { "type": "LineString", "coordinates": [ [ -77.000401, 38.869237 ], [ -77.000381, 38.869277 ], [ -77.000366, 38.86931 ] ] } },
{ "type": "Feature", "properties": { "cls": "shared", "highway": "cycleway", "name": "Anacostia Riverwalk Trail" }, "geometry": { "type": "LineString", "coordinates": [ [ -77.000366, 38.86931 ], [ -77.000351, 38.869343 ] ] } },
{ "type": "Feature", "properties": { "cls": "separated", "highway": "cycleway", "name": null }, "geometry": { "type": "LineString", "coordinates": [ [ -76.990089, 38.868835 ], [ -76.990148, 38.868809 ] ] } },
{ "type": "Feature", "properties": { "cls": "separated", "highway": "cycleway", "name": null }, "geometry": { "type": "LineString", "coordinates": [ [ -76.990089, 38.868835 ], [ -76.990039, 38.868856 ] ] } },
{ "type": "Feature", "properties": { "cls": "shared", "highway": "cycleway", "name": null }, "geometry": { "type": "LineString", "coordinates": [ [ -76.991025, 38.869373 ], [ -76.990895, 38.869285 ] ] } },
{ "type": "Feature", "properties": { "cls": "shared", "highway": "cycleway", "name": "Anacostia Riverwalk Trail" }, "geometry": { "type": "Point", "coordinates": [ -76.98944, 38.870405 ] } },
{ "type": "Feature", "properties": { "cls": "shared", "highway": "cycleway", "name": "Anacostia Riverwalk Trail" }, "geometry": { "type": "LineString", "coordinates": [ [ -76.989627, 38.870654 ], [ -76.989578, 38.87059 ], [ -76.98944, 38.870405 ] ] } },
{ "type": "Feature", "properties": { "cls": "shared", "highway": "cycleway", "name": null }, "geometry": { "type": "LineString", "coordinates": [ [ -76.98254, 38.872286 ], [ -76.982476, 38.87222 ], [ -76.982429, 38.872216 ], [ -76.982254, 38.872292 ], [ -76.982216, 38.872297 ], [ -76.982184, 38.872293 ], [ -76.982159, 38.872269 ], [ -76.982157, 38.872252 ], [ -76.982174, 38.872231 ], [ -76.983078, 38.871763 ] ] } },
{ "type": "Feature", "properties": { "cls": "shared", "highway": "cycleway", "name": null }, "geometry": { "type": "LineString", "coordinates": [ [ -76.983115, 38.872994 ], [ -76.983079, 38.87295 ], [ -76.983049, 38.872913 ] ] } },
{ "type": "Feature", "properties": { "cls": "shared", "highway": "cycleway", "name": null }, "geometry": { "type": "LineString", "coordinates": [ [ -76.983981, 38.873239 ], [ -76.983634, 38.872821 ], [ -76.983614, 38.872801 ], [ -76.98359, 38.872787 ], [ -76.983558, 38.872774 ], [ -76.9835, 38.872759 ], [ -76.983425, 38.87275 ], [ -76.983389, 38.872751 ], [ -76.983351, 38.872764 ], [ -76.983049, 38.872913 ] ] } },
{ "type": "Feature", "properties": { "cls": "shared", "highway": "cycleway", "name": "Anacostia Riverwalk Trail" }, "geometry": { "type": "MultiLineString", "coordinates": [ [ [ -76.991025, 38.869373 ], [ -76.990888, 38.8695 ], [ -76.990676, 38.869656 ], [ -76.990432, 38.869838 ], [ -76.989962, 38.870245 ], [ -76.989192, 38.870745 ], [ -76.988643, 38.871066 ], [ -76.988357, 38.871218 ], [ -76.98816, 38.871321 ], [ -76.98804, 38.871375 ], [ -76.987908, 38.871422 ], [ -76.987776, 38.871468 ], [ -76.987661, 38.871513 ], [ -76.98757, 38.871558 ], [ -76.987461, 38.871614 ], [ -76.987268, 38.871715 ], [ -76.986771, 38.871974 ], [ -76.986363, 38.87219 ], [ -76.986023, 38.872366 ], [ -76.985592, 38.872592 ], [ -76.985146, 38.872824 ], [ -76.984726, 38.873034 ], [ -76.984386, 38.873198 ], [ -76.984068, 38.873346 ], [ -76.983582, 38.873565 ], [ -76.983553, 38.873576 ], [ -76.983252, 38.873702 ], [ -76.983052, 38.873802 ], [ -76.982904, 38.873868 ], [ -76.982688, 38.873948 ], [ -76.982254, 38.874104 ], [ -76.981887, 38.874239 ], [ -76.981741, 38.874307 ], [ -76.981577, 38.874382 ], [ -76.981412, 38.874445 ], [ -76.981142, 38.874541 ], [ -76.980857, 38.874639 ], [ -76.980665, 38.874689 ], [ -76.980461, 38.874738 ], [ -76.980215, 38.874821 ], [ -76.979731, 38.874994 ], [ -76.979108, 38.875212 ], [ -76.978698, 38.875358 ], [ -76.978567, 38.875398 ], [ -76.978401, 38.875433 ], [ -76.978297, 38.875465 ], [ -76.977916, 38.87558 ], [ -76.977368, 38.875744 ], [ -76.977242, 38.87579 ], [ -76.977093, 38.875847 ], [ -76.976881, 38.875917 ], [ -76.976774, 38.875948 ], [ -76.976692, 38.875972 ], [ -76.976636, 38.875987 ] ], [ [ -76.975981, 38.876158 ], [ -76.975691, 38.876249 ], [ -76.975275, 38.876386 ], [ -76.974981, 38.876486 ], [ -76.974887, 38.876526 ], [ -76.974817, 38.876561 ], [ -76.974722, 38.876598 ], [ -76.974498, 38.876668 ], [ -76.974431, 38.876689 ], [ -76.974241, 38.876745 ], [ -76.973428, 38.876996 ], [ -76.97333, 38.87702 ] ] ] } },
{ "type": "Feature", "properties": { "cls": "shared", "highway": "cycleway", "name": null }, "geometry": { "type": "LineString", "coordinates": [ [ -76.983115, 38.872994 ], [ -76.983239, 38.873158 ], [ -76.983475, 38.873438 ] ] } },
{ "type": "Feature", "properties": { "cls": "shared", "highway": "cycleway", "name": null }, "geometry": { "type": "LineString", "coordinates": [ [ -76.984068, 38.873346 ], [ -76.984027, 38.873295 ], [ -76.983981, 38.873239 ] ] } },
{ "type": "Feature", "properties": { "cls": "separated", "highway": "cycleway", "name": null }, "geometry": { "type": "LineString", "coordinates": [ [ -76.983475, 38.873438 ], [ -76.983538, 38.873513 ], [ -76.983582, 38.873565 ] ] } },
{ "type": "Feature", "properties": { "cls": "shared", "highway": "cycleway", "name": null }, "geometry": { "type": "LineString", "coordinates": [ [ -76.976718, 38.875828 ], [ -76.976683, 38.875808 ], [ -76.976488, 38.87571 ], [ -76.976449, 38.875673 ], [ -76.97644, 38.875627 ], [ -76.976469, 38.875538 ], [ -76.976501, 38.875455 ], [ -76.97651, 38.875388 ], [ -76.976481, 38.875341 ], [ -76.976409, 38.875327 ], [ -76.976359, 38.875338 ], [ -76.976306, 38.875382 ], [ -76.976216, 38.875483 ], [ -76.976213, 38.875487 ] ] } },
{ "type": "Feature", "properties": { "cls": "shared", "highway": "cycleway", "name": "Anacostia Riverwalk Trail" }, "geometry": { "type": "LineString", "coordinates": [ [ -76.974362, 38.876575 ], [ -76.974342, 38.876528 ], [ -76.974345, 38.876455 ], [ -76.974371, 38.876399 ], [ -76.974433, 38.876342 ], [ -76.974591, 38.876269 ], [ -76.974796, 38.876133 ], [ -76.974938, 38.876024 ], [ -76.974954, 38.876007 ] ] } },
{ "type": "Feature", "properties": { "cls": "shared", "highway": "footway", "name": null }, "geometry": { "type": "LineString", "coordinates": [ [ -76.976683, 38.875808 ], [ -76.976772, 38.875684 ] ] } },
{ "type": "Feature", "properties": { "cls": "shared", "highway": "cycleway", "name": null }, "geometry": { "type": "LineString", "coordinates": [ [ -76.976747, 38.875893 ], [ -76.976733, 38.875861 ], [ -76.976718, 38.875828 ] ] } },
{ "type": "Feature", "properties": { "cls": "shared", "highway": "cycleway", "name": null }, "geometry": { "type": "LineString", "coordinates": [ [ -76.976774, 38.875948 ], [ -76.976747, 38.875893 ] ] } },
{ "type": "Feature", "properties": { "cls": "shared", "highway": "cycleway", "name": "Anacostia Riverwalk Trail" }, "geometry": { "type": "LineString", "coordinates": [ [ -76.974402, 38.876639 ], [ -76.974381, 38.876605 ], [ -76.974362, 38.876575 ] ] } },
{ "type": "Feature", "properties": { "cls": "shared", "highway": "cycleway", "name": "Anacostia Riverwalk Trail" }, "geometry": { "type": "LineString", "coordinates": [ [ -76.974431, 38.876689 ], [ -76.974402, 38.876639 ] ] } },
{ "type": "Feature", "properties": { "cls": "shared", "highway": "cycleway", "name": "Anacostia Riverwalk Trail" }, "geometry": { "type": "LineString", "coordinates": [ [ -76.97333, 38.87702 ], [ -76.973223, 38.877046 ], [ -76.973089, 38.877092 ], [ -76.972914, 38.877249 ], [ -76.972606, 38.877439 ], [ -76.972472, 38.877478 ], [ -76.972359, 38.877518 ], [ -76.972035, 38.877767 ], [ -76.971761, 38.878082 ], [ -76.97164, 38.878278 ], [ -76.97116, 38.878936 ], [ -76.971029, 38.879188 ] ] } },
{ "type": "Feature", "properties": { "cls": "shared", "highway": "cycleway", "name": "Anacostia Riverwalk Trail" }, "geometry": { "type": "LineString", "coordinates": [ [ -76.970874, 38.879229 ], [ -76.970898, 38.879227 ], [ -76.97094, 38.879217 ], [ -76.97099, 38.879198 ], [ -76.971029, 38.879188 ] ] } },
{ "type": "Feature", "properties": { "cls": "shared", "highway": "cycleway", "name": null }, "geometry": { "type": "LineString", "coordinates": [ [ -76.970789, 38.879201 ], [ -76.970828, 38.879214 ], [ -76.970874, 38.879229 ] ] } },
{ "type": "Feature", "properties": { "cls": "shared", "highway": "cycleway", "name": "Anacostia Riverwalk Trail" }, "geometry": { "type": "LineString", "coordinates": [ [ -76.970475, 38.879391 ], [ -76.970535, 38.879341 ], [ -76.970609, 38.879273 ], [ -76.970648, 38.879241 ], [ -76.970691, 38.879218 ], [ -76.970724, 38.879196 ], [ -76.970748, 38.879191 ], [ -76.970789, 38.879201 ] ] } },
{ "type": "Feature", "properties": { "cls": "shared", "highway": "cycleway", "name": null }, "geometry": { "type": "LineString", "coordinates": [ [ -76.971029, 38.879188 ], [ -76.970987, 38.879267 ], [ -76.970943, 38.87932 ], [ -76.97091, 38.879345 ], [ -76.970861, 38.879373 ], [ -76.970838, 38.879389 ], [ -76.970798, 38.879433 ] ] } },
{ "type": "Feature", "properties": { "cls": "shared", "highway": "cycleway", "name": null }, "geometry": { "type": "LineString", "coordinates": [ [ -76.970369, 38.87943 ], [ -76.970434, 38.879406 ], [ -76.970475, 38.879391 ] ] } },
{ "type": "Feature", "properties": { "cls": "shared", "highway": "cycleway", "name": "Anacostia Riverwalk Trail" }, "geometry": { "type": "LineString", "coordinates": [ [ -76.969766, 38.879543 ], [ -76.969769, 38.879534 ], [ -76.969785, 38.879496 ], [ -76.969804, 38.879474 ], [ -76.969828, 38.879465 ], [ -76.96986, 38.879466 ], [ -76.969906, 38.879478 ], [ -76.969973, 38.879497 ], [ -76.970032, 38.879501 ], [ -76.970112, 38.879495 ], [ -76.970152, 38.879489 ], [ -76.970219, 38.879478 ], [ -76.970369, 38.87943 ] ] } },
{ "type": "Feature", "properties": { "cls": "shared", "highway": "cycleway", "name": null }, "geometry": { "type": "LineString", "coordinates": [ [ -76.969746, 38.879599 ], [ -76.969754, 38.879575 ], [ -76.969766, 38.879543 ] ] } },
{ "type": "Feature", "properties": { "cls": "shared", "highway": "cycleway", "name": "Anacostia Riverwalk Trail" }, "geometry": { "type": "LineString", "coordinates": [ [ -76.96938, 38.880034 ], [ -76.969413, 38.88002 ], [ -76.969469, 38.879991 ], [ -76.969497, 38.879972 ], [ -76.969518, 38.879955 ], [ -76.969542, 38.879931 ], [ -76.969566, 38.879902 ], [ -76.969669, 38.879733 ], [ -76.969741, 38.879613 ], [ -76.969746, 38.879599 ] ] } },
{ "type": "Feature", "properties": { "cls": "shared", "highway": "cycleway", "name": "Anacostia Riverwalk Trail" }, "geometry": { "type": "LineString", "coordinates": [ [ -76.96878, 38.88028 ], [ -76.96938, 38.880034 ] ] } },
{ "type": "Feature", "properties": { "cls": "shared", "highway": "cycleway", "name": "Anacostia Riverwalk Trail" }, "geometry": { "type": "LineString", "coordinates": [ [ -76.968182, 38.881175 ], [ -76.968216, 38.88093 ], [ -76.968241, 38.880737 ], [ -76.96826, 38.880672 ], [ -76.96829, 38.880616 ], [ -76.968333, 38.880549 ], [ -76.968396, 38.88048 ], [ -76.968473, 38.880421 ], [ -76.968552, 38.880376 ], [ -76.96878, 38.88028 ] ] } }
]
}
