{
"type": "FeatureCollection",
"name": "165-phoenix-cave-buttes-recreation-area",
"crs": { "type": "name", "properties": { "name": "urn:ogc:def:crs:OGC:1.3:CRS84" } },
"xy_coordinate_resolution": 1e-06,
"features": [
{ "type": "Feature", "properties": { "cls": "painted", "highway": "primary", "name": "North Cave Creek Road" }, "geometry": { "type": "LineString", "coordinates": [ [ -112.012032, 33.720549 ], [ -112.011459, 33.721478 ], [ -112.010936, 33.722336 ], [ -112.010677, 33.722757 ] ] } },
{ "type": "Feature", "properties": { "cls": "painted", "highway": "primary", "name": "North Cave Creek Road" }, "geometry": { "type": "LineString", "coordinates": [ [ -112.010674, 33.723009 ], [ -112.010735, 33.722909 ], [ -112.011049, 33.722395 ], [ -112.011605, 33.721478 ], [ -112.012176, 33.72055 ] ] } },
{ "type": "Feature", "properties": { "cls": "shared", "highway": "footway", "name": null }, "geometry": { "type": "LineString", "coordinates": [ [ -112.058485, 33.749762 ], [ -112.058413, 33.749765 ], [ -112.05776, 33.750068 ], [ -112.057619, 33.750185 ], [ -112.057062, 33.75033 ], [ -112.056517, 33.750299 ], [ -112.056384, 33.750323 ] ] } },
{ "type": "Feature", "properties": { "cls": "shared", "highway": "footway", "name": "Dirt Devil Trail" }, "geometry": { "type": "MultiLineString", "coordinates": [ [ [ -112.054192, 33.750629 ], [ -112.054134, 33.750618 ], [ -112.054077, 33.750634 ], [ -112.054037, 33.750668 ], [ -112.054016, 33.750962 ], [ -112.053979, 33.751185 ], [ -112.053904, 33.751371 ], [ -112.05381, 33.751737 ], [ -112.053683, 33.752129 ], [ -112.053639, 33.752273 ] ], [ [ -112.052001, 33.753697 ], [ -112.051958, 33.753697 ], [ -112.051851, 33.753773 ], [ -112.051722, 33.753844 ], [ -112.051569, 33.753875 ], [ -112.051414, 33.753936 ], [ -112.051202, 33.754096 ], [ -112.051022, 33.754266 ], [ -112.050918, 33.754455 ], [ -112.050652, 33.754721 ], [ -112.050569, 33.754752 ], [ -112.050384, 33.754908 ], [ -112.05007, 33.754894 ], [ -112.050035, 33.754921 ], [ -112.050019, 33.755057 ], [ -112.050038, 33.755117 ], [ -112.050039, 33.755178 ], [ -112.050013, 33.755259 ], [ -112.049964, 33.755321 ], [ -112.049929, 33.755348 ], [ -112.049868, 33.755373 ], [ -112.049818, 33.755422 ], [ -112.049809, 33.755445 ] ] ] } }
]
}
