{
"type": "FeatureCollection",
"name": "166-baltimore-gwynns-falls-leakin-park",
"crs": { "type": "name", "properties": { "name": "urn:ogc:def:crs:OGC:1.3:CRS84" } },
"xy_coordinate_resolution": 1e-06,
"features": [
{ "type": "Feature", "properties": { "cls": "separated", "highway": "cycleway", "name": "Gwynns Falls Trail" }, "geometry": { "type": "LineString", "coordinates": [ [ -76.670871, 39.296658 ], [ -76.670864, 39.296638 ], [ -76.670847, 39.296627 ], [ -76.67082, 39.296622 ], [ -76.670619, 39.296597 ] ] } },
{ "type": "Feature", "properties": { "cls": "separated", "highway": "cycleway", "name": "Gwynns Falls Trail" }, "geometry": { "type": "LineString", "coordinates": [ [ -76.671384, 39.299499 ], [ -76.671343, 39.299455 ], [ -76.671283, 39.299409 ], [ -76.671213, 39.299336 ], [ -76.671143, 39.299274 ], [ -76.671061, 39.299221 ], [ -76.670977, 39.299183 ], [ -76.670886, 39.29915 ], [ -76.670748, 39.299115 ], [ -76.670537, 39.299061 ], [ -76.670455, 39.299034 ], [ -76.670331, 39.298983 ], [ -76.670267, 39.298957 ], [ -76.670233, 39.298932 ], [ -76.670207, 39.298909 ], [ -76.670191, 39.298876 ], [ -76.670182, 39.298831 ], [ -76.670179, 39.298795 ], [ -76.670179, 39.298694 ], [ -76.670211, 39.298536 ], [ -76.67029, 39.29825 ], [ -76.670426, 39.297712 ], [ -76.670481, 39.29745 ], [ -76.670603, 39.296924 ], [ -76.670627, 39.296853 ], [ -76.670663, 39.296798 ], [ -76.670716, 39.296762 ], [ -76.670797, 39.296715 ], [ -76.670851, 39.296693 ], [ -76.670868, 39.296677 ], [ -76.670871, 39.296658 ] ] } },
{ "type": "Feature", "properties": { "cls": "shared", "highway": "path", "name": "Gwynns Falls Trail" }, "geometry": { "type": "LineString", "coordinates": [ [ -76.670871, 39.296658 ], [ -76.671017, 39.296655 ], [ -76.671084, 39.296671 ], [ -76.671147, 39.296707 ], [ -76.671236, 39.296785 ], [ -76.671338, 39.296904 ], [ -76.671465, 39.297066 ], [ -76.67153, 39.297139 ], [ -76.671632, 39.297215 ], [ -76.671814, 39.297393 ], [ -76.672042, 39.297591 ], [ -76.672134, 39.297689 ], [ -76.672219, 39.29781 ], [ -76.672517, 39.298263 ], [ -76.672545, 39.298321 ], [ -76.672557, 39.29837 ], [ -76.672552, 39.298422 ], [ -76.672528, 39.29849 ], [ -76.672492, 39.298554 ], [ -76.672439, 39.298612 ], [ -76.672414, 39.298641 ], [ -76.672385, 39.29868 ], [ -76.672383, 39.298705 ], [ -76.672403, 39.298772 ], [ -76.672417, 39.298838 ], [ -76.672415, 39.29889 ], [ -76.672402, 39.298938 ], [ -76.672218, 39.299284 ], [ -76.672165, 39.299351 ], [ -76.672083, 39.299403 ], [ -76.671955, 39.299461 ], [ -76.671868, 39.299491 ], [ -76.67175, 39.299505 ], [ -76.671621, 39.29951 ], [ -76.671527, 39.299497 ], [ -76.671469, 39.299485 ], [ -76.671421, 39.299487 ], [ -76.671384, 39.299499 ] ] } },
{ "type": "Feature", "properties": { "cls": "shared", "highway": "path", "name": null }, "geometry": { "type": "LineString", "coordinates": [ [ -76.671683, 39.300134 ], [ -76.67169, 39.300138 ], [ -76.671723, 39.300156 ], [ -76.671768, 39.300182 ], [ -76.671794, 39.300188 ], [ -76.671835, 39.300191 ] ] } },
{ "type": "Feature", "properties": { "cls": "separated", "highway": "cycleway", "name": "Gwynns Falls Trail" }, "geometry": { "type": "LineString", "coordinates": [ [ -76.673159, 39.301646 ], [ -76.673167, 39.301634 ], [ -76.673182, 39.301597 ], [ -76.673175, 39.301559 ], [ -76.673162, 39.301512 ], [ -76.673113, 39.301428 ], [ -76.673074, 39.301377 ], [ -76.673026, 39.301344 ], [ -76.672972, 39.301318 ], [ -76.672925, 39.301299 ], [ -76.672902, 39.301275 ], [ -76.672881, 39.301224 ], [ -76.672871, 39.301165 ], [ -76.672854, 39.301119 ], [ -76.672829, 39.301079 ], [ -76.672784, 39.301043 ], [ -76.672702, 39.301 ], [ -76.672631, 39.300968 ], [ -76.672505, 39.300922 ], [ -76.672401, 39.300877 ], [ -76.672315, 39.300832 ], [ -76.672264, 39.300795 ], [ -76.672209, 39.300746 ], [ -76.672153, 39.300679 ], [ -76.67213, 39.300645 ], [ -76.671912, 39.300334 ], [ -76.671846, 39.300231 ], [ -76.671835, 39.300191 ], [ -76.67183, 39.300169 ], [ -76.671815, 39.300092 ], [ -76.671787, 39.29999 ], [ -76.671752, 39.299924 ], [ -76.671711, 39.299869 ], [ -76.671632, 39.299802 ], [ -76.671545, 39.299728 ], [ -76.671465, 39.299643 ], [ -76.671418, 39.299568 ], [ -76.671384, 39.299499 ] ] } },
{ "type": "Feature", "properties": { "cls": "separated", "highway": "cycleway", "name": "Gwynns Falls Trail" }, "geometry": { "type": "LineString", "coordinates": [ [ -76.673134, 39.301752 ], [ -76.673135, 39.301732 ], [ -76.673135, 39.301731 ] ] } },
{ "type": "Feature", "properties": { "cls": "separated", "highway": "cycleway", "name": "Gwynns Falls Trail" }, "geometry": { "type": "LineString", "coordinates": [ [ -76.673804, 39.302493 ], [ -76.673705, 39.30237 ], [ -76.673501, 39.302143 ], [ -76.673239, 39.301859 ], [ -76.673134, 39.301752 ] ] } },
{ "type": "Feature", "properties": { "cls": "separated", "highway": "cycleway", "name": "Gwynns Falls Trail" }, "geometry": { "type": "LineString", "coordinates": [ [ -76.674331, 39.305421 ], [ -76.674174, 39.305069 ], [ -76.674134, 39.304977 ], [ -76.67406, 39.304654 ], [ -76.673919, 39.304033 ], [ -76.673843, 39.303763 ], [ -76.67384, 39.303666 ], [ -76.673859, 39.30353 ], [ -76.673885, 39.303453 ], [ -76.673937, 39.303353 ], [ -76.673976, 39.303297 ], [ -76.674023, 39.30326 ], [ -76.674095, 39.303238 ], [ -76.674181, 39.303199 ], [ -76.674211, 39.303175 ], [ -76.674228, 39.303144 ], [ -76.674232, 39.303116 ], [ -76.67423, 39.303101 ] ] } },
{ "type": "Feature", "properties": { "cls": "separated", "highway": "cycleway", "name": null }, "geometry": { "type": "LineString", "coordinates": [ [ -76.699568, 39.300739 ], [ -76.699574, 39.300737 ], [ -76.699725, 39.300697 ], [ -76.699734, 39.300693 ] ] } },
{ "type": "Feature", "properties": { "cls": "separated", "highway": "cycleway", "name": null }, "geometry": { "type": "MultiLineString", "coordinates": [ [ [ -76.697257, 39.301225 ], [ -76.697264, 39.30124 ], [ -76.697274, 39.301256 ] ], [ [ -76.697311, 39.301315 ], [ -76.697317, 39.301324 ] ] ] } },
{ "type": "Feature", "properties": { "cls": "separated", "highway": "cycleway", "name": "Gwynns Falls Trail" }, "geometry": { "type": "MultiLineString", "coordinates": [ [ [ -76.697078, 39.301372 ], [ -76.697113, 39.301359 ] ], [ [ -76.697144, 39.301352 ], [ -76.697162, 39.301349 ], [ -76.697303, 39.301326 ], [ -76.697317, 39.301324 ] ] ] } },
{ "type": "Feature", "properties": { "cls": "separated", "highway": "cycleway", "name": "Gwynns Falls Trail" }, "geometry": { "type": "LineString", "coordinates": [ [ -76.697317, 39.301324 ], [ -76.697453, 39.301307 ], [ -76.697599, 39.301303 ], [ -76.697705, 39.301307 ], [ -76.697879, 39.301319 ], [ -76.699967, 39.301514 ], [ -76.700304, 39.301559 ], [ -76.70041, 39.301571 ], [ -76.700497, 39.301573 ], [ -76.700672, 39.301573 ], [ -76.700876, 39.301582 ] ] } },
{ "type": "Feature", "properties": { "cls": "separated", "highway": "cycleway", "name": "Gwynns Falls Trail" }, "geometry": { "type": "LineString", "coordinates": [ [ -76.695453, 39.301884 ], [ -76.695481, 39.301863 ], [ -76.695519, 39.301859 ], [ -76.695635, 39.301888 ], [ -76.695773, 39.30191 ], [ -76.69593, 39.301918 ], [ -76.696089, 39.301919 ], [ -76.696142, 39.301914 ], [ -76.696193, 39.301892 ], [ -76.696655, 39.301503 ], [ -76.696692, 39.301474 ], [ -76.696738, 39.301454 ], [ -76.696789, 39.301441 ], [ -76.697078, 39.301372 ] ] } },
{ "type": "Feature", "properties": { "cls": "separated", "highway": "cycleway", "name": "Gwynns Falls Trail" }, "geometry": { "type": "LineString", "coordinates": [ [ -76.700876, 39.301582 ], [ -76.701109, 39.301606 ] ] } },
{ "type": "Feature", "properties": { "cls": "separated", "highway": "cycleway", "name": "Gwynns Falls Trail" }, "geometry": { "type": "LineString", "coordinates": [ [ -76.701109, 39.301606 ], [ -76.70121, 39.301614 ], [ -76.701323, 39.301625 ], [ -76.701412, 39.301631 ], [ -76.701462, 39.301629 ], [ -76.70154, 39.301613 ], [ -76.70163, 39.301584 ], [ -76.701746, 39.301533 ], [ -76.701894, 39.301464 ], [ -76.702188, 39.301317 ], [ -76.702262, 39.301269 ], [ -76.702326, 39.301211 ], [ -76.702383, 39.301147 ], [ -76.702427, 39.301104 ], [ -76.702469, 39.301083 ], [ -76.702529, 39.301065 ], [ -76.702598, 39.301048 ], [ -76.702716, 39.301029 ], [ -76.702743, 39.301023 ], [ -76.702793, 39.301012 ], [ -76.702884, 39.300977 ], [ -76.70296, 39.300932 ], [ -76.703069, 39.300868 ], [ -76.7032, 39.300802 ], [ -76.703585, 39.300632 ], [ -76.704543, 39.300206 ], [ -76.704865, 39.300047 ], [ -76.704962, 39.299992 ], [ -76.705013, 39.299975 ], [ -76.705003, 39.300014 ], [ -76.704901, 39.300089 ], [ -76.704655, 39.300284 ], [ -76.704632, 39.300316 ], [ -76.704684, 39.300305 ], [ -76.705241, 39.30001 ], [ -76.705294, 39.299995 ], [ -76.70527, 39.300039 ], [ -76.704725, 39.300387 ], [ -76.704714, 39.300422 ], [ -76.704767, 39.300424 ], [ -76.704975, 39.300356 ], [ -76.705135, 39.300304 ], [ -76.705314, 39.300271 ], [ -76.705412, 39.300251 ], [ -76.705522, 39.300236 ], [ -76.705598, 39.300243 ], [ -76.705681, 39.300265 ], [ -76.705752, 39.300302 ], [ -76.705799, 39.300345 ], [ -76.70583, 39.300388 ], [ -76.705842, 39.300441 ], [ -76.705841, 39.300514 ], [ -76.705828, 39.300592 ], [ -76.705798, 39.300719 ], [ -76.705784, 39.300822 ], [ -76.705787, 39.301109 ], [ -76.705787, 39.301173 ], [ -76.705754, 39.301247 ], [ -76.705708, 39.301316 ], [ -76.705443, 39.301589 ], [ -76.705299, 39.301764 ], [ -76.705222, 39.301884 ], [ -76.705172, 39.301998 ], [ -76.705137, 39.302116 ], [ -76.705135, 39.302244 ], [ -76.705149, 39.302336 ], [ -76.705199, 39.302448 ], [ -76.705277, 39.302562 ], [ -76.705376, 39.302663 ], [ -76.705553, 39.302806 ], [ -76.705697, 39.302907 ], [ -76.70584, 39.302995 ], [ -76.705984, 39.303053 ], [ -76.706265, 39.303146 ], [ -76.706764, 39.303299 ] ] } },
{ "type": "Feature", "properties": { "cls": "separated", "highway": "cycleway", "name": "Gwynns Falls Trail" }, "geometry": { "type": "LineString", "coordinates": [ [ -76.6954, 39.302196 ], [ -76.695453, 39.301884 ] ] } },
{ "type": "Feature", "properties": { "cls": "shared", "highway": "path", "name": null }, "geometry": { "type": "LineString", "coordinates": [ [ -76.6925, 39.304562 ], [ -76.69251, 39.304451 ], [ -76.692516, 39.304399 ] ] } },
{ "type": "Feature", "properties": { "cls": "separated", "highway": "cycleway", "name": "Gwynns Falls Trail" }, "geometry": { "type": "LineString", "coordinates": [ [ -76.692516, 39.304399 ], [ -76.692555, 39.30437 ], [ -76.692623, 39.304345 ], [ -76.692704, 39.304335 ], [ -76.692806, 39.304333 ], [ -76.692887, 39.304344 ], [ -76.692937, 39.304376 ], [ -76.693074, 39.304557 ], [ -76.693132, 39.304621 ], [ -76.693224, 39.30467 ], [ -76.693313, 39.304698 ], [ -76.693407, 39.304707 ], [ -76.693535, 39.304706 ], [ -76.693622, 39.304695 ], [ -76.693687, 39.304679 ], [ -76.693752, 39.304694 ], [ -76.693864, 39.30471 ], [ -76.693962, 39.30471 ], [ -76.694053, 39.304696 ], [ -76.69414, 39.30466 ], [ -76.694222, 39.304619 ], [ -76.694326, 39.304551 ], [ -76.694402, 39.304484 ], [ -76.69444, 39.304412 ] ] } },
{ "type": "Feature", "properties": { "cls": "separated", "highway": "cycleway", "name": "Gwynns Falls Trail" }, "geometry": { "type": "LineString", "coordinates": [ [ -76.687513, 39.304767 ], [ -76.687544, 39.304754 ], [ -76.687587, 39.304755 ], [ -76.687667, 39.304766 ], [ -76.687745, 39.30478 ], [ -76.687807, 39.30479 ], [ -76.687861, 39.30479 ], [ -76.687923, 39.304786 ], [ -76.688037, 39.304774 ], [ -76.688155, 39.304747 ], [ -76.688232, 39.304722 ], [ -76.688312, 39.304689 ], [ -76.688459, 39.304638 ], [ -76.688675, 39.304579 ], [ -76.688931, 39.304506 ], [ -76.688999, 39.304494 ], [ -76.689057, 39.304488 ], [ -76.689112, 39.304493 ], [ -76.689167, 39.304502 ], [ -76.689479, 39.304543 ], [ -76.689763, 39.304604 ], [ -76.689899, 39.304636 ], [ -76.68998, 39.304649 ], [ -76.690058, 39.304652 ], [ -76.690119, 39.304649 ], [ -76.690196, 39.304637 ], [ -76.690263, 39.304615 ], [ -76.690349, 39.304588 ], [ -76.690434, 39.304554 ], [ -76.69049, 39.304534 ], [ -76.69056, 39.304524 ], [ -76.690633, 39.304523 ], [ -76.690908, 39.304528 ], [ -76.690984, 39.304526 ], [ -76.691058, 39.304517 ], [ -76.691114, 39.304501 ], [ -76.691201, 39.304479 ], [ -76.691492, 39.304431 ], [ -76.691553, 39.304422 ], [ -76.691609, 39.304423 ], [ -76.691699, 39.304419 ], [ -76.691768, 39.304408 ], [ -76.691901, 39.30438 ], [ -76.691983, 39.304369 ], [ -76.692056, 39.304365 ], [ -76.692132, 39.304367 ], [ -76.692208, 39.304378 ], [ -76.692317, 39.304396 ], [ -76.692415, 39.304407 ], [ -76.692516, 39.304399 ] ] } },
{ "type": "Feature", "properties": { "cls": "shared", "highway": "path", "name": null }, "geometry": { "type": "LineString", "coordinates": [ [ -76.692469, 39.304774 ], [ -76.6925, 39.304562 ] ] } },
{ "type": "Feature", "properties": { "cls": "separated", "highway": "cycleway", "name": "Gwynns Falls Trail" }, "geometry": { "type": "LineString", "coordinates": [ [ -76.687096, 39.30507 ], [ -76.687513, 39.304767 ] ] } },
{ "type": "Feature", "properties": { "cls": "separated", "highway": "cycleway", "name": "Gwynns Falls Trail" }, "geometry": { "type": "LineString", "coordinates": [ [ -76.687215, 39.305486 ], [ -76.687211, 39.305438 ], [ -76.687193, 39.3054 ], [ -76.687175, 39.305375 ], [ -76.687153, 39.30535 ], [ -76.687099, 39.305302 ], [ -76.687068, 39.305257 ], [ -76.687044, 39.305209 ], [ -76.687039, 39.305164 ], [ -76.687049, 39.305123 ], [ -76.687067, 39.305092 ], [ -76.687096, 39.30507 ] ] } },
{ "type": "Feature", "properties": { "cls": "shared", "highway": "cycleway", "name": "Wetheredsville Road" }, "geometry": { "type": "LineString", "coordinates": [ [ -76.686347, 39.305278 ], [ -76.686484, 39.305313 ] ] } },
{ "type": "Feature", "properties": { "cls": "shared", "highway": "cycleway", "name": "Wetheredsville Road" }, "geometry": { "type": "LineString", "coordinates": [ [ -76.686484, 39.305313 ], [ -76.686532, 39.305325 ], [ -76.686762, 39.305358 ], [ -76.686978, 39.305404 ], [ -76.687215, 39.305486 ] ] } },
{ "type": "Feature", "properties": { "cls": "separated", "highway": "cycleway", "name": "Gwynns Falls Trail" }, "geometry": { "type": "LineString", "coordinates": [ [ -76.687215, 39.305486 ], [ -76.687331, 39.305549 ], [ -76.687386, 39.305579 ], [ -76.687517, 39.305675 ], [ -76.687641, 39.30578 ], [ -76.687756, 39.305911 ], [ -76.688179, 39.306557 ], [ -76.689189, 39.30801 ] ] } },
{ "type": "Feature", "properties": { "cls": "separated", "highway": "cycleway", "name": "Old Gwynns Falls Parkway" }, "geometry": { "type": "LineString", "coordinates": [ [ -76.68443, 39.308847 ], [ -76.684588, 39.308747 ], [ -76.684903, 39.308495 ], [ -76.685006, 39.308375 ], [ -76.685085, 39.308259 ], [ -76.685146, 39.307931 ], [ -76.685207, 39.307819 ] ] } },
{ "type": "Feature", "properties": { "cls": "shared", "highway": "path", "name": "Hutton Trail" }, "geometry": { "type": "LineString", "coordinates": [ [ -76.689189, 39.30801 ], [ -76.689305, 39.307993 ], [ -76.68937, 39.307997 ], [ -76.689469, 39.308002 ], [ -76.689602, 39.308023 ], [ -76.689687, 39.308046 ], [ -76.689802, 39.308093 ], [ -76.689934, 39.308163 ], [ -76.690038, 39.308235 ], [ -76.69016, 39.308305 ], [ -76.690281, 39.308365 ], [ -76.690505, 39.30844 ], [ -76.69075, 39.308501 ], [ -76.691099, 39.30856 ], [ -76.691379, 39.308612 ], [ -76.69156, 39.308646 ], [ -76.691689, 39.30868 ], [ -76.691817, 39.308735 ], [ -76.69192, 39.308796 ], [ -76.692172, 39.308945 ], [ -76.692869, 39.309369 ], [ -76.69295, 39.309407 ], [ -76.693024, 39.309434 ], [ -76.693119, 39.309451 ], [ -76.693222, 39.309447 ], [ -76.693291, 39.309428 ], [ -76.693371, 39.309395 ], [ -76.69429, 39.308923 ], [ -76.694517, 39.308812 ], [ -76.694657, 39.308742 ], [ -76.694799, 39.308679 ], [ -76.694988, 39.308623 ], [ -76.695904, 39.308361 ], [ -76.696007, 39.308336 ], [ -76.696077, 39.308327 ], [ -76.69617, 39.308332 ], [ -76.696359, 39.308358 ], [ -76.696559, 39.308376 ], [ -76.697101, 39.308415 ], [ -76.697214, 39.308423 ], [ -76.697521, 39.308453 ], [ -76.697768, 39.308497 ] ] } },
{ "type": "Feature", "properties": { "cls": "separated", "highway": "cycleway", "name": "Gwynns Falls Trail" }, "geometry": { "type": "LineString", "coordinates": [ [ -76.688046, 39.312072 ], [ -76.688361, 39.311982 ], [ -76.688554, 39.311938 ], [ -76.688648, 39.31191 ], [ -76.688724, 39.311864 ], [ -76.688775, 39.311816 ], [ -76.688819, 39.311747 ], [ -76.688863, 39.311668 ], [ -76.688913, 39.311597 ], [ -76.688972, 39.31152 ], [ -76.689069, 39.311448 ], [ -76.689193, 39.311328 ], [ -76.689249, 39.31126 ], [ -76.689283, 39.311181 ], [ -76.689319, 39.311076 ], [ -76.689343, 39.310983 ], [ -76.68936, 39.310865 ], [ -76.689364, 39.310753 ], [ -76.689355, 39.310671 ], [ -76.689323, 39.310594 ], [ -76.68915, 39.310086 ], [ -76.689095, 39.30999 ], [ -76.689034, 39.309914 ], [ -76.688937, 39.309796 ], [ -76.68887, 39.309744 ], [ -76.688794, 39.309723 ], [ -76.688694, 39.309706 ], [ -76.688618, 39.309686 ], [ -76.688547, 39.30966 ], [ -76.688488, 39.309616 ], [ -76.688451, 39.309561 ], [ -76.688444, 39.309475 ], [ -76.688474, 39.309412 ], [ -76.688549, 39.309306 ], [ -76.688568, 39.309234 ], [ -76.688564, 39.309158 ], [ -76.688541, 39.309073 ], [ -76.688503, 39.309006 ], [ -76.688417, 39.30885 ], [ -76.68835, 39.308712 ], [ -76.688232, 39.308335 ], [ -76.688169, 39.308199 ], [ -76.688112, 39.308118 ], [ -76.688029, 39.308028 ], [ -76.687833, 39.307837 ], [ -76.687734, 39.307759 ], [ -76.687623, 39.307688 ], [ -76.687445, 39.307615 ], [ -76.687247, 39.307551 ], [ -76.687055, 39.307503 ], [ -76.686949, 39.307451 ], [ -76.686858, 39.307377 ], [ -76.686687, 39.30722 ], [ -76.686549, 39.307121 ], [ -76.686352, 39.307014 ], [ -76.686194, 39.30696 ], [ -76.686093, 39.306945 ], [ -76.686034, 39.30695 ], [ -76.685986, 39.30697 ], [ -76.685935, 39.307006 ], [ -76.685883, 39.307066 ], [ -76.685819, 39.30721 ], [ -76.685698, 39.307401 ], [ -76.685527, 39.307653 ], [ -76.685453, 39.307754 ], [ -76.685384, 39.307807 ], [ -76.685281, 39.307823 ], [ -76.685207, 39.307819 ] ] } },
{ "type": "Feature", "properties": { "cls": "separated", "highway": "cycleway", "name": "Gwynns Falls Trail" }, "geometry": { "type": "LineString", "coordinates": [ [ -76.689189, 39.30801 ], [ -76.689367, 39.3083 ], [ -76.689448, 39.3084 ], [ -76.689585, 39.308545 ], [ -76.690124, 39.309139 ], [ -76.690196, 39.309254 ], [ -76.690277, 39.309411 ], [ -76.69033, 39.30956 ], [ -76.690371, 39.309688 ], [ -76.690398, 39.309862 ], [ -76.690411, 39.310018 ], [ -76.69041, 39.310171 ], [ -76.690401, 39.310324 ], [ -76.690359, 39.31054 ], [ -76.690296, 39.310756 ], [ -76.690159, 39.31117 ], [ -76.689993, 39.311611 ], [ -76.689958, 39.311781 ], [ -76.689947, 39.311958 ], [ -76.689943, 39.312195 ] ] } },
{ "type": "Feature", "properties": { "cls": "shared", "highway": "path", "name": null }, "geometry": { "type": "LineString", "coordinates": [ [ -76.687928, 39.312096 ], [ -76.687916, 39.312082 ] ] } },
{ "type": "Feature", "properties": { "cls": "separated", "highway": "cycleway", "name": "Gwynns Falls Trail" }, "geometry": { "type": "LineString", "coordinates": [ [ -76.688958, 39.312251 ], [ -76.688687, 39.312237 ], [ -76.688584, 39.312242 ], [ -76.688515, 39.312252 ], [ -76.688419, 39.312272 ], [ -76.687897, 39.312402 ], [ -76.687857, 39.312408 ], [ -76.687828, 39.312403 ], [ -76.6878, 39.312394 ], [ -76.687774, 39.312364 ], [ -76.687747, 39.312312 ], [ -76.687737, 39.312258 ], [ -76.687742, 39.31224 ], [ -76.687751, 39.312209 ], [ -76.687785, 39.312165 ], [ -76.687854, 39.312129 ], [ -76.687928, 39.312096 ], [ -76.687954, 39.312087 ], [ -76.688046, 39.312072 ] ] } },
{ "type": "Feature", "properties": { "cls": "separated", "highway": "cycleway", "name": "Gwynns Falls Trail" }, "geometry": { "type": "LineString", "coordinates": [ [ -76.689943, 39.312195 ], [ -76.689881, 39.312211 ], [ -76.68982, 39.312253 ], [ -76.689767, 39.312267 ], [ -76.689698, 39.312274 ], [ -76.689583, 39.31227 ] ] } },
{ "type": "Feature", "properties": { "cls": "separated", "highway": "cycleway", "name": "Gwynns Falls Trail" }, "geometry": { "type": "LineString", "coordinates": [ [ -76.689583, 39.31227 ], [ -76.688958, 39.312251 ] ] } },
{ "type": "Feature", "properties": { "cls": "separated", "highway": "cycleway", "name": "Dickeyville Trail" }, "geometry": { "type": "LineString", "coordinates": [ [ -76.689943, 39.312195 ], [ -76.689947, 39.312237 ], [ -76.689969, 39.312311 ] ] } },
{ "type": "Feature", "properties": { "cls": "separated", "highway": "cycleway", "name": "Gwynns Falls Trail" }, "geometry": { "type": "LineString", "coordinates": [ [ -76.695219, 39.304065 ], [ -76.695155, 39.303974 ], [ -76.695116, 39.303895 ], [ -76.695095, 39.303823 ], [ -76.695064, 39.303525 ], [ -76.695076, 39.303458 ], [ -76.695114, 39.303405 ], [ -76.695124, 39.303358 ], [ -76.695117, 39.30331 ], [ -76.695088, 39.303257 ], [ -76.695086, 39.303218 ], [ -76.695101, 39.303194 ], [ -76.695141, 39.30319 ], [ -76.69521, 39.303196 ], [ -76.695336, 39.303217 ], [ -76.695369, 39.303219 ], [ -76.695386, 39.303213 ], [ -76.695395, 39.303199 ], [ -76.695383, 39.303187 ], [ -76.695352, 39.303173 ], [ -76.695138, 39.303044 ], [ -76.695117, 39.303023 ], [ -76.695118, 39.30301 ], [ -76.695129, 39.303002 ], [ -76.695149, 39.303004 ], [ -76.695268, 39.303018 ], [ -76.695387, 39.303033 ], [ -76.695454, 39.303036 ], [ -76.695476, 39.303036 ], [ -76.695491, 39.303029 ], [ -76.695494, 39.303013 ], [ -76.695483, 39.303002 ], [ -76.695451, 39.302993 ], [ -76.695363, 39.302954 ], [ -76.695305, 39.302918 ], [ -76.695255, 39.302867 ], [ -76.695167, 39.302777 ], [ -76.695114, 39.302692 ], [ -76.695096, 39.302659 ], [ -76.695079, 39.30262 ], [ -76.695077, 39.302587 ], [ -76.695095, 39.30254 ], [ -76.695132, 39.302497 ], [ -76.695343, 39.302279 ], [ -76.695386, 39.302235 ], [ -76.6954, 39.302196 ] ] } },
{ "type": "Feature", "properties": { "cls": "separated", "highway": "cycleway", "name": "Gwynns Falls Trail" }, "geometry": { "type": "LineString", "coordinates": [ [ -76.694757, 39.304399 ], [ -76.694863, 39.304399 ], [ -76.694954, 39.304421 ], [ -76.695021, 39.304313 ], [ -76.695072, 39.304246 ], [ -76.695189, 39.304123 ], [ -76.695219, 39.304065 ] ] } },
{ "type": "Feature", "properties": { "cls": "separated", "highway": "cycleway", "name": "Gwynns Falls Trail" }, "geometry": { "type": "LineString", "coordinates": [ [ -76.694587, 39.304411 ], [ -76.694757, 39.304399 ] ] } },
{ "type": "Feature", "properties": { "cls": "separated", "highway": "cycleway", "name": "Gwynns Falls Trail" }, "geometry": { "type": "LineString", "coordinates": [ [ -76.69444, 39.304412 ], [ -76.694587, 39.304411 ] ] } },
{ "type": "Feature", "properties": { "cls": "shared", "highway": "path", "name": "Stream Trail" }, "geometry": { "type": "LineString", "coordinates": [ [ -76.694954, 39.304421 ], [ -76.694916, 39.304534 ], [ -76.694914, 39.304577 ], [ -76.694934, 39.304662 ], [ -76.694926, 39.304676 ], [ -76.69491, 39.304706 ], [ -76.694824, 39.304754 ], [ -76.694705, 39.304805 ], [ -76.694583, 39.304857 ], [ -76.694526, 39.304906 ], [ -76.694463, 39.304954 ], [ -76.694418, 39.304977 ], [ -76.694346, 39.304982 ], [ -76.694185, 39.304983 ], [ -76.694036, 39.304994 ], [ -76.693836, 39.305014 ], [ -76.693687, 39.305036 ], [ -76.693624, 39.305056 ], [ -76.693551, 39.305061 ], [ -76.693506, 39.305059 ], [ -76.69326, 39.305003 ], [ -76.693181, 39.304985 ], [ -76.693118, 39.304979 ], [ -76.693058, 39.304978 ], [ -76.692993, 39.304985 ], [ -76.692915, 39.304986 ], [ -76.692835, 39.304981 ], [ -76.692743, 39.304971 ], [ -76.692632, 39.304945 ], [ -76.692554, 39.304916 ], [ -76.692493, 39.304878 ], [ -76.692461, 39.304836 ], [ -76.692469, 39.304774 ] ] } },
{ "type": "Feature", "properties": { "cls": "separated", "highway": "cycleway", "name": "Dickeyville Trail" }, "geometry": { "type": "LineString", "coordinates": [ [ -76.690016, 39.312452 ], [ -76.690059, 39.312575 ], [ -76.690086, 39.312631 ], [ -76.690171, 39.312804 ], [ -76.690217, 39.312868 ], [ -76.690279, 39.31292 ], [ -76.690374, 39.312971 ], [ -76.690545, 39.313054 ], [ -76.690693, 39.313137 ], [ -76.6908, 39.313215 ], [ -76.69091, 39.313332 ], [ -76.691225, 39.313659 ], [ -76.691388, 39.313779 ], [ -76.691579, 39.313892 ], [ -76.691777, 39.313992 ], [ -76.692118, 39.314126 ], [ -76.692317, 39.314199 ], [ -76.69246, 39.31427 ], [ -76.692579, 39.314319 ], [ -76.692669, 39.314353 ], [ -76.692771, 39.31439 ], [ -76.692891, 39.314415 ], [ -76.69347, 39.31449 ], [ -76.694038, 39.314541 ], [ -76.694171, 39.314595 ], [ -76.694305, 39.314631 ], [ -76.694451, 39.314642 ], [ -76.694897, 39.314669 ], [ -76.695187, 39.314682 ], [ -76.695465, 39.314703 ], [ -76.695729, 39.314747 ], [ -76.695907, 39.314803 ], [ -76.69596, 39.314825 ] ] } },
{ "type": "Feature", "properties": { "cls": "separated", "highway": "cycleway", "name": "Gwynns Falls Trail" }, "geometry": { "type": "LineString", "coordinates": [ [ -76.685207, 39.307819 ], [ -76.685142, 39.307786 ], [ -76.685122, 39.307743 ], [ -76.685117, 39.307681 ], [ -76.685122, 39.307526 ], [ -76.685096, 39.307451 ], [ -76.685058, 39.307408 ], [ -76.684999, 39.307374 ], [ -76.684903, 39.307349 ], [ -76.684658, 39.307294 ], [ -76.6843, 39.307249 ], [ -76.684086, 39.307218 ], [ -76.68389, 39.307172 ], [ -76.683655, 39.307103 ], [ -76.683466, 39.307067 ], [ -76.683137, 39.307018 ], [ -76.68294, 39.307007 ], [ -76.682824, 39.307023 ], [ -76.682707, 39.307056 ], [ -76.682621, 39.307087 ], [ -76.68255, 39.307093 ], [ -76.682459, 39.307086 ], [ -76.682335, 39.307071 ], [ -76.682005, 39.307025 ], [ -76.681799, 39.307009 ], [ -76.681182, 39.30697 ], [ -76.680996, 39.306943 ], [ -76.680876, 39.306904 ], [ -76.680781, 39.306847 ], [ -76.680645, 39.306803 ], [ -76.680434, 39.306753 ], [ -76.680308, 39.306691 ], [ -76.679994, 39.306502 ], [ -76.679821, 39.306427 ], [ -76.679732, 39.306396 ], [ -76.679665, 39.306391 ], [ -76.679602, 39.306394 ], [ -76.67953, 39.306399 ], [ -76.679472, 39.306406 ], [ -76.679423, 39.306402 ], [ -76.679386, 39.306383 ], [ -76.679357, 39.306347 ], [ -76.67926, 39.30622 ], [ -76.679203, 39.306172 ], [ -76.679126, 39.306139 ], [ -76.679047, 39.306121 ], [ -76.67894, 39.306113 ], [ -76.678795, 39.306102 ], [ -76.678691, 39.306074 ], [ -76.67859, 39.306033 ], [ -76.678501, 39.305979 ], [ -76.678423, 39.305912 ], [ -76.678333, 39.305806 ], [ -76.678267, 39.305747 ], [ -76.678195, 39.305708 ], [ -76.678088, 39.305667 ], [ -76.677404, 39.30539 ], [ -76.677179, 39.305317 ], [ -76.676949, 39.305255 ], [ -76.676819, 39.305211 ], [ -76.676676, 39.305144 ], [ -76.676524, 39.305052 ], [ -76.676364, 39.304938 ], [ -76.676303, 39.304896 ], [ -76.676187, 39.304865 ], [ -76.676047, 39.304826 ], [ -76.67592, 39.304786 ], [ -76.675778, 39.304721 ], [ -76.675569, 39.304609 ], [ -76.67537, 39.304487 ], [ -76.675126, 39.304292 ], [ -76.6749, 39.30408 ], [ -76.674719, 39.303903 ], [ -76.674626, 39.303815 ], [ -76.674551, 39.303768 ], [ -76.674486, 39.303761 ], [ -76.674428, 39.303765 ], [ -76.674348, 39.303796 ], [ -76.674278, 39.303839 ], [ -76.674223, 39.303902 ], [ -76.674218, 39.304008 ], [ -76.674229, 39.304284 ], [ -76.67427, 39.304591 ], [ -76.674359, 39.304948 ], [ -76.674418, 39.305268 ], [ -76.674418, 39.305381 ], [ -76.674408, 39.305423 ], [ -76.674393, 39.305445 ], [ -76.674371, 39.305451 ], [ -76.674365, 39.30545 ], [ -76.674344, 39.305443 ], [ -76.674331, 39.305421 ] ] } },
{ "type": "Feature", "properties": { "cls": "separated", "highway": "cycleway", "name": "Old Gwynns Falls Parkway" }, "geometry": { "type": "LineString", "coordinates": [ [ -76.684351, 39.308898 ], [ -76.68443, 39.308847 ] ] } },
{ "type": "Feature", "properties": { "cls": "separated", "highway": "cycleway", "name": "Old Gwynns Falls Parkway" }, "geometry": { "type": "LineString", "coordinates": [ [ -76.684362, 39.308966 ], [ -76.684351, 39.308898 ] ] } },
{ "type": "Feature", "properties": { "cls": "separated", "highway": "cycleway", "name": "Old Gwynns Falls Parkway" }, "geometry": { "type": "LineString", "coordinates": [ [ -76.684383, 39.309026 ], [ -76.684362, 39.308966 ] ] } },
{ "type": "Feature", "properties": { "cls": "separated", "highway": "cycleway", "name": null }, "geometry": { "type": "LineString", "coordinates": [ [ -76.683754, 39.309312 ], [ -76.683875, 39.309233 ], [ -76.684351, 39.308898 ] ] } },
{ "type": "Feature", "properties": { "cls": "separated", "highway": "cycleway", "name": "Old Gwynns Falls Parkway" }, "geometry": { "type": "LineString", "coordinates": [ [ -76.684094, 39.311891 ], [ -76.684107, 39.311874 ], [ -76.68418, 39.311787 ], [ -76.684231, 39.311721 ], [ -76.684276, 39.311636 ], [ -76.68431, 39.311538 ], [ -76.684322, 39.311456 ], [ -76.684307, 39.311378 ], [ -76.68414, 39.310951 ], [ -76.684108, 39.310831 ], [ -76.684097, 39.310769 ], [ -76.684089, 39.310642 ], [ -76.684101, 39.310502 ], [ -76.684127, 39.310349 ], [ -76.684168, 39.310125 ], [ -76.684219, 39.309904 ], [ -76.684278, 39.309689 ], [ -76.684325, 39.309382 ], [ -76.684357, 39.309175 ], [ -76.684368, 39.309118 ], [ -76.684383, 39.309026 ] ] } }
]
}
