{
"type": "FeatureCollection",
"name": "168-madrid-parque-de-valdebebas",
"crs": { "type": "name", "properties": { "name": "urn:ogc:def:crs:OGC:1.3:CRS84" } },
"xy_coordinate_resolution": 1e-06,
"features": [
{ "type": "Feature", "properties": { "cls": "shared", "highway": "cycleway", "name": null }, "geometry": { "type": "LineString", "coordinates": [ [ -3.627962, 40.490499 ], [ -3.627878, 40.490742 ], [ -3.627749, 40.491121 ], [ -3.62761, 40.491254 ], [ -3.62746, 40.491312 ], [ -3.626966, 40.491414 ], [ -3.626758, 40.491464 ], [ -3.626317, 40.491583 ], [ -3.626019, 40.491771 ], [ -3.625725, 40.492096 ], [ -3.625572, 40.492281 ], [ -3.625483, 40.492389 ], [ -3.625318, 40.492711 ], [ -3.625179, 40.493098 ], [ -3.625138, 40.493408 ], [ -3.625112, 40.493909 ], [ -3.625151, 40.494273 ] ] } },
{ "type": "Feature", "properties": { "cls": "separated", "highway": "cycleway", "name": "Senda de los Montes" }, "geometry": { "type": "LineString", "coordinates": [ [ -3.625151, 40.494273 ], [ -3.625189, 40.494626 ], [ -3.625313, 40.494845 ], [ -3.625416, 40.49497 ], [ -3.625689, 40.495131 ], [ -3.625893, 40.495172 ], [ -3.626039, 40.49515 ], [ -3.626057, 40.495147 ], [ -3.626358, 40.495084 ], [ -3.626832, 40.494947 ], [ -3.627265, 40.494818 ], [ -3.627615, 40.494802 ] ] } },
{ "type": "Feature", "properties": { "cls": "separated", "highway": "cycleway", "name": null }, "geometry": { "type": "LineString", "coordinates": [ [ -3.630059, 40.485946 ], [ -3.629932, 40.485778 ], [ -3.629795, 40.485679 ], [ -3.629639, 40.485598 ], [ -3.629391, 40.485537 ], [ -3.629147, 40.485506 ], [ -3.628909, 40.485493 ], [ -3.628696, 40.485511 ], [ -3.628382, 40.48555 ], [ -3.628177, 40.485599 ] ] } },
{ "type": "Feature", "properties": { "cls": "separated", "highway": "cycleway", "name": "Senda de los Montes" }, "geometry": { "type": "LineString", "coordinates": [ [ -3.630585, 40.486014 ], [ -3.63033, 40.486036 ], [ -3.630117, 40.485984 ], [ -3.630059, 40.485946 ] ] } },
{ "type": "Feature", "properties": { "cls": "separated", "highway": "footway", "name": null }, "geometry": { "type": "LineString", "coordinates": [ [ -3.637996, 40.48747 ], [ -3.638044, 40.48721 ], [ -3.638084, 40.486966 ], [ -3.638088, 40.486914 ], [ -3.63811, 40.486588 ], [ -3.638252, 40.486325 ], [ -3.638277, 40.486279 ], [ -3.638193, 40.486137 ], [ -3.63812, 40.485933 ], [ -3.638137, 40.48577 ], [ -3.638169, 40.485689 ], [ -3.638235, 40.485668 ] ] } },
{ "type": "Feature", "properties": { "cls": "separated", "highway": "cycleway", "name": "Senda de los Montes" }, "geometry": { "type": "LineString", "coordinates": [ [ -3.628177, 40.485599 ], [ -3.627868, 40.485692 ], [ -3.627597, 40.485803 ], [ -3.62734, 40.485948 ], [ -3.627146, 40.48612 ], [ -3.627017, 40.486293 ], [ -3.626866, 40.486566 ], [ -3.626809, 40.486669 ], [ -3.626775, 40.48678 ], [ -3.626661, 40.487157 ], [ -3.62665, 40.487535 ], [ -3.626675, 40.487614 ], [ -3.62676, 40.487882 ], [ -3.626934, 40.488117 ], [ -3.627012, 40.488222 ], [ -3.627309, 40.488512 ], [ -3.627538, 40.488688 ], [ -3.627806, 40.488847 ], [ -3.627923, 40.488918 ], [ -3.628068, 40.489041 ], [ -3.628197, 40.489179 ], [ -3.628274, 40.48934 ], [ -3.628305, 40.48946 ], [ -3.628284, 40.489597 ], [ -3.62823, 40.489686 ] ] } },
{ "type": "Feature", "properties": { "cls": "separated", "highway": "cycleway", "name": null }, "geometry": { "type": "LineString", "coordinates": [ [ -3.641284, 40.489562 ], [ -3.641361, 40.489486 ], [ -3.641344, 40.489363 ], [ -3.641231, 40.489212 ], [ -3.641057, 40.489046 ], [ -3.640813, 40.488903 ], [ -3.6406, 40.488841 ], [ -3.640539, 40.488823 ], [ -3.640381, 40.488685 ], [ -3.640332, 40.488525 ], [ -3.640216, 40.488069 ], [ -3.640137, 40.487861 ], [ -3.639969, 40.487688 ], [ -3.639643, 40.487495 ], [ -3.639261, 40.487387 ], [ -3.638717, 40.487364 ], [ -3.638487, 40.487388 ], [ -3.638133, 40.487425 ], [ -3.637996, 40.48747 ], [ -3.637787, 40.48755 ], [ -3.637574, 40.487557 ], [ -3.637389, 40.487466 ], [ -3.63723, 40.487271 ], [ -3.636994, 40.487101 ], [ -3.636735, 40.486949 ], [ -3.636349, 40.486832 ], [ -3.635777, 40.486793 ], [ -3.635262, 40.486852 ], [ -3.634263, 40.487177 ], [ -3.633516, 40.487431 ], [ -3.633259, 40.48751 ], [ -3.633043, 40.487529 ], [ -3.632883, 40.487494 ], [ -3.632759, 40.487408 ], [ -3.632222, 40.486865 ], [ -3.632159, 40.486789 ], [ -3.632104, 40.486723 ], [ -3.632039, 40.486619 ], [ -3.631802, 40.486342 ], [ -3.631436, 40.486064 ], [ -3.631237, 40.486015 ], [ -3.630938, 40.48598 ], [ -3.630585, 40.486014 ] ] } },
{ "type": "Feature", "properties": { "cls": "separated", "highway": "cycleway", "name": "Senda de los Montes" }, "geometry": { "type": "LineString", "coordinates": [ [ -3.641692, 40.493282 ], [ -3.641883, 40.49311 ], [ -3.641919, 40.493078 ], [ -3.642063, 40.49278 ], [ -3.642063, 40.492361 ], [ -3.642037, 40.492099 ], [ -3.641914, 40.491895 ], [ -3.641728, 40.491754 ], [ -3.641646, 40.491664 ], [ -3.641574, 40.491523 ], [ -3.641594, 40.490556 ], [ -3.641576, 40.490192 ], [ -3.641483, 40.49005 ], [ -3.641361, 40.490001 ], [ -3.641237, 40.489981 ], [ -3.641111, 40.489993 ], [ -3.641043, 40.489991 ], [ -3.640942, 40.489933 ], [ -3.640915, 40.489836 ], [ -3.640919, 40.489694 ], [ -3.640975, 40.489618 ], [ -3.641119, 40.489594 ], [ -3.641284, 40.489562 ] ] } },
{ "type": "Feature", "properties": { "cls": "shared", "highway": "cycleway", "name": null }, "geometry": { "type": "LineString", "coordinates": [ [ -3.627615, 40.494802 ], [ -3.627796, 40.494818 ] ] } },
{ "type": "Feature", "properties": { "cls": "separated", "highway": "cycleway", "name": null }, "geometry": { "type": "LineString", "coordinates": [ [ -3.632164, 40.495671 ], [ -3.63251, 40.496285 ], [ -3.632654, 40.496465 ], [ -3.63286, 40.496638 ], [ -3.632989, 40.496723 ], [ -3.633448, 40.497025 ], [ -3.633787, 40.497123 ], [ -3.634153, 40.497135 ], [ -3.634678, 40.497022 ], [ -3.635023, 40.496888 ], [ -3.63543, 40.496646 ], [ -3.635703, 40.496391 ], [ -3.635935, 40.496097 ], [ -3.636012, 40.495858 ], [ -3.636064, 40.495549 ], [ -3.636064, 40.495357 ], [ -3.636094, 40.49515 ], [ -3.636172, 40.495052 ], [ -3.636311, 40.49504 ], [ -3.636424, 40.495071 ], [ -3.636645, 40.495171 ], [ -3.636954, 40.49531 ], [ -3.637107, 40.495358 ], [ -3.637423, 40.495385 ], [ -3.637698, 40.49537 ], [ -3.637899, 40.495344 ], [ -3.638064, 40.495306 ], [ -3.638268, 40.495224 ], [ -3.638412, 40.495099 ], [ -3.638695, 40.494703 ], [ -3.638824, 40.494355 ], [ -3.638989, 40.493963 ], [ -3.639112, 40.493795 ], [ -3.63938, 40.493752 ], [ -3.639653, 40.493779 ], [ -3.640168, 40.493787 ], [ -3.640698, 40.493705 ], [ -3.641229, 40.493521 ], [ -3.641692, 40.493282 ] ] } },
{ "type": "Feature", "properties": { "cls": "separated", "highway": "cycleway", "name": "Senda de los Montes" }, "geometry": { "type": "LineString", "coordinates": [ [ -3.627796, 40.494818 ], [ -3.627919, 40.494825 ], [ -3.628171, 40.494825 ], [ -3.628287, 40.494825 ], [ -3.628493, 40.494856 ], [ -3.62855, 40.494934 ], [ -3.628519, 40.495161 ], [ -3.628354, 40.49589 ], [ -3.62839, 40.496168 ], [ -3.628394, 40.496221 ], [ -3.628404, 40.496358 ], [ -3.628406, 40.496391 ], [ -3.628482, 40.496519 ], [ -3.628535, 40.496606 ], [ -3.62867, 40.496673 ], [ -3.628751, 40.496712 ], [ -3.629199, 40.496704 ], [ -3.629719, 40.496614 ], [ -3.629917, 40.496567 ], [ -3.630198, 40.496501 ], [ -3.630651, 40.496277 ], [ -3.630851, 40.496138 ], [ -3.63089, 40.496111 ], [ -3.630964, 40.496059 ], [ -3.631027, 40.496015 ], [ -3.631449, 40.495553 ], [ -3.631604, 40.4954 ], [ -3.631697, 40.495365 ], [ -3.631861, 40.495373 ], [ -3.632, 40.495436 ], [ -3.632088, 40.495537 ], [ -3.632164, 40.495671 ] ] } }
]
}
