{
"type": "FeatureCollection",
"name": "169-glendale-thunderbird-conservation-park",
"crs": { "type": "name", "properties": { "name": "urn:ogc:def:crs:OGC:1.3:CRS84" } },
"xy_coordinate_resolution": 1e-06,
"features": [
{ "type": "Feature", "properties": { "cls": "painted", "highway": "secondary", "name": "West Pinnacle Peak Road" }, "geometry": { "type": "LineString", "coordinates": [ [ -112.179218, 33.697438 ], [ -112.179101, 33.697515 ], [ -112.178958, 33.697616 ], [ -112.178829, 33.69769 ], [ -112.17876, 33.69772 ], [ -112.178633, 33.697773 ], [ -112.178564, 33.697798 ] ] } },
{ "type": "Feature", "properties": { "cls": "painted", "highway": "secondary", "name": "North 59th Avenue" }, "geometry": { "type": "LineString", "coordinates": [ [ -112.186747, 33.687068 ], [ -112.186758, 33.687092 ], [ -112.186801, 33.687177 ], [ -112.186868, 33.687301 ], [ -112.186984, 33.687489 ], [ -112.187229, 33.687934 ], [ -112.187532, 33.688469 ], [ -112.187607, 33.688614 ], [ -112.187655, 33.688719 ], [ -112.187699, 33.688827 ], [ -112.187732, 33.688919 ], [ -112.18777, 33.689056 ], [ -112.18783, 33.689256 ], [ -112.187956, 33.689664 ] ] } },
{ "type": "Feature", "properties": { "cls": "painted", "highway": "secondary", "name": "North 59th Avenue" }, "geometry": { "type": "LineString", "coordinates": [ [ -112.188112, 33.690115 ], [ -112.188112, 33.690035 ], [ -112.188103, 33.689951 ], [ -112.188094, 33.689871 ], [ -112.188078, 33.68978 ], [ -112.188057, 33.689683 ], [ -112.187902, 33.68919 ], [ -112.187806, 33.688913 ], [ -112.187712, 33.688689 ], [ -112.187596, 33.688458 ], [ -112.187278, 33.687888 ], [ -112.187028, 33.687448 ], [ -112.186849, 33.68714 ], [ -112.186814, 33.687067 ] ] } },
{ "type": "Feature", "properties": { "cls": "painted", "highway": "secondary", "name": "North 59th Avenue" }, "geometry": { "type": "LineString", "coordinates": [ [ -112.187956, 33.689664 ], [ -112.187966, 33.689697 ], [ -112.187996, 33.689816 ], [ -112.188011, 33.689903 ], [ -112.188021, 33.690035 ], [ -112.18802, 33.690114 ] ] } },
{ "type": "Feature", "properties": { "cls": "painted", "highway": "secondary", "name": "59th Avenue" }, "geometry": { "type": "LineString", "coordinates": [ [ -112.188032, 33.690497 ], [ -112.188048, 33.690457 ], [ -112.18807, 33.69037 ], [ -112.188091, 33.690271 ], [ -112.188106, 33.690186 ], [ -112.188112, 33.690115 ] ] } },
{ "type": "Feature", "properties": { "cls": "painted", "highway": "secondary", "name": "59th Avenue" }, "geometry": { "type": "LineString", "coordinates": [ [ -112.18802, 33.690114 ], [ -112.188012, 33.690184 ], [ -112.188, 33.690259 ], [ -112.187983, 33.690341 ], [ -112.187962, 33.690416 ], [ -112.187942, 33.690482 ], [ -112.187921, 33.690541 ], [ -112.187887, 33.690621 ], [ -112.187857, 33.69068 ], [ -112.187819, 33.690749 ], [ -112.187774, 33.690828 ], [ -112.18774, 33.690878 ], [ -112.187688, 33.69094 ], [ -112.187635, 33.691 ], [ -112.187567, 33.69107 ], [ -112.187498, 33.691137 ], [ -112.187438, 33.691189 ], [ -112.187374, 33.691234 ], [ -112.187307, 33.69128 ], [ -112.187239, 33.691325 ], [ -112.187158, 33.691372 ], [ -112.187066, 33.691419 ], [ -112.18696, 33.691466 ], [ -112.186571, 33.691609 ], [ -112.18593, 33.69184 ], [ -112.185353, 33.692066 ], [ -112.185236, 33.692112 ], [ -112.185046, 33.692202 ], [ -112.184931, 33.692263 ], [ -112.184833, 33.692324 ], [ -112.18474, 33.692398 ], [ -112.184637, 33.692486 ], [ -112.184574, 33.692546 ], [ -112.184307, 33.69285 ], [ -112.184016, 33.693199 ], [ -112.183422, 33.693893 ], [ -112.183135, 33.694212 ], [ -112.182956, 33.69439 ], [ -112.182833, 33.694503 ], [ -112.182692, 33.694621 ], [ -112.182463, 33.694796 ], [ -112.181902, 33.695219 ], [ -112.181145, 33.695783 ], [ -112.180782, 33.696068 ], [ -112.180437, 33.696352 ], [ -112.179865, 33.696837 ], [ -112.179478, 33.697158 ], [ -112.179345, 33.697269 ], [ -112.179218, 33.697438 ] ] } },
{ "type": "Feature", "properties": { "cls": "painted", "highway": "secondary", "name": "59th Avenue" }, "geometry": { "type": "LineString", "coordinates": [ [ -112.179218, 33.697438 ], [ -112.179407, 33.697335 ], [ -112.179849, 33.696926 ], [ -112.180443, 33.696434 ], [ -112.180807, 33.696121 ], [ -112.181184, 33.695836 ], [ -112.181931, 33.695275 ], [ -112.182406, 33.694919 ], [ -112.182558, 33.694805 ], [ -112.182689, 33.694703 ], [ -112.182846, 33.694571 ], [ -112.182935, 33.694487 ], [ -112.183041, 33.694389 ], [ -112.183133, 33.694299 ], [ -112.183244, 33.694189 ], [ -112.183479, 33.69393 ], [ -112.184061, 33.69325 ], [ -112.18435, 33.692895 ], [ -112.18462, 33.692591 ], [ -112.184692, 33.692519 ], [ -112.184755, 33.692461 ], [ -112.184876, 33.69237 ], [ -112.184964, 33.692311 ], [ -112.185065, 33.692254 ], [ -112.185156, 33.692206 ], [ -112.185265, 33.692161 ], [ -112.185958, 33.691895 ], [ -112.186609, 33.691663 ], [ -112.187038, 33.691494 ], [ -112.187117, 33.691457 ], [ -112.187201, 33.691416 ], [ -112.187282, 33.691373 ], [ -112.187348, 33.691332 ], [ -112.187407, 33.691291 ], [ -112.187478, 33.69124 ], [ -112.187563, 33.691169 ], [ -112.187639, 33.691101 ], [ -112.187699, 33.691038 ], [ -112.187759, 33.690972 ], [ -112.187826, 33.690891 ], [ -112.187889, 33.690796 ], [ -112.187933, 33.690726 ], [ -112.187962, 33.690664 ], [ -112.187991, 33.690599 ], [ -112.188032, 33.690497 ] ] } }
]
}
