{
"type": "FeatureCollection",
"name": "171-columbus-three-creeks-parks",
"crs": { "type": "name", "properties": { "name": "urn:ogc:def:crs:OGC:1.3:CRS84" } },
"xy_coordinate_resolution": 1e-06,
"features": [
{ "type": "Feature", "properties": { "cls": "separated", "highway": "cycleway", "name": "Alum Creek Trail" }, "geometry": { "type": "LineString", "coordinates": [ [ -82.907954, 39.878616 ], [ -82.90711, 39.878382 ] ] } },
{ "type": "Feature", "properties": { "cls": "separated", "highway": "cycleway", "name": "Blacklick Creek Trail" }, "geometry": { "type": "LineString", "coordinates": [ [ -82.898915, 39.882723 ], [ -82.898869, 39.882683 ] ] } },
{ "type": "Feature", "properties": { "cls": "separated", "highway": "cycleway", "name": "Alum Creek Trail" }, "geometry": { "type": "LineString", "coordinates": [ [ -82.90711, 39.878382 ], [ -82.907012, 39.878365 ], [ -82.906745, 39.878307 ], [ -82.906664, 39.878303 ], [ -82.90659, 39.878306 ], [ -82.906518, 39.878319 ], [ -82.906449, 39.878347 ], [ -82.906383, 39.878384 ], [ -82.90632, 39.878412 ], [ -82.906203, 39.87844 ], [ -82.906159, 39.878462 ], [ -82.906115, 39.87849 ], [ -82.906095, 39.878521 ], [ -82.906087, 39.878559 ], [ -82.906087, 39.878603 ], [ -82.906103, 39.878657 ], [ -82.906143, 39.8788 ], [ -82.906167, 39.878907 ], [ -82.906173, 39.878995 ], [ -82.906164, 39.879078 ], [ -82.90614, 39.879154 ], [ -82.906094, 39.879237 ], [ -82.906041, 39.879333 ], [ -82.906004, 39.879434 ], [ -82.905964, 39.87961 ], [ -82.905941, 39.879741 ], [ -82.905913, 39.879852 ], [ -82.905856, 39.879963 ], [ -82.905792, 39.880046 ], [ -82.905714, 39.880133 ], [ -82.90562, 39.880215 ], [ -82.90549, 39.880306 ], [ -82.905361, 39.880378 ], [ -82.905237, 39.880436 ], [ -82.905039, 39.880514 ] ] } },
{ "type": "Feature", "properties": { "cls": "separated", "highway": "cycleway", "name": null }, "geometry": { "type": "LineString", "coordinates": [ [ -82.904766, 39.880313 ], [ -82.904698, 39.880261 ], [ -82.904606, 39.880204 ], [ -82.904516, 39.880167 ], [ -82.904478, 39.880159 ], [ -82.904263, 39.88012 ], [ -82.903924, 39.880068 ], [ -82.903766, 39.880036 ], [ -82.903658, 39.880014 ], [ -82.903582, 39.880001 ], [ -82.903523, 39.880005 ], [ -82.903462, 39.880025 ], [ -82.903411, 39.880054 ] ] } },
{ "type": "Feature", "properties": { "cls": "separated", "highway": "cycleway", "name": null }, "geometry": { "type": "LineString", "coordinates": [ [ -82.903292, 39.879208 ], [ -82.903437, 39.879366 ], [ -82.903478, 39.879433 ], [ -82.903503, 39.879488 ], [ -82.903522, 39.879548 ], [ -82.903529, 39.879623 ], [ -82.903531, 39.879687 ], [ -82.903497, 39.879897 ], [ -82.903476, 39.879984 ], [ -82.903462, 39.880025 ], [ -82.903544, 39.880123 ], [ -82.903562, 39.880165 ], [ -82.903557, 39.880378 ], [ -82.903552, 39.880475 ], [ -82.903494, 39.880662 ], [ -82.903408, 39.88084 ], [ -82.903309, 39.881031 ], [ -82.903196, 39.881225 ], [ -82.903185, 39.881264 ], [ -82.9032, 39.8813 ], [ -82.903226, 39.881348 ], [ -82.903229, 39.881386 ], [ -82.903221, 39.881418 ] ] } },
{ "type": "Feature", "properties": { "cls": "separated", "highway": "cycleway", "name": null }, "geometry": { "type": "LineString", "coordinates": [ [ -82.903552, 39.880475 ], [ -82.903821, 39.88053 ], [ -82.903869, 39.880536 ], [ -82.903908, 39.880531 ], [ -82.904022, 39.880479 ], [ -82.904136, 39.880417 ], [ -82.904246, 39.880351 ], [ -82.904311, 39.880326 ], [ -82.904417, 39.880303 ], [ -82.904528, 39.88029 ], [ -82.904657, 39.880292 ], [ -82.904766, 39.880313 ], [ -82.904851, 39.880344 ], [ -82.904928, 39.88039 ], [ -82.905002, 39.88046 ], [ -82.905039, 39.880514 ] ] } },
{ "type": "Feature", "properties": { "cls": "separated", "highway": "cycleway", "name": null }, "geometry": { "type": "LineString", "coordinates": [ [ -82.9032, 39.8813 ], [ -82.903237, 39.881321 ], [ -82.903286, 39.881332 ], [ -82.903329, 39.881332 ], [ -82.903396, 39.881319 ] ] } },
{ "type": "Feature", "properties": { "cls": "separated", "highway": "cycleway", "name": "Blacklick Creek Trail" }, "geometry": { "type": "LineString", "coordinates": [ [ -82.905039, 39.880514 ], [ -82.904676, 39.880638 ], [ -82.904618, 39.880668 ], [ -82.904571, 39.880702 ], [ -82.904477, 39.880827 ], [ -82.904349, 39.88095 ], [ -82.904289, 39.880988 ], [ -82.904175, 39.881048 ], [ -82.904115, 39.88106 ], [ -82.903967, 39.881074 ], [ -82.903871, 39.881099 ], [ -82.903771, 39.881134 ], [ -82.903683, 39.881172 ], [ -82.903582, 39.881221 ], [ -82.903466, 39.881282 ], [ -82.903396, 39.881319 ], [ -82.903221, 39.881418 ], [ -82.903143, 39.881466 ], [ -82.902959, 39.881556 ], [ -82.902819, 39.881609 ], [ -82.902614, 39.881675 ], [ -82.902443, 39.881736 ], [ -82.90228, 39.881803 ], [ -82.902132, 39.88188 ], [ -82.901977, 39.881977 ], [ -82.901827, 39.882134 ], [ -82.901681, 39.882338 ], [ -82.901587, 39.882473 ], [ -82.901366, 39.882689 ], [ -82.901324, 39.882758 ], [ -82.901259, 39.882813 ], [ -82.901198, 39.882846 ], [ -82.901087, 39.88286 ], [ -82.900818, 39.882856 ], [ -82.900712, 39.882861 ], [ -82.900644, 39.882881 ], [ -82.900472, 39.882984 ], [ -82.900407, 39.883009 ], [ -82.900305, 39.883016 ], [ -82.900074, 39.883024 ], [ -82.899899, 39.883052 ], [ -82.899811, 39.88305 ], [ -82.899592, 39.882997 ], [ -82.899272, 39.882902 ], [ -82.899073, 39.882807 ], [ -82.898915, 39.882723 ] ] } },
{ "type": "Feature", "properties": { "cls": "separated", "highway": "cycleway", "name": "Alum Creek Trail" }, "geometry": { "type": "MultiLineString", "coordinates": [ [ [ -82.907954, 39.878616 ], [ -82.908202, 39.878689 ], [ -82.908284, 39.878726 ], [ -82.908352, 39.878771 ], [ -82.908405, 39.878822 ], [ -82.908449, 39.878888 ], [ -82.90852, 39.879013 ], [ -82.908561, 39.879081 ], [ -82.908625, 39.879142 ], [ -82.908679, 39.879187 ], [ -82.908825, 39.879287 ], [ -82.90886, 39.879304 ], [ -82.908999, 39.879369 ], [ -82.909091, 39.879399 ], [ -82.90917, 39.879413 ], [ -82.909256, 39.879409 ], [ -82.909354, 39.879394 ], [ -82.909595, 39.879327 ], [ -82.909864, 39.879352 ], [ -82.910507, 39.879418 ], [ -82.910919, 39.879372 ], [ -82.911237, 39.87924 ], [ -82.91152, 39.879049 ], [ -82.911865, 39.879075 ], [ -82.912229, 39.879158 ], [ -82.912685, 39.879217 ], [ -82.912928, 39.879405 ], [ -82.913128, 39.879625 ], [ -82.913307, 39.87975 ], [ -82.913395, 39.879841 ], [ -82.913494, 39.880156 ], [ -82.913567, 39.880407 ], [ -82.913727, 39.880634 ], [ -82.913812, 39.880752 ], [ -82.913855, 39.88085 ], [ -82.913872, 39.880986 ], [ -82.913778, 39.881295 ], [ -82.913711, 39.881499 ], [ -82.913736, 39.881724 ], [ -82.913743, 39.88198 ], [ -82.913649, 39.882138 ], [ -82.913489, 39.882365 ], [ -82.913361, 39.882487 ], [ -82.913229, 39.882537 ], [ -82.913101, 39.882567 ], [ -82.912946, 39.882564 ], [ -82.912462, 39.882512 ], [ -82.912378, 39.882521 ], [ -82.912296, 39.882546 ], [ -82.912101, 39.882648 ], [ -82.912017, 39.882758 ], [ -82.911984, 39.882876 ], [ -82.911864, 39.88331 ], [ -82.911761, 39.88393 ], [ -82.911721, 39.884072 ], [ -82.9118, 39.884392 ], [ -82.911743, 39.884737 ], [ -82.911755, 39.884817 ], [ -82.911815, 39.884912 ], [ -82.911911, 39.884982 ], [ -82.912019, 39.885036 ], [ -82.912116, 39.885094 ], [ -82.912312, 39.885168 ], [ -82.913373, 39.8852 ], [ -82.913451, 39.88522 ], [ -82.913514, 39.885275 ], [ -82.913575, 39.885396 ], [ -82.913557, 39.885493 ], [ -82.913393, 39.885828 ], [ -82.913134, 39.886069 ], [ -82.91311, 39.886101 ], [ -82.913041, 39.886298 ], [ -82.912845, 39.886472 ], [ -82.912806, 39.886533 ], [ -82.912768, 39.886628 ], [ -82.912743, 39.886689 ], [ -82.912742, 39.886747 ], [ -82.912775, 39.886801 ], [ -82.913091, 39.887003 ], [ -82.913516, 39.887239 ], [ -82.913645, 39.887242 ], [ -82.913923, 39.887183 ], [ -82.914033, 39.887181 ], [ -82.915146, 39.88742 ], [ -82.915326, 39.887476 ], [ -82.91543, 39.887543 ], [ -82.915511, 39.887642 ] ], [ [ -82.915593, 39.888791 ], [ -82.915591, 39.888802 ], [ -82.915616, 39.888933 ], [ -82.91566, 39.888999 ], [ -82.915837, 39.889152 ], [ -82.915882, 39.889225 ], [ -82.915914, 39.889679 ], [ -82.915982, 39.890316 ], [ -82.916008, 39.890488 ], [ -82.916067, 39.890659 ], [ -82.91613, 39.890749 ], [ -82.916201, 39.890836 ], [ -82.916281, 39.890944 ], [ -82.916294, 39.890978 ], [ -82.916297, 39.891009 ], [ -82.916253, 39.891081 ], [ -82.916197, 39.891116 ], [ -82.916078, 39.891141 ] ] ] } },
{ "type": "Feature", "properties": { "cls": "separated", "highway": "cycleway", "name": "Alum Creek Trail" }, "geometry": { "type": "LineString", "coordinates": [ [ -82.916078, 39.891141 ], [ -82.915506, 39.891179 ] ] } },
{ "type": "Feature", "properties": { "cls": "separated", "highway": "cycleway", "name": null }, "geometry": { "type": "LineString", "coordinates": [ [ -82.911763, 39.892484 ], [ -82.911585, 39.892552 ], [ -82.911412, 39.892585 ], [ -82.911293, 39.892591 ], [ -82.911139, 39.892581 ], [ -82.910983, 39.892555 ], [ -82.910808, 39.892475 ], [ -82.91021, 39.892153 ], [ -82.910053, 39.892056 ], [ -82.909893, 39.891956 ], [ -82.909764, 39.891817 ], [ -82.909718, 39.891754 ], [ -82.909674, 39.891662 ], [ -82.909682, 39.891561 ], [ -82.90976, 39.891374 ], [ -82.909972, 39.891076 ], [ -82.910377, 39.890627 ], [ -82.910394, 39.890608 ], [ -82.910882, 39.890141 ], [ -82.91103, 39.890004 ], [ -82.911099, 39.889967 ], [ -82.911195, 39.889937 ], [ -82.911291, 39.889924 ], [ -82.911361, 39.88992 ], [ -82.911393, 39.889918 ], [ -82.91181, 39.889923 ], [ -82.912004, 39.889947 ], [ -82.912324, 39.889978 ], [ -82.912681, 39.889998 ], [ -82.912954, 39.890041 ], [ -82.913028, 39.890087 ], [ -82.913048, 39.890117 ], [ -82.913074, 39.890248 ], [ -82.913028, 39.89067 ], [ -82.913014, 39.890769 ], [ -82.913001, 39.890816 ], [ -82.912936, 39.890932 ], [ -82.912809, 39.891101 ], [ -82.912578, 39.891391 ] ] } },
{ "type": "Feature", "properties": { "cls": "separated", "highway": "cycleway", "name": "Alum Creek Trail" }, "geometry": { "type": "LineString", "coordinates": [ [ -82.915506, 39.891179 ], [ -82.915226, 39.891202 ], [ -82.914949, 39.89128 ], [ -82.914785, 39.891305 ], [ -82.914645, 39.891286 ], [ -82.914516, 39.891213 ], [ -82.914387, 39.89108 ], [ -82.914267, 39.891003 ], [ -82.914059, 39.890941 ], [ -82.913702, 39.890907 ], [ -82.913562, 39.890937 ], [ -82.913443, 39.89098 ], [ -82.913329, 39.891033 ], [ -82.9132, 39.891096 ], [ -82.912771, 39.891272 ], [ -82.912659, 39.891331 ], [ -82.912578, 39.891391 ], [ -82.912483, 39.891514 ], [ -82.912379, 39.891625 ], [ -82.91203, 39.891989 ], [ -82.911839, 39.892366 ], [ -82.911763, 39.892484 ], [ -82.911635, 39.892752 ], [ -82.91154, 39.8929 ], [ -82.911355, 39.893123 ], [ -82.911292, 39.89326 ], [ -82.911245, 39.893442 ], [ -82.911229, 39.893617 ], [ -82.911268, 39.894081 ], [ -82.911264, 39.894242 ], [ -82.911232, 39.894409 ], [ -82.911183, 39.894598 ], [ -82.911101, 39.894872 ], [ -82.911077, 39.895012 ], [ -82.911068, 39.895128 ], [ -82.911068, 39.895379 ], [ -82.911071, 39.895643 ], [ -82.911111, 39.895754 ], [ -82.91115, 39.8958 ], [ -82.911233, 39.895874 ], [ -82.911415, 39.895996 ], [ -82.911569, 39.896047 ], [ -82.911687, 39.896073 ], [ -82.913019, 39.896268 ], [ -82.9133, 39.896322 ], [ -82.913437, 39.896361 ], [ -82.913556, 39.896411 ], [ -82.913632, 39.896462 ], [ -82.913692, 39.89652 ], [ -82.913712, 39.896577 ], [ -82.913724, 39.896634 ], [ -82.913715, 39.896704 ], [ -82.913689, 39.896774 ], [ -82.91365, 39.896843 ], [ -82.91343, 39.897111 ], [ -82.913234, 39.89739 ], [ -82.913157, 39.897556 ], [ -82.913103, 39.897718 ], [ -82.913065, 39.897929 ], [ -82.913067, 39.898166 ], [ -82.913094, 39.898392 ], [ -82.913163, 39.898655 ], [ -82.913247, 39.89881 ], [ -82.913438, 39.899068 ], [ -82.913611, 39.899252 ], [ -82.913801, 39.899434 ], [ -82.914038, 39.89963 ], [ -82.914242, 39.899834 ], [ -82.914408, 39.900094 ], [ -82.914436, 39.900183 ], [ -82.914439, 39.900277 ], [ -82.914438, 39.900346 ], [ -82.914435, 39.900452 ], [ -82.914454, 39.900591 ], [ -82.914506, 39.900817 ], [ -82.914589, 39.901051 ], [ -82.914661, 39.901216 ], [ -82.914763, 39.901419 ], [ -82.914899, 39.901601 ], [ -82.915025, 39.901741 ], [ -82.91511, 39.901834 ], [ -82.915227, 39.901928 ], [ -82.915283, 39.901965 ], [ -82.915489, 39.902143 ], [ -82.915539, 39.902212 ], [ -82.915576, 39.902281 ], [ -82.915645, 39.902436 ], [ -82.915706, 39.902599 ], [ -82.915752, 39.902804 ], [ -82.915768, 39.90291 ], [ -82.915762, 39.903027 ], [ -82.915732, 39.903267 ], [ -82.915712, 39.903515 ], [ -82.915735, 39.903607 ], [ -82.915728, 39.903684 ], [ -82.915724, 39.903717 ], [ -82.915701, 39.903926 ], [ -82.915785, 39.904146 ], [ -82.9159, 39.904324 ], [ -82.916039, 39.9045 ], [ -82.916191, 39.904646 ], [ -82.916376, 39.904787 ], [ -82.916708, 39.90502 ], [ -82.91685, 39.905179 ], [ -82.916972, 39.905339 ], [ -82.917181, 39.905473 ], [ -82.917391, 39.905598 ], [ -82.917795, 39.905814 ], [ -82.918222, 39.90602 ], [ -82.918487, 39.90608 ], [ -82.918782, 39.906115 ], [ -82.918948, 39.906159 ], [ -82.919291, 39.906293 ], [ -82.919484, 39.906377 ], [ -82.919669, 39.906467 ], [ -82.920021, 39.906673 ], [ -82.920144, 39.906726 ], [ -82.920272, 39.906762 ], [ -82.920488, 39.906798 ], [ -82.920692, 39.906847 ], [ -82.921289, 39.907076 ], [ -82.921841, 39.907357 ], [ -82.922013, 39.90749 ], [ -82.922177, 39.907623 ], [ -82.922366, 39.907821 ], [ -82.922641, 39.908169 ], [ -82.922769, 39.908329 ], [ -82.922912, 39.908482 ], [ -82.923197, 39.908793 ], [ -82.923397, 39.909011 ], [ -82.923629, 39.909224 ], [ -82.923849, 39.909394 ], [ -82.924075, 39.909561 ], [ -82.92428, 39.909696 ], [ -82.924478, 39.909802 ], [ -82.924819, 39.910063 ], [ -82.924939, 39.910201 ], [ -82.924986, 39.910373 ], [ -82.924978, 39.910515 ], [ -82.92489, 39.910966 ], [ -82.924942, 39.911063 ], [ -82.925085, 39.911136 ], [ -82.925282, 39.911275 ], [ -82.925505, 39.911828 ], [ -82.925497, 39.911939 ], [ -82.925111, 39.912295 ], [ -82.924982, 39.912453 ], [ -82.924844, 39.912908 ], [ -82.924771, 39.91299 ], [ -82.924687, 39.913032 ], [ -82.924515, 39.913028 ], [ -82.924279, 39.913036 ], [ -82.924145, 39.913068 ], [ -82.924145, 39.913168 ], [ -82.92415, 39.913315 ], [ -82.9241, 39.91371 ], [ -82.924, 39.913876 ], [ -82.923903, 39.914069 ], [ -82.923854, 39.914303 ], [ -82.923909, 39.914439 ], [ -82.924005, 39.914674 ], [ -82.923989, 39.914822 ], [ -82.923861, 39.91497 ], [ -82.923699, 39.915069 ], [ -82.923673, 39.915192 ], [ -82.923737, 39.915361 ], [ -82.923855, 39.915591 ], [ -82.923875, 39.915858 ], [ -82.923871, 39.916023 ], [ -82.923812, 39.916122 ], [ -82.923721, 39.916163 ], [ -82.923634, 39.916192 ] ] } },
{ "type": "Feature", "properties": { "cls": "separated", "highway": "cycleway", "name": "Alum Creek Trail" }, "geometry": { "type": "LineString", "coordinates": [ [ -82.924145, 39.913068 ], [ -82.924021, 39.913042 ], [ -82.923785, 39.91302 ], [ -82.923618, 39.913073 ], [ -82.923436, 39.913156 ], [ -82.923351, 39.913177 ], [ -82.923235, 39.913173 ], [ -82.92297, 39.91317 ], [ -82.922784, 39.913215 ], [ -82.922707, 39.913226 ], [ -82.92262, 39.913225 ], [ -82.922551, 39.913202 ], [ -82.922503, 39.913168 ], [ -82.922481, 39.913135 ], [ -82.922475, 39.9131 ], [ -82.922471, 39.912983 ], [ -82.922412, 39.912826 ], [ -82.922235, 39.91274 ], [ -82.922053, 39.912711 ], [ -82.921903, 39.912715 ], [ -82.921715, 39.912744 ], [ -82.921581, 39.912776 ], [ -82.921524, 39.912769 ], [ -82.921486, 39.912753 ], [ -82.921386, 39.912674 ], [ -82.921253, 39.912637 ], [ -82.921146, 39.912641 ], [ -82.921039, 39.912686 ], [ -82.920894, 39.912785 ], [ -82.920796, 39.912937 ], [ -82.920733, 39.913139 ], [ -82.920748, 39.913274 ], [ -82.920841, 39.913467 ], [ -82.921061, 39.913731 ], [ -82.921216, 39.914077 ], [ -82.921295, 39.914488 ], [ -82.921382, 39.91469 ], [ -82.921559, 39.914846 ], [ -82.922675, 39.91562 ], [ -82.922915, 39.915796 ], [ -82.923022, 39.915964 ], [ -82.923126, 39.916077 ], [ -82.923297, 39.916143 ], [ -82.923634, 39.916192 ] ] } },
{ "type": "Feature", "properties": { "cls": "separated", "highway": "cycleway", "name": "Alum Creek Trail" }, "geometry": { "type": "LineString", "coordinates": [ [ -82.923634, 39.916192 ], [ -82.923646, 39.916406 ], [ -82.923721, 39.916575 ], [ -82.923893, 39.916743 ], [ -82.924132, 39.916967 ], [ -82.924197, 39.917043 ], [ -82.924248, 39.917109 ], [ -82.924276, 39.917171 ], [ -82.924318, 39.917289 ], [ -82.924341, 39.917335 ], [ -82.924381, 39.917373 ], [ -82.924429, 39.917412 ], [ -82.924516, 39.917466 ], [ -82.924649, 39.917517 ], [ -82.924761, 39.917544 ] ] } },
{ "type": "Feature", "properties": { "cls": "separated", "highway": "cycleway", "name": null }, "geometry": { "type": "LineString", "coordinates": [ [ -82.925077, 39.917452 ], [ -82.92581, 39.917315 ] ] } },
{ "type": "Feature", "properties": { "cls": "separated", "highway": "cycleway", "name": null }, "geometry": { "type": "LineString", "coordinates": [ [ -82.924761, 39.917544 ], [ -82.924881, 39.917566 ], [ -82.924958, 39.917571 ], [ -82.925054, 39.91756 ], [ -82.925077, 39.917452 ] ] } },
{ "type": "Feature", "properties": { "cls": "separated", "highway": "cycleway", "name": null }, "geometry": { "type": "LineString", "coordinates": [ [ -82.92581, 39.917315 ], [ -82.925876, 39.917301 ], [ -82.925928, 39.917295 ], [ -82.925982, 39.917297 ], [ -82.926087, 39.917308 ], [ -82.926218, 39.917325 ], [ -82.926258, 39.917331 ] ] } },
{ "type": "Feature", "properties": { "cls": "separated", "highway": "cycleway", "name": "Alum Creek Trail" }, "geometry": { "type": "LineString", "coordinates": [ [ -82.923143, 39.924691 ], [ -82.923175, 39.924673 ], [ -82.923598, 39.924566 ], [ -82.924023, 39.924423 ], [ -82.92419, 39.924333 ], [ -82.924572, 39.923979 ], [ -82.924933, 39.923824 ], [ -82.925519, 39.923571 ], [ -82.926695, 39.923333 ], [ -82.927017, 39.923238 ], [ -82.927078, 39.923206 ], [ -82.927138, 39.923151 ], [ -82.927168, 39.923044 ], [ -82.927181, 39.922752 ], [ -82.927235, 39.922466 ], [ -82.927363, 39.922262 ], [ -82.927577, 39.922029 ], [ -82.927708, 39.921868 ], [ -82.927752, 39.921717 ], [ -82.927747, 39.921594 ], [ -82.927708, 39.921473 ], [ -82.92763, 39.921299 ], [ -82.927499, 39.921134 ], [ -82.927168, 39.920845 ], [ -82.926933, 39.920452 ], [ -82.926845, 39.920379 ], [ -82.926739, 39.920309 ], [ -82.926582, 39.920157 ], [ -82.926355, 39.919765 ], [ -82.926316, 39.919612 ], [ -82.926284, 39.919457 ], [ -82.926238, 39.919343 ], [ -82.92602, 39.919072 ], [ -82.925816, 39.918793 ], [ -82.925781, 39.918725 ], [ -82.925765, 39.918658 ], [ -82.925761, 39.918576 ], [ -82.925741, 39.918457 ], [ -82.925689, 39.918342 ], [ -82.925474, 39.918017 ], [ -82.925382, 39.917884 ], [ -82.92534, 39.917859 ], [ -82.925274, 39.917847 ], [ -82.924901, 39.917815 ], [ -82.924813, 39.917797 ], [ -82.924759, 39.91777 ], [ -82.924735, 39.917737 ], [ -82.924727, 39.917693 ], [ -82.924727, 39.91765 ], [ -82.924761, 39.917544 ] ] } }
]
}
