{
"type": "FeatureCollection",
"name": "173-new-york-city-van-cortlandt-park",
"crs": { "type": "name", "properties": { "name": "urn:ogc:def:crs:OGC:1.3:CRS84" } },
"xy_coordinate_resolution": 1e-06,
"features": [
{ "type": "Feature", "properties": { "cls": "separated", "highway": "cycleway", "name": null }, "geometry": { "type": "LineString", "coordinates": [ [ -73.894772, 40.885676 ], [ -73.894769, 40.88568 ] ] } },
{ "type": "Feature", "properties": { "cls": "separated", "highway": "cycleway", "name": null }, "geometry": { "type": "LineString", "coordinates": [ [ -73.894769, 40.88568 ], [ -73.894753, 40.885693 ], [ -73.894696, 40.885745 ], [ -73.894586, 40.886032 ], [ -73.894548, 40.886137 ], [ -73.894489, 40.886297 ] ] } },
{ "type": "Feature", "properties": { "cls": "separated", "highway": "cycleway", "name": null }, "geometry": { "type": "LineString", "coordinates": [ [ -73.894489, 40.886297 ], [ -73.894385, 40.886365 ] ] } },
{ "type": "Feature", "properties": { "cls": "separated", "highway": "cycleway", "name": null }, "geometry": { "type": "LineString", "coordinates": [ [ -73.894188, 40.888279 ], [ -73.89419, 40.888222 ], [ -73.894197, 40.888147 ], [ -73.894244, 40.88794 ], [ -73.894266, 40.887645 ], [ -73.894286, 40.887209 ], [ -73.894325, 40.886928 ], [ -73.894356, 40.88675 ], [ -73.894454, 40.886391 ], [ -73.894489, 40.886297 ] ] } },
{ "type": "Feature", "properties": { "cls": "separated", "highway": "cycleway", "name": "Van Cortlandt Park Greenway" }, "geometry": { "type": "LineString", "coordinates": [ [ -73.894772, 40.88872 ], [ -73.894997, 40.888632 ], [ -73.895073, 40.888589 ], [ -73.895144, 40.888525 ], [ -73.895235, 40.888423 ], [ -73.895287, 40.888327 ], [ -73.895346, 40.888112 ], [ -73.895426, 40.887954 ], [ -73.895517, 40.88782 ], [ -73.895802, 40.887537 ], [ -73.896223, 40.887152 ], [ -73.896327, 40.887076 ], [ -73.896503, 40.88699 ], [ -73.89665, 40.886932 ], [ -73.896706, 40.886907 ], [ -73.896794, 40.886869 ], [ -73.89692, 40.886789 ], [ -73.897042, 40.886699 ], [ -73.897182, 40.886554 ], [ -73.897269, 40.886439 ], [ -73.897329, 40.886348 ], [ -73.897353, 40.886287 ], [ -73.897379, 40.88622 ], [ -73.897381, 40.886214 ], [ -73.897386, 40.886201 ] ] } },
{ "type": "Feature", "properties": { "cls": "shared", "highway": "cycleway", "name": null }, "geometry": { "type": "LineString", "coordinates": [ [ -73.89419, 40.88863 ], [ -73.894192, 40.888571 ], [ -73.894196, 40.888452 ], [ -73.894184, 40.888308 ], [ -73.894188, 40.888279 ] ] } },
{ "type": "Feature", "properties": { "cls": "separated", "highway": "cycleway", "name": null }, "geometry": { "type": "LineString", "coordinates": [ [ -73.895287, 40.888327 ], [ -73.895306, 40.888472 ], [ -73.895354, 40.888598 ], [ -73.895413, 40.888691 ], [ -73.89548, 40.888764 ], [ -73.895535, 40.88882 ] ] } },
{ "type": "Feature", "properties": { "cls": "shared", "highway": "cycleway", "name": "Van Cortlandt Park Greenway" }, "geometry": { "type": "LineString", "coordinates": [ [ -73.88772, 40.884366 ], [ -73.887721, 40.884361 ], [ -73.887727, 40.884336 ] ] } },
{ "type": "Feature", "properties": { "cls": "shared", "highway": "cycleway", "name": "Van Cortlandt Park Greenway" }, "geometry": { "type": "LineString", "coordinates": [ [ -73.887816, 40.890288 ], [ -73.887804, 40.8903 ], [ -73.887777, 40.89032 ], [ -73.887738, 40.890333 ], [ -73.887695, 40.890337 ], [ -73.887645, 40.890325 ], [ -73.887608, 40.890292 ], [ -73.887587, 40.890257 ], [ -73.887579, 40.890218 ], [ -73.887584, 40.890179 ], [ -73.88764, 40.889964 ], [ -73.887756, 40.889489 ], [ -73.887828, 40.888989 ], [ -73.887847, 40.888733 ], [ -73.887866, 40.888675 ], [ -73.888029, 40.888413 ], [ -73.88808, 40.88819 ], [ -73.888108, 40.887942 ], [ -73.888112, 40.887727 ], [ -73.888102, 40.88751 ], [ -73.888066, 40.887196 ], [ -73.887985, 40.886934 ], [ -73.887927, 40.886798 ], [ -73.887767, 40.88656 ], [ -73.88763, 40.88632 ], [ -73.887575, 40.886094 ], [ -73.887537, 40.88587 ], [ -73.887464, 40.885575 ], [ -73.887423, 40.885291 ], [ -73.887396, 40.885103 ], [ -73.887393, 40.885054 ], [ -73.887403, 40.885012 ], [ -73.887422, 40.884966 ], [ -73.887449, 40.884914 ], [ -73.88749, 40.884834 ], [ -73.887602, 40.884649 ], [ -73.887648, 40.884565 ], [ -73.887695, 40.884462 ], [ -73.887719, 40.88437 ], [ -73.88772, 40.884366 ] ] } },
{ "type": "Feature", "properties": { "cls": "shared", "highway": "cycleway", "name": "Van Cortlandt Park Greenway" }, "geometry": { "type": "LineString", "coordinates": [ [ -73.892908, 40.888843 ], [ -73.892968, 40.888839 ], [ -73.893104, 40.88884 ], [ -73.893113, 40.888902 ], [ -73.893094, 40.88899 ] ] } },
{ "type": "Feature", "properties": { "cls": "shared", "highway": "cycleway", "name": "Van Cortlandt Park Greenway" }, "geometry": { "type": "LineString", "coordinates": [ [ -73.887991, 40.890288 ], [ -73.888029, 40.890302 ], [ -73.88807, 40.890312 ], [ -73.888113, 40.890314 ], [ -73.888169, 40.890308 ], [ -73.888215, 40.890293 ], [ -73.888258, 40.890268 ], [ -73.888378, 40.890181 ], [ -73.888427, 40.890149 ], [ -73.888492, 40.890115 ], [ -73.888575, 40.89007 ], [ -73.888637, 40.890019 ], [ -73.888721, 40.889928 ], [ -73.888846, 40.889808 ], [ -73.88899, 40.889709 ], [ -73.889298, 40.88954 ], [ -73.889509, 40.889438 ], [ -73.890142, 40.889215 ], [ -73.890496, 40.889102 ], [ -73.890759, 40.889041 ], [ -73.890833, 40.889003 ], [ -73.890946, 40.888982 ], [ -73.891053, 40.888997 ], [ -73.891632, 40.888925 ], [ -73.892247, 40.888862 ], [ -73.89276, 40.888852 ], [ -73.892908, 40.888843 ] ] } },
{ "type": "Feature", "properties": { "cls": "shared", "highway": "cycleway", "name": "Van Cortlandt Park Greenway" }, "geometry": { "type": "LineString", "coordinates": [ [ -73.887856, 40.890213 ], [ -73.887803, 40.890184 ], [ -73.887764, 40.890152 ], [ -73.88774, 40.890119 ], [ -73.887732, 40.890091 ], [ -73.887732, 40.890052 ], [ -73.88774, 40.890014 ], [ -73.887754, 40.889991 ], [ -73.887776, 40.889975 ], [ -73.887815, 40.889962 ], [ -73.887855, 40.889957 ], [ -73.887891, 40.889959 ], [ -73.887922, 40.889964 ], [ -73.887955, 40.889977 ], [ -73.887984, 40.890003 ], [ -73.888, 40.890044 ], [ -73.88801, 40.89009 ] ] } },
{ "type": "Feature", "properties": { "cls": "shared", "highway": "cycleway", "name": "Van Cortlandt Park Greenway" }, "geometry": { "type": "LineString", "coordinates": [ [ -73.88801, 40.89009 ], [ -73.887939, 40.890161 ], [ -73.88789, 40.890208 ] ] } },
{ "type": "Feature", "properties": { "cls": "shared", "highway": "cycleway", "name": "Van Cortlandt Park Greenway" }, "geometry": { "type": "LineString", "coordinates": [ [ -73.88789, 40.890208 ], [ -73.887816, 40.890288 ] ] } },
{ "type": "Feature", "properties": { "cls": "shared", "highway": "cycleway", "name": "Van Cortlandt Park Greenway" }, "geometry": { "type": "LineString", "coordinates": [ [ -73.887856, 40.890213 ], [ -73.887991, 40.890288 ] ] } },
{ "type": "Feature", "properties": { "cls": "separated", "highway": "cycleway", "name": null }, "geometry": { "type": "LineString", "coordinates": [ [ -73.891381, 40.891355 ], [ -73.891555, 40.891184 ], [ -73.891729, 40.891013 ], [ -73.892025, 40.890776 ], [ -73.892371, 40.890568 ], [ -73.892722, 40.890404 ], [ -73.892928, 40.890343 ], [ -73.893014, 40.890321 ], [ -73.893169, 40.890264 ], [ -73.893304, 40.890222 ], [ -73.89358, 40.890056 ], [ -73.893785, 40.889824 ], [ -73.893809, 40.889797 ], [ -73.89421, 40.889354 ], [ -73.894227, 40.88932 ] ] } },
{ "type": "Feature", "properties": { "cls": "shared", "highway": "cycleway", "name": "Putnam Greenway" }, "geometry": { "type": "LineString", "coordinates": [ [ -73.889811, 40.892361 ], [ -73.889896, 40.892201 ], [ -73.890035, 40.891978 ], [ -73.890431, 40.891518 ], [ -73.890767, 40.891213 ], [ -73.891012, 40.89099 ], [ -73.891084, 40.890933 ], [ -73.891499, 40.890615 ], [ -73.891709, 40.890453 ], [ -73.891876, 40.890333 ], [ -73.892489, 40.889931 ], [ -73.892612, 40.889846 ], [ -73.892961, 40.889591 ], [ -73.893074, 40.889509 ] ] } },
{ "type": "Feature", "properties": { "cls": "separated", "highway": "cycleway", "name": "Van Cortlandt Park Greenway" }, "geometry": { "type": "LineString", "coordinates": [ [ -73.89419, 40.88863 ], [ -73.894384, 40.888767 ], [ -73.894431, 40.888788 ] ] } },
{ "type": "Feature", "properties": { "cls": "separated", "highway": "cycleway", "name": "Van Cortlandt Park Greenway" }, "geometry": { "type": "LineString", "coordinates": [ [ -73.894431, 40.888788 ], [ -73.894643, 40.888737 ], [ -73.894772, 40.88872 ] ] } },
{ "type": "Feature", "properties": { "cls": "separated", "highway": "cycleway", "name": null }, "geometry": { "type": "LineString", "coordinates": [ [ -73.894395, 40.888851 ], [ -73.894431, 40.888788 ] ] } },
{ "type": "Feature", "properties": { "cls": "shared", "highway": "cycleway", "name": "Van Cortlandt Park Greenway" }, "geometry": { "type": "LineString", "coordinates": [ [ -73.893308, 40.889064 ], [ -73.893388, 40.889058 ], [ -73.893561, 40.888993 ], [ -73.893799, 40.888829 ], [ -73.893969, 40.888667 ], [ -73.894088, 40.888639 ], [ -73.89419, 40.88863 ] ] } },
{ "type": "Feature", "properties": { "cls": "separated", "highway": "cycleway", "name": null }, "geometry": { "type": "LineString", "coordinates": [ [ -73.893308, 40.889064 ], [ -73.893256, 40.888902 ] ] } },
{ "type": "Feature", "properties": { "cls": "shared", "highway": "cycleway", "name": "Van Cortlandt Park Greenway" }, "geometry": { "type": "LineString", "coordinates": [ [ -73.893094, 40.88899 ], [ -73.893131, 40.889064 ] ] } },
{ "type": "Feature", "properties": { "cls": "shared", "highway": "path", "name": "A Van Cortlandt Park walkway" }, "geometry": { "type": "LineString", "coordinates": [ [ -73.892903, 40.889029 ], [ -73.89302, 40.889047 ], [ -73.893131, 40.889064 ] ] } },
{ "type": "Feature", "properties": { "cls": "separated", "highway": "cycleway", "name": "Van Cortlandt Park Greenway" }, "geometry": { "type": "LineString", "coordinates": [ [ -73.894772, 40.88872 ], [ -73.895096, 40.888743 ], [ -73.895225, 40.888756 ], [ -73.895349, 40.888775 ], [ -73.895535, 40.88882 ], [ -73.895614, 40.888838 ], [ -73.895833, 40.888913 ], [ -73.896112, 40.889024 ], [ -73.896406, 40.889166 ], [ -73.896594, 40.889252 ], [ -73.896751, 40.889301 ], [ -73.896865, 40.889325 ], [ -73.896971, 40.889347 ], [ -73.897081, 40.889363 ], [ -73.897168, 40.88937 ], [ -73.897312, 40.889384 ], [ -73.897392, 40.889399 ], [ -73.897742, 40.889462 ] ] } },
{ "type": "Feature", "properties": { "cls": "shared", "highway": "cycleway", "name": "Van Cortlandt Park Greenway" }, "geometry": { "type": "LineString", "coordinates": [ [ -73.893131, 40.889064 ], [ -73.893224, 40.889064 ], [ -73.893308, 40.889064 ] ] } },
{ "type": "Feature", "properties": { "cls": "separated", "highway": "cycleway", "name": null }, "geometry": { "type": "LineString", "coordinates": [ [ -73.894227, 40.88932 ], [ -73.894318, 40.88899 ], [ -73.894395, 40.888851 ] ] } },
{ "type": "Feature", "properties": { "cls": "separated", "highway": "cycleway", "name": "Van Cortlandt Park Greenway" }, "geometry": { "type": "LineString", "coordinates": [ [ -73.897742, 40.889462 ], [ -73.897805, 40.889473 ], [ -73.898017, 40.889534 ] ] } },
{ "type": "Feature", "properties": { "cls": "shared", "highway": "cycleway", "name": null }, "geometry": { "type": "LineString", "coordinates": [ [ -73.893308, 40.889064 ], [ -73.893379, 40.889146 ], [ -73.893437, 40.889217 ], [ -73.89342, 40.889274 ] ] } },
{ "type": "Feature", "properties": { "cls": "shared", "highway": "cycleway", "name": "Putnam Greenway" }, "geometry": { "type": "LineString", "coordinates": [ [ -73.893169, 40.889441 ], [ -73.893227, 40.889404 ], [ -73.893252, 40.889387 ], [ -73.89342, 40.889274 ] ] } },
{ "type": "Feature", "properties": { "cls": "shared", "highway": "cycleway", "name": "Putnam Greenway" }, "geometry": { "type": "LineString", "coordinates": [ [ -73.893074, 40.889509 ], [ -73.893169, 40.889441 ] ] } },
{ "type": "Feature", "properties": { "cls": "shared", "highway": "cycleway", "name": "Putnam Greenway" }, "geometry": { "type": "LineString", "coordinates": [ [ -73.889737, 40.892485 ], [ -73.889811, 40.892361 ] ] } },
{ "type": "Feature", "properties": { "cls": "shared", "highway": "cycleway", "name": "Putnam Greenway" }, "geometry": { "type": "LineString", "coordinates": [ [ -73.886639, 40.900126 ], [ -73.887033, 40.899039 ], [ -73.887215, 40.898435 ], [ -73.887713, 40.896732 ], [ -73.887802, 40.896458 ], [ -73.887867, 40.896277 ], [ -73.887975, 40.895939 ], [ -73.888024, 40.895726 ], [ -73.88826, 40.89518 ], [ -73.888765, 40.894138 ], [ -73.888873, 40.89395 ], [ -73.889227, 40.893387 ], [ -73.889322, 40.893166 ], [ -73.889374, 40.893071 ], [ -73.889737, 40.892485 ] ] } },
{ "type": "Feature", "properties": { "cls": "shared", "highway": "cycleway", "name": "Putnam Greenway" }, "geometry": { "type": "LineString", "coordinates": [ [ -73.886553, 40.90044 ], [ -73.886639, 40.900126 ] ] } },
{ "type": "Feature", "properties": { "cls": "shared", "highway": "cycleway", "name": "Putnam Greenway" }, "geometry": { "type": "LineString", "coordinates": [ [ -73.885417, 40.904392 ], [ -73.886338, 40.901343 ], [ -73.886553, 40.90044 ] ] } },
{ "type": "Feature", "properties": { "cls": "shared", "highway": "cycleway", "name": "Putnam Greenway" }, "geometry": { "type": "LineString", "coordinates": [ [ -73.885289, 40.90482 ], [ -73.885417, 40.904392 ] ] } },
{ "type": "Feature", "properties": { "cls": "shared", "highway": "cycleway", "name": "Putnam Greenway" }, "geometry": { "type": "LineString", "coordinates": [ [ -73.885032, 40.905747 ], [ -73.88507, 40.905601 ], [ -73.88519, 40.905168 ], [ -73.885289, 40.90482 ] ] } },
{ "type": "Feature", "properties": { "cls": "shared", "highway": "cycleway", "name": "Putnam Greenway" }, "geometry": { "type": "LineString", "coordinates": [ [ -73.885002, 40.905856 ], [ -73.885032, 40.905747 ] ] } },
{ "type": "Feature", "properties": { "cls": "shared", "highway": "cycleway", "name": "Putnam Greenway" }, "geometry": { "type": "LineString", "coordinates": [ [ -73.884782, 40.907869 ], [ -73.884903, 40.906459 ], [ -73.884951, 40.906044 ], [ -73.885002, 40.905856 ] ] } },
{ "type": "Feature", "properties": { "cls": "shared", "highway": "cycleway", "name": "South County Trailway" }, "geometry": { "type": "LineString", "coordinates": [ [ -73.884782, 40.907869 ], [ -73.884782, 40.907902 ], [ -73.884781, 40.907927 ] ] } }
]
}
