{
"type": "FeatureCollection",
"name": "175-austin-emma-long-metropolitan-park",
"crs": { "type": "name", "properties": { "name": "urn:ogc:def:crs:OGC:1.3:CRS84" } },
"xy_coordinate_resolution": 1e-06,
"features": [
{ "type": "Feature", "properties": { "cls": "sharrow", "highway": "unclassified", "name": "City Park Road" }, "geometry": { "type": "LineString", "coordinates": [ [ -97.839006, 30.327262 ], [ -97.838748, 30.327243 ], [ -97.838581, 30.327246 ], [ -97.838429, 30.327265 ], [ -97.838307, 30.327305 ], [ -97.838209, 30.327359 ], [ -97.838126, 30.327431 ], [ -97.83805, 30.327523 ], [ -97.838026, 30.327639 ], [ -97.838016, 30.327747 ], [ -97.838028, 30.327934 ], [ -97.838044, 30.328102 ], [ -97.83809, 30.328286 ], [ -97.838155, 30.328599 ], [ -97.838206, 30.328752 ], [ -97.838267, 30.328852 ], [ -97.838797, 30.329636 ], [ -97.839221, 30.330224 ], [ -97.839843, 30.331025 ], [ -97.840407, 30.331699 ], [ -97.840968, 30.332298 ], [ -97.841246, 30.33257 ], [ -97.841418, 30.332763 ], [ -97.841543, 30.332913 ], [ -97.841622, 30.333059 ], [ -97.841726, 30.333382 ], [ -97.841787, 30.333612 ], [ -97.841803, 30.333719 ], [ -97.84179, 30.333815 ], [ -97.84177, 30.333901 ], [ -97.841713, 30.334022 ], [ -97.841651, 30.334119 ], [ -97.841488, 30.334336 ], [ -97.841229, 30.334659 ], [ -97.84087, 30.335111 ], [ -97.840743, 30.335272 ], [ -97.840628, 30.335391 ], [ -97.840499, 30.335511 ], [ -97.840347, 30.335597 ], [ -97.839672, 30.335926 ], [ -97.839044, 30.336271 ], [ -97.838962, 30.336299 ], [ -97.838876, 30.336319 ], [ -97.838771, 30.336337 ], [ -97.838665, 30.336341 ], [ -97.838566, 30.336332 ], [ -97.838474, 30.336306 ], [ -97.838377, 30.336257 ], [ -97.838302, 30.336196 ], [ -97.838225, 30.336124 ], [ -97.838167, 30.336044 ], [ -97.838128, 30.335974 ], [ -97.838112, 30.335891 ], [ -97.838105, 30.335811 ], [ -97.838111, 30.335732 ], [ -97.838125, 30.335648 ], [ -97.838158, 30.335571 ], [ -97.838213, 30.335497 ], [ -97.838328, 30.335383 ], [ -97.838439, 30.335289 ], [ -97.838626, 30.335173 ], [ -97.838997, 30.334992 ], [ -97.839286, 30.334885 ], [ -97.839793, 30.334747 ], [ -97.839959, 30.334661 ], [ -97.840054, 30.334598 ], [ -97.840131, 30.33452 ], [ -97.840196, 30.334435 ], [ -97.840235, 30.334361 ], [ -97.840263, 30.334289 ], [ -97.840288, 30.334201 ], [ -97.840301, 30.334113 ], [ -97.840299, 30.334014 ], [ -97.840251, 30.333794 ], [ -97.840193, 30.333582 ], [ -97.840127, 30.333395 ], [ -97.840028, 30.333129 ], [ -97.839918, 30.332907 ], [ -97.839848, 30.332797 ], [ -97.839418, 30.332409 ], [ -97.839313, 30.332326 ], [ -97.83914, 30.332229 ] ] } },
{ "type": "Feature", "properties": { "cls": "sharrow", "highway": "unclassified", "name": "City Park Road" }, "geometry": { "type": "LineString", "coordinates": [ [ -97.83914, 30.332229 ], [ -97.838992, 30.332173 ] ] } },
{ "type": "Feature", "properties": { "cls": "sharrow", "highway": "unclassified", "name": "City Park Road" }, "geometry": { "type": "LineString", "coordinates": [ [ -97.838992, 30.332173 ], [ -97.838661, 30.332062 ], [ -97.838273, 30.331951 ], [ -97.838072, 30.331908 ], [ -97.837907, 30.331884 ], [ -97.837624, 30.331849 ], [ -97.837402, 30.331829 ], [ -97.837234, 30.331828 ], [ -97.836674, 30.331857 ], [ -97.835998, 30.331928 ], [ -97.835764, 30.331961 ], [ -97.835598, 30.331994 ], [ -97.835372, 30.332055 ], [ -97.835154, 30.332123 ], [ -97.835058, 30.332163 ], [ -97.834914, 30.332241 ], [ -97.834783, 30.332318 ], [ -97.834651, 30.332411 ], [ -97.834505, 30.332534 ], [ -97.834091, 30.332983 ], [ -97.833845, 30.33331 ], [ -97.833767, 30.333439 ], [ -97.833474, 30.333976 ], [ -97.833388, 30.334146 ], [ -97.833352, 30.334231 ], [ -97.833322, 30.334315 ], [ -97.833292, 30.334407 ], [ -97.83327, 30.334492 ], [ -97.833238, 30.33463 ], [ -97.833179, 30.334923 ], [ -97.833071, 30.335404 ], [ -97.833002, 30.33576 ], [ -97.832961, 30.335976 ], [ -97.832881, 30.336385 ], [ -97.832825, 30.336643 ], [ -97.832795, 30.336784 ], [ -97.832766, 30.33694 ], [ -97.832727, 30.33714 ], [ -97.832692, 30.337351 ], [ -97.832665, 30.337523 ], [ -97.832653, 30.337609 ], [ -97.832646, 30.337686 ], [ -97.832643, 30.337764 ], [ -97.832643, 30.337841 ], [ -97.832646, 30.33792 ], [ -97.832654, 30.337992 ], [ -97.832663, 30.338061 ], [ -97.832678, 30.338154 ], [ -97.832699, 30.338265 ], [ -97.83287, 30.338977 ], [ -97.832977, 30.339389 ], [ -97.833068, 30.339759 ], [ -97.83313, 30.339992 ], [ -97.833191, 30.340256 ], [ -97.833258, 30.340538 ], [ -97.83326, 30.340547 ], [ -97.833649, 30.342232 ], [ -97.833819, 30.342992 ], [ -97.833896, 30.343324 ], [ -97.834025, 30.343913 ], [ -97.834249, 30.345055 ], [ -97.834359, 30.345532 ], [ -97.834439, 30.345872 ], [ -97.834503, 30.346091 ], [ -97.834578, 30.3463 ], [ -97.834661, 30.346498 ], [ -97.834997, 30.34715 ], [ -97.835263, 30.347702 ], [ -97.83548, 30.348164 ], [ -97.835582, 30.348386 ], [ -97.835622, 30.348475 ], [ -97.835657, 30.348611 ], [ -97.835672, 30.348734 ], [ -97.835674, 30.34884 ], [ -97.835669, 30.348962 ], [ -97.835645, 30.349089 ], [ -97.835604, 30.349221 ], [ -97.835549, 30.349341 ], [ -97.83549, 30.349431 ], [ -97.835402, 30.349548 ], [ -97.835311, 30.349644 ], [ -97.835186, 30.349754 ], [ -97.835053, 30.349855 ], [ -97.834816, 30.35001 ], [ -97.834468, 30.350179 ], [ -97.833983, 30.350389 ], [ -97.833736, 30.350499 ], [ -97.833592, 30.350581 ], [ -97.833454, 30.350706 ], [ -97.833344, 30.350823 ], [ -97.833267, 30.350947 ], [ -97.833185, 30.351115 ], [ -97.833086, 30.351352 ], [ -97.833029, 30.351527 ], [ -97.833005, 30.351648 ], [ -97.833, 30.351789 ], [ -97.833016, 30.351928 ], [ -97.833065, 30.352133 ], [ -97.833269, 30.352724 ], [ -97.833288, 30.352824 ], [ -97.833294, 30.352912 ], [ -97.83329, 30.352993 ], [ -97.833258, 30.353084 ], [ -97.833212, 30.35317 ], [ -97.833031, 30.353418 ], [ -97.83284, 30.353691 ], [ -97.832761, 30.353813 ], [ -97.832665, 30.353958 ] ] } }
]
}
