{
"type": "FeatureCollection",
"name": "176-huntsville-monte-sano-nature-preserve",
"crs": { "type": "name", "properties": { "name": "urn:ogc:def:crs:OGC:1.3:CRS84" } },
"xy_coordinate_resolution": 1e-06,
"features": [
{ "type": "Feature", "properties": { "cls": "shared", "highway": "cycleway", "name": "Old Railroad Bed Trail" }, "geometry": { "type": "LineString", "coordinates": [ [ -86.542178, 34.736129 ], [ -86.54223, 34.736111 ] ] } },
{ "type": "Feature", "properties": { "cls": "shared", "highway": "cycleway", "name": "Fagan Springs" }, "geometry": { "type": "LineString", "coordinates": [ [ -86.545022, 34.740486 ], [ -86.544984, 34.740484 ] ] } },
{ "type": "Feature", "properties": { "cls": "shared", "highway": "cycleway", "name": "Toll Gate Greenway" }, "geometry": { "type": "LineString", "coordinates": [ [ -86.544623, 34.743681 ], [ -86.544589, 34.7438 ], [ -86.544572, 34.743836 ], [ -86.544566, 34.74387 ], [ -86.544552, 34.743915 ], [ -86.544528, 34.74394 ], [ -86.544495, 34.743966 ], [ -86.544457, 34.743981 ], [ -86.544413, 34.744032 ], [ -86.544386, 34.744078 ], [ -86.544376, 34.744109 ], [ -86.54438, 34.744144 ], [ -86.544386, 34.74417 ], [ -86.544397, 34.744208 ], [ -86.5444, 34.74425 ], [ -86.544394, 34.744341 ], [ -86.54438, 34.744455 ], [ -86.544353, 34.74461 ], [ -86.544332, 34.744659 ], [ -86.544316, 34.744714 ], [ -86.544277, 34.74478 ], [ -86.544238, 34.744842 ], [ -86.544209, 34.744922 ], [ -86.544142, 34.745019 ], [ -86.544107, 34.745065 ], [ -86.543996, 34.745207 ], [ -86.543919, 34.74533 ], [ -86.543862, 34.745398 ], [ -86.543778, 34.745457 ], [ -86.543649, 34.745524 ], [ -86.543473, 34.745597 ], [ -86.543403, 34.745628 ], [ -86.543237, 34.745682 ], [ -86.543121, 34.745727 ], [ -86.543016, 34.745764 ], [ -86.542905, 34.745783 ], [ -86.542738, 34.74583 ], [ -86.542608, 34.745884 ], [ -86.542562, 34.745893 ], [ -86.542356, 34.745973 ], [ -86.542281, 34.746009 ], [ -86.542171, 34.746071 ], [ -86.541996, 34.746154 ], [ -86.541883, 34.746228 ], [ -86.541752, 34.746302 ] ] } },
{ "type": "Feature", "properties": { "cls": "shared", "highway": "path", "name": "Oak Park (Bike Only)" }, "geometry": { "type": "LineString", "coordinates": [ [ -86.549726, 34.746947 ], [ -86.549719, 34.746972 ], [ -86.549703, 34.746988 ], [ -86.549659, 34.747009 ], [ -86.549624, 34.747027 ], [ -86.549577, 34.747051 ], [ -86.549501, 34.747072 ], [ -86.549425, 34.747087 ], [ -86.549354, 34.747129 ], [ -86.549298, 34.747139 ], [ -86.549237, 34.747179 ], [ -86.549213, 34.747218 ], [ -86.549232, 34.747267 ], [ -86.549256, 34.747295 ], [ -86.549275, 34.747308 ], [ -86.549338, 34.747314 ], [ -86.549387, 34.747323 ], [ -86.549469, 34.747346 ], [ -86.549555, 34.747358 ], [ -86.549655, 34.747348 ], [ -86.549728, 34.747359 ], [ -86.549774, 34.747395 ], [ -86.549778, 34.747441 ], [ -86.549754, 34.747465 ], [ -86.549706, 34.747483 ], [ -86.549659, 34.747484 ], [ -86.54956, 34.747497 ], [ -86.549468, 34.747522 ] ] } },
{ "type": "Feature", "properties": { "cls": "shared", "highway": "path", "name": "Dallas Branch (Bike only)" }, "geometry": { "type": "LineString", "coordinates": [ [ -86.535987, 34.75461 ], [ -86.535868, 34.754594 ], [ -86.53577, 34.754586 ], [ -86.535717, 34.75458 ], [ -86.535661, 34.754542 ] ] } }
]
}
