{
"type": "FeatureCollection",
"name": "177-winnipeg-assiniboine-park",
"crs": { "type": "name", "properties": { "name": "urn:ogc:def:crs:OGC:1.3:CRS84" } },
"xy_coordinate_resolution": 1e-06,
"features": [
{ "type": "Feature", "properties": { "cls": "separated", "highway": "cycleway", "name": null }, "geometry": { "type": "LineString", "coordinates": [ [ -97.231795, 49.845507 ], [ -97.231782, 49.845532 ], [ -97.231744, 49.84575 ] ] } },
{ "type": "Feature", "properties": { "cls": "separated", "highway": "cycleway", "name": null }, "geometry": { "type": "LineString", "coordinates": [ [ -97.231744, 49.84575 ], [ -97.231861, 49.845759 ], [ -97.232267, 49.845642 ], [ -97.232591, 49.84561 ] ] } },
{ "type": "Feature", "properties": { "cls": "separated", "highway": "cycleway", "name": "Preston Trail" }, "geometry": { "type": "GeometryCollection", "geometries": [ { "type": "LineString", "coordinates": [ [ -97.232591, 49.84561 ], [ -97.232672, 49.845749 ] ] }, { "type": "LineString", "coordinates": [ [ -97.232672, 49.845749 ], [ -97.232745, 49.846089 ] ] }, { "type": "LineString", "coordinates": [ [ -97.234244, 49.847523 ], [ -97.234259, 49.847581 ], [ -97.234246, 49.847839 ] ] }, { "type": "LineString", "coordinates": [ [ -97.234246, 49.847839 ], [ -97.234229, 49.847995 ] ] }, { "type": "LineString", "coordinates": [ [ -97.234229, 49.847995 ], [ -97.234134, 49.848267 ], [ -97.234354, 49.848513 ] ] }, { "type": "LineString", "coordinates": [ [ -97.234354, 49.848513 ], [ -97.234473, 49.84867 ] ] }, { "type": "LineString", "coordinates": [ [ -97.234473, 49.84867 ], [ -97.234501, 49.848763 ] ] }, { "type": "LineString", "coordinates": [ [ -97.234501, 49.848763 ], [ -97.234446, 49.848872 ] ] }, { "type": "LineString", "coordinates": [ [ -97.234325, 49.849103 ], [ -97.23429, 49.849283 ] ] }, { "type": "LineString", "coordinates": [ [ -97.234872, 49.851439 ], [ -97.234848, 49.85159 ] ] }, { "type": "LineString", "coordinates": [ [ -97.234848, 49.85159 ], [ -97.234853, 49.8517 ] ] }, { "type": "Point", "coordinates": [ -97.234241, 49.847178 ] } ] } },
{ "type": "Feature", "properties": { "cls": "separated", "highway": "cycleway", "name": "Preston Trail" }, "geometry": { "type": "MultiLineString", "coordinates": [ [ [ -97.231134, 49.851359 ], [ -97.231147, 49.85136 ], [ -97.231144, 49.851435 ] ], [ [ -97.232293, 49.851901 ], [ -97.23235, 49.851924 ], [ -97.232485, 49.851935 ], [ -97.232608, 49.851957 ], [ -97.232708, 49.852001 ], [ -97.232904, 49.852097 ] ] ] } },
{ "type": "Feature", "properties": { "cls": "separated", "highway": "cycleway", "name": "Preston Trail" }, "geometry": { "type": "LineString", "coordinates": [ [ -97.234698, 49.852358 ], [ -97.23475, 49.852387 ], [ -97.235104, 49.852605 ], [ -97.235291, 49.852684 ], [ -97.235391, 49.852707 ], [ -97.235458, 49.852722 ], [ -97.235697, 49.852792 ], [ -97.235876, 49.852812 ], [ -97.236143, 49.8528 ] ] } },
{ "type": "Feature", "properties": { "cls": "separated", "highway": "cycleway", "name": "Preston Trail" }, "geometry": { "type": "LineString", "coordinates": [ [ -97.236143, 49.8528 ], [ -97.236188, 49.852816 ], [ -97.236223, 49.852867 ], [ -97.236075, 49.854571 ], [ -97.236018, 49.854898 ], [ -97.236028, 49.854962 ], [ -97.236177, 49.854974 ], [ -97.237977, 49.855035 ], [ -97.238573, 49.855061 ], [ -97.239818, 49.855112 ], [ -97.239944, 49.85513 ], [ -97.239962, 49.855207 ], [ -97.23998, 49.85539 ], [ -97.239956, 49.855648 ], [ -97.239869, 49.856063 ], [ -97.239857, 49.856406 ], [ -97.239793, 49.856572 ], [ -97.239804, 49.856677 ], [ -97.239792, 49.856787 ], [ -97.239763, 49.856943 ], [ -97.239853, 49.857056 ], [ -97.239875, 49.857189 ], [ -97.239894, 49.857247 ], [ -97.240002, 49.857372 ], [ -97.240014, 49.857476 ], [ -97.239965, 49.857566 ], [ -97.239875, 49.8576 ], [ -97.239748, 49.857589 ], [ -97.239706, 49.857629 ], [ -97.239651, 49.857866 ], [ -97.239622, 49.858064 ] ] } },
{ "type": "Feature", "properties": { "cls": "separated", "highway": "cycleway", "name": "Harte Trail" }, "geometry": { "type": "GeometryCollection", "geometries": [ { "type": "LineString", "coordinates": [ [ -97.232591, 49.84561 ], [ -97.23662, 49.8452 ], [ -97.236718, 49.845197 ] ] }, { "type": "LineString", "coordinates": [ [ -97.236718, 49.845197 ], [ -97.236902, 49.845145 ], [ -97.237018, 49.845081 ], [ -97.239803, 49.844814 ] ] }, { "type": "LineString", "coordinates": [ [ -97.239803, 49.844814 ], [ -97.240758, 49.844728 ] ] }, { "type": "LineString", "coordinates": [ [ -97.240758, 49.844728 ], [ -97.241616, 49.844659 ], [ -97.2421, 49.844613 ] ] }, { "type": "Point", "coordinates": [ -97.244277, 49.844426 ] } ] } },
{ "type": "Feature", "properties": { "cls": "separated", "highway": "cycleway", "name": "Sagimay Trail" }, "geometry": { "type": "LineString", "coordinates": [ [ -97.246476, 49.853349 ], [ -97.24651, 49.853349 ], [ -97.24659, 49.853377 ], [ -97.24664, 49.853395 ], [ -97.246714, 49.853435 ], [ -97.246825, 49.853493 ], [ -97.246959, 49.853543 ], [ -97.247057, 49.853575 ], [ -97.247119, 49.853587 ], [ -97.247248, 49.853575 ], [ -97.247301, 49.853592 ], [ -97.247344, 49.853608 ], [ -97.247383, 49.853675 ], [ -97.247457, 49.85382 ], [ -97.247481, 49.853851 ], [ -97.247511, 49.853898 ], [ -97.247528, 49.853954 ] ] } },
{ "type": "Feature", "properties": { "cls": "separated", "highway": "cycleway", "name": "Sagimay Trail" }, "geometry": { "type": "MultiLineString", "coordinates": [ [ [ -97.247668, 49.853968 ], [ -97.247528, 49.853954 ], [ -97.247428, 49.85407 ], [ -97.247346, 49.854163 ], [ -97.247214, 49.854252 ], [ -97.247104, 49.854287 ], [ -97.246987, 49.854284 ], [ -97.246897, 49.854247 ], [ -97.246784, 49.854195 ], [ -97.246693, 49.854137 ], [ -97.246621, 49.854112 ], [ -97.246547, 49.854115 ], [ -97.24647, 49.854133 ], [ -97.246273, 49.854193 ] ], [ [ -97.246173, 49.854244 ], [ -97.246135, 49.854261 ] ] ] } },
{ "type": "Feature", "properties": { "cls": "separated", "highway": "cycleway", "name": "Sagimay Trail" }, "geometry": { "type": "MultiLineString", "coordinates": [ [ [ -97.249779, 49.858247 ], [ -97.249702, 49.858206 ], [ -97.249615, 49.85812 ], [ -97.249499, 49.858043 ], [ -97.249362, 49.857964 ] ], [ [ -97.249362, 49.857964 ], [ -97.249278, 49.857916 ] ], [ [ -97.249278, 49.857916 ], [ -97.249173, 49.857863 ] ], [ [ -97.249173, 49.857863 ], [ -97.249153, 49.857831 ] ], [ [ -97.248471, 49.85653 ], [ -97.248467, 49.856431 ] ], [ [ -97.248467, 49.856431 ], [ -97.248467, 49.855729 ] ], [ [ -97.248467, 49.855729 ], [ -97.248481, 49.855605 ] ], [ [ -97.248481, 49.855605 ], [ -97.248505, 49.855455 ] ], [ [ -97.248505, 49.855455 ], [ -97.248592, 49.855139 ] ], [ [ -97.248592, 49.855139 ], [ -97.248586, 49.854987 ] ], [ [ -97.248586, 49.854987 ], [ -97.248562, 49.854806 ] ], [ [ -97.248562, 49.854806 ], [ -97.248532, 49.854567 ] ], [ [ -97.248532, 49.854567 ], [ -97.248488, 49.854435 ] ], [ [ -97.248488, 49.854435 ], [ -97.248413, 49.8543 ] ], [ [ -97.248413, 49.8543 ], [ -97.248369, 49.854178 ], [ -97.248335, 49.854028 ], [ -97.248283, 49.853928 ], [ -97.248233, 49.853894 ], [ -97.248178, 49.853891 ], [ -97.248093, 49.853887 ], [ -97.247983, 49.853931 ], [ -97.247881, 49.853965 ], [ -97.247811, 49.853971 ], [ -97.247746, 49.85397 ], [ -97.247668, 49.853968 ] ] ] } },
{ "type": "Feature", "properties": { "cls": "separated", "highway": "cycleway", "name": "Preston Trail" }, "geometry": { "type": "LineString", "coordinates": [ [ -97.238533, 49.867124 ], [ -97.238548, 49.867092 ], [ -97.238562, 49.867005 ], [ -97.238553, 49.866962 ], [ -97.239159, 49.860802 ], [ -97.239377, 49.858502 ] ] } },
{ "type": "Feature", "properties": { "cls": "separated", "highway": "cycleway", "name": "Preston Trail" }, "geometry": { "type": "LineString", "coordinates": [ [ -97.238562, 49.867005 ], [ -97.23868, 49.867119 ], [ -97.238701, 49.867133 ] ] } }
]
}
