{
"type": "FeatureCollection",
"name": "178-detroit-rouge-park",
"crs": { "type": "name", "properties": { "name": "urn:ogc:def:crs:OGC:1.3:CRS84" } },
"xy_coordinate_resolution": 1e-06,
"features": [
{ "type": "Feature", "properties": { "cls": "separated", "highway": "cycleway", "name": null }, "geometry": { "type": "LineString", "coordinates": [ [ -83.254447, 42.351432 ], [ -83.25439, 42.351374 ] ] } },
{ "type": "Feature", "properties": { "cls": "separated", "highway": "cycleway", "name": null }, "geometry": { "type": "LineString", "coordinates": [ [ -83.25447, 42.351617 ], [ -83.254459, 42.351518 ], [ -83.254447, 42.351432 ] ] } },
{ "type": "Feature", "properties": { "cls": "separated", "highway": "cycleway", "name": null }, "geometry": { "type": "LineString", "coordinates": [ [ -83.254457, 42.351691 ], [ -83.25447, 42.351617 ] ] } },
{ "type": "Feature", "properties": { "cls": "separated", "highway": "cycleway", "name": null }, "geometry": { "type": "LineString", "coordinates": [ [ -83.252317, 42.352237 ], [ -83.252978, 42.351902 ], [ -83.253019, 42.351886 ], [ -83.253212, 42.351808 ], [ -83.253509, 42.351733 ], [ -83.25388, 42.35168 ], [ -83.254224, 42.351656 ], [ -83.254365, 42.351663 ], [ -83.254457, 42.351691 ], [ -83.254496, 42.351793 ], [ -83.254543, 42.352008 ], [ -83.254547, 42.352023 ], [ -83.254606, 42.35224 ], [ -83.254678, 42.352443 ], [ -83.254873, 42.352685 ], [ -83.255082, 42.352898 ], [ -83.255341, 42.35312 ], [ -83.255767, 42.353441 ], [ -83.256424, 42.353887 ], [ -83.256958, 42.354243 ], [ -83.257131, 42.354365 ], [ -83.257717, 42.354714 ], [ -83.258223, 42.355011 ], [ -83.258691, 42.355247 ], [ -83.259257, 42.355474 ], [ -83.259678, 42.355645 ], [ -83.260126, 42.355808 ], [ -83.260613, 42.35596 ], [ -83.260858, 42.356054 ], [ -83.261045, 42.356139 ], [ -83.261227, 42.356257 ], [ -83.261466, 42.356493 ], [ -83.261606, 42.356672 ], [ -83.261678, 42.356859 ], [ -83.261679, 42.356873 ], [ -83.261684, 42.356911 ], [ -83.261692, 42.356971 ] ] } },
{ "type": "Feature", "properties": { "cls": "separated", "highway": "cycleway", "name": null }, "geometry": { "type": "MultiLineString", "coordinates": [ [ [ -83.261692, 42.356971 ], [ -83.261694, 42.357026 ] ], [ [ -83.261701, 42.357224 ], [ -83.261704, 42.357309 ] ] ] } },
{ "type": "Feature", "properties": { "cls": "separated", "highway": "cycleway", "name": null }, "geometry": { "type": "LineString", "coordinates": [ [ -83.261704, 42.357309 ], [ -83.261696, 42.357332 ], [ -83.261647, 42.357471 ], [ -83.261617, 42.357666 ], [ -83.261625, 42.357819 ], [ -83.26165, 42.357959 ], [ -83.261752, 42.358059 ], [ -83.261947, 42.358165 ], [ -83.262164, 42.358272 ], [ -83.262371, 42.358347 ], [ -83.262561, 42.358418 ], [ -83.26305, 42.358573 ], [ -83.263419, 42.358699 ], [ -83.263699, 42.358849 ], [ -83.263947, 42.359026 ], [ -83.264158, 42.359213 ], [ -83.264354, 42.359494 ], [ -83.264411, 42.359688 ], [ -83.2644, 42.359875 ], [ -83.264346, 42.360147 ], [ -83.264282, 42.36035 ], [ -83.26412, 42.360539 ], [ -83.263958, 42.360702 ], [ -83.263677, 42.360932 ], [ -83.263553, 42.361047 ], [ -83.263449, 42.361125 ], [ -83.263297, 42.361215 ], [ -83.263056, 42.361309 ], [ -83.2628, 42.361417 ], [ -83.262711, 42.361437 ], [ -83.262604, 42.361461 ], [ -83.262379, 42.361515 ], [ -83.262239, 42.361588 ], [ -83.26209, 42.361669 ], [ -83.26192, 42.361744 ], [ -83.261601, 42.361828 ], [ -83.261378, 42.361864 ], [ -83.261086, 42.361897 ], [ -83.260822, 42.361907 ], [ -83.260674, 42.361903 ], [ -83.260487, 42.361897 ], [ -83.25995, 42.361885 ], [ -83.259455, 42.361877 ], [ -83.25918, 42.361895 ], [ -83.258941, 42.361921 ], [ -83.258658, 42.36197 ], [ -83.258484, 42.362013 ], [ -83.258212, 42.362084 ], [ -83.257973, 42.362139 ], [ -83.257698, 42.362224 ], [ -83.257434, 42.362297 ], [ -83.257211, 42.362393 ], [ -83.257007, 42.362503 ], [ -83.256782, 42.362635 ], [ -83.256592, 42.362767 ], [ -83.256336, 42.362981 ], [ -83.256188, 42.363112 ], [ -83.256138, 42.363156 ], [ -83.25599, 42.363323 ], [ -83.25588, 42.363518 ], [ -83.255814, 42.363741 ], [ -83.255781, 42.363977 ], [ -83.255753, 42.36425 ], [ -83.255768, 42.364351 ] ] } },
{ "type": "Feature", "properties": { "cls": "separated", "highway": "cycleway", "name": null }, "geometry": { "type": "LineString", "coordinates": [ [ -83.255768, 42.364351 ], [ -83.255775, 42.364399 ], [ -83.255885, 42.364734 ], [ -83.255979, 42.365041 ], [ -83.256058, 42.365389 ], [ -83.256094, 42.365678 ], [ -83.256105, 42.365946 ], [ -83.256078, 42.366206 ], [ -83.256028, 42.366417 ], [ -83.255968, 42.366683 ], [ -83.255929, 42.366971 ], [ -83.255918, 42.367105 ], [ -83.255877, 42.367219 ], [ -83.255858, 42.367323 ], [ -83.255893, 42.367885 ], [ -83.255882, 42.368094 ], [ -83.255808, 42.368214 ], [ -83.255657, 42.36833 ], [ -83.255203, 42.36846 ], [ -83.254576, 42.368632 ], [ -83.25445, 42.368687 ] ] } },
{ "type": "Feature", "properties": { "cls": "separated", "highway": "tertiary", "name": "Spinoza Drive" }, "geometry": { "type": "LineString", "coordinates": [ [ -83.254474, 42.36877 ], [ -83.255979, 42.368451 ], [ -83.256235, 42.368397 ] ] } },
{ "type": "Feature", "properties": { "cls": "separated", "highway": "residential", "name": "Sawyer Avenue" }, "geometry": { "type": "LineString", "coordinates": [ [ -83.243852, 42.346673 ], [ -83.244188, 42.346668 ] ] } },
{ "type": "Feature", "properties": { "cls": "separated", "highway": "residential", "name": "Sawyer Street" }, "geometry": { "type": "LineString", "coordinates": [ [ -83.244188, 42.346668 ], [ -83.244312, 42.346673 ], [ -83.244424, 42.34669 ], [ -83.244532, 42.346717 ], [ -83.244642, 42.34676 ], [ -83.244774, 42.346827 ], [ -83.244897, 42.346903 ], [ -83.245009, 42.346987 ], [ -83.245111, 42.347079 ] ] } },
{ "type": "Feature", "properties": { "cls": "separated", "highway": "residential", "name": "Spinoza Drive" }, "geometry": { "type": "LineString", "coordinates": [ [ -83.245111, 42.347079 ], [ -83.245137, 42.347106 ], [ -83.246162, 42.347925 ], [ -83.246254, 42.348015 ], [ -83.246369, 42.348129 ], [ -83.24643, 42.348196 ], [ -83.246513, 42.3483 ], [ -83.246565, 42.348373 ], [ -83.246717, 42.348626 ], [ -83.247028, 42.349359 ], [ -83.247149, 42.349647 ], [ -83.247169, 42.349696 ], [ -83.247342, 42.35011 ] ] } },
{ "type": "Feature", "properties": { "cls": "separated", "highway": "cycleway", "name": null }, "geometry": { "type": "LineString", "coordinates": [ [ -83.251683, 42.352395 ], [ -83.252135, 42.352135 ] ] } },
{ "type": "Feature", "properties": { "cls": "separated", "highway": "cycleway", "name": null }, "geometry": { "type": "LineString", "coordinates": [ [ -83.251894, 42.352486 ], [ -83.252317, 42.352237 ] ] } },
{ "type": "Feature", "properties": { "cls": "separated", "highway": "cycleway", "name": null }, "geometry": { "type": "LineString", "coordinates": [ [ -83.251576, 42.352796 ], [ -83.251478, 42.352744 ], [ -83.251408, 42.352694 ], [ -83.251372, 42.352669 ], [ -83.251304, 42.352621 ], [ -83.25127, 42.352552 ] ] } },
{ "type": "Feature", "properties": { "cls": "separated", "highway": "tertiary", "name": "Spinoza Drive" }, "geometry": { "type": "LineString", "coordinates": [ [ -83.247342, 42.35011 ], [ -83.24758, 42.350708 ], [ -83.247742, 42.351012 ], [ -83.248, 42.351306 ], [ -83.248241, 42.351505 ], [ -83.248462, 42.351648 ], [ -83.248947, 42.351881 ], [ -83.250185, 42.352432 ], [ -83.250488, 42.352585 ], [ -83.250697, 42.352716 ], [ -83.250853, 42.352822 ], [ -83.250994, 42.35294 ], [ -83.251117, 42.353069 ], [ -83.251189, 42.353159 ], [ -83.251252, 42.353253 ], [ -83.251356, 42.353397 ], [ -83.251458, 42.353582 ], [ -83.251538, 42.353774 ], [ -83.251594, 42.353969 ], [ -83.251622, 42.354128 ], [ -83.251635, 42.354328 ], [ -83.251623, 42.354529 ], [ -83.251594, 42.354697 ], [ -83.25155, 42.354851 ], [ -83.251492, 42.355003 ], [ -83.25142, 42.355151 ], [ -83.251342, 42.35528 ], [ -83.251333, 42.355294 ], [ -83.251229, 42.355439 ], [ -83.250426, 42.356478 ], [ -83.250382, 42.356541 ], [ -83.250347, 42.356605 ], [ -83.250314, 42.356694 ], [ -83.250291, 42.356843 ], [ -83.250293, 42.356998 ], [ -83.250306, 42.357199 ] ] } },
{ "type": "Feature", "properties": { "cls": "separated", "highway": "cycleway", "name": null }, "geometry": { "type": "MultiLineString", "coordinates": [ [ [ -83.253971, 42.368791 ], [ -83.253872, 42.368793 ], [ -83.253713, 42.368801 ], [ -83.253509, 42.368832 ], [ -83.253344, 42.368856 ], [ -83.253168, 42.368917 ], [ -83.252981, 42.368984 ], [ -83.252775, 42.368996 ], [ -83.252585, 42.368994 ], [ -83.252244, 42.368962 ], [ -83.252002, 42.368927 ], [ -83.251903, 42.368931 ], [ -83.251735, 42.368923 ], [ -83.251432, 42.368834 ], [ -83.251089, 42.368683 ], [ -83.250709, 42.368489 ], [ -83.250495, 42.368355 ], [ -83.250415, 42.368308 ], [ -83.250206, 42.368117 ], [ -83.25003, 42.367977 ], [ -83.24995, 42.367914 ], [ -83.249843, 42.367829 ], [ -83.249639, 42.367662 ], [ -83.249518, 42.367473 ], [ -83.24941, 42.367288 ], [ -83.249344, 42.367166 ], [ -83.24933, 42.367111 ], [ -83.249331, 42.367056 ], [ -83.249339, 42.366999 ], [ -83.249356, 42.366945 ], [ -83.249405, 42.366855 ], [ -83.249524, 42.366691 ], [ -83.249557, 42.36664 ], [ -83.249543, 42.366579 ], [ -83.249507, 42.366445 ], [ -83.249482, 42.366047 ], [ -83.249438, 42.365715 ], [ -83.249416, 42.365537 ], [ -83.249414, 42.365392 ], [ -83.249378, 42.365037 ], [ -83.249359, 42.364903 ], [ -83.249331, 42.364758 ], [ -83.24929, 42.364636 ], [ -83.249232, 42.364512 ], [ -83.249103, 42.364264 ], [ -83.248974, 42.364086 ], [ -83.248841, 42.363923 ], [ -83.24871, 42.363762 ], [ -83.248566, 42.363625 ], [ -83.248414, 42.363461 ], [ -83.248379, 42.363424 ], [ -83.248283, 42.36329 ], [ -83.248206, 42.363174 ], [ -83.248115, 42.36302 ], [ -83.24806, 42.362837 ], [ -83.248019, 42.362625 ], [ -83.248003, 42.362451 ], [ -83.248003, 42.362253 ], [ -83.248058, 42.36202 ], [ -83.248173, 42.361847 ], [ -83.248286, 42.361695 ], [ -83.248432, 42.361552 ], [ -83.248605, 42.361455 ], [ -83.248844, 42.361398 ], [ -83.24913, 42.361341 ], [ -83.249309, 42.361252 ], [ -83.249471, 42.361136 ], [ -83.249532, 42.360995 ], [ -83.249576, 42.360864 ], [ -83.249711, 42.360779 ], [ -83.249859, 42.360678 ], [ -83.249942, 42.360576 ], [ -83.250115, 42.360428 ], [ -83.250212, 42.360346 ], [ -83.25028, 42.360289 ], [ -83.250376, 42.36019 ], [ -83.250445, 42.360043 ], [ -83.250475, 42.35983 ], [ -83.250514, 42.359688 ], [ -83.250577, 42.359482 ], [ -83.250661, 42.359271 ], [ -83.250695, 42.359165 ], [ -83.250739, 42.359001 ], [ -83.250775, 42.358869 ], [ -83.250745, 42.358724 ], [ -83.250662, 42.358481 ], [ -83.250616, 42.358348 ], [ -83.250596, 42.358292 ], [ -83.250536, 42.358105 ], [ -83.250517, 42.357903 ], [ -83.250506, 42.357635 ], [ -83.250498, 42.357442 ] ], [ [ -83.250479, 42.357198 ], [ -83.250459, 42.356804 ], [ -83.250478, 42.356668 ], [ -83.25055, 42.356527 ], [ -83.250739, 42.356281 ], [ -83.250948, 42.35603 ], [ -83.251226, 42.355685 ], [ -83.251494, 42.355326 ], [ -83.251611, 42.355106 ], [ -83.251721, 42.354852 ], [ -83.251771, 42.354622 ], [ -83.251804, 42.354373 ], [ -83.251787, 42.354111 ], [ -83.251738, 42.353857 ], [ -83.251666, 42.353668 ], [ -83.251573, 42.353474 ], [ -83.251482, 42.353286 ], [ -83.251458, 42.353186 ], [ -83.251463, 42.353092 ], [ -83.251518, 42.352875 ], [ -83.251576, 42.352796 ], [ -83.251633, 42.352718 ], [ -83.251771, 42.352574 ], [ -83.251834, 42.352534 ], [ -83.251894, 42.352486 ] ] ] } },
{ "type": "Feature", "properties": { "cls": "separated", "highway": "tertiary", "name": "Spinoza Drive" }, "geometry": { "type": "LineString", "coordinates": [ [ -83.250321, 42.357445 ], [ -83.250347, 42.357858 ], [ -83.250379, 42.358388 ], [ -83.250427, 42.359211 ], [ -83.250427, 42.359299 ], [ -83.250412, 42.359447 ], [ -83.250381, 42.359594 ], [ -83.250335, 42.359739 ], [ -83.250273, 42.35988 ], [ -83.250196, 42.360018 ], [ -83.250098, 42.360157 ], [ -83.250046, 42.360221 ], [ -83.250017, 42.360256 ], [ -83.249929, 42.360351 ], [ -83.249833, 42.360442 ], [ -83.249731, 42.360529 ], [ -83.249621, 42.360612 ], [ -83.248641, 42.361238 ], [ -83.248418, 42.361387 ], [ -83.248295, 42.361483 ], [ -83.248213, 42.361557 ], [ -83.248138, 42.361635 ], [ -83.248028, 42.361772 ], [ -83.247939, 42.361918 ], [ -83.247896, 42.362008 ], [ -83.247861, 42.3621 ], [ -83.247834, 42.362194 ], [ -83.247812, 42.362306 ], [ -83.247801, 42.362436 ], [ -83.247803, 42.362533 ], [ -83.247813, 42.36263 ], [ -83.247839, 42.362758 ], [ -83.247868, 42.362853 ], [ -83.247906, 42.362946 ], [ -83.247968, 42.363067 ], [ -83.24802, 42.363149 ], [ -83.248292, 42.363512 ], [ -83.248296, 42.363517 ], [ -83.248649, 42.36394 ], [ -83.248733, 42.364053 ], [ -83.248897, 42.364271 ], [ -83.248957, 42.36437 ], [ -83.249009, 42.36447 ], [ -83.24906, 42.364586 ], [ -83.249103, 42.364704 ], [ -83.249137, 42.364824 ], [ -83.249169, 42.364984 ], [ -83.249183, 42.365106 ], [ -83.249188, 42.365228 ], [ -83.249185, 42.36535 ], [ -83.249173, 42.365472 ], [ -83.249152, 42.365593 ], [ -83.249122, 42.365713 ], [ -83.249084, 42.365831 ], [ -83.249037, 42.365951 ], [ -83.248996, 42.36611 ], [ -83.24897, 42.366249 ], [ -83.248953, 42.366388 ], [ -83.248945, 42.366527 ], [ -83.248953, 42.366715 ], [ -83.248977, 42.366842 ], [ -83.24902, 42.36701 ], [ -83.249065, 42.367122 ], [ -83.249126, 42.367246 ], [ -83.249192, 42.367356 ], [ -83.24926, 42.367453 ], [ -83.249332, 42.367552 ], [ -83.249395, 42.367622 ], [ -83.249796, 42.367984 ], [ -83.249999, 42.36817 ], [ -83.250286, 42.368401 ], [ -83.250404, 42.368489 ], [ -83.250563, 42.368591 ], [ -83.250781, 42.368703 ], [ -83.250914, 42.36877 ], [ -83.251052, 42.368831 ], [ -83.251292, 42.36892 ], [ -83.251541, 42.368993 ], [ -83.251686, 42.369026 ], [ -83.25181, 42.369049 ], [ -83.252098, 42.369088 ], [ -83.252257, 42.3691 ], [ -83.252417, 42.369106 ], [ -83.252684, 42.369101 ], [ -83.252949, 42.369077 ], [ -83.253158, 42.369046 ], [ -83.253999, 42.36887 ] ] } },
{ "type": "Feature", "properties": { "cls": "sharrow", "highway": "tertiary", "name": "West Chicago Street" }, "geometry": { "type": "LineString", "coordinates": [ [ -83.247431, 42.364537 ], [ -83.247463, 42.364537 ], [ -83.247595, 42.364525 ], [ -83.247725, 42.364502 ], [ -83.247851, 42.364468 ], [ -83.247999, 42.36441 ], [ -83.248569, 42.364133 ], [ -83.248733, 42.364053 ] ] } },
{ "type": "Feature", "properties": { "cls": "separated", "highway": "cycleway", "name": null }, "geometry": { "type": "LineString", "coordinates": [ [ -83.25445, 42.368687 ], [ -83.253971, 42.368791 ] ] } },
{ "type": "Feature", "properties": { "cls": "separated", "highway": "tertiary", "name": "Spinoza Drive" }, "geometry": { "type": "LineString", "coordinates": [ [ -83.253999, 42.36887 ], [ -83.254231, 42.368821 ], [ -83.254474, 42.36877 ] ] } },
{ "type": "Feature", "properties": { "cls": "separated", "highway": "cycleway", "name": null }, "geometry": { "type": "LineString", "coordinates": [ [ -83.258987, 42.371462 ], [ -83.258935, 42.371272 ], [ -83.258874, 42.371026 ], [ -83.258781, 42.37077 ], [ -83.258646, 42.370581 ], [ -83.258517, 42.370413 ], [ -83.258354, 42.370246 ], [ -83.258165, 42.370108 ], [ -83.257901, 42.369935 ], [ -83.257612, 42.369773 ], [ -83.257304, 42.369587 ], [ -83.257026, 42.369404 ], [ -83.256784, 42.369227 ], [ -83.256525, 42.36904 ], [ -83.256217, 42.368782 ], [ -83.256161, 42.368725 ], [ -83.256083, 42.368644 ], [ -83.256033, 42.368587 ], [ -83.255979, 42.368451 ], [ -83.255959, 42.368372 ], [ -83.255882, 42.368094 ] ] } },
{ "type": "Feature", "properties": { "cls": "separated", "highway": "cycleway", "name": null }, "geometry": { "type": "LineString", "coordinates": [ [ -83.259239, 42.371422 ], [ -83.259411, 42.371354 ], [ -83.259515, 42.371319 ], [ -83.259765, 42.371321 ], [ -83.260032, 42.371337 ], [ -83.260208, 42.37137 ], [ -83.260304, 42.371411 ], [ -83.260341, 42.371416 ], [ -83.260415, 42.371397 ], [ -83.260551, 42.37137 ], [ -83.260603, 42.371361 ], [ -83.260637, 42.37137 ], [ -83.260651, 42.371379 ] ] } },
{ "type": "Feature", "properties": { "cls": "separated", "highway": "cycleway", "name": null }, "geometry": { "type": "LineString", "coordinates": [ [ -83.259156, 42.371459 ], [ -83.259161, 42.371457 ], [ -83.259239, 42.371422 ] ] } }
]
}
