{
"type": "FeatureCollection",
"name": "179-london-bushy-park",
"crs": { "type": "name", "properties": { "name": "urn:ogc:def:crs:OGC:1.3:CRS84" } },
"xy_coordinate_resolution": 1e-06,
"features": [
{ "type": "Feature", "properties": { "cls": "separated", "highway": "cycleway", "name": "Cobblers Walk" }, "geometry": { "type": "LineString", "coordinates": [ [ -0.353544, 51.416996 ], [ -0.35337, 51.417002 ] ] } },
{ "type": "Feature", "properties": { "cls": "separated", "highway": "cycleway", "name": "Cobblers Walk" }, "geometry": { "type": "LineString", "coordinates": [ [ -0.35337, 51.417002 ], [ -0.353233, 51.417072 ], [ -0.353016, 51.417177 ], [ -0.352802, 51.41725 ], [ -0.352558, 51.417231 ], [ -0.352189, 51.417204 ], [ -0.352062, 51.417248 ], [ -0.351641, 51.417325 ], [ -0.351367, 51.417373 ] ] } },
{ "type": "Feature", "properties": { "cls": "separated", "highway": "cycleway", "name": null }, "geometry": { "type": "LineString", "coordinates": [ [ -0.317967, 51.414385 ], [ -0.317767, 51.414367 ], [ -0.317701, 51.414389 ] ] } },
{ "type": "Feature", "properties": { "cls": "separated", "highway": "cycleway", "name": "Cobblers Walk" }, "geometry": { "type": "LineString", "coordinates": [ [ -0.358347, 51.417953 ], [ -0.358279, 51.417948 ], [ -0.357505, 51.41755 ], [ -0.356914, 51.417409 ], [ -0.356533, 51.417332 ], [ -0.356242, 51.417265 ], [ -0.355973, 51.417203 ], [ -0.35545, 51.41711 ], [ -0.355125, 51.417092 ], [ -0.354465, 51.417042 ], [ -0.354166, 51.417022 ], [ -0.353637, 51.416999 ], [ -0.353544, 51.416996 ] ] } },
{ "type": "Feature", "properties": { "cls": "separated", "highway": "cycleway", "name": null }, "geometry": { "type": "LineString", "coordinates": [ [ -0.348394, 51.418141 ], [ -0.348532, 51.418082 ], [ -0.348763, 51.418025 ], [ -0.349183, 51.417918 ], [ -0.349957, 51.417732 ], [ -0.350885, 51.417514 ], [ -0.351163, 51.417448 ], [ -0.351239, 51.417412 ] ] } },
{ "type": "Feature", "properties": { "cls": "separated", "highway": "cycleway", "name": null }, "geometry": { "type": "LineString", "coordinates": [ [ -0.346282, 51.419649 ], [ -0.346654, 51.419373 ], [ -0.34685, 51.41928 ], [ -0.34725, 51.418933 ], [ -0.347285, 51.418908 ], [ -0.347501, 51.418757 ], [ -0.347822, 51.418512 ], [ -0.348129, 51.418319 ], [ -0.348322, 51.418187 ], [ -0.348394, 51.418141 ] ] } },
{ "type": "Feature", "properties": { "cls": "separated", "highway": "cycleway", "name": null }, "geometry": { "type": "LineString", "coordinates": [ [ -0.343649, 51.422714 ], [ -0.343657, 51.422575 ], [ -0.34368, 51.422506 ], [ -0.343679, 51.422366 ], [ -0.343807, 51.421951 ], [ -0.343924, 51.421771 ], [ -0.344043, 51.421604 ], [ -0.344331, 51.421275 ], [ -0.344437, 51.421147 ], [ -0.344674, 51.420922 ], [ -0.34472, 51.420881 ], [ -0.34527, 51.420425 ], [ -0.34555, 51.420205 ], [ -0.346282, 51.419649 ] ] } },
{ "type": "Feature", "properties": { "cls": "separated", "highway": "cycleway", "name": null }, "geometry": { "type": "LineString", "coordinates": [ [ -0.350658, 51.426392 ], [ -0.350743, 51.426238 ], [ -0.350848, 51.426041 ], [ -0.35089, 51.425941 ], [ -0.35114, 51.425423 ], [ -0.351217, 51.425258 ], [ -0.35135, 51.424967 ], [ -0.35147, 51.424715 ], [ -0.351542, 51.424531 ], [ -0.351607, 51.424373 ], [ -0.351686, 51.424317 ] ] } }
]
}
