{
"type": "FeatureCollection",
"name": "181-colorado-springs-cheyenne-mountain-state-park",
"crs": { "type": "name", "properties": { "name": "urn:ogc:def:crs:OGC:1.3:CRS84" } },
"xy_coordinate_resolution": 1e-06,
"features": [
{ "type": "Feature", "properties": { "cls": "shared", "highway": "path", "name": "Sundance" }, "geometry": { "type": "LineString", "coordinates": [ [ -104.821598, 38.730991 ], [ -104.821508, 38.730979 ], [ -104.821322, 38.730982 ], [ -104.821234, 38.730998 ], [ -104.821111, 38.731033 ], [ -104.821043, 38.731047 ], [ -104.820974, 38.73105 ], [ -104.820891, 38.731043 ], [ -104.820787, 38.731033 ], [ -104.8206, 38.730987 ], [ -104.820517, 38.730929 ], [ -104.820443, 38.730916 ], [ -104.820419, 38.730903 ], [ -104.820321, 38.730887 ], [ -104.820258, 38.730859 ], [ -104.820086, 38.730748 ], [ -104.819973, 38.730714 ], [ -104.819867, 38.730693 ], [ -104.819726, 38.73065 ], [ -104.819632, 38.730611 ], [ -104.819486, 38.730594 ], [ -104.819417, 38.730575 ], [ -104.819302, 38.730527 ], [ -104.819234, 38.730508 ], [ -104.819145, 38.730498 ], [ -104.819015, 38.730436 ] ] } },
{ "type": "Feature", "properties": { "cls": "shared", "highway": "path", "name": "Sundance" }, "geometry": { "type": "LineString", "coordinates": [ [ -104.819015, 38.730436 ], [ -104.81921, 38.730638 ], [ -104.818786, 38.730737 ], [ -104.818569, 38.730882 ], [ -104.818536, 38.730897 ], [ -104.818481, 38.730931 ], [ -104.818444, 38.730958 ], [ -104.818436, 38.730994 ], [ -104.818475, 38.731025 ], [ -104.818651, 38.73109 ], [ -104.818778, 38.731158 ], [ -104.818843, 38.731241 ], [ -104.819016, 38.73125 ] ] } },
{ "type": "Feature", "properties": { "cls": "shared", "highway": "path", "name": null }, "geometry": { "type": "LineString", "coordinates": [ [ -104.822724, 38.730793 ], [ -104.82264, 38.730763 ], [ -104.822518, 38.730719 ], [ -104.822277, 38.730699 ], [ -104.821977, 38.730746 ], [ -104.821702, 38.730934 ], [ -104.821598, 38.730991 ], [ -104.821533, 38.731027 ], [ -104.821461, 38.731051 ] ] } },
{ "type": "Feature", "properties": { "cls": "shared", "highway": "path", "name": null }, "geometry": { "type": "LineString", "coordinates": [ [ -104.821117, 38.731374 ], [ -104.821625, 38.731221 ], [ -104.821671, 38.731205 ], [ -104.821846, 38.731144 ], [ -104.822046, 38.731074 ], [ -104.822574, 38.730855 ] ] } },
{ "type": "Feature", "properties": { "cls": "shared", "highway": "path", "name": null }, "geometry": { "type": "LineString", "coordinates": [ [ -104.821533, 38.731027 ], [ -104.821671, 38.731205 ] ] } },
{ "type": "Feature", "properties": { "cls": "shared", "highway": "path", "name": null }, "geometry": { "type": "LineString", "coordinates": [ [ -104.822706, 38.731121 ], [ -104.822372, 38.731134 ], [ -104.822063, 38.731141 ], [ -104.821846, 38.731144 ] ] } },
{ "type": "Feature", "properties": { "cls": "shared", "highway": "path", "name": "Coyote Run" }, "geometry": { "type": "LineString", "coordinates": [ [ -104.823368, 38.73145 ], [ -104.823367, 38.731556 ], [ -104.823279, 38.731592 ], [ -104.823211, 38.731724 ], [ -104.823126, 38.731757 ], [ -104.82311, 38.731867 ], [ -104.823019, 38.731898 ], [ -104.822976, 38.732002 ], [ -104.822869, 38.732119 ], [ -104.822798, 38.732189 ], [ -104.822844, 38.732286 ], [ -104.822761, 38.732348 ], [ -104.822433, 38.732285 ], [ -104.822182, 38.7323 ], [ -104.821967, 38.732397 ], [ -104.821905, 38.732519 ], [ -104.821659, 38.732721 ], [ -104.82141, 38.733116 ], [ -104.821288, 38.733283 ], [ -104.821305, 38.73339 ], [ -104.821394, 38.733563 ], [ -104.821201, 38.733782 ], [ -104.821409, 38.733901 ], [ -104.821208, 38.73398 ], [ -104.821115, 38.733965 ], [ -104.820803, 38.73404 ], [ -104.820693, 38.734084 ], [ -104.820642, 38.734208 ], [ -104.820623, 38.734345 ], [ -104.820753, 38.734491 ], [ -104.820757, 38.734679 ], [ -104.820975, 38.734769 ], [ -104.821027, 38.73482 ], [ -104.820978, 38.734918 ], [ -104.820982, 38.734995 ], [ -104.821003, 38.735079 ], [ -104.821084, 38.735146 ], [ -104.821093, 38.735231 ], [ -104.821143, 38.735311 ], [ -104.821264, 38.735341 ], [ -104.821363, 38.735307 ], [ -104.821415, 38.73536 ], [ -104.82141, 38.735446 ], [ -104.821335, 38.7355 ], [ -104.821209, 38.735518 ], [ -104.821188, 38.735576 ], [ -104.821224, 38.735651 ], [ -104.821291, 38.735816 ], [ -104.821255, 38.735837 ], [ -104.821194, 38.735835 ], [ -104.821066, 38.735806 ], [ -104.820857, 38.735782 ], [ -104.820742, 38.735821 ], [ -104.820684, 38.735927 ], [ -104.82061, 38.73599 ], [ -104.820436, 38.736005 ] ] } },
{ "type": "Feature", "properties": { "cls": "shared", "highway": "path", "name": "South Talon Trail" }, "geometry": { "type": "LineString", "coordinates": [ [ -104.845649, 38.720593 ], [ -104.845619, 38.720526 ], [ -104.845558, 38.720442 ], [ -104.845478, 38.720386 ], [ -104.845423, 38.72035 ], [ -104.845383, 38.720309 ], [ -104.845322, 38.720184 ], [ -104.845244, 38.72011 ], [ -104.845168, 38.720063 ], [ -104.845097, 38.720033 ], [ -104.845032, 38.720017 ], [ -104.844901, 38.720009 ], [ -104.844848, 38.719991 ], [ -104.84477, 38.719941 ], [ -104.844628, 38.719819 ], [ -104.844526, 38.719786 ], [ -104.844433, 38.719728 ], [ -104.844418, 38.719692 ], [ -104.844424, 38.719647 ], [ -104.84446, 38.719613 ], [ -104.844489, 38.719562 ], [ -104.84446, 38.719512 ], [ -104.84443, 38.719479 ], [ -104.844373, 38.719387 ], [ -104.844356, 38.719302 ], [ -104.844352, 38.719252 ], [ -104.844365, 38.71919 ], [ -104.844395, 38.719092 ], [ -104.844432, 38.718937 ], [ -104.844413, 38.718898 ], [ -104.844367, 38.718849 ], [ -104.844267, 38.718811 ], [ -104.844142, 38.718774 ], [ -104.844034, 38.718719 ], [ -104.843914, 38.718657 ], [ -104.84383, 38.718698 ], [ -104.843686, 38.718752 ], [ -104.843526, 38.718784 ], [ -104.84343, 38.718789 ], [ -104.843402, 38.71876 ], [ -104.843417, 38.718636 ], [ -104.843412, 38.718592 ], [ -104.843389, 38.71854 ], [ -104.843295, 38.718425 ], [ -104.843275, 38.718388 ], [ -104.843274, 38.718354 ], [ -104.843299, 38.718336 ], [ -104.843368, 38.718334 ], [ -104.843561, 38.718394 ], [ -104.843643, 38.71841 ], [ -104.843889, 38.718327 ], [ -104.844118, 38.718293 ], [ -104.844154, 38.718277 ], [ -104.844187, 38.718258 ], [ -104.844243, 38.718206 ], [ -104.844222, 38.718168 ], [ -104.844166, 38.718134 ], [ -104.844043, 38.718111 ], [ -104.843972, 38.718089 ], [ -104.843915, 38.718061 ], [ -104.843883, 38.718018 ], [ -104.843883, 38.717975 ], [ -104.843889, 38.717918 ], [ -104.843874, 38.717872 ], [ -104.843839, 38.717844 ], [ -104.843765, 38.717813 ], [ -104.843605, 38.717811 ], [ -104.843555, 38.717791 ], [ -104.843473, 38.71772 ], [ -104.843289, 38.71764 ], [ -104.84326, 38.717608 ], [ -104.843263, 38.717573 ], [ -104.843284, 38.717525 ], [ -104.843325, 38.717491 ], [ -104.843343, 38.71745 ], [ -104.843277, 38.717291 ], [ -104.843292, 38.717242 ], [ -104.843316, 38.717213 ], [ -104.843379, 38.717168 ], [ -104.843452, 38.717135 ], [ -104.843524, 38.717122 ], [ -104.843564, 38.717127 ], [ -104.843617, 38.717154 ], [ -104.843715, 38.717281 ], [ -104.843724, 38.717411 ], [ -104.843782, 38.717511 ], [ -104.843862, 38.717583 ], [ -104.843984, 38.717635 ], [ -104.84422, 38.717638 ], [ -104.844307, 38.717659 ], [ -104.844353, 38.717667 ], [ -104.844437, 38.717646 ], [ -104.844521, 38.717601 ], [ -104.844583, 38.71756 ], [ -104.844639, 38.717448 ], [ -104.844618, 38.717412 ], [ -104.844617, 38.717361 ], [ -104.844632, 38.717319 ], [ -104.844771, 38.717386 ], [ -104.844939, 38.717411 ], [ -104.844996, 38.717439 ], [ -104.845026, 38.717495 ], [ -104.845067, 38.717604 ], [ -104.845101, 38.717687 ], [ -104.845184, 38.717781 ], [ -104.84526, 38.717832 ], [ -104.845421, 38.717893 ], [ -104.845476, 38.717879 ], [ -104.845559, 38.717886 ], [ -104.845729, 38.717937 ], [ -104.845837, 38.717996 ], [ -104.845961, 38.718088 ], [ -104.846044, 38.718127 ], [ -104.846169, 38.718178 ], [ -104.846384, 38.718243 ], [ -104.846571, 38.718363 ], [ -104.846627, 38.718452 ], [ -104.846589, 38.71851 ], [ -104.846522, 38.718555 ], [ -104.846366, 38.718615 ], [ -104.846162, 38.718722 ], [ -104.846065, 38.718794 ], [ -104.846006, 38.718868 ], [ -104.846001, 38.718908 ], [ -104.846015, 38.718933 ], [ -104.846065, 38.718957 ], [ -104.846137, 38.718971 ], [ -104.846302, 38.718997 ], [ -104.846337, 38.719005 ], [ -104.846372, 38.719028 ], [ -104.846395, 38.719083 ], [ -104.84636, 38.719165 ], [ -104.846288, 38.719212 ], [ -104.846078, 38.719343 ], [ -104.846038, 38.719376 ], [ -104.846038, 38.719412 ], [ -104.846187, 38.719454 ], [ -104.84636, 38.719532 ], [ -104.846393, 38.719592 ], [ -104.846417, 38.719849 ], [ -104.846434, 38.719893 ], [ -104.846479, 38.719915 ], [ -104.846543, 38.719907 ], [ -104.846759, 38.719815 ], [ -104.846906, 38.719813 ], [ -104.846971, 38.719826 ], [ -104.847062, 38.719815 ], [ -104.847238, 38.719775 ], [ -104.847469, 38.719862 ], [ -104.847581, 38.719839 ], [ -104.847699, 38.719877 ], [ -104.847741, 38.719925 ], [ -104.847775, 38.719962 ], [ -104.847821, 38.719995 ], [ -104.84786, 38.720057 ], [ -104.847631, 38.720057 ], [ -104.847463, 38.720068 ], [ -104.847381, 38.720083 ], [ -104.847152, 38.720143 ], [ -104.84706, 38.720176 ], [ -104.846993, 38.720236 ], [ -104.846984, 38.720296 ] ] } },
{ "type": "Feature", "properties": { "cls": "shared", "highway": "path", "name": "Sundance Trail" }, "geometry": { "type": "LineString", "coordinates": [ [ -104.830323, 38.72112 ], [ -104.830189, 38.721038 ], [ -104.830062, 38.721001 ], [ -104.829913, 38.720866 ], [ -104.829867, 38.720848 ], [ -104.829833, 38.720794 ], [ -104.829833, 38.720686 ], [ -104.829799, 38.720623 ], [ -104.829672, 38.720532 ], [ -104.829603, 38.720523 ], [ -104.829442, 38.720604 ], [ -104.829396, 38.720676 ], [ -104.829304, 38.720739 ], [ -104.829246, 38.720847 ], [ -104.829142, 38.720919 ], [ -104.828993, 38.720937 ], [ -104.828383, 38.7209 ], [ -104.828337, 38.720936 ], [ -104.828325, 38.72099 ], [ -104.828084, 38.721035 ], [ -104.828072, 38.721098 ], [ -104.828026, 38.721152 ], [ -104.827934, 38.721206 ], [ -104.82783, 38.721368 ], [ -104.827703, 38.721458 ], [ -104.827277, 38.721412 ], [ -104.826898, 38.721276 ], [ -104.826783, 38.721285 ], [ -104.826679, 38.72133 ], [ -104.82653, 38.721312 ], [ -104.8263, 38.72132 ], [ -104.826196, 38.721338 ], [ -104.826162, 38.721383 ], [ -104.826012, 38.721392 ] ] } },
{ "type": "Feature", "properties": { "cls": "shared", "highway": "path", "name": "Talon" }, "geometry": { "type": "LineString", "coordinates": [ [ -104.831087, 38.721667 ], [ -104.831088, 38.721672 ], [ -104.831144, 38.721726 ], [ -104.831208, 38.72177 ], [ -104.831303, 38.721846 ], [ -104.831509, 38.721995 ] ] } },
{ "type": "Feature", "properties": { "cls": "shared", "highway": "path", "name": null }, "geometry": { "type": "LineString", "coordinates": [ [ -104.831144, 38.721726 ], [ -104.831103, 38.721728 ], [ -104.831069, 38.721745 ] ] } },
{ "type": "Feature", "properties": { "cls": "shared", "highway": "path", "name": "North Talon" }, "geometry": { "type": "LineString", "coordinates": [ [ -104.846998, 38.720309 ], [ -104.847012, 38.720414 ], [ -104.847017, 38.720569 ], [ -104.846988, 38.720648 ], [ -104.846975, 38.720735 ], [ -104.84693, 38.720813 ], [ -104.846888, 38.720845 ], [ -104.846838, 38.720859 ], [ -104.846745, 38.720865 ], [ -104.846698, 38.72088 ], [ -104.846655, 38.720902 ], [ -104.84662, 38.720946 ], [ -104.846607, 38.721021 ], [ -104.846619, 38.721101 ], [ -104.846673, 38.721163 ], [ -104.846748, 38.721239 ], [ -104.846849, 38.721356 ], [ -104.846911, 38.721452 ], [ -104.846911, 38.721632 ], [ -104.846939, 38.721713 ], [ -104.846991, 38.721802 ], [ -104.847024, 38.721874 ], [ -104.847003, 38.721899 ], [ -104.846943, 38.721926 ], [ -104.846844, 38.721926 ], [ -104.846579, 38.721914 ], [ -104.8465, 38.721927 ], [ -104.846436, 38.721955 ], [ -104.846362, 38.722017 ], [ -104.846294, 38.722068 ], [ -104.846186, 38.722064 ], [ -104.846078, 38.722076 ], [ -104.845967, 38.722119 ], [ -104.845931, 38.722147 ], [ -104.845902, 38.72218 ], [ -104.845898, 38.722198 ], [ -104.845911, 38.722238 ], [ -104.845976, 38.722276 ], [ -104.846061, 38.722298 ], [ -104.84617, 38.722298 ], [ -104.846294, 38.722266 ], [ -104.846429, 38.72222 ], [ -104.846577, 38.722111 ], [ -104.846647, 38.722086 ], [ -104.84689, 38.722083 ], [ -104.846975, 38.722107 ], [ -104.84711, 38.722132 ], [ -104.847443, 38.72215 ], [ -104.847534, 38.722167 ], [ -104.847603, 38.722175 ], [ -104.847701, 38.72217 ], [ -104.84774, 38.722151 ], [ -104.847767, 38.722106 ], [ -104.847799, 38.72197 ], [ -104.847809, 38.721877 ], [ -104.847792, 38.721778 ], [ -104.847785, 38.721636 ], [ -104.847816, 38.721563 ], [ -104.847855, 38.721491 ], [ -104.847929, 38.721405 ], [ -104.847981, 38.721324 ], [ -104.847994, 38.721257 ], [ -104.84799, 38.721176 ], [ -104.847958, 38.721038 ], [ -104.847939, 38.720915 ], [ -104.847965, 38.720886 ], [ -104.84801, 38.720903 ], [ -104.848058, 38.720945 ], [ -104.848102, 38.721042 ], [ -104.848137, 38.721175 ], [ -104.848199, 38.72157 ], [ -104.848273, 38.721764 ], [ -104.848342, 38.721899 ], [ -104.848505, 38.722256 ], [ -104.848527, 38.722221 ], [ -104.848547, 38.721898 ], [ -104.848547, 38.721665 ], [ -104.848537, 38.721508 ], [ -104.848549, 38.721444 ], [ -104.848577, 38.721412 ], [ -104.848642, 38.721456 ], [ -104.848684, 38.721527 ], [ -104.84872, 38.721579 ], [ -104.84878, 38.721622 ], [ -104.848808, 38.721653 ], [ -104.848826, 38.721712 ], [ -104.848853, 38.721798 ], [ -104.8489, 38.721858 ], [ -104.849035, 38.721999 ], [ -104.849128, 38.722119 ], [ -104.849268, 38.722255 ], [ -104.849275, 38.722262 ], [ -104.849254, 38.722301 ], [ -104.849226, 38.72232 ], [ -104.849081, 38.7224 ], [ -104.849012, 38.722422 ], [ -104.848981, 38.722431 ], [ -104.848969, 38.722451 ], [ -104.848996, 38.722489 ], [ -104.849057, 38.72252 ], [ -104.849114, 38.722556 ], [ -104.849118, 38.722588 ], [ -104.849099, 38.722619 ], [ -104.84906, 38.722644 ], [ -104.849011, 38.722656 ], [ -104.848918, 38.722636 ], [ -104.848811, 38.722583 ], [ -104.848741, 38.722505 ], [ -104.848659, 38.722463 ], [ -104.848627, 38.722473 ], [ -104.848618, 38.722507 ], [ -104.848601, 38.722594 ], [ -104.848572, 38.722604 ], [ -104.848563, 38.722599 ], [ -104.848516, 38.72257 ], [ -104.848474, 38.722519 ], [ -104.848347, 38.722379 ], [ -104.848222, 38.7222 ], [ -104.848186, 38.722229 ], [ -104.84817, 38.722401 ], [ -104.848132, 38.72248 ], [ -104.848094, 38.722516 ], [ -104.848057, 38.722529 ], [ -104.847998, 38.722525 ], [ -104.847947, 38.722481 ], [ -104.847913, 38.722399 ], [ -104.84787, 38.722372 ], [ -104.847841, 38.722382 ], [ -104.84782, 38.722411 ], [ -104.847816, 38.722461 ], [ -104.847821, 38.722494 ], [ -104.847852, 38.722537 ], [ -104.847982, 38.722633 ], [ -104.848034, 38.722697 ], [ -104.847989, 38.722733 ], [ -104.847714, 38.722786 ], [ -104.847481, 38.722685 ], [ -104.847336, 38.72265 ], [ -104.847035, 38.722611 ], [ -104.846746, 38.722576 ], [ -104.846691, 38.722575 ], [ -104.846642, 38.722585 ], [ -104.846641, 38.722602 ], [ -104.846661, 38.722619 ], [ -104.846789, 38.7227 ], [ -104.84684, 38.722753 ], [ -104.846752, 38.722835 ], [ -104.846667, 38.722937 ], [ -104.846577, 38.723002 ], [ -104.846509, 38.723039 ], [ -104.846465, 38.723057 ], [ -104.846408, 38.723068 ], [ -104.846358, 38.723059 ], [ -104.846295, 38.723015 ], [ -104.846249, 38.722952 ], [ -104.846225, 38.722927 ], [ -104.846188, 38.722911 ], [ -104.846158, 38.72292 ], [ -104.846127, 38.72296 ], [ -104.846117, 38.723029 ], [ -104.846099, 38.72308 ], [ -104.846068, 38.723101 ], [ -104.846026, 38.723087 ], [ -104.845989, 38.723035 ], [ -104.845938, 38.723002 ], [ -104.845903, 38.723005 ], [ -104.845867, 38.723025 ], [ -104.845845, 38.723074 ], [ -104.845856, 38.723233 ], [ -104.845846, 38.723264 ], [ -104.845812, 38.723279 ], [ -104.845699, 38.723274 ], [ -104.845665, 38.723288 ], [ -104.845608, 38.723391 ], [ -104.845529, 38.723395 ], [ -104.845483, 38.72341 ], [ -104.845452, 38.723442 ], [ -104.845429, 38.723493 ], [ -104.845384, 38.723512 ], [ -104.845296, 38.723463 ], [ -104.845247, 38.723449 ], [ -104.845212, 38.723466 ], [ -104.84518, 38.723502 ], [ -104.845162, 38.723567 ], [ -104.84514, 38.723611 ], [ -104.845092, 38.723648 ], [ -104.844994, 38.723678 ], [ -104.844878, 38.7237 ], [ -104.84488, 38.723625 ], [ -104.844921, 38.723534 ], [ -104.844973, 38.723455 ], [ -104.845049, 38.723369 ], [ -104.845216, 38.723287 ], [ -104.845405, 38.723163 ], [ -104.845454, 38.723122 ], [ -104.845487, 38.723066 ], [ -104.845447, 38.723005 ], [ -104.845395, 38.722966 ], [ -104.845336, 38.722933 ], [ -104.844832, 38.722859 ], [ -104.844634, 38.72284 ], [ -104.844593, 38.722831 ], [ -104.844573, 38.722809 ], [ -104.844571, 38.722783 ], [ -104.844603, 38.722757 ], [ -104.844676, 38.722709 ], [ -104.844793, 38.722627 ], [ -104.844846, 38.722555 ], [ -104.844886, 38.722462 ], [ -104.844822, 38.72233 ], [ -104.844768, 38.722264 ], [ -104.844703, 38.722207 ], [ -104.844631, 38.722161 ], [ -104.84456, 38.722095 ], [ -104.844469, 38.722063 ], [ -104.844306, 38.722057 ], [ -104.844251, 38.722049 ], [ -104.844184, 38.722026 ], [ -104.844056, 38.721968 ], [ -104.843982, 38.721955 ], [ -104.843767, 38.72196 ], [ -104.843651, 38.721975 ], [ -104.843543, 38.721988 ], [ -104.84343, 38.72202 ], [ -104.843323, 38.722073 ], [ -104.843219, 38.722188 ], [ -104.843174, 38.722234 ], [ -104.843132, 38.722262 ], [ -104.843013, 38.722332 ], [ -104.842968, 38.722387 ], [ -104.842948, 38.722417 ], [ -104.84292, 38.72245 ], [ -104.8429, 38.722467 ], [ -104.842856, 38.722473 ], [ -104.842818, 38.722454 ], [ -104.842788, 38.722416 ], [ -104.842765, 38.722362 ], [ -104.842758, 38.722333 ], [ -104.842764, 38.722289 ], [ -104.842897, 38.722184 ], [ -104.842936, 38.722112 ], [ -104.842951, 38.721995 ], [ -104.842963, 38.721933 ], [ -104.842983, 38.721868 ], [ -104.842989, 38.721797 ], [ -104.842979, 38.721757 ], [ -104.842947, 38.721698 ], [ -104.842883, 38.721648 ], [ -104.842826, 38.721615 ], [ -104.842628, 38.721541 ], [ -104.842505, 38.721507 ], [ -104.842387, 38.721487 ], [ -104.842191, 38.721419 ], [ -104.842082, 38.721389 ], [ -104.841965, 38.721369 ], [ -104.84182, 38.721398 ], [ -104.841753, 38.721409 ], [ -104.841697, 38.721394 ], [ -104.841626, 38.721341 ], [ -104.841484, 38.721202 ], [ -104.841348, 38.721068 ] ] } },
{ "type": "Feature", "properties": { "cls": "shared", "highway": "path", "name": "Talon" }, "geometry": { "type": "MultiLineString", "coordinates": [ [ [ -104.831509, 38.721995 ], [ -104.832008, 38.722067 ], [ -104.832174, 38.72208 ], [ -104.8324, 38.722222 ], [ -104.832512, 38.72234 ], [ -104.832764, 38.722356 ], [ -104.833108, 38.722319 ], [ -104.833226, 38.722386 ], [ -104.833226, 38.722624 ], [ -104.833473, 38.722833 ], [ -104.833752, 38.722934 ], [ -104.833886, 38.723026 ], [ -104.833886, 38.723193 ], [ -104.834057, 38.723419 ], [ -104.833923, 38.723767 ], [ -104.833998, 38.723972 ], [ -104.834213, 38.724382 ], [ -104.834277, 38.724457 ], [ -104.834422, 38.724441 ], [ -104.834513, 38.724357 ], [ -104.834529, 38.724168 ], [ -104.834352, 38.723758 ], [ -104.834465, 38.723432 ], [ -104.83446, 38.723332 ], [ -104.834503, 38.72321 ], [ -104.834385, 38.723039 ], [ -104.834417, 38.722859 ], [ -104.834481, 38.722771 ], [ -104.834604, 38.722624 ], [ -104.834728, 38.722469 ], [ -104.834857, 38.722319 ], [ -104.834894, 38.722218 ], [ -104.834808, 38.722063 ], [ -104.83469, 38.72195 ], [ -104.83469, 38.721904 ], [ -104.834803, 38.721938 ], [ -104.835098, 38.722009 ], [ -104.835216, 38.72208 ], [ -104.835715, 38.722097 ], [ -104.835903, 38.722139 ], [ -104.836058, 38.72213 ], [ -104.836144, 38.722088 ], [ -104.836225, 38.722055 ], [ -104.836268, 38.72198 ], [ -104.836348, 38.721913 ], [ -104.836461, 38.721934 ], [ -104.836498, 38.721988 ], [ -104.836664, 38.721967 ], [ -104.836825, 38.721929 ], [ -104.836879, 38.721833 ], [ -104.836825, 38.72175 ], [ -104.837108, 38.721677 ] ], [ [ -104.838016, 38.721678 ], [ -104.838349, 38.721679 ] ], [ [ -104.838349, 38.721679 ], [ -104.838558, 38.721691 ], [ -104.838628, 38.72185 ], [ -104.838714, 38.721908 ], [ -104.83918, 38.721854 ], [ -104.839497, 38.721954 ], [ -104.839681, 38.721977 ], [ -104.839915, 38.722005 ], [ -104.840205, 38.722017 ], [ -104.840355, 38.722172 ], [ -104.840532, 38.722273 ], [ -104.840479, 38.722088 ], [ -104.840419, 38.721904 ], [ -104.840516, 38.721758 ], [ -104.840709, 38.721758 ], [ -104.840915, 38.721676 ], [ -104.841004, 38.721356 ], [ -104.841161, 38.721148 ], [ -104.841348, 38.721068 ], [ -104.841397, 38.721031 ], [ -104.841541, 38.720925 ], [ -104.841852, 38.721013 ], [ -104.842427, 38.721094 ], [ -104.842867, 38.721165 ], [ -104.843189, 38.721149 ], [ -104.843146, 38.720901 ], [ -104.843397, 38.720892 ], [ -104.843742, 38.720927 ], [ -104.844153, 38.720808 ], [ -104.844743, 38.720787 ], [ -104.845071, 38.720812 ], [ -104.845226, 38.720887 ], [ -104.845365, 38.720824 ], [ -104.84554, 38.720648 ], [ -104.845598, 38.720617 ], [ -104.845649, 38.720593 ], [ -104.845741, 38.720582 ], [ -104.845956, 38.720582 ], [ -104.846288, 38.720372 ], [ -104.846712, 38.720377 ], [ -104.846863, 38.720303 ], [ -104.846984, 38.720296 ], [ -104.846998, 38.720309 ] ] ] } },
{ "type": "Feature", "properties": { "cls": "shared", "highway": "path", "name": "Talon" }, "geometry": { "type": "LineString", "coordinates": [ [ -104.824861, 38.72584 ], [ -104.824869, 38.725794 ], [ -104.824907, 38.725771 ], [ -104.824979, 38.725738 ], [ -104.825054, 38.725683 ], [ -104.825137, 38.725652 ], [ -104.825317, 38.725549 ], [ -104.825369, 38.725554 ], [ -104.825435, 38.72559 ], [ -104.825629, 38.725626 ], [ -104.825742, 38.725621 ], [ -104.8258, 38.725597 ], [ -104.825901, 38.72552 ], [ -104.826225, 38.725303 ], [ -104.826309, 38.72529 ], [ -104.82639, 38.725281 ], [ -104.826419, 38.725235 ], [ -104.826434, 38.72519 ], [ -104.826396, 38.725168 ], [ -104.826356, 38.724888 ], [ -104.826428, 38.724734 ], [ -104.826454, 38.724321 ], [ -104.826457, 38.724224 ], [ -104.826428, 38.724186 ], [ -104.826373, 38.724152 ], [ -104.826306, 38.724134 ], [ -104.826231, 38.724127 ], [ -104.826133, 38.724143 ], [ -104.825985, 38.724181 ], [ -104.82589, 38.72419 ], [ -104.825754, 38.724181 ], [ -104.825641, 38.724152 ], [ -104.825571, 38.724098 ], [ -104.825522, 38.723992 ], [ -104.825415, 38.723874 ], [ -104.825366, 38.723755 ], [ -104.825308, 38.723682 ], [ -104.825305, 38.723585 ], [ -104.825219, 38.723536 ], [ -104.825178, 38.723484 ], [ -104.825158, 38.723355 ], [ -104.825129, 38.723014 ], [ -104.825155, 38.72296 ], [ -104.825276, 38.722859 ], [ -104.825462, 38.722739 ], [ -104.825542, 38.722678 ], [ -104.825615, 38.72266 ], [ -104.825699, 38.722653 ], [ -104.8258, 38.722649 ], [ -104.825872, 38.722635 ], [ -104.826095, 38.722567 ], [ -104.826133, 38.722536 ], [ -104.82617, 38.722482 ], [ -104.826324, 38.722118 ], [ -104.826413, 38.722044 ], [ -104.826523, 38.722001 ], [ -104.826665, 38.721969 ], [ -104.826801, 38.721951 ], [ -104.826954, 38.72196 ], [ -104.827076, 38.721978 ], [ -104.827261, 38.722021 ], [ -104.827409, 38.722028 ], [ -104.827507, 38.722017 ], [ -104.827649, 38.721969 ], [ -104.827744, 38.721917 ], [ -104.827895, 38.721798 ], [ -104.828008, 38.721721 ], [ -104.828297, 38.721418 ], [ -104.828445, 38.721382 ], [ -104.828572, 38.72133 ], [ -104.828725, 38.72129 ], [ -104.828861, 38.721285 ], [ -104.828971, 38.72126 ], [ -104.829072, 38.721236 ], [ -104.829139, 38.72124 ], [ -104.82937, 38.721348 ], [ -104.829602, 38.721314 ], [ -104.829666, 38.721319 ], [ -104.829729, 38.721366 ], [ -104.829749, 38.721461 ], [ -104.829746, 38.721542 ], [ -104.829764, 38.721576 ], [ -104.829827, 38.721599 ], [ -104.830036, 38.721784 ], [ -104.830172, 38.721863 ], [ -104.830287, 38.721958 ], [ -104.830323, 38.721965 ], [ -104.830363, 38.721961 ], [ -104.830375, 38.721941 ], [ -104.830369, 38.72191 ], [ -104.83034, 38.721884 ], [ -104.830298, 38.721859 ], [ -104.830291, 38.72184 ], [ -104.830299, 38.721688 ], [ -104.830312, 38.721666 ] ] } },
{ "type": "Feature", "properties": { "cls": "shared", "highway": "path", "name": "Sundance" }, "geometry": { "type": "LineString", "coordinates": [ [ -104.825334, 38.729533 ], [ -104.82525, 38.729464 ], [ -104.825151, 38.729433 ], [ -104.825028, 38.729445 ], [ -104.824939, 38.729445 ], [ -104.824875, 38.729435 ], [ -104.824816, 38.729408 ], [ -104.824778, 38.72936 ], [ -104.824773, 38.729299 ], [ -104.82477, 38.72915 ], [ -104.824759, 38.729106 ], [ -104.824743, 38.729086 ], [ -104.824743, 38.729052 ], [ -104.824786, 38.729025 ], [ -104.824845, 38.729 ], [ -104.824881, 38.728933 ], [ -104.824892, 38.72888 ], [ -104.824885, 38.728851 ], [ -104.824852, 38.728807 ], [ -104.824796, 38.728743 ], [ -104.824715, 38.728627 ], [ -104.82467, 38.728556 ], [ -104.824669, 38.728518 ], [ -104.824692, 38.728457 ], [ -104.82473, 38.728463 ], [ -104.824789, 38.728519 ], [ -104.824889, 38.728585 ], [ -104.824933, 38.728598 ], [ -104.825097, 38.728622 ], [ -104.825202, 38.728674 ], [ -104.825301, 38.728669 ], [ -104.825411, 38.728721 ], [ -104.825541, 38.72877 ], [ -104.825644, 38.728782 ], [ -104.825711, 38.728807 ], [ -104.825765, 38.728807 ], [ -104.825867, 38.72877 ], [ -104.825937, 38.72873 ], [ -104.82598, 38.728678 ], [ -104.826017, 38.728604 ], [ -104.826047, 38.728541 ], [ -104.826116, 38.728512 ], [ -104.8262, 38.728458 ], [ -104.826272, 38.728458 ], [ -104.826366, 38.728445 ], [ -104.826457, 38.728431 ], [ -104.826503, 38.72841 ], [ -104.826485, 38.72847 ], [ -104.826482, 38.72852 ], [ -104.826496, 38.728554 ], [ -104.826515, 38.728581 ], [ -104.826519, 38.728604 ], [ -104.826508, 38.728637 ], [ -104.826485, 38.728675 ], [ -104.826457, 38.728698 ], [ -104.826457, 38.728721 ], [ -104.826471, 38.728782 ], [ -104.826473, 38.728832 ], [ -104.826452, 38.728869 ], [ -104.826448, 38.728893 ], [ -104.826459, 38.72892 ], [ -104.826492, 38.728952 ], [ -104.826519, 38.728971 ], [ -104.826535, 38.729014 ], [ -104.826542, 38.729133 ], [ -104.826565, 38.729171 ], [ -104.826605, 38.729199 ], [ -104.826648, 38.729205 ], [ -104.826697, 38.729196 ], [ -104.826745, 38.729178 ], [ -104.826767, 38.729155 ], [ -104.826774, 38.72912 ], [ -104.82679, 38.729051 ], [ -104.826804, 38.729031 ], [ -104.826837, 38.729015 ], [ -104.826966, 38.728999 ], [ -104.827039, 38.728969 ], [ -104.827104, 38.728937 ], [ -104.827165, 38.728934 ], [ -104.827322, 38.728946 ], [ -104.827388, 38.72894 ], [ -104.827465, 38.728905 ], [ -104.827552, 38.728881 ], [ -104.827623, 38.728873 ], [ -104.827699, 38.728883 ], [ -104.827791, 38.728898 ], [ -104.827826, 38.728898 ], [ -104.827858, 38.728877 ], [ -104.827908, 38.728851 ], [ -104.827957, 38.728843 ], [ -104.827996, 38.728846 ], [ -104.828036, 38.728829 ], [ -104.828133, 38.728705 ], [ -104.828144, 38.728657 ], [ -104.828149, 38.728596 ], [ -104.82812, 38.728543 ], [ -104.828065, 38.728507 ], [ -104.827963, 38.728463 ], [ -104.827936, 38.728439 ], [ -104.827852, 38.72828 ], [ -104.82785, 38.728225 ], [ -104.827839, 38.728168 ], [ -104.827846, 38.728135 ], [ -104.827881, 38.728098 ], [ -104.827925, 38.728085 ], [ -104.827976, 38.728082 ], [ -104.828027, 38.728065 ], [ -104.82806, 38.728042 ], [ -104.828076, 38.728004 ], [ -104.828058, 38.727851 ], [ -104.828038, 38.727808 ], [ -104.828038, 38.727765 ], [ -104.82808, 38.72772 ], [ -104.828144, 38.727685 ], [ -104.828173, 38.727664 ], [ -104.828182, 38.727634 ], [ -104.828206, 38.727561 ], [ -104.828222, 38.727525 ], [ -104.828261, 38.727496 ], [ -104.828332, 38.727487 ], [ -104.828388, 38.727475 ], [ -104.828421, 38.727456 ], [ -104.82843, 38.727423 ], [ -104.82845, 38.727395 ], [ -104.828494, 38.727376 ], [ -104.828618, 38.727342 ], [ -104.828792, 38.727313 ], [ -104.828876, 38.727314 ], [ -104.829036, 38.727333 ], [ -104.829093, 38.727335 ], [ -104.829142, 38.72733 ], [ -104.829175, 38.727309 ], [ -104.829204, 38.72728 ], [ -104.829235, 38.727249 ], [ -104.82946, 38.727094 ], [ -104.829544, 38.727043 ], [ -104.829575, 38.727012 ], [ -104.829624, 38.726942 ], [ -104.829657, 38.726905 ], [ -104.829703, 38.726883 ], [ -104.830241, 38.72675 ], [ -104.830398, 38.726717 ], [ -104.830506, 38.726707 ], [ -104.830535, 38.726695 ], [ -104.830584, 38.726681 ], [ -104.830792, 38.726692 ], [ -104.830865, 38.726693 ], [ -104.830931, 38.726669 ], [ -104.831055, 38.726612 ], [ -104.831119, 38.72661 ], [ -104.831161, 38.726622 ], [ -104.831223, 38.72661 ], [ -104.831249, 38.72661 ], [ -104.831278, 38.726581 ], [ -104.831329, 38.726524 ], [ -104.831384, 38.726514 ], [ -104.831484, 38.726515 ], [ -104.831532, 38.726505 ], [ -104.831597, 38.726474 ], [ -104.831658, 38.72644 ], [ -104.831729, 38.72645 ], [ -104.831827, 38.72645 ], [ -104.832315, 38.726367 ], [ -104.832417, 38.726468 ], [ -104.832765, 38.726455 ], [ -104.832957, 38.726375 ], [ -104.833022, 38.726221 ], [ -104.833325, 38.725954 ], [ -104.833769, 38.72603 ], [ -104.834047, 38.725992 ], [ -104.834036, 38.725782 ], [ -104.833838, 38.725524 ], [ -104.83362, 38.725316 ], [ -104.833513, 38.724973 ], [ -104.833523, 38.724672 ], [ -104.833516, 38.724552 ], [ -104.833196, 38.724524 ], [ -104.833146, 38.724481 ], [ -104.833082, 38.72445 ], [ -104.833038, 38.724381 ], [ -104.833024, 38.724323 ], [ -104.833049, 38.724276 ], [ -104.833049, 38.724209 ], [ -104.833116, 38.724058 ], [ -104.833218, 38.723985 ], [ -104.833262, 38.723933 ], [ -104.83327, 38.72389 ], [ -104.83329, 38.723853 ], [ -104.833309, 38.723782 ], [ -104.83329, 38.723687 ], [ -104.833312, 38.723607 ], [ -104.833315, 38.723502 ], [ -104.833287, 38.723355 ], [ -104.833298, 38.72331 ], [ -104.833284, 38.723249 ], [ -104.833237, 38.723193 ], [ -104.833179, 38.723141 ], [ -104.833088, 38.723096 ], [ -104.832933, 38.723036 ], [ -104.832842, 38.72299 ], [ -104.832599, 38.722773 ], [ -104.83205, 38.722576 ], [ -104.831514, 38.722431 ], [ -104.831411, 38.722404 ], [ -104.831363, 38.72234 ], [ -104.83132, 38.722216 ], [ -104.831186, 38.722111 ], [ -104.831104, 38.722017 ], [ -104.831069, 38.721939 ], [ -104.831051, 38.721884 ], [ -104.831048, 38.721841 ], [ -104.831053, 38.721808 ], [ -104.831069, 38.721745 ], [ -104.831088, 38.721672 ] ] } },
{ "type": "Feature", "properties": { "cls": "shared", "highway": "path", "name": "Cougar's Shadow" }, "geometry": { "type": "LineString", "coordinates": [ [ -104.837238, 38.734086 ], [ -104.837458, 38.733969 ], [ -104.837415, 38.73376 ], [ -104.837699, 38.733752 ], [ -104.837866, 38.733689 ], [ -104.837984, 38.73371 ], [ -104.838134, 38.733886 ], [ -104.838408, 38.733815 ], [ -104.838654, 38.733572 ], [ -104.838789, 38.733551 ], [ -104.83893, 38.733444 ], [ -104.838933, 38.733183 ], [ -104.839289, 38.733218 ], [ -104.83918, 38.732534 ], [ -104.838949, 38.732509 ], [ -104.838928, 38.732341 ], [ -104.839005, 38.732117 ], [ -104.839143, 38.731986 ], [ -104.839196, 38.731408 ], [ -104.839336, 38.731153 ], [ -104.839502, 38.731015 ], [ -104.839835, 38.731019 ], [ -104.839926, 38.730906 ], [ -104.839835, 38.730546 ], [ -104.83945, 38.730556 ], [ -104.839105, 38.730366 ], [ -104.83903, 38.730191 ], [ -104.839123, 38.729979 ], [ -104.839062, 38.729818 ], [ -104.839121, 38.729571 ], [ -104.839563, 38.729472 ], [ -104.83969, 38.729504 ], [ -104.840135, 38.729153 ], [ -104.840339, 38.729144 ], [ -104.840453, 38.728786 ], [ -104.840559, 38.7286 ], [ -104.840307, 38.728412 ], [ -104.84043, 38.728287 ], [ -104.840344, 38.727701 ], [ -104.840183, 38.727416 ], [ -104.840258, 38.727345 ], [ -104.840501, 38.727284 ], [ -104.840265, 38.727261 ], [ -104.840189, 38.727229 ] ] } },
{ "type": "Feature", "properties": { "cls": "shared", "highway": "path", "name": "Raccoon Ridge" }, "geometry": { "type": "LineString", "coordinates": [ [ -104.82953, 38.735175 ], [ -104.82945, 38.735183 ], [ -104.829112, 38.735293 ], [ -104.828926, 38.735357 ], [ -104.828798, 38.73539 ], [ -104.828742, 38.735387 ], [ -104.82866, 38.73532 ], [ -104.828617, 38.735313 ], [ -104.828528, 38.735363 ], [ -104.828416, 38.735436 ], [ -104.828337, 38.735501 ], [ -104.828273, 38.735557 ], [ -104.828136, 38.735603 ], [ -104.828037, 38.735662 ], [ -104.827975, 38.735709 ], [ -104.827894, 38.735733 ], [ -104.827741, 38.735725 ], [ -104.827705, 38.735752 ], [ -104.827602, 38.735764 ], [ -104.827573, 38.735807 ], [ -104.827467, 38.735858 ], [ -104.827446, 38.73589 ], [ -104.827495, 38.735937 ], [ -104.827502, 38.735988 ], [ -104.827585, 38.736045 ], [ -104.827642, 38.736098 ], [ -104.827715, 38.736193 ], [ -104.827693, 38.736233 ], [ -104.827644, 38.736245 ], [ -104.827513, 38.73623 ], [ -104.827425, 38.736235 ], [ -104.827334, 38.736239 ], [ -104.827239, 38.736258 ], [ -104.827221, 38.736262 ], [ -104.827125, 38.736333 ], [ -104.827058, 38.736375 ], [ -104.827028, 38.736421 ], [ -104.82702, 38.73648 ], [ -104.827058, 38.736532 ], [ -104.827109, 38.736574 ], [ -104.827136, 38.736632 ], [ -104.827136, 38.736716 ], [ -104.827125, 38.736844 ], [ -104.827082, 38.736961 ], [ -104.827026, 38.737053 ], [ -104.827023, 38.737137 ], [ -104.827037, 38.73725 ], [ -104.827058, 38.737287 ], [ -104.827112, 38.737325 ], [ -104.827181, 38.737365 ], [ -104.827243, 38.737411 ], [ -104.827248, 38.737446 ], [ -104.827211, 38.737492 ], [ -104.827152, 38.737546 ], [ -104.827136, 38.737584 ], [ -104.82713, 38.737682 ], [ -104.827147, 38.737894 ], [ -104.82723, 38.738007 ], [ -104.827283, 38.738076 ], [ -104.827356, 38.738126 ], [ -104.82753, 38.738189 ], [ -104.827702, 38.738223 ], [ -104.827836, 38.738264 ], [ -104.827954, 38.738269 ], [ -104.828016, 38.738266 ], [ -104.828053, 38.738231 ], [ -104.828085, 38.738147 ], [ -104.828109, 38.738122 ], [ -104.828176, 38.738122 ], [ -104.828227, 38.738089 ], [ -104.828241, 38.738038 ], [ -104.828249, 38.737959 ], [ -104.828286, 38.73784 ], [ -104.828316, 38.737758 ], [ -104.828344, 38.737685 ], [ -104.828488, 38.737691 ], [ -104.828552, 38.737689 ], [ -104.828665, 38.737699 ], [ -104.828761, 38.737741 ], [ -104.828847, 38.737762 ], [ -104.828954, 38.737802 ], [ -104.829077, 38.737809 ], [ -104.829102, 38.737869 ], [ -104.829177, 38.737913 ], [ -104.829271, 38.73798 ], [ -104.829378, 38.738043 ], [ -104.829442, 38.738097 ], [ -104.82952, 38.738128 ], [ -104.829619, 38.738168 ], [ -104.829692, 38.738206 ], [ -104.829831, 38.738279 ], [ -104.829944, 38.738342 ], [ -104.830038, 38.738392 ], [ -104.830062, 38.738407 ], [ -104.8301, 38.738396 ], [ -104.830234, 38.738266 ] ] } },
{ "type": "Feature", "properties": { "cls": "shared", "highway": "path", "name": null }, "geometry": { "type": "LineString", "coordinates": [ [ -104.826012, 38.721392 ], [ -104.825669, 38.721181 ], [ -104.825583, 38.721158 ], [ -104.825552, 38.721135 ], [ -104.82547, 38.721076 ], [ -104.82541, 38.721066 ], [ -104.825338, 38.721065 ], [ -104.825269, 38.721081 ], [ -104.825229, 38.721086 ], [ -104.825187, 38.721083 ], [ -104.8251, 38.721054 ], [ -104.825064, 38.721034 ], [ -104.824996, 38.720967 ], [ -104.82494, 38.720929 ], [ -104.824878, 38.720899 ], [ -104.824817, 38.720876 ], [ -104.824786, 38.720858 ], [ -104.824772, 38.720841 ], [ -104.824768, 38.720816 ], [ -104.824758, 38.720765 ], [ -104.824743, 38.72074 ], [ -104.824696, 38.720688 ], [ -104.82465, 38.720654 ], [ -104.824623, 38.720634 ], [ -104.824605, 38.720608 ], [ -104.82458, 38.720586 ], [ -104.824546, 38.720576 ], [ -104.824513, 38.720572 ], [ -104.824479, 38.720586 ], [ -104.82445, 38.720632 ], [ -104.82437, 38.720699 ], [ -104.824341, 38.720744 ], [ -104.824313, 38.720824 ], [ -104.824263, 38.720866 ], [ -104.824241, 38.720909 ], [ -104.824219, 38.720977 ], [ -104.824176, 38.721031 ], [ -104.824144, 38.721058 ], [ -104.824118, 38.721144 ] ] } },
{ "type": "Feature", "properties": { "cls": "shared", "highway": "path", "name": null }, "geometry": { "type": "LineString", "coordinates": [ [ -104.824144, 38.721058 ], [ -104.824144, 38.721094 ], [ -104.824206, 38.721173 ] ] } },
{ "type": "Feature", "properties": { "cls": "shared", "highway": "path", "name": "Sundance Trail" }, "geometry": { "type": "LineString", "coordinates": [ [ -104.826012, 38.721392 ], [ -104.825989, 38.721464 ], [ -104.826023, 38.721563 ], [ -104.825977, 38.721662 ], [ -104.825977, 38.721716 ], [ -104.825873, 38.72177 ], [ -104.825701, 38.72177 ], [ -104.825631, 38.721887 ], [ -104.82562, 38.721968 ], [ -104.825597, 38.721995 ], [ -104.82547, 38.722004 ], [ -104.825401, 38.721986 ], [ -104.825286, 38.721914 ], [ -104.82524, 38.721932 ], [ -104.825263, 38.721986 ], [ -104.82524, 38.722049 ], [ -104.825044, 38.722066 ], [ -104.824895, 38.722021 ], [ -104.824769, 38.721886 ], [ -104.824758, 38.721742 ], [ -104.824781, 38.721715 ], [ -104.824965, 38.721706 ], [ -104.825068, 38.721598 ], [ -104.824793, 38.72148 ], [ -104.824781, 38.721372 ], [ -104.824482, 38.721318 ], [ -104.824206, 38.721173 ], [ -104.824172, 38.721155 ], [ -104.824118, 38.721144 ], [ -104.824104, 38.721141 ], [ -104.823954, 38.72111 ], [ -104.823885, 38.721164 ], [ -104.823873, 38.721254 ], [ -104.823896, 38.721308 ], [ -104.823999, 38.721371 ], [ -104.824022, 38.721407 ], [ -104.823999, 38.721452 ], [ -104.823884, 38.721515 ], [ -104.823757, 38.721506 ], [ -104.823677, 38.721479 ], [ -104.82355, 38.72137 ], [ -104.823291, 38.721242 ], [ -104.823273, 38.721136 ], [ -104.823202, 38.721065 ], [ -104.823166, 38.720993 ], [ -104.823057, 38.720964 ], [ -104.822997, 38.720974 ], [ -104.822956, 38.721026 ], [ -104.82296, 38.721081 ], [ -104.822967, 38.721171 ], [ -104.822922, 38.721361 ], [ -104.822931, 38.721539 ], [ -104.823075, 38.721642 ], [ -104.823239, 38.721676 ], [ -104.823342, 38.721767 ], [ -104.823648, 38.721898 ], [ -104.823733, 38.721962 ], [ -104.823749, 38.722026 ], [ -104.823741, 38.722124 ], [ -104.823789, 38.722234 ], [ -104.823783, 38.722295 ], [ -104.823709, 38.722488 ], [ -104.823593, 38.72265 ], [ -104.823513, 38.722713 ], [ -104.823478, 38.72274 ], [ -104.823371, 38.722745 ], [ -104.823244, 38.722717 ], [ -104.823098, 38.722775 ], [ -104.823006, 38.722759 ], [ -104.822907, 38.722683 ], [ -104.822762, 38.722572 ], [ -104.822677, 38.722565 ], [ -104.822597, 38.722582 ], [ -104.822539, 38.722621 ], [ -104.822513, 38.72268 ], [ -104.822466, 38.722815 ], [ -104.822488, 38.722858 ], [ -104.822628, 38.722977 ], [ -104.822637, 38.723037 ], [ -104.822613, 38.723127 ], [ -104.822568, 38.723198 ], [ -104.82243, 38.723288 ], [ -104.822363, 38.723273 ], [ -104.822053, 38.723098 ], [ -104.821943, 38.723077 ], [ -104.821848, 38.723085 ], [ -104.821787, 38.723136 ], [ -104.821728, 38.723206 ], [ -104.821671, 38.723234 ], [ -104.821601, 38.723248 ], [ -104.821406, 38.723306 ], [ -104.821286, 38.723315 ], [ -104.821038, 38.723475 ], [ -104.821003, 38.72361 ], [ -104.821106, 38.723746 ], [ -104.821221, 38.723845 ], [ -104.821255, 38.723944 ], [ -104.821243, 38.72398 ], [ -104.821117, 38.724088 ], [ -104.820955, 38.724115 ], [ -104.820806, 38.724187 ], [ -104.820748, 38.724259 ], [ -104.820748, 38.724295 ], [ -104.820759, 38.724331 ], [ -104.820863, 38.724385 ], [ -104.820966, 38.724394 ], [ -104.82107, 38.724349 ], [ -104.821173, 38.724377 ], [ -104.821196, 38.724404 ], [ -104.821196, 38.724503 ], [ -104.82115, 38.724593 ], [ -104.821126, 38.724728 ], [ -104.820942, 38.724881 ], [ -104.820861, 38.724989 ], [ -104.820723, 38.725043 ], [ -104.820654, 38.725034 ], [ -104.820504, 38.725069 ], [ -104.820262, 38.725222 ], [ -104.820216, 38.725312 ], [ -104.820216, 38.725556 ], [ -104.820146, 38.725673 ], [ -104.820146, 38.725844 ], [ -104.819967, 38.726117 ], [ -104.819802, 38.72626 ], [ -104.819765, 38.726301 ], [ -104.819733, 38.726376 ], [ -104.819776, 38.726465 ], [ -104.819902, 38.726555 ], [ -104.819983, 38.726646 ], [ -104.820002, 38.726854 ], [ -104.820042, 38.726927 ], [ -104.820097, 38.727006 ], [ -104.820099, 38.72708 ], [ -104.820075, 38.727124 ], [ -104.81984, 38.727347 ], [ -104.819771, 38.727435 ], [ -104.819644, 38.727559 ], [ -104.8196, 38.727622 ], [ -104.819473, 38.727745 ], [ -104.819069, 38.727848 ], [ -104.818988, 38.727872 ], [ -104.818927, 38.727905 ], [ -104.818892, 38.727953 ], [ -104.818882, 38.728248 ], [ -104.818901, 38.728379 ], [ -104.8189, 38.728726 ], [ -104.81889, 38.728878 ], [ -104.818917, 38.72903 ], [ -104.818905, 38.729109 ], [ -104.818882, 38.729159 ], [ -104.818833, 38.729213 ], [ -104.818705, 38.729269 ], [ -104.818646, 38.729288 ], [ -104.818586, 38.729319 ], [ -104.818566, 38.729363 ], [ -104.818562, 38.729428 ], [ -104.818562, 38.72984 ], [ -104.818581, 38.72994 ], [ -104.81861, 38.730024 ], [ -104.81867, 38.730134 ], [ -104.818727, 38.73021 ], [ -104.818841, 38.730316 ], [ -104.819015, 38.730436 ] ] } },
{ "type": "Feature", "properties": { "cls": "shared", "highway": "path", "name": "Turkey Trot" }, "geometry": { "type": "LineString", "coordinates": [ [ -104.826503, 38.72841 ], [ -104.826594, 38.728355 ], [ -104.826658, 38.728311 ], [ -104.826733, 38.728246 ], [ -104.826752, 38.728203 ], [ -104.826774, 38.728169 ], [ -104.82687, 38.728127 ], [ -104.826943, 38.728089 ], [ -104.826999, 38.728027 ], [ -104.827071, 38.727995 ], [ -104.827168, 38.727951 ], [ -104.827221, 38.727886 ], [ -104.827251, 38.727822 ], [ -104.827297, 38.727797 ], [ -104.827407, 38.727776 ], [ -104.827468, 38.727753 ], [ -104.827519, 38.727715 ], [ -104.827535, 38.727658 ], [ -104.827562, 38.727606 ], [ -104.827669, 38.727502 ], [ -104.827696, 38.727441 ], [ -104.827707, 38.727378 ], [ -104.827688, 38.72734 ], [ -104.827653, 38.727317 ], [ -104.827554, 38.727292 ], [ -104.827471, 38.727284 ], [ -104.827415, 38.727261 ], [ -104.827372, 38.727232 ], [ -104.827339, 38.72719 ], [ -104.827305, 38.727142 ], [ -104.827278, 38.727104 ], [ -104.827232, 38.727081 ], [ -104.827181, 38.727058 ], [ -104.827122, 38.727012 ], [ -104.827085, 38.726985 ], [ -104.827047, 38.726941 ], [ -104.827007, 38.726914 ], [ -104.826905, 38.726865 ], [ -104.826841, 38.726851 ], [ -104.826774, 38.726878 ], [ -104.826707, 38.72689 ], [ -104.826618, 38.726884 ], [ -104.82654, 38.726859 ], [ -104.826449, 38.726874 ], [ -104.826406, 38.726901 ], [ -104.826377, 38.726951 ], [ -104.826326, 38.726989 ], [ -104.826261, 38.726999 ], [ -104.826237, 38.726993 ], [ -104.826197, 38.727006 ], [ -104.826192, 38.727047 ], [ -104.826216, 38.727089 ], [ -104.82631, 38.727112 ], [ -104.826379, 38.727119 ], [ -104.826463, 38.727133 ], [ -104.826543, 38.727162 ], [ -104.826605, 38.727225 ], [ -104.826594, 38.727309 ], [ -104.826538, 38.727384 ], [ -104.826503, 38.727439 ], [ -104.826465, 38.727487 ], [ -104.826471, 38.727545 ], [ -104.826492, 38.7276 ], [ -104.826449, 38.727656 ], [ -104.826377, 38.727684 ], [ -104.826285, 38.72769 ], [ -104.826221, 38.727656 ], [ -104.826157, 38.727619 ], [ -104.82617, 38.72755 ], [ -104.826192, 38.727491 ], [ -104.826183, 38.727445 ], [ -104.826154, 38.727391 ], [ -104.826071, 38.727355 ], [ -104.82598, 38.727338 ], [ -104.825934, 38.727301 ], [ -104.82572, 38.727194 ], [ -104.82566, 38.727171 ], [ -104.825623, 38.727104 ], [ -104.825596, 38.727031 ], [ -104.825553, 38.726941 ], [ -104.825494, 38.726792 ], [ -104.825484, 38.726679 ], [ -104.825481, 38.726558 ], [ -104.82547, 38.726453 ], [ -104.825478, 38.726305 ], [ -104.825511, 38.726213 ], [ -104.825534, 38.726116 ], [ -104.825544, 38.725961 ], [ -104.825524, 38.725861 ], [ -104.825449, 38.725834 ], [ -104.825392, 38.7258 ], [ -104.825336, 38.725786 ], [ -104.825274, 38.725796 ], [ -104.825197, 38.725823 ], [ -104.825084, 38.72584 ], [ -104.824963, 38.725834 ], [ -104.824861, 38.72584 ] ] } },
{ "type": "Feature", "properties": { "cls": "shared", "highway": "path", "name": "Talon" }, "geometry": { "type": "LineString", "coordinates": [ [ -104.824861, 38.72584 ], [ -104.824808, 38.725832 ], [ -104.824724, 38.725838 ], [ -104.824596, 38.725874 ], [ -104.824515, 38.725938 ], [ -104.824443, 38.725982 ], [ -104.824362, 38.72602 ], [ -104.824263, 38.726125 ], [ -104.824209, 38.726225 ], [ -104.824204, 38.726303 ], [ -104.824196, 38.726401 ], [ -104.824177, 38.726474 ], [ -104.824121, 38.726562 ], [ -104.824035, 38.726618 ], [ -104.823973, 38.726629 ], [ -104.823893, 38.726623 ], [ -104.823802, 38.726618 ], [ -104.823694, 38.726633 ], [ -104.823617, 38.726671 ], [ -104.82355, 38.726754 ], [ -104.823504, 38.72683 ], [ -104.823501, 38.726916 ], [ -104.82348, 38.726985 ], [ -104.823429, 38.727148 ], [ -104.823434, 38.727259 ], [ -104.823405, 38.727336 ], [ -104.823322, 38.727453 ], [ -104.82323, 38.727533 ], [ -104.823156, 38.727624 ], [ -104.823101, 38.727711 ], [ -104.823086, 38.727791 ], [ -104.823088, 38.727875 ], [ -104.823102, 38.727954 ], [ -104.823087, 38.728012 ], [ -104.823021, 38.728205 ], [ -104.823086, 38.728299 ], [ -104.82311, 38.72846 ], [ -104.823147, 38.72856 ], [ -104.823228, 38.72868 ], [ -104.823263, 38.728818 ], [ -104.823287, 38.728939 ], [ -104.823249, 38.729042 ], [ -104.823268, 38.729113 ], [ -104.82323, 38.729251 ], [ -104.82323, 38.729318 ], [ -104.823289, 38.729437 ], [ -104.823335, 38.729575 ], [ -104.823415, 38.729713 ], [ -104.823477, 38.729801 ], [ -104.823531, 38.729935 ], [ -104.823576, 38.730021 ], [ -104.823584, 38.730163 ], [ -104.823571, 38.730305 ], [ -104.823528, 38.730433 ], [ -104.82351, 38.730547 ] ] } },
{ "type": "Feature", "properties": { "cls": "shared", "highway": "path", "name": "Zook Loop" }, "geometry": { "type": "LineString", "coordinates": [ [ -104.822844, 38.730753 ], [ -104.823161, 38.730753 ], [ -104.82329, 38.730733 ], [ -104.823318, 38.730598 ], [ -104.823391, 38.73054 ], [ -104.82351, 38.730547 ], [ -104.823599, 38.730505 ], [ -104.823714, 38.730503 ], [ -104.82392, 38.730377 ], [ -104.824227, 38.730345 ], [ -104.82434, 38.730288 ], [ -104.824484, 38.730188 ], [ -104.824624, 38.730122 ], [ -104.824767, 38.730071 ], [ -104.824861, 38.72999 ], [ -104.824907, 38.72987 ], [ -104.825025, 38.729784 ], [ -104.825187, 38.729688 ], [ -104.825334, 38.729533 ], [ -104.825376, 38.72948 ], [ -104.825446, 38.729462 ], [ -104.825481, 38.729504 ], [ -104.825497, 38.729567 ], [ -104.825507, 38.729818 ], [ -104.825572, 38.729859 ], [ -104.825738, 38.729868 ], [ -104.825801, 38.729876 ], [ -104.825832, 38.729985 ], [ -104.825886, 38.730075 ], [ -104.826005, 38.730093 ], [ -104.826055, 38.730027 ], [ -104.826183, 38.72996 ], [ -104.826433, 38.729742 ], [ -104.826715, 38.729541 ], [ -104.827024, 38.729407 ], [ -104.827436, 38.729374 ], [ -104.827595, 38.729356 ], [ -104.827689, 38.729398 ], [ -104.827714, 38.729482 ], [ -104.828038, 38.729557 ], [ -104.828264, 38.729539 ], [ -104.828483, 38.729499 ], [ -104.828558, 38.729565 ], [ -104.828655, 38.729544 ], [ -104.828721, 38.729452 ], [ -104.828852, 38.729407 ], [ -104.829075, 38.729411 ], [ -104.829271, 38.729355 ], [ -104.829441, 38.729269 ], [ -104.829548, 38.729262 ], [ -104.829677, 38.729262 ], [ -104.829802, 38.72935 ], [ -104.829822, 38.729461 ], [ -104.829741, 38.729602 ], [ -104.829698, 38.729778 ], [ -104.829762, 38.730003 ], [ -104.829427, 38.730157 ], [ -104.828878, 38.730311 ], [ -104.828105, 38.730304 ], [ -104.827848, 38.730231 ], [ -104.827702, 38.730237 ], [ -104.827204, 38.730438 ], [ -104.826878, 38.730612 ], [ -104.826406, 38.731041 ], [ -104.826337, 38.731141 ], [ -104.826183, 38.731195 ], [ -104.826002, 38.731121 ], [ -104.825728, 38.731081 ], [ -104.825367, 38.731061 ], [ -104.825119, 38.731111 ], [ -104.824938, 38.731148 ], [ -104.824569, 38.731335 ], [ -104.824226, 38.731463 ], [ -104.823994, 38.73161 ], [ -104.823805, 38.731603 ], [ -104.823625, 38.731483 ], [ -104.82356, 38.73148 ], [ -104.823455, 38.731471 ], [ -104.823368, 38.73145 ], [ -104.823191, 38.731367 ], [ -104.822981, 38.731349 ], [ -104.822706, 38.731121 ], [ -104.822578, 38.730987 ], [ -104.822574, 38.730855 ] ] } },
{ "type": "Feature", "properties": { "cls": "shared", "highway": "path", "name": "Zook Loop" }, "geometry": { "type": "LineString", "coordinates": [ [ -104.822724, 38.730793 ], [ -104.822844, 38.730753 ] ] } },
{ "type": "Feature", "properties": { "cls": "shared", "highway": "path", "name": "Zook Loop" }, "geometry": { "type": "LineString", "coordinates": [ [ -104.822574, 38.730855 ], [ -104.822724, 38.730793 ] ] } },
{ "type": "Feature", "properties": { "cls": "shared", "highway": "path", "name": "Coyote Run" }, "geometry": { "type": "LineString", "coordinates": [ [ -104.82234, 38.734755 ], [ -104.822443, 38.73476 ], [ -104.822499, 38.734448 ], [ -104.822654, 38.734331 ], [ -104.82289, 38.734226 ], [ -104.822987, 38.734163 ], [ -104.823153, 38.734159 ], [ -104.823293, 38.734272 ], [ -104.823244, 38.734438 ], [ -104.823343, 38.734456 ], [ -104.823432, 38.734427 ], [ -104.8235, 38.734225 ], [ -104.823595, 38.734139 ] ] } },
{ "type": "Feature", "properties": { "cls": "shared", "highway": "path", "name": "Acorn Alley" }, "geometry": { "type": "LineString", "coordinates": [ [ -104.827283, 38.739492 ], [ -104.827232, 38.739461 ], [ -104.827219, 38.739419 ], [ -104.827243, 38.739373 ], [ -104.827294, 38.739317 ], [ -104.827331, 38.739294 ] ] } },
{ "type": "Feature", "properties": { "cls": "shared", "highway": "path", "name": null }, "geometry": { "type": "LineString", "coordinates": [ [ -104.829013, 38.738011 ], [ -104.829032, 38.737957 ], [ -104.829102, 38.737869 ] ] } },
{ "type": "Feature", "properties": { "cls": "shared", "highway": "path", "name": "Acorn Alley" }, "geometry": { "type": "LineString", "coordinates": [ [ -104.828412, 38.738712 ], [ -104.828466, 38.738643 ], [ -104.828544, 38.738584 ], [ -104.82863, 38.738484 ], [ -104.828705, 38.738405 ], [ -104.828784, 38.738306 ], [ -104.828868, 38.738193 ], [ -104.828944, 38.738112 ], [ -104.828976, 38.738049 ], [ -104.829013, 38.738011 ] ] } },
{ "type": "Feature", "properties": { "cls": "shared", "highway": "path", "name": "Acorn Alley" }, "geometry": { "type": "LineString", "coordinates": [ [ -104.82735, 38.739237 ], [ -104.827315, 38.739179 ], [ -104.827289, 38.739141 ], [ -104.827256, 38.739089 ], [ -104.827227, 38.739043 ], [ -104.827195, 38.738999 ], [ -104.827176, 38.738955 ], [ -104.827203, 38.738921 ], [ -104.82724, 38.738919 ], [ -104.827331, 38.73899 ], [ -104.827423, 38.739047 ], [ -104.827514, 38.739093 ], [ -104.827629, 38.739151 ], [ -104.827745, 38.739174 ], [ -104.827868, 38.739216 ], [ -104.827948, 38.739237 ], [ -104.827994, 38.739227 ], [ -104.828007, 38.739193 ], [ -104.828007, 38.739147 ], [ -104.827978, 38.739066 ], [ -104.827967, 38.73902 ], [ -104.827983, 38.738959 ], [ -104.828021, 38.738888 ], [ -104.828066, 38.738808 ], [ -104.828099, 38.738764 ], [ -104.828152, 38.738723 ], [ -104.82823, 38.7387 ], [ -104.828305, 38.738698 ], [ -104.828412, 38.738712 ] ] } },
{ "type": "Feature", "properties": { "cls": "shared", "highway": "path", "name": "Acorn Alley" }, "geometry": { "type": "LineString", "coordinates": [ [ -104.82882, 38.739455 ], [ -104.828788, 38.73943 ], [ -104.828713, 38.739384 ], [ -104.828662, 38.739319 ], [ -104.828611, 38.739243 ], [ -104.828571, 38.73916 ], [ -104.828528, 38.739093 ], [ -104.828463, 38.739059 ], [ -104.828426, 38.73899 ], [ -104.828378, 38.738877 ], [ -104.828369, 38.738812 ], [ -104.828394, 38.738771 ], [ -104.828412, 38.738712 ] ] } },
{ "type": "Feature", "properties": { "cls": "shared", "highway": "path", "name": "Acorn Alley" }, "geometry": { "type": "LineString", "coordinates": [ [ -104.827331, 38.739294 ], [ -104.82735, 38.739237 ] ] } },
{ "type": "Feature", "properties": { "cls": "shared", "highway": "path", "name": "Acorn Alley" }, "geometry": { "type": "LineString", "coordinates": [ [ -104.828823, 38.739495 ], [ -104.82882, 38.739455 ] ] } },
{ "type": "Feature", "properties": { "cls": "shared", "highway": "path", "name": "Acorn Alley" }, "geometry": { "type": "LineString", "coordinates": [ [ -104.827283, 38.739492 ], [ -104.827315, 38.739432 ], [ -104.827336, 38.739417 ], [ -104.827368, 38.739415 ], [ -104.82739, 38.739433 ], [ -104.827455, 38.739511 ], [ -104.827532, 38.739601 ], [ -104.827599, 38.73968 ], [ -104.827618, 38.739706 ], [ -104.827638, 38.73975 ], [ -104.827656, 38.739794 ], [ -104.827718, 38.739846 ], [ -104.827794, 38.739878 ], [ -104.827869, 38.739885 ], [ -104.827942, 38.739904 ], [ -104.82801, 38.739946 ], [ -104.828045, 38.739962 ], [ -104.828063, 38.73996 ], [ -104.828077, 38.739949 ], [ -104.82808, 38.739929 ], [ -104.828069, 38.739896 ], [ -104.828031, 38.739817 ], [ -104.82802, 38.73979 ], [ -104.828021, 38.739745 ], [ -104.828059, 38.739707 ], [ -104.82811, 38.739671 ], [ -104.828232, 38.739625 ], [ -104.828318, 38.739598 ], [ -104.828438, 38.739571 ], [ -104.828536, 38.73955 ], [ -104.828605, 38.739543 ], [ -104.828695, 38.739546 ], [ -104.828761, 38.739539 ], [ -104.828799, 38.739522 ], [ -104.828813, 38.739506 ], [ -104.828823, 38.739495 ] ] } },
{ "type": "Feature", "properties": { "cls": "shared", "highway": "path", "name": "Soaring Kestral" }, "geometry": { "type": "LineString", "coordinates": [ [ -104.824963, 38.739766 ], [ -104.825033, 38.739723 ], [ -104.825052, 38.739672 ], [ -104.825119, 38.73957 ], [ -104.825204, 38.739423 ], [ -104.825285, 38.739292 ], [ -104.825379, 38.739191 ], [ -104.825459, 38.739149 ], [ -104.825609, 38.739116 ], [ -104.825722, 38.739095 ], [ -104.825871, 38.739098 ], [ -104.825925, 38.739099 ] ] } },
{ "type": "Feature", "properties": { "cls": "shared", "highway": "path", "name": "Acorn Alley" }, "geometry": { "type": "LineString", "coordinates": [ [ -104.826763, 38.740034 ], [ -104.826817, 38.739991 ], [ -104.826846, 38.739967 ], [ -104.826996, 38.73988 ], [ -104.827037, 38.739846 ], [ -104.827034, 38.7398 ], [ -104.826988, 38.739739 ], [ -104.826945, 38.739687 ], [ -104.826905, 38.739635 ], [ -104.826868, 38.739582 ], [ -104.826795, 38.739513 ], [ -104.826728, 38.739476 ], [ -104.82668, 38.739446 ], [ -104.826634, 38.739419 ], [ -104.826623, 38.739405 ], [ -104.826664, 38.739384 ], [ -104.826699, 38.739367 ], [ -104.82679, 38.739392 ], [ -104.826908, 38.739438 ], [ -104.826994, 38.739465 ], [ -104.827117, 38.73948 ], [ -104.827219, 38.739488 ], [ -104.827283, 38.739492 ] ] } },
{ "type": "Feature", "properties": { "cls": "shared", "highway": "path", "name": "Acorn Alley" }, "geometry": { "type": "LineString", "coordinates": [ [ -104.827283, 38.739492 ], [ -104.827334, 38.739543 ], [ -104.827366, 38.739614 ], [ -104.827393, 38.739714 ], [ -104.827401, 38.739785 ], [ -104.827401, 38.739865 ], [ -104.827329, 38.739961 ], [ -104.827273, 38.740038 ], [ -104.827197, 38.740047 ], [ -104.827074, 38.740036 ], [ -104.826953, 38.740016 ], [ -104.826878, 38.739988 ], [ -104.826817, 38.739991 ] ] } },
{ "type": "Feature", "properties": { "cls": "shared", "highway": "path", "name": "Soaring Kestral" }, "geometry": { "type": "LineString", "coordinates": [ [ -104.824963, 38.739766 ], [ -104.825038, 38.739783 ], [ -104.825135, 38.739846 ], [ -104.825221, 38.739882 ], [ -104.825363, 38.739915 ], [ -104.825449, 38.739907 ], [ -104.825564, 38.739871 ], [ -104.82572, 38.739852 ], [ -104.825819, 38.739854 ], [ -104.825913, 38.739911 ], [ -104.825985, 38.739959 ] ] } },
{ "type": "Feature", "properties": { "cls": "shared", "highway": "path", "name": "Soaring Kestral" }, "geometry": { "type": "LineString", "coordinates": [ [ -104.822171, 38.74052 ], [ -104.822254, 38.740503 ], [ -104.82238, 38.740449 ], [ -104.822463, 38.740382 ], [ -104.822554, 38.740302 ], [ -104.822621, 38.740212 ], [ -104.82271, 38.740105 ], [ -104.822766, 38.740055 ], [ -104.822831, 38.739976 ], [ -104.822879, 38.739884 ], [ -104.822925, 38.739846 ], [ -104.823029, 38.739827 ], [ -104.823118, 38.739779 ], [ -104.823195, 38.739731 ], [ -104.823233, 38.739677 ], [ -104.823263, 38.739622 ], [ -104.823311, 38.739578 ], [ -104.823386, 38.739536 ], [ -104.823442, 38.739503 ], [ -104.823482, 38.739463 ], [ -104.823539, 38.739459 ], [ -104.823587, 38.739478 ], [ -104.823635, 38.739516 ], [ -104.8237, 38.739545 ], [ -104.823775, 38.739536 ], [ -104.823893, 38.739528 ], [ -104.823995, 38.739534 ], [ -104.824183, 38.739551 ], [ -104.824365, 38.739547 ], [ -104.824488, 38.739582 ], [ -104.824582, 38.739607 ], [ -104.824668, 38.739656 ], [ -104.824762, 38.73971 ], [ -104.824875, 38.739756 ], [ -104.824963, 38.739766 ] ] } },
{ "type": "Feature", "properties": { "cls": "shared", "highway": "path", "name": "Bobcat Way" }, "geometry": { "type": "LineString", "coordinates": [ [ -104.825967, 38.740034 ], [ -104.826028, 38.740042 ], [ -104.826058, 38.740109 ], [ -104.825995, 38.740257 ], [ -104.826018, 38.740355 ], [ -104.825998, 38.740559 ], [ -104.825939, 38.740662 ], [ -104.825918, 38.740723 ], [ -104.825907, 38.740776 ] ] } },
{ "type": "Feature", "properties": { "cls": "shared", "highway": "path", "name": "Bobcat Way" }, "geometry": { "type": "LineString", "coordinates": [ [ -104.825918, 38.740723 ], [ -104.825963, 38.740752 ] ] } },
{ "type": "Feature", "properties": { "cls": "shared", "highway": "path", "name": null }, "geometry": { "type": "LineString", "coordinates": [ [ -104.822438, 38.735514 ], [ -104.822351, 38.73545 ], [ -104.822321, 38.735377 ], [ -104.822223, 38.735278 ], [ -104.82216, 38.735297 ], [ -104.82212, 38.73534 ], [ -104.822071, 38.735336 ], [ -104.822074, 38.735287 ], [ -104.822043, 38.735264 ], [ -104.821964, 38.73519 ], [ -104.821791, 38.73514 ], [ -104.821857, 38.735004 ], [ -104.82206, 38.734971 ], [ -104.822103, 38.734963 ], [ -104.82213, 38.734829 ], [ -104.822127, 38.734772 ], [ -104.82234, 38.734755 ] ] } },
{ "type": "Feature", "properties": { "cls": "shared", "highway": "path", "name": "Coyote Run" }, "geometry": { "type": "LineString", "coordinates": [ [ -104.820436, 38.736005 ], [ -104.820382, 38.735838 ], [ -104.820264, 38.735834 ], [ -104.820232, 38.735752 ], [ -104.820535, 38.73554 ], [ -104.820548, 38.735436 ], [ -104.820409, 38.735332 ], [ -104.820292, 38.735199 ], [ -104.820173, 38.735174 ], [ -104.820003, 38.734978 ], [ -104.8199, 38.734962 ], [ -104.819757, 38.73498 ] ] } },
{ "type": "Feature", "properties": { "cls": "shared", "highway": "path", "name": "Coyote Run" }, "geometry": { "type": "LineString", "coordinates": [ [ -104.820436, 38.736005 ], [ -104.820518, 38.736129 ], [ -104.820506, 38.736266 ], [ -104.820458, 38.73631 ], [ -104.820252, 38.736463 ], [ -104.820009, 38.736552 ], [ -104.819874, 38.736693 ], [ -104.819835, 38.736846 ], [ -104.819913, 38.736969 ], [ -104.819939, 38.737094 ], [ -104.819942, 38.737191 ], [ -104.820116, 38.737163 ], [ -104.820245, 38.737059 ], [ -104.820267, 38.737007 ], [ -104.820256, 38.736937 ], [ -104.820298, 38.736841 ], [ -104.820404, 38.736767 ], [ -104.820717, 38.736702 ], [ -104.821054, 38.736594 ], [ -104.821232, 38.736529 ], [ -104.82137, 38.736443 ], [ -104.821629, 38.73646 ], [ -104.821792, 38.736656 ], [ -104.821853, 38.736694 ], [ -104.821921, 38.736701 ], [ -104.821969, 38.736644 ], [ -104.821957, 38.736563 ], [ -104.822077, 38.736462 ], [ -104.822356, 38.736397 ], [ -104.822627, 38.7363 ], [ -104.822758, 38.736256 ], [ -104.822783, 38.736177 ], [ -104.822753, 38.7361 ], [ -104.822559, 38.736018 ], [ -104.822478, 38.735874 ], [ -104.822445, 38.7358 ], [ -104.822463, 38.73572 ], [ -104.822422, 38.735587 ], [ -104.822438, 38.735514 ], [ -104.822552, 38.73544 ], [ -104.822665, 38.735419 ], [ -104.8227, 38.735383 ], [ -104.82267, 38.735339 ], [ -104.822572, 38.735318 ], [ -104.822343, 38.735105 ], [ -104.822288, 38.735085 ], [ -104.822189, 38.735068 ], [ -104.822115, 38.735035 ], [ -104.822103, 38.734963 ] ] } },
{ "type": "Feature", "properties": { "cls": "shared", "highway": "path", "name": "Soaring Kestral" }, "geometry": { "type": "LineString", "coordinates": [ [ -104.820245, 38.737059 ], [ -104.820227, 38.737323 ], [ -104.820176, 38.737403 ], [ -104.820199, 38.737508 ], [ -104.820053, 38.737641 ], [ -104.820085, 38.737753 ], [ -104.820015, 38.737929 ], [ -104.820143, 38.737958 ], [ -104.82017, 38.738041 ], [ -104.819923, 38.738458 ], [ -104.819862, 38.738701 ], [ -104.819812, 38.738853 ], [ -104.819662, 38.738979 ], [ -104.819384, 38.739065 ], [ -104.819105, 38.739147 ], [ -104.819015, 38.739186 ], [ -104.818859, 38.739299 ], [ -104.81884, 38.73937 ], [ -104.818897, 38.739475 ], [ -104.819032, 38.739567 ], [ -104.819186, 38.739605 ], [ -104.819396, 38.739596 ], [ -104.819571, 38.739559 ], [ -104.819642, 38.739562 ], [ -104.819682, 38.739637 ], [ -104.819772, 38.739655 ], [ -104.819868, 38.739579 ], [ -104.819986, 38.739659 ], [ -104.820115, 38.739785 ], [ -104.820093, 38.739893 ], [ -104.820034, 38.739981 ], [ -104.820093, 38.740048 ], [ -104.820286, 38.740098 ], [ -104.820436, 38.740061 ], [ -104.820562, 38.740011 ], [ -104.820621, 38.740005 ], [ -104.820728, 38.740059 ], [ -104.820857, 38.740085 ], [ -104.820985, 38.740091 ], [ -104.821112, 38.740059 ], [ -104.821221, 38.740062 ], [ -104.821313, 38.74011 ], [ -104.821401, 38.740158 ], [ -104.821452, 38.740177 ], [ -104.821495, 38.740179 ], [ -104.821559, 38.740141 ], [ -104.821626, 38.74008 ], [ -104.821648, 38.740022 ], [ -104.821651, 38.739951 ], [ -104.821664, 38.739909 ], [ -104.821707, 38.739915 ], [ -104.821787, 38.739961 ], [ -104.821852, 38.740022 ], [ -104.821903, 38.740101 ], [ -104.821956, 38.740179 ], [ -104.821967, 38.740275 ], [ -104.821991, 38.74038 ], [ -104.822112, 38.740474 ], [ -104.822171, 38.74052 ] ] } }
]
}
