{
"type": "FeatureCollection",
"name": "182-new-taipei-new-taipei-metropolitan-park",
"crs": { "type": "name", "properties": { "name": "urn:ogc:def:crs:OGC:1.3:CRS84" } },
"xy_coordinate_resolution": 1e-06,
"features": [
{ "type": "Feature", "properties": { "cls": "shared", "highway": "cycleway", "name": "大漢溪左岸自行車道" }, "geometry": { "type": "LineString", "coordinates": [ [ 121.484202, 25.048278 ], [ 121.48415, 25.048236 ], [ 121.484012, 25.048043 ], [ 121.48398, 25.048003 ], [ 121.483943, 25.047972 ], [ 121.483889, 25.047945 ], [ 121.483607, 25.04797 ], [ 121.483032, 25.048025 ], [ 121.482939, 25.048027 ], [ 121.482861, 25.048017 ], [ 121.482717, 25.047987 ], [ 121.48256, 25.047894 ], [ 121.482452, 25.047797 ], [ 121.482363, 25.047742 ], [ 121.482265, 25.047704 ], [ 121.482163, 25.047681 ], [ 121.481969, 25.047679 ], [ 121.481805, 25.047715 ], [ 121.481676, 25.047753 ], [ 121.48152, 25.047786 ], [ 121.48142, 25.047794 ], [ 121.481368, 25.047788 ], [ 121.48103, 25.047709 ], [ 121.480985, 25.047747 ], [ 121.480235, 25.047603 ], [ 121.480138, 25.047581 ], [ 121.479954, 25.047533 ], [ 121.479895, 25.047485 ], [ 121.479928, 25.047119 ], [ 121.479951, 25.046945 ], [ 121.479935, 25.046804 ], [ 121.479845, 25.046622 ], [ 121.479751, 25.04651 ], [ 121.479698, 25.04646 ] ] } },
{ "type": "Feature", "properties": { "cls": "shared", "highway": "footway", "name": null }, "geometry": { "type": "LineString", "coordinates": [ [ 121.479799, 25.046924 ], [ 121.479715, 25.046878 ] ] } },
{ "type": "Feature", "properties": { "cls": "shared", "highway": "footway", "name": null }, "geometry": { "type": "LineString", "coordinates": [ [ 121.479799, 25.046924 ], [ 121.479956, 25.047004 ], [ 121.480159, 25.047087 ], [ 121.480157, 25.047103 ] ] } },
{ "type": "Feature", "properties": { "cls": "shared", "highway": "cycleway", "name": null }, "geometry": { "type": "LineString", "coordinates": [ [ 121.479742, 25.047012 ], [ 121.479928, 25.047119 ] ] } },
{ "type": "Feature", "properties": { "cls": "shared", "highway": "footway", "name": null }, "geometry": { "type": "LineString", "coordinates": [ [ 121.48006, 25.047519 ], [ 121.47986, 25.047451 ], [ 121.479799, 25.047426 ] ] } },
{ "type": "Feature", "properties": { "cls": "shared", "highway": "footway", "name": null }, "geometry": { "type": "LineString", "coordinates": [ [ 121.480235, 25.047603 ], [ 121.480294, 25.047417 ], [ 121.480229, 25.0474 ] ] } },
{ "type": "Feature", "properties": { "cls": "shared", "highway": "footway", "name": null }, "geometry": { "type": "LineString", "coordinates": [ [ 121.48006, 25.047519 ], [ 121.480324, 25.047582 ], [ 121.480584, 25.047625 ], [ 121.480586, 25.047611 ] ] } },
{ "type": "Feature", "properties": { "cls": "shared", "highway": "footway", "name": null }, "geometry": { "type": "LineString", "coordinates": [ [ 121.486769, 25.046756 ], [ 121.486376, 25.046734 ], [ 121.486374, 25.046748 ] ] } },
{ "type": "Feature", "properties": { "cls": "shared", "highway": "footway", "name": null }, "geometry": { "type": "LineString", "coordinates": [ [ 121.486374, 25.046748 ], [ 121.48598, 25.046754 ], [ 121.485639, 25.046782 ], [ 121.483739, 25.046977 ], [ 121.483701, 25.046955 ], [ 121.483642, 25.046962 ], [ 121.48361, 25.046995 ], [ 121.481703, 25.047196 ], [ 121.481224, 25.047239 ], [ 121.480827, 25.047236 ], [ 121.480465, 25.047186 ], [ 121.480157, 25.047103 ] ] } },
{ "type": "Feature", "properties": { "cls": "shared", "highway": "footway", "name": null }, "geometry": { "type": "LineString", "coordinates": [ [ 121.48672, 25.04714 ], [ 121.486508, 25.047126 ], [ 121.486509, 25.047115 ] ] } },
{ "type": "Feature", "properties": { "cls": "shared", "highway": "footway", "name": null }, "geometry": { "type": "LineString", "coordinates": [ [ 121.486509, 25.047115 ], [ 121.486257, 25.047113 ], [ 121.485965, 25.047125 ], [ 121.485689, 25.04715 ], [ 121.483786, 25.047347 ], [ 121.483759, 25.047386 ], [ 121.483686, 25.047391 ], [ 121.483653, 25.047363 ], [ 121.481747, 25.047559 ], [ 121.481163, 25.047613 ], [ 121.480845, 25.047626 ], [ 121.480586, 25.047611 ] ] } },
{ "type": "Feature", "properties": { "cls": "shared", "highway": "cycleway", "name": "二重環狀自行車道" }, "geometry": { "type": "LineString", "coordinates": [ [ 121.484169, 25.048451 ], [ 121.484195, 25.048345 ], [ 121.484202, 25.048278 ], [ 121.484298, 25.0482 ], [ 121.484393, 25.04814 ], [ 121.484933, 25.04779 ], [ 121.485006, 25.047756 ], [ 121.485094, 25.047725 ], [ 121.485207, 25.047715 ], [ 121.485427, 25.047728 ], [ 121.485596, 25.047714 ], [ 121.48573, 25.047683 ], [ 121.485861, 25.047644 ], [ 121.485999, 25.047574 ], [ 121.486128, 25.047489 ], [ 121.486308, 25.047321 ], [ 121.486439, 25.047228 ], [ 121.486595, 25.047132 ], [ 121.486721, 25.047076 ], [ 121.486732, 25.047073 ] ] } },
{ "type": "Feature", "properties": { "cls": "shared", "highway": "cycleway", "name": null }, "geometry": { "type": "LineString", "coordinates": [ [ 121.484043, 25.048886 ], [ 121.484169, 25.048451 ] ] } },
{ "type": "Feature", "properties": { "cls": "shared", "highway": "cycleway", "name": null }, "geometry": { "type": "LineString", "coordinates": [ [ 121.484297, 25.049256 ], [ 121.484187, 25.049155 ], [ 121.484112, 25.049085 ], [ 121.484011, 25.049013 ] ] } },
{ "type": "Feature", "properties": { "cls": "separated", "highway": "cycleway", "name": null }, "geometry": { "type": "LineString", "coordinates": [ [ 121.484478, 25.049519 ], [ 121.48442, 25.049402 ], [ 121.484345, 25.049296 ], [ 121.484297, 25.049256 ] ] } },
{ "type": "Feature", "properties": { "cls": "shared", "highway": "cycleway", "name": null }, "geometry": { "type": "LineString", "coordinates": [ [ 121.482614, 25.050365 ], [ 121.4822, 25.050164 ], [ 121.4822, 25.050071 ], [ 121.482941, 25.04865 ] ] } },
{ "type": "Feature", "properties": { "cls": "separated", "highway": "cycleway", "name": null }, "geometry": { "type": "LineString", "coordinates": [ [ 121.484509, 25.049684 ], [ 121.484478, 25.049519 ] ] } },
{ "type": "Feature", "properties": { "cls": "separated", "highway": "cycleway", "name": null }, "geometry": { "type": "LineString", "coordinates": [ [ 121.483739, 25.050681 ], [ 121.483844, 25.050691 ], [ 121.48394, 25.050679 ], [ 121.484046, 25.050636 ], [ 121.484148, 25.050573 ], [ 121.484231, 25.05048 ], [ 121.484334, 25.050278 ], [ 121.484449, 25.050041 ], [ 121.484484, 25.049953 ], [ 121.484513, 25.04982 ], [ 121.484509, 25.049684 ] ] } },
{ "type": "Feature", "properties": { "cls": "shared", "highway": "cycleway", "name": null }, "geometry": { "type": "LineString", "coordinates": [ [ 121.4822, 25.050164 ], [ 121.482099, 25.050337 ] ] } },
{ "type": "Feature", "properties": { "cls": "shared", "highway": "cycleway", "name": null }, "geometry": { "type": "LineString", "coordinates": [ [ 121.482099, 25.050337 ], [ 121.482057, 25.050413 ] ] } },
{ "type": "Feature", "properties": { "cls": "shared", "highway": "cycleway", "name": null }, "geometry": { "type": "LineString", "coordinates": [ [ 121.482514, 25.050536 ], [ 121.482614, 25.050365 ] ] } },
{ "type": "Feature", "properties": { "cls": "shared", "highway": "cycleway", "name": null }, "geometry": { "type": "LineString", "coordinates": [ [ 121.482614, 25.050365 ], [ 121.483036, 25.050571 ], [ 121.483188, 25.050551 ], [ 121.483301, 25.050495 ] ] } },
{ "type": "Feature", "properties": { "cls": "shared", "highway": "cycleway", "name": null }, "geometry": { "type": "LineString", "coordinates": [ [ 121.482468, 25.050609 ], [ 121.482514, 25.050536 ] ] } },
{ "type": "Feature", "properties": { "cls": "shared", "highway": "cycleway", "name": null }, "geometry": { "type": "LineString", "coordinates": [ [ 121.483036, 25.050571 ], [ 121.482938, 25.050739 ] ] } },
{ "type": "Feature", "properties": { "cls": "separated", "highway": "cycleway", "name": null }, "geometry": { "type": "LineString", "coordinates": [ [ 121.48228, 25.050783 ], [ 121.482468, 25.050609 ] ] } },
{ "type": "Feature", "properties": { "cls": "separated", "highway": "cycleway", "name": null }, "geometry": { "type": "LineString", "coordinates": [ [ 121.479161, 25.053229 ], [ 121.479296, 25.053066 ], [ 121.479345, 25.052881 ], [ 121.479346, 25.052706 ], [ 121.479271, 25.052519 ], [ 121.479241, 25.052372 ], [ 121.479268, 25.052067 ], [ 121.479335, 25.051838 ], [ 121.479463, 25.051597 ], [ 121.479584, 25.051434 ], [ 121.479727, 25.051281 ], [ 121.479915, 25.051169 ], [ 121.480084, 25.051127 ], [ 121.480259, 25.051122 ], [ 121.480421, 25.05114 ], [ 121.480729, 25.051217 ], [ 121.480918, 25.051231 ], [ 121.481133, 25.051205 ], [ 121.481341, 25.051147 ], [ 121.481487, 25.051153 ], [ 121.481667, 25.051192 ], [ 121.481891, 25.051317 ] ] } },
{ "type": "Feature", "properties": { "cls": "shared", "highway": "cycleway", "name": null }, "geometry": { "type": "LineString", "coordinates": [ [ 121.478627, 25.054278 ], [ 121.478613, 25.054172 ], [ 121.478577, 25.054004 ], [ 121.4786, 25.053809 ], [ 121.478711, 25.053553 ], [ 121.478815, 25.053438 ], [ 121.478935, 25.053349 ], [ 121.47908, 25.053284 ], [ 121.479161, 25.053229 ] ] } },
{ "type": "Feature", "properties": { "cls": "separated", "highway": "cycleway", "name": null }, "geometry": { "type": "LineString", "coordinates": [ [ 121.481966, 25.054954 ], [ 121.481746, 25.055404 ], [ 121.481707, 25.055478 ] ] } },
{ "type": "Feature", "properties": { "cls": "separated", "highway": "cycleway", "name": null }, "geometry": { "type": "LineString", "coordinates": [ [ 121.477572, 25.059827 ], [ 121.477549, 25.059751 ], [ 121.4777, 25.059371 ], [ 121.477907, 25.058849 ], [ 121.478015, 25.058609 ], [ 121.47816, 25.058336 ], [ 121.478227, 25.058207 ], [ 121.479867, 25.055119 ], [ 121.479932, 25.054996 ], [ 121.480007, 25.054856 ], [ 121.480087, 25.054707 ], [ 121.480121, 25.054644 ], [ 121.481714, 25.051649 ], [ 121.481867, 25.051362 ], [ 121.481891, 25.051317 ] ] } },
{ "type": "Feature", "properties": { "cls": "shared", "highway": "cycleway", "name": null }, "geometry": { "type": "LineString", "coordinates": [ [ 121.47816, 25.058336 ], [ 121.478017, 25.05826 ], [ 121.477993, 25.058236 ], [ 121.477996, 25.058098 ], [ 121.47788, 25.057976 ], [ 121.477816, 25.057853 ], [ 121.477754, 25.057562 ], [ 121.477853, 25.057309 ], [ 121.478175, 25.056991 ], [ 121.478278, 25.056836 ], [ 121.478355, 25.056653 ], [ 121.478388, 25.056464 ], [ 121.478379, 25.056312 ], [ 121.478397, 25.056154 ], [ 121.478469, 25.056023 ], [ 121.478578, 25.055898 ], [ 121.478636, 25.055834 ], [ 121.478595, 25.055789 ], [ 121.478522, 25.055673 ], [ 121.478515, 25.055608 ], [ 121.478565, 25.055409 ], [ 121.478565, 25.055219 ], [ 121.478536, 25.055068 ], [ 121.478485, 25.054893 ], [ 121.478454, 25.054717 ], [ 121.47842, 25.054647 ], [ 121.478403, 25.05458 ], [ 121.478392, 25.054494 ], [ 121.478429, 25.054398 ], [ 121.478504, 25.054339 ], [ 121.478627, 25.054278 ] ] } },
{ "type": "Feature", "properties": { "cls": "separated", "highway": "cycleway", "name": null }, "geometry": { "type": "LineString", "coordinates": [ [ 121.481707, 25.055478 ], [ 121.4815, 25.055735 ], [ 121.481296, 25.055944 ], [ 121.481108, 25.056094 ], [ 121.480847, 25.056264 ], [ 121.480542, 25.056448 ], [ 121.480124, 25.056691 ], [ 121.479873, 25.05685 ], [ 121.479655, 25.057033 ], [ 121.479502, 25.057196 ], [ 121.479396, 25.057319 ] ] } },
{ "type": "Feature", "properties": { "cls": "shared", "highway": "cycleway", "name": null }, "geometry": { "type": "LineString", "coordinates": [ [ 121.478227, 25.058207 ], [ 121.477996, 25.058098 ] ] } },
{ "type": "Feature", "properties": { "cls": "shared", "highway": "cycleway", "name": null }, "geometry": { "type": "LineString", "coordinates": [ [ 121.47738, 25.059314 ], [ 121.477435, 25.059271 ], [ 121.477467, 25.059246 ], [ 121.477637, 25.05895 ], [ 121.477782, 25.058806 ], [ 121.477875, 25.058703 ], [ 121.47796, 25.058552 ], [ 121.478011, 25.05841 ], [ 121.478017, 25.05826 ] ] } },
{ "type": "Feature", "properties": { "cls": "separated", "highway": "cycleway", "name": null }, "geometry": { "type": "LineString", "coordinates": [ [ 121.479396, 25.057319 ], [ 121.479302, 25.057482 ], [ 121.479018, 25.058012 ], [ 121.478962, 25.058103 ], [ 121.478774, 25.058338 ], [ 121.478568, 25.058549 ], [ 121.478414, 25.058736 ], [ 121.478326, 25.058905 ], [ 121.478272, 25.059098 ], [ 121.478269, 25.059299 ], [ 121.47829, 25.059464 ], [ 121.478357, 25.059636 ], [ 121.478403, 25.059696 ], [ 121.478616, 25.059885 ], [ 121.478845, 25.060088 ], [ 121.478965, 25.060241 ], [ 121.479026, 25.060394 ], [ 121.47902, 25.060558 ], [ 121.479014, 25.060613 ], [ 121.47887, 25.060757 ], [ 121.478754, 25.060829 ], [ 121.478615, 25.060869 ], [ 121.478472, 25.060878 ], [ 121.4783, 25.060835 ], [ 121.478161, 25.06075 ], [ 121.478056, 25.060635 ], [ 121.478002, 25.060525 ], [ 121.477979, 25.06038 ], [ 121.477974, 25.060258 ], [ 121.477985, 25.060178 ], [ 121.477967, 25.06014 ], [ 121.477937, 25.060121 ], [ 121.477864, 25.060119 ], [ 121.47783, 25.060108 ] ] } },
{ "type": "Feature", "properties": { "cls": "shared", "highway": "footway", "name": null }, "geometry": { "type": "LineString", "coordinates": [ [ 121.477267, 25.05933 ], [ 121.477327, 25.059322 ], [ 121.47738, 25.059314 ] ] } },
{ "type": "Feature", "properties": { "cls": "shared", "highway": "cycleway", "name": null }, "geometry": { "type": "LineString", "coordinates": [ [ 121.477021, 25.059364 ], [ 121.477267, 25.05933 ] ] } },
{ "type": "Feature", "properties": { "cls": "shared", "highway": "cycleway", "name": null }, "geometry": { "type": "LineString", "coordinates": [ [ 121.477608, 25.060044 ], [ 121.477572, 25.059827 ] ] } },
{ "type": "Feature", "properties": { "cls": "shared", "highway": "cycleway", "name": null }, "geometry": { "type": "LineString", "coordinates": [ [ 121.47783, 25.060108 ], [ 121.477624, 25.060123 ] ] } },
{ "type": "Feature", "properties": { "cls": "shared", "highway": "cycleway", "name": null }, "geometry": { "type": "LineString", "coordinates": [ [ 121.477639, 25.06033 ], [ 121.477624, 25.060123 ], [ 121.477608, 25.060044 ] ] } },
{ "type": "Feature", "properties": { "cls": "shared", "highway": "cycleway", "name": null }, "geometry": { "type": "LineString", "coordinates": [ [ 121.477516, 25.060334 ], [ 121.477639, 25.06033 ] ] } },
{ "type": "Feature", "properties": { "cls": "separated", "highway": "footway", "name": null }, "geometry": { "type": "LineString", "coordinates": [ [ 121.477414, 25.060337 ], [ 121.477463, 25.060336 ], [ 121.477516, 25.060334 ] ] } },
{ "type": "Feature", "properties": { "cls": "shared", "highway": "footway", "name": null }, "geometry": { "type": "LineString", "coordinates": [ [ 121.47735, 25.060414 ], [ 121.477414, 25.060337 ] ] } },
{ "type": "Feature", "properties": { "cls": "shared", "highway": "cycleway", "name": null }, "geometry": { "type": "LineString", "coordinates": [ [ 121.47719, 25.061691 ], [ 121.477273, 25.061613 ], [ 121.477437, 25.061387 ], [ 121.477483, 25.061314 ], [ 121.477499, 25.061265 ], [ 121.477493, 25.061188 ], [ 121.477392, 25.060918 ], [ 121.477369, 25.060836 ], [ 121.47734, 25.060559 ], [ 121.477337, 25.060489 ], [ 121.47735, 25.060414 ] ] } },
{ "type": "Feature", "properties": { "cls": "separated", "highway": "cycleway", "name": null }, "geometry": { "type": "LineString", "coordinates": [ [ 121.475144, 25.062678 ], [ 121.475242, 25.062597 ], [ 121.47572, 25.062198 ], [ 121.47579, 25.062137 ], [ 121.475958, 25.06197 ], [ 121.476064, 25.061868 ], [ 121.476293, 25.061684 ], [ 121.476357, 25.061684 ], [ 121.47719, 25.061691 ] ] } },
{ "type": "Feature", "properties": { "cls": "separated", "highway": "cycleway", "name": null }, "geometry": { "type": "LineString", "coordinates": [ [ 121.475108, 25.062893 ], [ 121.47514, 25.062821 ], [ 121.475132, 25.062721 ], [ 121.475144, 25.062678 ] ] } },
{ "type": "Feature", "properties": { "cls": "separated", "highway": "cycleway", "name": null }, "geometry": { "type": "LineString", "coordinates": [ [ 121.472256, 25.065296 ], [ 121.472301, 25.065335 ], [ 121.472327, 25.065383 ], [ 121.472361, 25.065441 ], [ 121.472426, 25.065509 ], [ 121.47252, 25.065535 ], [ 121.472619, 25.065538 ], [ 121.4727, 25.065483 ], [ 121.472733, 25.065417 ], [ 121.472713, 25.065342 ], [ 121.472641, 25.065222 ], [ 121.472643, 25.065044 ], [ 121.472675, 25.064903 ], [ 121.472746, 25.064808 ], [ 121.472854, 25.064741 ], [ 121.47296, 25.064705 ], [ 121.473088, 25.064696 ], [ 121.473161, 25.064667 ], [ 121.473277, 25.064576 ], [ 121.473321, 25.064499 ], [ 121.473341, 25.064391 ], [ 121.473421, 25.064319 ], [ 121.473588, 25.064191 ] ] } },
{ "type": "Feature", "properties": { "cls": "separated", "highway": "cycleway", "name": null }, "geometry": { "type": "LineString", "coordinates": [ [ 121.471528, 25.065222 ], [ 121.471696, 25.065468 ], [ 121.471752, 25.065475 ], [ 121.471903, 25.06547 ], [ 121.471963, 25.065464 ], [ 121.472081, 25.06541 ], [ 121.472112, 25.065411 ] ] } },
{ "type": "Feature", "properties": { "cls": "separated", "highway": "footway", "name": null }, "geometry": { "type": "LineString", "coordinates": [ [ 121.472112, 25.065411 ], [ 121.472162, 25.06541 ], [ 121.472225, 25.06541 ] ] } },
{ "type": "Feature", "properties": { "cls": "separated", "highway": "cycleway", "name": null }, "geometry": { "type": "LineString", "coordinates": [ [ 121.471963, 25.065464 ], [ 121.471887, 25.065589 ], [ 121.471803, 25.065617 ], [ 121.471709, 25.065649 ] ] } },
{ "type": "Feature", "properties": { "cls": "separated", "highway": "cycleway", "name": null }, "geometry": { "type": "LineString", "coordinates": [ [ 121.470704, 25.06622 ], [ 121.470745, 25.066197 ], [ 121.471549, 25.06575 ], [ 121.471658, 25.065688 ], [ 121.471709, 25.065649 ], [ 121.471722, 25.065597 ], [ 121.471715, 25.065528 ], [ 121.471696, 25.065468 ] ] } },
{ "type": "Feature", "properties": { "cls": "separated", "highway": "cycleway", "name": null }, "geometry": { "type": "LineString", "coordinates": [ [ 121.470454, 25.066043 ], [ 121.470444, 25.066013 ], [ 121.470445, 25.065982 ], [ 121.470455, 25.065953 ], [ 121.470473, 25.065927 ], [ 121.470499, 25.065907 ], [ 121.470529, 25.065893 ], [ 121.470563, 25.065889 ], [ 121.470597, 25.065893 ], [ 121.470628, 25.065905 ] ] } },
{ "type": "Feature", "properties": { "cls": "separated", "highway": "cycleway", "name": null }, "geometry": { "type": "LineString", "coordinates": [ [ 121.466524, 25.067904 ], [ 121.466645, 25.067897 ], [ 121.466689, 25.067869 ], [ 121.466722, 25.067849 ], [ 121.466708, 25.067803 ], [ 121.466702, 25.067756 ], [ 121.466703, 25.067708 ], [ 121.466712, 25.06766 ], [ 121.466728, 25.067615 ], [ 121.466751, 25.067572 ], [ 121.466832, 25.067471 ], [ 121.466945, 25.067356 ], [ 121.466939, 25.067285 ], [ 121.466925, 25.067121 ], [ 121.466913, 25.067041 ], [ 121.466908, 25.067004 ], [ 121.466909, 25.066859 ], [ 121.466972, 25.066714 ], [ 121.467149, 25.066532 ], [ 121.467287, 25.066454 ], [ 121.46747, 25.066388 ], [ 121.467619, 25.066295 ], [ 121.467779, 25.066123 ], [ 121.467842, 25.06604 ], [ 121.467941, 25.065908 ], [ 121.468186, 25.065741 ], [ 121.468426, 25.065672 ], [ 121.468737, 25.0657 ], [ 121.468906, 25.06575 ], [ 121.468991, 25.065806 ], [ 121.469228, 25.066049 ], [ 121.469352, 25.066122 ], [ 121.469561, 25.066187 ], [ 121.469805, 25.066202 ], [ 121.470026, 25.066204 ], [ 121.470177, 25.066162 ], [ 121.470317, 25.066081 ], [ 121.470454, 25.066043 ], [ 121.470472, 25.066069 ], [ 121.470497, 25.06609 ], [ 121.470528, 25.066103 ], [ 121.470562, 25.066108 ], [ 121.470596, 25.066105 ], [ 121.470628, 25.066092 ], [ 121.470655, 25.066072 ], [ 121.470675, 25.066045 ], [ 121.470685, 25.066015 ], [ 121.470685, 25.065983 ], [ 121.470675, 25.065952 ], [ 121.470655, 25.065925 ], [ 121.470628, 25.065905 ], [ 121.470687, 25.065767 ], [ 121.470759, 25.065686 ], [ 121.470864, 25.065639 ], [ 121.470968, 25.065564 ], [ 121.471204, 25.065344 ], [ 121.471313, 25.065276 ], [ 121.471478, 25.065234 ], [ 121.471528, 25.065222 ] ] } },
{ "type": "Feature", "properties": { "cls": "separated", "highway": "cycleway", "name": null }, "geometry": { "type": "LineString", "coordinates": [ [ 121.461845, 25.067894 ], [ 121.461809, 25.067837 ], [ 121.462182, 25.067555 ], [ 121.462221, 25.067529 ] ] } },
{ "type": "Feature", "properties": { "cls": "separated", "highway": "footway", "name": null }, "geometry": { "type": "LineString", "coordinates": [ [ 121.466259, 25.067994 ], [ 121.466354, 25.067959 ], [ 121.466437, 25.067928 ] ] } },
{ "type": "Feature", "properties": { "cls": "separated", "highway": "cycleway", "name": null }, "geometry": { "type": "LineString", "coordinates": [ [ 121.474647, 25.063928 ], [ 121.474896, 25.064201 ], [ 121.475249, 25.063941 ], [ 121.475457, 25.063769 ], [ 121.47555, 25.063705 ], [ 121.475639, 25.063694 ], [ 121.475664, 25.063687 ], [ 121.475734, 25.063636 ], [ 121.475811, 25.063618 ], [ 121.475859, 25.063603 ], [ 121.475916, 25.063554 ], [ 121.475976, 25.063498 ], [ 121.476302, 25.063252 ], [ 121.476434, 25.063186 ], [ 121.476532, 25.063117 ], [ 121.476605, 25.063037 ], [ 121.476704, 25.062892 ], [ 121.476808, 25.062637 ], [ 121.476836, 25.062587 ], [ 121.476921, 25.062511 ], [ 121.47699, 25.062427 ], [ 121.477022, 25.062333 ], [ 121.477057, 25.062285 ], [ 121.477119, 25.062246 ], [ 121.477137, 25.062211 ], [ 121.477203, 25.062221 ] ] } },
{ "type": "Feature", "properties": { "cls": "separated", "highway": "cycleway", "name": null }, "geometry": { "type": "LineString", "coordinates": [ [ 121.472225, 25.06541 ], [ 121.472284, 25.065407 ], [ 121.472327, 25.065383 ], [ 121.47237, 25.065305 ], [ 121.472415, 25.065127 ], [ 121.472467, 25.06504 ], [ 121.472495, 25.064934 ], [ 121.472547, 25.06482 ], [ 121.472637, 25.064713 ], [ 121.473287, 25.064228 ], [ 121.473479, 25.064089 ], [ 121.47349, 25.064081 ], [ 121.474268, 25.06351 ], [ 121.475108, 25.062893 ] ] } },
{ "type": "Feature", "properties": { "cls": "shared", "highway": "cycleway", "name": null }, "geometry": { "type": "LineString", "coordinates": [ [ 121.482938, 25.050739 ], [ 121.482895, 25.050813 ] ] } },
{ "type": "Feature", "properties": { "cls": "separated", "highway": "footway", "name": null }, "geometry": { "type": "LineString", "coordinates": [ [ 121.482179, 25.050953 ], [ 121.482192, 25.050932 ], [ 121.482208, 25.050904 ], [ 121.482258, 25.05082 ], [ 121.482275, 25.050791 ], [ 121.48228, 25.050783 ] ] } },
{ "type": "Feature", "properties": { "cls": "separated", "highway": "cycleway", "name": null }, "geometry": { "type": "LineString", "coordinates": [ [ 121.482173, 25.051443 ], [ 121.482635, 25.051671 ], [ 121.483178, 25.051958 ], [ 121.483219, 25.051987 ], [ 121.483278, 25.052055 ] ] } },
{ "type": "Feature", "properties": { "cls": "separated", "highway": "cycleway", "name": null }, "geometry": { "type": "MultiLineString", "coordinates": [ [ [ 121.483278, 25.052055 ], [ 121.483325, 25.052151 ], [ 121.483356, 25.052237 ], [ 121.483355, 25.052325 ], [ 121.483341, 25.052432 ], [ 121.483337, 25.052446 ] ], [ [ 121.483212, 25.052686 ], [ 121.483206, 25.052693 ], [ 121.483078, 25.052833 ], [ 121.482714, 25.053172 ], [ 121.482524, 25.05335 ], [ 121.48239, 25.053491 ], [ 121.482321, 25.053577 ], [ 121.482251, 25.053695 ], [ 121.48219, 25.053826 ], [ 121.48215, 25.053954 ], [ 121.482125, 25.054092 ], [ 121.482111, 25.054204 ], [ 121.482104, 25.054387 ], [ 121.482081, 25.05458 ], [ 121.482033, 25.054774 ], [ 121.481991, 25.05491 ], [ 121.481966, 25.054954 ] ] ] } },
{ "type": "Feature", "properties": { "cls": "separated", "highway": "cycleway", "name": null }, "geometry": { "type": "LineString", "coordinates": [ [ 121.459694, 25.072099 ], [ 121.459721, 25.072104 ], [ 121.459787, 25.072095 ], [ 121.459839, 25.072105 ], [ 121.459945, 25.072171 ], [ 121.459993, 25.07218 ], [ 121.460042, 25.072167 ], [ 121.460633, 25.071791 ], [ 121.460815, 25.071711 ], [ 121.46091, 25.071707 ], [ 121.462813, 25.070618 ], [ 121.464535, 25.069641 ], [ 121.466365, 25.068594 ], [ 121.466397, 25.068557 ], [ 121.46641, 25.0685 ], [ 121.46628, 25.068214 ], [ 121.466201, 25.068036 ], [ 121.466259, 25.067994 ] ] } },
{ "type": "Feature", "properties": { "cls": "painted", "highway": "service", "name": null }, "geometry": { "type": "LineString", "coordinates": [ [ 121.466041, 25.068283 ], [ 121.466051, 25.068371 ], [ 121.466054, 25.068431 ], [ 121.466042, 25.068543 ], [ 121.465991, 25.068648 ], [ 121.465895, 25.068735 ], [ 121.464468, 25.06955 ], [ 121.464396, 25.069591 ], [ 121.462811, 25.070494 ], [ 121.46275, 25.070528 ], [ 121.460732, 25.071675 ], [ 121.460448, 25.071819 ], [ 121.460395, 25.071852 ], [ 121.460058, 25.072081 ], [ 121.460008, 25.07208 ], [ 121.459887, 25.071924 ] ] } },
{ "type": "Feature", "properties": { "cls": "shared", "highway": "cycleway", "name": null }, "geometry": { "type": "LineString", "coordinates": [ [ 121.461786, 25.071991 ], [ 121.461881, 25.072003 ], [ 121.461973, 25.071985 ], [ 121.462061, 25.07194 ], [ 121.462231, 25.071802 ], [ 121.463094, 25.071243 ], [ 121.463465, 25.071025 ], [ 121.463588, 25.070919 ], [ 121.463647, 25.070877 ], [ 121.463712, 25.070842 ], [ 121.463823, 25.070803 ], [ 121.463938, 25.070739 ], [ 121.464161, 25.070547 ], [ 121.464359, 25.070504 ], [ 121.464626, 25.070361 ], [ 121.46489, 25.070372 ], [ 121.465962, 25.069761 ], [ 121.466145, 25.069614 ], [ 121.466359, 25.069511 ], [ 121.466468, 25.06941 ], [ 121.466667, 25.069273 ], [ 121.466678, 25.069224 ], [ 121.466617, 25.069091 ], [ 121.466617, 25.069004 ], [ 121.466532, 25.068841 ], [ 121.466552, 25.068795 ] ] } },
{ "type": "Feature", "properties": { "cls": "painted", "highway": "service", "name": null }, "geometry": { "type": "LineString", "coordinates": [ [ 121.459887, 25.071924 ], [ 121.459709, 25.072035 ] ] } },
{ "type": "Feature", "properties": { "cls": "separated", "highway": "cycleway", "name": null }, "geometry": { "type": "LineString", "coordinates": [ [ 121.459709, 25.072035 ], [ 121.459694, 25.072099 ] ] } },
{ "type": "Feature", "properties": { "cls": "separated", "highway": "footway", "name": null }, "geometry": { "type": "LineString", "coordinates": [ [ 121.459588, 25.072185 ], [ 121.459629, 25.072152 ], [ 121.459686, 25.072105 ], [ 121.459694, 25.072099 ] ] } },
{ "type": "Feature", "properties": { "cls": "shared", "highway": "cycleway", "name": null }, "geometry": { "type": "LineString", "coordinates": [ [ 121.458697, 25.075102 ], [ 121.458926, 25.07446 ], [ 121.458988, 25.074367 ], [ 121.459085, 25.07403 ], [ 121.459228, 25.073639 ], [ 121.459306, 25.073449 ], [ 121.459385, 25.073296 ], [ 121.459483, 25.073139 ], [ 121.459614, 25.072961 ], [ 121.459779, 25.072779 ], [ 121.459928, 25.072643 ], [ 121.459978, 25.072625 ], [ 121.460025, 25.072626 ], [ 121.460061, 25.072637 ], [ 121.460277, 25.072807 ], [ 121.46033, 25.072771 ], [ 121.460699, 25.072525 ], [ 121.460852, 25.072391 ], [ 121.461593, 25.071981 ], [ 121.461675, 25.071968 ], [ 121.461786, 25.071991 ] ] } },
{ "type": "Feature", "properties": { "cls": "separated", "highway": "cycleway", "name": null }, "geometry": { "type": "LineString", "coordinates": [ [ 121.458988, 25.074367 ], [ 121.459315, 25.074474 ], [ 121.459406, 25.07447 ], [ 121.459533, 25.074417 ], [ 121.459659, 25.074364 ] ] } },
{ "type": "Feature", "properties": { "cls": "shared", "highway": "cycleway", "name": null }, "geometry": { "type": "LineString", "coordinates": [ [ 121.453816, 25.083081 ], [ 121.453704, 25.083057 ], [ 121.453639, 25.083032 ] ] } },
{ "type": "Feature", "properties": { "cls": "shared", "highway": "cycleway", "name": null }, "geometry": { "type": "LineString", "coordinates": [ [ 121.453939, 25.083108 ], [ 121.453816, 25.083081 ] ] } },
{ "type": "Feature", "properties": { "cls": "separated", "highway": "footway", "name": null }, "geometry": { "type": "LineString", "coordinates": [ [ 121.452625, 25.083591 ], [ 121.452682, 25.08361 ], [ 121.452783, 25.083644 ], [ 121.452838, 25.083662 ] ] } },
{ "type": "Feature", "properties": { "cls": "separated", "highway": "cycleway", "name": null }, "geometry": { "type": "LineString", "coordinates": [ [ 121.455716, 25.077996 ], [ 121.455715, 25.077937 ], [ 121.456054, 25.07755 ], [ 121.456282, 25.077337 ], [ 121.456566, 25.077046 ], [ 121.457235, 25.076244 ], [ 121.457478, 25.076001 ], [ 121.457712, 25.075782 ], [ 121.457956, 25.075509 ], [ 121.458261, 25.075104 ], [ 121.458507, 25.074535 ], [ 121.458566, 25.074263 ], [ 121.458602, 25.074144 ], [ 121.458606, 25.073899 ], [ 121.45862, 25.073675 ], [ 121.458674, 25.073473 ], [ 121.458758, 25.073257 ], [ 121.459021, 25.072816 ], [ 121.459501, 25.072281 ], [ 121.459588, 25.072185 ] ] } },
{ "type": "Feature", "properties": { "cls": "shared", "highway": "cycleway", "name": null }, "geometry": { "type": "LineString", "coordinates": [ [ 121.456468, 25.077794 ], [ 121.456475, 25.077707 ], [ 121.456808, 25.077331 ], [ 121.457194, 25.076902 ], [ 121.457577, 25.07647 ], [ 121.457599, 25.076427 ], [ 121.458453, 25.075469 ], [ 121.458555, 25.075345 ], [ 121.458697, 25.075102 ] ] } },
{ "type": "Feature", "properties": { "cls": "shared", "highway": "cycleway", "name": null }, "geometry": { "type": "LineString", "coordinates": [ [ 121.453639, 25.083032 ], [ 121.453695, 25.082893 ], [ 121.453696, 25.082816 ], [ 121.453644, 25.082616 ], [ 121.453636, 25.082481 ], [ 121.453666, 25.082361 ], [ 121.453731, 25.082218 ], [ 121.453818, 25.082114 ], [ 121.453918, 25.082039 ], [ 121.45402, 25.081988 ], [ 121.454136, 25.081952 ], [ 121.454204, 25.081929 ], [ 121.454343, 25.081848 ], [ 121.454537, 25.081713 ], [ 121.45468, 25.081562 ], [ 121.455286, 25.080581 ], [ 121.45533, 25.080531 ], [ 121.455425, 25.080368 ], [ 121.455602, 25.079911 ], [ 121.455733, 25.079495 ], [ 121.45585, 25.079125 ], [ 121.456026, 25.078542 ], [ 121.456108, 25.078285 ], [ 121.456153, 25.078215 ], [ 121.456273, 25.078161 ] ] } },
{ "type": "Feature", "properties": { "cls": "shared", "highway": "cycleway", "name": null }, "geometry": { "type": "MultiLineString", "coordinates": [ [ [ 121.459816, 25.096864 ], [ 121.459746, 25.096733 ], [ 121.459235, 25.095944 ], [ 121.459086, 25.095717 ], [ 121.459116, 25.095536 ], [ 121.459081, 25.09542 ], [ 121.458808, 25.095002 ] ], [ [ 121.45556, 25.089683 ], [ 121.455446, 25.089422 ], [ 121.455314, 25.089048 ], [ 121.455168, 25.088579 ], [ 121.455083, 25.088245 ], [ 121.45503, 25.088001 ], [ 121.454998, 25.087812 ], [ 121.454997, 25.087644 ] ], [ [ 121.454954, 25.087389 ], [ 121.454941, 25.087319 ], [ 121.45491, 25.087058 ], [ 121.454869, 25.086488 ], [ 121.454869, 25.086105 ], [ 121.454815, 25.086075 ], [ 121.454814, 25.085758 ], [ 121.454835, 25.085448 ], [ 121.45488, 25.085047 ], [ 121.454954, 25.08496 ], [ 121.45504, 25.084484 ], [ 121.455152, 25.083984 ], [ 121.455092, 25.083752 ], [ 121.455054, 25.083574 ], [ 121.454988, 25.083472 ], [ 121.454901, 25.083397 ], [ 121.454768, 25.083285 ], [ 121.454674, 25.083232 ], [ 121.454317, 25.08319 ], [ 121.454008, 25.083123 ], [ 121.453939, 25.083108 ] ] ] } },
{ "type": "Feature", "properties": { "cls": "separated", "highway": "cycleway", "name": null }, "geometry": { "type": "LineString", "coordinates": [ [ 121.454756, 25.094884 ], [ 121.454381, 25.094974 ], [ 121.453078, 25.095271 ] ] } },
{ "type": "Feature", "properties": { "cls": "shared", "highway": "footway", "name": null }, "geometry": { "type": "LineString", "coordinates": [ [ 121.453514, 25.084456 ], [ 121.453353, 25.084538 ], [ 121.453303, 25.08454 ], [ 121.453329, 25.084419 ], [ 121.453325, 25.084243 ], [ 121.453391, 25.083913 ], [ 121.45348, 25.083615 ], [ 121.453541, 25.08336 ], [ 121.453639, 25.083032 ] ] } },
{ "type": "Feature", "properties": { "cls": "shared", "highway": "cycleway", "name": null }, "geometry": { "type": "LineString", "coordinates": [ [ 121.448178, 25.085197 ], [ 121.44822, 25.084886 ] ] } },
{ "type": "Feature", "properties": { "cls": "separated", "highway": "cycleway", "name": null }, "geometry": { "type": "LineString", "coordinates": [ [ 121.450449, 25.089159 ], [ 121.450438, 25.089089 ], [ 121.450436, 25.088839 ], [ 121.450371, 25.088711 ], [ 121.450283, 25.088595 ], [ 121.450181, 25.088462 ], [ 121.450079, 25.088307 ], [ 121.449912, 25.088056 ], [ 121.449859, 25.088019 ], [ 121.449781, 25.088019 ], [ 121.449553, 25.088093 ], [ 121.449473, 25.088104 ], [ 121.449333, 25.088082 ], [ 121.44928, 25.088041 ], [ 121.449204, 25.087908 ], [ 121.448948, 25.087289 ], [ 121.448847, 25.086911 ], [ 121.448831, 25.086636 ], [ 121.448761, 25.086429 ], [ 121.448669, 25.086291 ], [ 121.448567, 25.08624 ], [ 121.448221, 25.086194 ], [ 121.448235, 25.08603 ], [ 121.448147, 25.086022 ] ] } },
{ "type": "Feature", "properties": { "cls": "shared", "highway": "cycleway", "name": null }, "geometry": { "type": "LineString", "coordinates": [ [ 121.454265, 25.099347 ], [ 121.454193, 25.099296 ], [ 121.454101, 25.099234 ], [ 121.454057, 25.09916 ], [ 121.454039, 25.099071 ], [ 121.454009, 25.098697 ], [ 121.453995, 25.09845 ], [ 121.453992, 25.098298 ], [ 121.454007, 25.098242 ], [ 121.454043, 25.098202 ], [ 121.454275, 25.098061 ], [ 121.454391, 25.097969 ], [ 121.454443, 25.097905 ], [ 121.454566, 25.09765 ], [ 121.454623, 25.097436 ], [ 121.454714, 25.096911 ], [ 121.454792, 25.096599 ], [ 121.454948, 25.09613 ], [ 121.454947, 25.096053 ], [ 121.454788, 25.095152 ], [ 121.454756, 25.094884 ], [ 121.454773, 25.094582 ], [ 121.453444, 25.09128 ], [ 121.453076, 25.090379 ], [ 121.453045, 25.090352 ], [ 121.453004, 25.090346 ], [ 121.452758, 25.090421 ], [ 121.452709, 25.090413 ], [ 121.452681, 25.090391 ], [ 121.452377, 25.089627 ], [ 121.45238, 25.089575 ], [ 121.452408, 25.089552 ], [ 121.452643, 25.089474 ], [ 121.452669, 25.089442 ], [ 121.452673, 25.089403 ], [ 121.451832, 25.08726 ], [ 121.451489, 25.086458 ], [ 121.451477, 25.08637 ], [ 121.451489, 25.086268 ], [ 121.451565, 25.085997 ], [ 121.451639, 25.085797 ], [ 121.452177, 25.084482 ], [ 121.452212, 25.084149 ], [ 121.452215, 25.083955 ], [ 121.45223, 25.083868 ], [ 121.452381, 25.083508 ], [ 121.452919, 25.082273 ], [ 121.453004, 25.082147 ], [ 121.453205, 25.08195 ], [ 121.453299, 25.081877 ], [ 121.453459, 25.08178 ], [ 121.45366, 25.08162 ], [ 121.453705, 25.08152 ], [ 121.453787, 25.081385 ], [ 121.453894, 25.081232 ], [ 121.454139, 25.080781 ], [ 121.454273, 25.080737 ], [ 121.45472, 25.080512 ], [ 121.454785, 25.080466 ], [ 121.454837, 25.080412 ], [ 121.45501, 25.080139 ], [ 121.455129, 25.079855 ], [ 121.455133, 25.079712 ], [ 121.455473, 25.078422 ], [ 121.455689, 25.078251 ], [ 121.455732, 25.078195 ] ] } },
{ "type": "Feature", "properties": { "cls": "separated", "highway": "cycleway", "name": null }, "geometry": { "type": "LineString", "coordinates": [ [ 121.450718, 25.089086 ], [ 121.451125, 25.088977 ] ] } },
{ "type": "Feature", "properties": { "cls": "separated", "highway": "cycleway", "name": null }, "geometry": { "type": "LineString", "coordinates": [ [ 121.451125, 25.088977 ], [ 121.451736, 25.088804 ], [ 121.451825, 25.088809 ], [ 121.451886, 25.088857 ], [ 121.451935, 25.089071 ], [ 121.451988, 25.089308 ], [ 121.452162, 25.089624 ], [ 121.45238, 25.089575 ] ] } },
{ "type": "Feature", "properties": { "cls": "separated", "highway": "cycleway", "name": null }, "geometry": { "type": "LineString", "coordinates": [ [ 121.45074, 25.090593 ], [ 121.45062, 25.090043 ], [ 121.450449, 25.089159 ], [ 121.450718, 25.089086 ] ] } },
{ "type": "Feature", "properties": { "cls": "separated", "highway": "cycleway", "name": null }, "geometry": { "type": "LineString", "coordinates": [ [ 121.450787, 25.090811 ], [ 121.45074, 25.090593 ] ] } },
{ "type": "Feature", "properties": { "cls": "separated", "highway": "footway", "name": null }, "geometry": { "type": "LineString", "coordinates": [ [ 121.453444, 25.09128 ], [ 121.453475, 25.091269 ], [ 121.453522, 25.091254 ], [ 121.453624, 25.091219 ], [ 121.453693, 25.091196 ] ] } },
{ "type": "Feature", "properties": { "cls": "shared", "highway": "cycleway", "name": null }, "geometry": { "type": "MultiLineString", "coordinates": [ [ [ 121.448178, 25.085197 ], [ 121.448122, 25.085765 ] ], [ [ 121.45176, 25.098564 ], [ 121.452098, 25.099115 ], [ 121.452633, 25.099898 ], [ 121.452958, 25.100349 ], [ 121.453029, 25.100448 ], [ 121.453275, 25.100794 ], [ 121.453509, 25.101112 ] ] ] } },
{ "type": "Feature", "properties": { "cls": "separated", "highway": "cycleway", "name": null }, "geometry": { "type": "LineString", "coordinates": [ [ 121.451608, 25.098253 ], [ 121.451746, 25.098198 ], [ 121.451742, 25.098125 ], [ 121.451824, 25.098018 ], [ 121.451773, 25.097905 ], [ 121.451644, 25.097672 ], [ 121.451486, 25.097338 ], [ 121.451298, 25.096792 ], [ 121.451109, 25.096086 ], [ 121.451073, 25.095823 ], [ 121.451076, 25.095164 ], [ 121.451037, 25.094646 ], [ 121.451041, 25.094303 ], [ 121.451105, 25.093934 ], [ 121.451148, 25.093556 ], [ 121.45112, 25.093248 ], [ 121.451052, 25.09258 ], [ 121.451029, 25.092145 ], [ 121.450934, 25.091403 ], [ 121.450853, 25.091024 ], [ 121.450787, 25.090811 ] ] } },
{ "type": "Feature", "properties": { "cls": "separated", "highway": "cycleway", "name": null }, "geometry": { "type": "LineString", "coordinates": [ [ 121.453078, 25.095271 ], [ 121.452952, 25.0953 ] ] } },
{ "type": "Feature", "properties": { "cls": "separated", "highway": "cycleway", "name": null }, "geometry": { "type": "LineString", "coordinates": [ [ 121.452614, 25.097772 ], [ 121.452356, 25.097886 ] ] } },
{ "type": "Feature", "properties": { "cls": "separated", "highway": "cycleway", "name": null }, "geometry": { "type": "LineString", "coordinates": [ [ 121.452356, 25.097886 ], [ 121.451972, 25.09808 ] ] } },
{ "type": "Feature", "properties": { "cls": "separated", "highway": "cycleway", "name": null }, "geometry": { "type": "LineString", "coordinates": [ [ 121.453225, 25.098386 ], [ 121.453419, 25.098515 ] ] } },
{ "type": "Feature", "properties": { "cls": "separated", "highway": "cycleway", "name": null }, "geometry": { "type": "LineString", "coordinates": [ [ 121.453419, 25.098515 ], [ 121.453663, 25.098642 ], [ 121.45375, 25.098676 ], [ 121.453847, 25.098697 ], [ 121.454009, 25.098697 ] ] } },
{ "type": "Feature", "properties": { "cls": "separated", "highway": "cycleway", "name": null }, "geometry": { "type": "LineString", "coordinates": [ [ 121.453782, 25.099896 ], [ 121.453428, 25.100128 ] ] } },
{ "type": "Feature", "properties": { "cls": "shared", "highway": "cycleway", "name": null }, "geometry": { "type": "LineString", "coordinates": [ [ 121.459081, 25.09542 ], [ 121.459128, 25.095397 ], [ 121.459108, 25.095353 ] ] } },
{ "type": "Feature", "properties": { "cls": "shared", "highway": "cycleway", "name": null }, "geometry": { "type": "LineString", "coordinates": [ [ 121.4584, 25.096788 ], [ 121.458504, 25.097007 ], [ 121.458568, 25.097032 ], [ 121.458616, 25.097019 ], [ 121.458864, 25.096832 ], [ 121.458956, 25.096798 ], [ 121.45903, 25.096796 ], [ 121.459091, 25.096808 ], [ 121.459239, 25.096816 ], [ 121.459429, 25.096785 ], [ 121.459513, 25.096788 ], [ 121.459601, 25.096854 ], [ 121.459659, 25.096934 ], [ 121.459715, 25.09699 ], [ 121.45982, 25.097017 ], [ 121.459869, 25.097062 ], [ 121.460209, 25.097334 ], [ 121.460341, 25.097416 ], [ 121.460375, 25.097447 ], [ 121.460685, 25.097919 ], [ 121.460781, 25.098074 ] ] } },
{ "type": "Feature", "properties": { "cls": "shared", "highway": "cycleway", "name": null }, "geometry": { "type": "LineString", "coordinates": [ [ 121.460781, 25.098074 ], [ 121.46094, 25.098299 ] ] } },
{ "type": "Feature", "properties": { "cls": "shared", "highway": "cycleway", "name": null }, "geometry": { "type": "LineString", "coordinates": [ [ 121.46094, 25.098299 ], [ 121.461074, 25.098439 ] ] } },
{ "type": "Feature", "properties": { "cls": "shared", "highway": "cycleway", "name": "二重環狀自行車道" }, "geometry": { "type": "LineString", "coordinates": [ [ 121.46128, 25.098613 ], [ 121.461164, 25.09849 ], [ 121.461074, 25.098439 ], [ 121.460959, 25.098398 ], [ 121.46077, 25.098309 ], [ 121.460462, 25.098213 ], [ 121.460114, 25.098126 ], [ 121.458985, 25.097893 ], [ 121.458588, 25.097859 ], [ 121.458493, 25.09786 ], [ 121.458378, 25.097892 ] ] } },
{ "type": "Feature", "properties": { "cls": "separated", "highway": "cycleway", "name": null }, "geometry": { "type": "MultiLineString", "coordinates": [ [ [ 121.461074, 25.098439 ], [ 121.461115, 25.098518 ], [ 121.461508, 25.099058 ] ], [ [ 121.461675, 25.099345 ], [ 121.46139, 25.099555 ], [ 121.461279, 25.099637 ] ] ] } },
{ "type": "Feature", "properties": { "cls": "separated", "highway": "cycleway", "name": null }, "geometry": { "type": "LineString", "coordinates": [ [ 121.461279, 25.099637 ], [ 121.460963, 25.099663 ] ] } },
{ "type": "Feature", "properties": { "cls": "shared", "highway": "cycleway", "name": null }, "geometry": { "type": "LineString", "coordinates": [ [ 121.457886, 25.093686 ], [ 121.457712, 25.093806 ], [ 121.457801, 25.094005 ], [ 121.457837, 25.094084 ], [ 121.457819, 25.094254 ], [ 121.457829, 25.094316 ], [ 121.458104, 25.094751 ], [ 121.458086, 25.0948 ], [ 121.458037, 25.094879 ], [ 121.457748, 25.095145 ], [ 121.457721, 25.095198 ], [ 121.457728, 25.095267 ], [ 121.457938, 25.095747 ], [ 121.457985, 25.095912 ], [ 121.458017, 25.096065 ], [ 121.458033, 25.096411 ], [ 121.458037, 25.096463 ], [ 121.458053, 25.096501 ], [ 121.4584, 25.096788 ] ] } },
{ "type": "Feature", "properties": { "cls": "shared", "highway": "cycleway", "name": null }, "geometry": { "type": "LineString", "coordinates": [ [ 121.4584, 25.096788 ], [ 121.458121, 25.097225 ] ] } },
{ "type": "Feature", "properties": { "cls": "shared", "highway": "cycleway", "name": null }, "geometry": { "type": "LineString", "coordinates": [ [ 121.457765, 25.0979 ], [ 121.4579, 25.09768 ], [ 121.457933, 25.097621 ], [ 121.458041, 25.097388 ], [ 121.458121, 25.097225 ] ] } },
{ "type": "Feature", "properties": { "cls": "separated", "highway": "cycleway", "name": "二重環狀自行車道" }, "geometry": { "type": "LineString", "coordinates": [ [ 121.458378, 25.097892 ], [ 121.458097, 25.097973 ] ] } },
{ "type": "Feature", "properties": { "cls": "separated", "highway": "cycleway", "name": "二重環狀自行車道" }, "geometry": { "type": "LineString", "coordinates": [ [ 121.458097, 25.097973 ], [ 121.458018, 25.09799 ], [ 121.45795, 25.097985 ], [ 121.457802, 25.097919 ], [ 121.457765, 25.0979 ] ] } },
{ "type": "Feature", "properties": { "cls": "separated", "highway": "cycleway", "name": null }, "geometry": { "type": "LineString", "coordinates": [ [ 121.454418, 25.099427 ], [ 121.454459, 25.099359 ], [ 121.454527, 25.099262 ], [ 121.454582, 25.099219 ], [ 121.454726, 25.099113 ], [ 121.454883, 25.098931 ], [ 121.455084, 25.098537 ], [ 121.455298, 25.098027 ], [ 121.455333, 25.097975 ], [ 121.455383, 25.097948 ], [ 121.45554, 25.097952 ], [ 121.455701, 25.097972 ], [ 121.45597, 25.09807 ], [ 121.456243, 25.098243 ], [ 121.45699, 25.098725 ], [ 121.457168, 25.09883 ], [ 121.45748, 25.099053 ], [ 121.457721, 25.09924 ], [ 121.457971, 25.099452 ], [ 121.458119, 25.099611 ], [ 121.458255, 25.099812 ], [ 121.458385, 25.100064 ], [ 121.458432, 25.100156 ], [ 121.45848, 25.10027 ] ] } },
{ "type": "Feature", "properties": { "cls": "shared", "highway": "cycleway", "name": "二重環狀自行車道" }, "geometry": { "type": "LineString", "coordinates": [ [ 121.45527, 25.100777 ], [ 121.455311, 25.100684 ], [ 121.455479, 25.100455 ], [ 121.456072, 25.09982 ], [ 121.456265, 25.099596 ], [ 121.456509, 25.099343 ], [ 121.45694, 25.098849 ], [ 121.45699, 25.098725 ], [ 121.457033, 25.098637 ], [ 121.457128, 25.098533 ], [ 121.457332, 25.098376 ], [ 121.457521, 25.098162 ], [ 121.4576, 25.098035 ], [ 121.457765, 25.0979 ] ] } },
{ "type": "Feature", "properties": { "cls": "separated", "highway": "footway", "name": null }, "geometry": { "type": "LineString", "coordinates": [ [ 121.454418, 25.099427 ], [ 121.454334, 25.099383 ], [ 121.454265, 25.099347 ] ] } },
{ "type": "Feature", "properties": { "cls": "separated", "highway": "cycleway", "name": null }, "geometry": { "type": "LineString", "coordinates": [ [ 121.454226, 25.100016 ], [ 121.454203, 25.099988 ], [ 121.454154, 25.09988 ], [ 121.454148, 25.09981 ], [ 121.454172, 25.099746 ], [ 121.454238, 25.099672 ], [ 121.454348, 25.099579 ], [ 121.454377, 25.099521 ], [ 121.454418, 25.099427 ] ] } },
{ "type": "Feature", "properties": { "cls": "separated", "highway": "cycleway", "name": null }, "geometry": { "type": "LineString", "coordinates": [ [ 121.453811, 25.099752 ], [ 121.453782, 25.099896 ] ] } },
{ "type": "Feature", "properties": { "cls": "shared", "highway": "cycleway", "name": null }, "geometry": { "type": "LineString", "coordinates": [ [ 121.453428, 25.100128 ], [ 121.453219, 25.100265 ] ] } },
{ "type": "Feature", "properties": { "cls": "shared", "highway": "cycleway", "name": null }, "geometry": { "type": "LineString", "coordinates": [ [ 121.452633, 25.099898 ], [ 121.452762, 25.099854 ], [ 121.452854, 25.099868 ], [ 121.452909, 25.099912 ], [ 121.453178, 25.100218 ], [ 121.453219, 25.100265 ], [ 121.453321, 25.100468 ], [ 121.453305, 25.100529 ], [ 121.453321, 25.100591 ], [ 121.453335, 25.100639 ], [ 121.453329, 25.100747 ], [ 121.453298, 25.100778 ], [ 121.453275, 25.100794 ] ] } },
{ "type": "Feature", "properties": { "cls": "separated", "highway": "cycleway", "name": null }, "geometry": { "type": "LineString", "coordinates": [ [ 121.459936, 25.099876 ], [ 121.460002, 25.099858 ], [ 121.460071, 25.099804 ], [ 121.460236, 25.099742 ], [ 121.46044, 25.099704 ], [ 121.460717, 25.099689 ], [ 121.460963, 25.099663 ] ] } },
{ "type": "Feature", "properties": { "cls": "shared", "highway": "cycleway", "name": null }, "geometry": { "type": "LineString", "coordinates": [ [ 121.459936, 25.099876 ], [ 121.459703, 25.099899 ], [ 121.45934, 25.099962 ], [ 121.458565, 25.100238 ], [ 121.45848, 25.10027 ], [ 121.458309, 25.100371 ], [ 121.457418, 25.101207 ], [ 121.457302, 25.101329 ], [ 121.456623, 25.102408 ] ] } },
{ "type": "Feature", "properties": { "cls": "separated", "highway": "cycleway", "name": null }, "geometry": { "type": "LineString", "coordinates": [ [ 121.454257, 25.100083 ], [ 121.454226, 25.100016 ] ] } },
{ "type": "Feature", "properties": { "cls": "separated", "highway": "cycleway", "name": null }, "geometry": { "type": "LineString", "coordinates": [ [ 121.45527, 25.100777 ], [ 121.455158, 25.100641 ], [ 121.454361, 25.100191 ], [ 121.454262, 25.100109 ], [ 121.454257, 25.100083 ] ] } },
{ "type": "Feature", "properties": { "cls": "separated", "highway": "cycleway", "name": null }, "geometry": { "type": "LineString", "coordinates": [ [ 121.45527, 25.100777 ], [ 121.455219, 25.100929 ], [ 121.455168, 25.100983 ] ] } },
{ "type": "Feature", "properties": { "cls": "separated", "highway": "cycleway", "name": null }, "geometry": { "type": "LineString", "coordinates": [ [ 121.455168, 25.100983 ], [ 121.454526, 25.101657 ] ] } },
{ "type": "Feature", "properties": { "cls": "separated", "highway": "cycleway", "name": null }, "geometry": { "type": "LineString", "coordinates": [ [ 121.456095, 25.102228 ], [ 121.456026, 25.102026 ], [ 121.455927, 25.10185 ], [ 121.455727, 25.101575 ], [ 121.455421, 25.101195 ], [ 121.455385, 25.101141 ], [ 121.455307, 25.100838 ], [ 121.45527, 25.100777 ] ] } },
{ "type": "Feature", "properties": { "cls": "separated", "highway": "cycleway", "name": null }, "geometry": { "type": "LineString", "coordinates": [ [ 121.454526, 25.101657 ], [ 121.454504, 25.101677 ], [ 121.454423, 25.101764 ] ] } },
{ "type": "Feature", "properties": { "cls": "shared", "highway": "cycleway", "name": null }, "geometry": { "type": "LineString", "coordinates": [ [ 121.453933, 25.101637 ], [ 121.454412, 25.102185 ], [ 121.454512, 25.102244 ], [ 121.454579, 25.10227 ], [ 121.454629, 25.102296 ] ] } },
{ "type": "Feature", "properties": { "cls": "separated", "highway": "cycleway", "name": null }, "geometry": { "type": "LineString", "coordinates": [ [ 121.456013, 25.102253 ], [ 121.456095, 25.102228 ] ] } },
{ "type": "Feature", "properties": { "cls": "shared", "highway": "cycleway", "name": null }, "geometry": { "type": "LineString", "coordinates": [ [ 121.454629, 25.102296 ], [ 121.454733, 25.102357 ] ] } },
{ "type": "Feature", "properties": { "cls": "separated", "highway": "cycleway", "name": null }, "geometry": { "type": "LineString", "coordinates": [ [ 121.456623, 25.102408 ], [ 121.45657, 25.102467 ], [ 121.456479, 25.102507 ], [ 121.456386, 25.102513 ], [ 121.456314, 25.102492 ], [ 121.456257, 25.102466 ], [ 121.456193, 25.102409 ], [ 121.45615, 25.102331 ], [ 121.456095, 25.102228 ] ] } },
{ "type": "Feature", "properties": { "cls": "shared", "highway": "cycleway", "name": null }, "geometry": { "type": "LineString", "coordinates": [ [ 121.454733, 25.102357 ], [ 121.454783, 25.1024 ] ] } },
{ "type": "Feature", "properties": { "cls": "shared", "highway": "cycleway", "name": null }, "geometry": { "type": "LineString", "coordinates": [ [ 121.454783, 25.1024 ], [ 121.454694, 25.10258 ] ] } },
{ "type": "Feature", "properties": { "cls": "separated", "highway": "cycleway", "name": "八里左岸自行車道" }, "geometry": { "type": "LineString", "coordinates": [ [ 121.454785, 25.102693 ], [ 121.454813, 25.10267 ] ] } }
]
}
