{
"type": "FeatureCollection",
"name": "185-brasilia-parque-da-cidade-dona-sarah-kubitschek",
"crs": { "type": "name", "properties": { "name": "urn:ogc:def:crs:OGC:1.3:CRS84" } },
"xy_coordinate_resolution": 1e-06,
"features": [
{ "type": "Feature", "properties": { "cls": "separated", "highway": "cycleway", "name": null }, "geometry": { "type": "LineString", "coordinates": [ [ -47.909073, -15.801476 ], [ -47.909269, -15.80157 ], [ -47.909505, -15.801674 ], [ -47.909649, -15.801713 ], [ -47.909848, -15.801745 ], [ -47.910076, -15.80175 ], [ -47.91028, -15.801728 ], [ -47.910416, -15.801701 ], [ -47.910645, -15.80165 ], [ -47.910975, -15.801519 ], [ -47.911218, -15.801388 ], [ -47.911444, -15.801224 ], [ -47.911644, -15.801018 ], [ -47.911743, -15.800914 ], [ -47.911769, -15.800888 ], [ -47.911991, -15.800699 ], [ -47.912048, -15.80066 ], [ -47.912194, -15.800572 ], [ -47.912292, -15.800521 ], [ -47.912476, -15.800445 ], [ -47.912594, -15.800408 ], [ -47.912735, -15.800376 ], [ -47.912878, -15.800352 ], [ -47.912996, -15.800338 ], [ -47.913475, -15.800283 ], [ -47.913643, -15.80027 ], [ -47.913774, -15.800271 ], [ -47.91385, -15.800275 ], [ -47.913865, -15.800276 ], [ -47.913982, -15.800292 ], [ -47.914107, -15.800318 ], [ -47.91424, -15.800356 ], [ -47.914385, -15.800415 ], [ -47.914561, -15.800504 ], [ -47.914667, -15.800581 ], [ -47.91479, -15.800687 ], [ -47.914921, -15.800819 ], [ -47.915049, -15.800978 ], [ -47.915119, -15.801105 ], [ -47.915182, -15.801203 ], [ -47.915265, -15.801452 ], [ -47.915364, -15.801802 ], [ -47.915545, -15.802242 ], [ -47.915567, -15.802297 ], [ -47.915634, -15.802435 ], [ -47.915832, -15.802706 ], [ -47.916053, -15.802933 ], [ -47.916345, -15.803167 ], [ -47.916564, -15.803318 ], [ -47.916805, -15.803431 ], [ -47.917078, -15.803512 ], [ -47.917286, -15.803552 ], [ -47.917489, -15.803585 ], [ -47.917757, -15.803603 ], [ -47.91793, -15.803624 ], [ -47.918122, -15.803696 ], [ -47.918238, -15.803783 ], [ -47.918384, -15.803938 ], [ -47.918444, -15.804042 ], [ -47.918489, -15.804162 ], [ -47.918511, -15.804292 ], [ -47.918504, -15.804431 ], [ -47.918446, -15.80492 ], [ -47.91841, -15.8052 ], [ -47.918372, -15.805437 ], [ -47.918356, -15.805618 ], [ -47.918366, -15.805812 ], [ -47.918409, -15.805983 ], [ -47.91847, -15.806121 ], [ -47.918579, -15.806269 ], [ -47.918687, -15.806373 ], [ -47.918826, -15.806467 ], [ -47.91899, -15.806542 ], [ -47.919151, -15.806581 ], [ -47.919331, -15.806587 ], [ -47.919462, -15.806575 ], [ -47.919613, -15.80653 ], [ -47.919722, -15.806484 ], [ -47.919845, -15.806412 ], [ -47.919997, -15.806279 ], [ -47.920054, -15.806201 ], [ -47.920366, -15.805854 ], [ -47.920559, -15.805654 ], [ -47.920726, -15.805528 ], [ -47.920907, -15.805443 ], [ -47.921067, -15.805383 ], [ -47.921263, -15.805349 ], [ -47.921437, -15.805341 ], [ -47.921623, -15.805358 ], [ -47.921815, -15.805405 ], [ -47.921969, -15.805466 ], [ -47.922166, -15.805583 ], [ -47.922308, -15.8057 ], [ -47.92242, -15.805832 ], [ -47.922528, -15.805991 ], [ -47.922589, -15.806129 ], [ -47.922639, -15.806274 ], [ -47.922656, -15.806415 ], [ -47.922666, -15.806564 ], [ -47.922673, -15.806863 ], [ -47.92268, -15.807344 ], [ -47.922683, -15.807487 ], [ -47.922711, -15.807682 ], [ -47.92275, -15.807829 ], [ -47.922818, -15.807976 ], [ -47.922958, -15.80819 ], [ -47.923031, -15.808275 ], [ -47.923147, -15.808383 ], [ -47.923308, -15.808502 ], [ -47.924003, -15.808831 ], [ -47.924683, -15.809158 ], [ -47.924802, -15.809257 ], [ -47.924931, -15.809388 ], [ -47.925033, -15.809589 ], [ -47.925088, -15.809841 ], [ -47.925072, -15.809996 ], [ -47.924963, -15.810281 ], [ -47.924834, -15.810434 ], [ -47.92476, -15.810491 ], [ -47.924714, -15.810547 ], [ -47.924519, -15.810623 ], [ -47.924307, -15.810675 ], [ -47.923878, -15.810697 ], [ -47.923429, -15.810725 ], [ -47.923274, -15.810748 ], [ -47.923139, -15.810805 ], [ -47.923007, -15.810898 ], [ -47.922921, -15.810991 ], [ -47.922842, -15.811102 ], [ -47.922761, -15.811276 ], [ -47.922676, -15.811389 ], [ -47.922566, -15.811496 ], [ -47.922449, -15.811577 ], [ -47.922292, -15.811647 ], [ -47.922147, -15.811678 ], [ -47.921966, -15.811677 ], [ -47.921796, -15.811647 ], [ -47.921678, -15.811598 ], [ -47.921499, -15.8115 ], [ -47.921337, -15.811399 ], [ -47.921198, -15.811286 ], [ -47.921051, -15.811161 ], [ -47.920872, -15.810952 ], [ -47.920586, -15.810581 ], [ -47.920153, -15.810033 ], [ -47.919964, -15.809775 ], [ -47.919905, -15.80969 ], [ -47.919716, -15.809513 ], [ -47.919592, -15.809434 ], [ -47.919432, -15.809351 ], [ -47.919249, -15.809279 ], [ -47.919083, -15.809244 ], [ -47.918956, -15.809225 ], [ -47.918788, -15.809225 ], [ -47.918546, -15.809264 ], [ -47.918264, -15.809368 ], [ -47.918122, -15.809391 ], [ -47.917888, -15.809404 ], [ -47.917601, -15.80942 ], [ -47.917094, -15.809425 ], [ -47.916774, -15.809424 ], [ -47.916617, -15.809417 ], [ -47.916547, -15.809373 ], [ -47.91643, -15.809277 ], [ -47.916322, -15.809139 ], [ -47.916209, -15.809022 ], [ -47.915876, -15.808759 ], [ -47.915505, -15.80831 ], [ -47.915454, -15.808232 ], [ -47.915405, -15.80811 ], [ -47.915337, -15.807773 ], [ -47.91532, -15.807627 ], [ -47.915308, -15.807523 ], [ -47.91529, -15.807343 ], [ -47.915297, -15.807213 ] ] } },
{ "type": "Feature", "properties": { "cls": "separated", "highway": "cycleway", "name": null }, "geometry": { "type": "LineString", "coordinates": [ [ -47.918858, -15.803294 ], [ -47.918313, -15.803389 ], [ -47.918035, -15.803559 ], [ -47.91793, -15.803624 ] ] } },
{ "type": "Feature", "properties": { "cls": "separated", "highway": "cycleway", "name": null }, "geometry": { "type": "LineString", "coordinates": [ [ -47.914869, -15.803119 ], [ -47.91471, -15.802878 ], [ -47.91469, -15.802703 ], [ -47.91469, -15.802594 ], [ -47.914722, -15.802482 ], [ -47.914801, -15.802366 ], [ -47.914888, -15.802295 ], [ -47.914981, -15.802241 ], [ -47.915148, -15.802197 ], [ -47.915277, -15.802204 ], [ -47.91541, -15.802241 ], [ -47.915567, -15.802297 ] ] } },
{ "type": "Feature", "properties": { "cls": "separated", "highway": "cycleway", "name": null }, "geometry": { "type": "LineString", "coordinates": [ [ -47.906159, -15.802487 ], [ -47.906239, -15.802445 ], [ -47.9063, -15.802382 ] ] } },
{ "type": "Feature", "properties": { "cls": "shared", "highway": "footway", "name": null }, "geometry": { "type": "LineString", "coordinates": [ [ -47.906273, -15.802654 ], [ -47.9063, -15.802382 ], [ -47.90632, -15.802309 ], [ -47.906341, -15.802239 ], [ -47.906434, -15.802113 ] ] } },
{ "type": "Feature", "properties": { "cls": "shared", "highway": "footway", "name": null }, "geometry": { "type": "LineString", "coordinates": [ [ -47.907015, -15.801682 ], [ -47.906764, -15.80188 ], [ -47.906434, -15.802113 ] ] } },
{ "type": "Feature", "properties": { "cls": "shared", "highway": "footway", "name": null }, "geometry": { "type": "LineString", "coordinates": [ [ -47.907403, -15.801195 ], [ -47.907228, -15.80144 ], [ -47.907015, -15.801682 ] ] } },
{ "type": "Feature", "properties": { "cls": "separated", "highway": "cycleway", "name": null }, "geometry": { "type": "LineString", "coordinates": [ [ -47.908618, -15.801296 ], [ -47.908831, -15.801372 ], [ -47.909073, -15.801476 ] ] } },
{ "type": "Feature", "properties": { "cls": "shared", "highway": "cycleway", "name": null }, "geometry": { "type": "LineString", "coordinates": [ [ -47.925072, -15.809996 ], [ -47.9252, -15.810002 ], [ -47.925467, -15.809993 ], [ -47.925803, -15.809965 ], [ -47.925949, -15.809923 ], [ -47.926288, -15.809691 ], [ -47.926601, -15.809499 ] ] } },
{ "type": "Feature", "properties": { "cls": "shared", "highway": "path", "name": null }, "geometry": { "type": "LineString", "coordinates": [ [ -47.918478, -15.809656 ], [ -47.918529, -15.80939 ], [ -47.918546, -15.809264 ], [ -47.918566, -15.809098 ], [ -47.918669, -15.808823 ], [ -47.918928, -15.808321 ], [ -47.919412, -15.807337 ], [ -47.91981, -15.806481 ], [ -47.919845, -15.806412 ] ] } },
{ "type": "Feature", "properties": { "cls": "shared", "highway": "cycleway", "name": null }, "geometry": { "type": "LineString", "coordinates": [ [ -47.928343, -15.807333 ], [ -47.928058, -15.807773 ], [ -47.927774, -15.808123 ], [ -47.927427, -15.808632 ], [ -47.927018, -15.809248 ], [ -47.92677, -15.809608 ], [ -47.926675, -15.809548 ], [ -47.926601, -15.809499 ] ] } },
{ "type": "Feature", "properties": { "cls": "separated", "highway": "cycleway", "name": null }, "geometry": { "type": "LineString", "coordinates": [ [ -47.919558, -15.803759 ], [ -47.919502, -15.803827 ], [ -47.918858, -15.803294 ] ] } },
{ "type": "Feature", "properties": { "cls": "separated", "highway": "cycleway", "name": null }, "geometry": { "type": "LineString", "coordinates": [ [ -47.919558, -15.803759 ], [ -47.919619, -15.803705 ], [ -47.920363, -15.803501 ], [ -47.921137, -15.803306 ], [ -47.921282, -15.803295 ] ] } },
{ "type": "Feature", "properties": { "cls": "shared", "highway": "footway", "name": null }, "geometry": { "type": "LineString", "coordinates": [ [ -47.905888, -15.802144 ], [ -47.905667, -15.802348 ] ] } },
{ "type": "Feature", "properties": { "cls": "separated", "highway": "cycleway", "name": null }, "geometry": { "type": "LineString", "coordinates": [ [ -47.905723, -15.801991 ], [ -47.905709, -15.801823 ], [ -47.905669, -15.801731 ], [ -47.905543, -15.801633 ], [ -47.905473, -15.801619 ], [ -47.905343, -15.801567 ], [ -47.905231, -15.80156 ], [ -47.905121, -15.801561 ], [ -47.905049, -15.801577 ] ] } },
{ "type": "Feature", "properties": { "cls": "separated", "highway": "cycleway", "name": null }, "geometry": { "type": "MultiLineString", "coordinates": [ [ [ -47.915297, -15.807213 ], [ -47.915362, -15.806933 ], [ -47.915429, -15.806747 ], [ -47.915508, -15.806585 ], [ -47.9157, -15.806302 ], [ -47.916019, -15.805869 ], [ -47.916182, -15.805644 ], [ -47.916277, -15.805469 ], [ -47.916346, -15.805276 ], [ -47.91639, -15.805114 ], [ -47.916415, -15.804956 ], [ -47.916422, -15.804691 ], [ -47.916415, -15.804588 ], [ -47.916381, -15.804408 ], [ -47.916341, -15.804277 ], [ -47.916295, -15.804145 ], [ -47.916184, -15.803929 ], [ -47.916088, -15.803788 ], [ -47.915986, -15.803663 ], [ -47.915724, -15.803437 ], [ -47.915506, -15.803306 ], [ -47.91535, -15.803235 ], [ -47.915136, -15.803165 ], [ -47.914869, -15.803119 ], [ -47.914645, -15.803116 ], [ -47.914406, -15.803143 ], [ -47.914383, -15.803147 ], [ -47.914293, -15.803162 ], [ -47.914127, -15.803206 ], [ -47.913908, -15.803301 ], [ -47.91378, -15.803375 ], [ -47.913674, -15.803446 ], [ -47.913279, -15.803772 ], [ -47.913094, -15.803911 ], [ -47.912893, -15.804016 ], [ -47.91261, -15.804125 ], [ -47.912411, -15.804162 ], [ -47.912246, -15.804181 ], [ -47.912051, -15.804186 ], [ -47.911881, -15.804174 ], [ -47.91165, -15.80413 ], [ -47.911467, -15.804072 ], [ -47.91133, -15.804019 ], [ -47.911194, -15.803946 ], [ -47.910976, -15.803814 ], [ -47.910784, -15.803638 ], [ -47.910572, -15.803397 ], [ -47.9104, -15.803249 ], [ -47.910228, -15.803143 ], [ -47.910024, -15.803055 ], [ -47.909794, -15.803031 ], [ -47.909591, -15.803048 ], [ -47.909417, -15.803099 ], [ -47.909249, -15.803166 ], [ -47.908567, -15.803446 ], [ -47.907885, -15.803717 ], [ -47.907617, -15.80376 ], [ -47.907381, -15.803749 ], [ -47.90722, -15.803718 ], [ -47.907059, -15.803658 ], [ -47.906901, -15.80357 ], [ -47.906755, -15.803459 ], [ -47.906568, -15.80326 ], [ -47.90647, -15.803076 ], [ -47.906273, -15.802654 ], [ -47.906159, -15.802487 ], [ -47.905888, -15.802144 ], [ -47.905723, -15.801991 ], [ -47.905454, -15.80182 ], [ -47.905391, -15.801777 ], [ -47.905049, -15.801577 ], [ -47.905015, -15.80156 ], [ -47.904975, -15.801536 ], [ -47.904469, -15.801413 ], [ -47.903827, -15.80125 ], [ -47.903273, -15.800969 ], [ -47.902908, -15.800668 ], [ -47.902574, -15.800339 ], [ -47.902331, -15.800001 ], [ -47.902198, -15.799721 ], [ -47.902093, -15.799479 ], [ -47.902013, -15.799256 ], [ -47.901979, -15.799069 ], [ -47.901938, -15.798818 ], [ -47.901913, -15.798536 ], [ -47.901898, -15.798285 ], [ -47.901957, -15.79795 ], [ -47.901989, -15.797639 ], [ -47.901981, -15.797272 ], [ -47.901923, -15.796931 ], [ -47.901841, -15.796633 ], [ -47.901821, -15.796583 ], [ -47.901723, -15.79633 ], [ -47.901607, -15.796108 ], [ -47.901438, -15.795838 ], [ -47.901219, -15.795614 ], [ -47.901024, -15.795444 ], [ -47.900989, -15.795412 ], [ -47.90093, -15.795374 ], [ -47.900919, -15.795366 ], [ -47.900726, -15.795237 ], [ -47.900534, -15.79517 ], [ -47.90031, -15.795083 ], [ -47.900032, -15.79507 ], [ -47.899703, -15.79494 ], [ -47.899589, -15.794914 ], [ -47.89948, -15.794925 ], [ -47.899413, -15.794971 ], [ -47.899338, -15.795056 ], [ -47.899253, -15.795192 ], [ -47.899181, -15.795241 ], [ -47.89877, -15.795445 ], [ -47.898592, -15.795519 ], [ -47.898535, -15.795564 ], [ -47.898313, -15.795757 ], [ -47.89821, -15.795798 ], [ -47.89815, -15.795803 ], [ -47.898058, -15.795745 ], [ -47.897418, -15.794748 ], [ -47.89738, -15.794766 ] ], [ [ -47.897075, -15.794912 ], [ -47.89562, -15.795605 ] ] ] } },
{ "type": "Feature", "properties": { "cls": "separated", "highway": "cycleway", "name": null }, "geometry": { "type": "LineString", "coordinates": [ [ -47.901139, -15.791249 ], [ -47.901339, -15.791374 ], [ -47.901536, -15.791516 ], [ -47.901706, -15.791655 ], [ -47.901781, -15.791759 ], [ -47.90185, -15.791905 ], [ -47.901916, -15.792095 ], [ -47.901941, -15.792238 ], [ -47.901959, -15.792423 ], [ -47.901947, -15.792628 ], [ -47.901894, -15.792861 ], [ -47.901754, -15.793313 ], [ -47.901729, -15.793609 ], [ -47.901735, -15.793778 ], [ -47.901757, -15.793949 ], [ -47.901874, -15.794288 ], [ -47.902012, -15.79456 ], [ -47.902111, -15.794693 ], [ -47.90222, -15.794818 ], [ -47.902496, -15.795059 ], [ -47.902716, -15.79522 ], [ -47.902932, -15.795354 ], [ -47.903061, -15.795421 ], [ -47.903172, -15.795477 ], [ -47.903349, -15.79555 ], [ -47.903606, -15.79564 ], [ -47.904033, -15.795709 ], [ -47.904438, -15.795718 ], [ -47.904864, -15.795676 ], [ -47.905205, -15.795689 ], [ -47.905525, -15.795766 ], [ -47.905562, -15.795784 ], [ -47.905787, -15.795898 ], [ -47.906115, -15.796142 ], [ -47.906326, -15.796388 ], [ -47.906508, -15.796684 ], [ -47.906539, -15.796735 ], [ -47.906618, -15.79703 ], [ -47.906634, -15.79737 ], [ -47.906554, -15.798062 ], [ -47.906561, -15.798448 ], [ -47.906631, -15.798787 ], [ -47.906642, -15.798819 ], [ -47.90668, -15.798925 ], [ -47.906704, -15.798994 ], [ -47.90684, -15.79931 ], [ -47.907037, -15.799667 ], [ -47.907275, -15.799996 ], [ -47.907536, -15.800408 ], [ -47.907603, -15.800504 ], [ -47.907888, -15.800838 ], [ -47.908129, -15.80106 ], [ -47.908264, -15.801147 ], [ -47.908463, -15.801242 ], [ -47.908618, -15.801296 ] ] } },
{ "type": "Feature", "properties": { "cls": "separated", "highway": "cycleway", "name": "Ciclovia do parque da cidade" }, "geometry": { "type": "LineString", "coordinates": [ [ -47.899186, -15.793636 ], [ -47.898765, -15.793553 ], [ -47.898642, -15.793491 ], [ -47.898527, -15.793398 ] ] } },
{ "type": "Feature", "properties": { "cls": "separated", "highway": "cycleway", "name": null }, "geometry": { "type": "LineString", "coordinates": [ [ -47.915411, -15.801168 ], [ -47.915291, -15.80118 ], [ -47.915182, -15.801203 ] ] } },
{ "type": "Feature", "properties": { "cls": "separated", "highway": "cycleway", "name": null }, "geometry": { "type": "LineString", "coordinates": [ [ -47.908129, -15.80106 ], [ -47.908012, -15.800987 ], [ -47.907953, -15.800996 ], [ -47.907821, -15.800996 ], [ -47.907701, -15.801019 ], [ -47.907599, -15.801058 ], [ -47.907481, -15.801125 ] ] } },
{ "type": "Feature", "properties": { "cls": "separated", "highway": "cycleway", "name": null }, "geometry": { "type": "LineString", "coordinates": [ [ -47.898441, -15.793327 ], [ -47.898484, -15.793363 ], [ -47.898527, -15.793398 ] ] } },
{ "type": "Feature", "properties": { "cls": "separated", "highway": "cycleway", "name": null }, "geometry": { "type": "LineString", "coordinates": [ [ -47.898441, -15.793327 ], [ -47.898433, -15.793321 ], [ -47.898415, -15.793304 ] ] } },
{ "type": "Feature", "properties": { "cls": "separated", "highway": "cycleway", "name": null }, "geometry": { "type": "LineString", "coordinates": [ [ -47.899589, -15.794914 ], [ -47.899461, -15.79485 ], [ -47.899365, -15.794699 ], [ -47.899237, -15.794365 ], [ -47.899199, -15.794237 ], [ -47.899196, -15.79414 ], [ -47.899164, -15.794052 ], [ -47.899166, -15.793959 ], [ -47.8992, -15.79387 ], [ -47.899195, -15.793797 ], [ -47.899173, -15.793718 ], [ -47.899186, -15.793636 ], [ -47.899198, -15.793603 ], [ -47.899242, -15.793496 ], [ -47.89929, -15.793384 ], [ -47.899295, -15.793297 ], [ -47.899311, -15.793211 ], [ -47.899382, -15.793111 ], [ -47.899432, -15.793024 ], [ -47.8995, -15.792808 ], [ -47.899498, -15.792719 ], [ -47.899449, -15.792585 ], [ -47.899384, -15.792425 ], [ -47.899388, -15.792318 ], [ -47.899441, -15.792061 ], [ -47.899452, -15.792027 ], [ -47.899465, -15.791985 ], [ -47.899582, -15.791692 ], [ -47.899663, -15.791553 ], [ -47.899807, -15.791404 ], [ -47.899955, -15.791286 ], [ -47.90011, -15.791207 ], [ -47.900151, -15.791191 ], [ -47.90027, -15.791145 ], [ -47.900508, -15.791112 ], [ -47.900821, -15.791151 ], [ -47.900993, -15.791182 ], [ -47.901139, -15.791249 ] ] } }
]
}
