{
"type": "FeatureCollection",
"name": "186-bedford-bedford-reservation",
"crs": { "type": "name", "properties": { "name": "urn:ogc:def:crs:OGC:1.3:CRS84" } },
"xy_coordinate_resolution": 1e-06,
"features": [
{ "type": "Feature", "properties": { "cls": "shared", "highway": "cycleway", "name": "Bike and Hike Trail" }, "geometry": { "type": "LineString", "coordinates": [ [ -81.569925, 41.350914 ], [ -81.569924, 41.350931 ], [ -81.569921, 41.35096 ] ] } },
{ "type": "Feature", "properties": { "cls": "shared", "highway": "cycleway", "name": "Bike and Hike Trail" }, "geometry": { "type": "LineString", "coordinates": [ [ -81.569921, 41.35096 ], [ -81.569917, 41.350997 ], [ -81.56992, 41.351021 ], [ -81.569931, 41.351043 ], [ -81.569943, 41.351059 ], [ -81.569973, 41.35108 ], [ -81.57003, 41.351108 ], [ -81.570131, 41.351148 ], [ -81.57021, 41.351182 ] ] } },
{ "type": "Feature", "properties": { "cls": "shared", "highway": "cycleway", "name": null }, "geometry": { "type": "LineString", "coordinates": [ [ -81.568723, 41.357928 ], [ -81.568758, 41.357926 ] ] } },
{ "type": "Feature", "properties": { "cls": "shared", "highway": "cycleway", "name": "Bedford Reservation All Purpose Trail" }, "geometry": { "type": "LineString", "coordinates": [ [ -81.568719, 41.357944 ], [ -81.568716, 41.357955 ], [ -81.568716, 41.357956 ] ] } },
{ "type": "Feature", "properties": { "cls": "shared", "highway": "cycleway", "name": "Bedford Reservation All Purpose Trail" }, "geometry": { "type": "LineString", "coordinates": [ [ -81.563734, 41.358264 ], [ -81.563633, 41.358259 ], [ -81.563531, 41.358254 ] ] } },
{ "type": "Feature", "properties": { "cls": "shared", "highway": "cycleway", "name": "Bedford Reservation All Purpose Trail" }, "geometry": { "type": "LineString", "coordinates": [ [ -81.56806, 41.358273 ], [ -81.567983, 41.358272 ], [ -81.567872, 41.358267 ], [ -81.567759, 41.358267 ], [ -81.567537, 41.358269 ], [ -81.567257, 41.358264 ], [ -81.566931, 41.358256 ] ] } },
{ "type": "Feature", "properties": { "cls": "shared", "highway": "cycleway", "name": "Bedford Reservation All Purpose Trail" }, "geometry": { "type": "LineString", "coordinates": [ [ -81.566931, 41.358256 ], [ -81.566818, 41.358256 ], [ -81.566661, 41.35826 ], [ -81.566262, 41.358261 ], [ -81.565574, 41.358267 ], [ -81.565142, 41.358266 ], [ -81.565021, 41.358268 ], [ -81.564931, 41.358273 ], [ -81.564858, 41.35828 ], [ -81.564791, 41.358295 ], [ -81.564718, 41.358319 ], [ -81.564646, 41.358352 ], [ -81.564586, 41.358382 ], [ -81.564563, 41.358393 ], [ -81.564525, 41.358402 ], [ -81.564474, 41.358406 ], [ -81.564429, 41.358403 ], [ -81.564373, 41.358392 ], [ -81.564323, 41.358376 ], [ -81.564242, 41.358346 ], [ -81.564147, 41.358316 ], [ -81.564094, 41.358306 ], [ -81.564013, 41.358294 ], [ -81.563911, 41.358286 ], [ -81.563821, 41.358277 ], [ -81.563734, 41.358264 ] ] } },
{ "type": "Feature", "properties": { "cls": "separated", "highway": "cycleway", "name": "Short Cut" }, "geometry": { "type": "LineString", "coordinates": [ [ -81.561475, 41.360162 ], [ -81.561638, 41.360099 ], [ -81.561778, 41.360022 ], [ -81.561921, 41.359899 ], [ -81.562035, 41.359865 ], [ -81.56219, 41.35987 ] ] } },
{ "type": "Feature", "properties": { "cls": "shared", "highway": "cycleway", "name": "Bedford Reservation All Purpose Trail" }, "geometry": { "type": "LineString", "coordinates": [ [ -81.563531, 41.358254 ], [ -81.5635, 41.35826 ], [ -81.563473, 41.358266 ], [ -81.563458, 41.358278 ], [ -81.563456, 41.358296 ], [ -81.563468, 41.358318 ], [ -81.563591, 41.358452 ], [ -81.563645, 41.358511 ], [ -81.56369, 41.358555 ], [ -81.563734, 41.358592 ], [ -81.563804, 41.358643 ], [ -81.563833, 41.358666 ], [ -81.563887, 41.358709 ], [ -81.563945, 41.358756 ], [ -81.56398, 41.358789 ], [ -81.564007, 41.35882 ], [ -81.564031, 41.358869 ], [ -81.564065, 41.35893 ], [ -81.564122, 41.359017 ], [ -81.564174, 41.359089 ], [ -81.564232, 41.35916 ], [ -81.564326, 41.359259 ], [ -81.564448, 41.359379 ], [ -81.564582, 41.359497 ], [ -81.564686, 41.359579 ], [ -81.564754, 41.359628 ], [ -81.564779, 41.359652 ], [ -81.564811, 41.359694 ], [ -81.564841, 41.359745 ], [ -81.564872, 41.359809 ], [ -81.564892, 41.359848 ], [ -81.564925, 41.359898 ], [ -81.564973, 41.359949 ], [ -81.565047, 41.36002 ], [ -81.565192, 41.360145 ], [ -81.565369, 41.360303 ], [ -81.565515, 41.360435 ], [ -81.565663, 41.360563 ], [ -81.56577, 41.360657 ], [ -81.565838, 41.360725 ], [ -81.565907, 41.360787 ], [ -81.565984, 41.360845 ], [ -81.566063, 41.360903 ], [ -81.566145, 41.360968 ], [ -81.566214, 41.36103 ], [ -81.566281, 41.361103 ], [ -81.566364, 41.361201 ], [ -81.566422, 41.361259 ], [ -81.566469, 41.361303 ], [ -81.566569, 41.361385 ], [ -81.566718, 41.3615 ], [ -81.566829, 41.361591 ], [ -81.566885, 41.361641 ], [ -81.566976, 41.361741 ], [ -81.567036, 41.361799 ], [ -81.5671, 41.361855 ], [ -81.567161, 41.361911 ], [ -81.567201, 41.361958 ], [ -81.56722, 41.361997 ], [ -81.567226, 41.362045 ], [ -81.56721, 41.362275 ], [ -81.567207, 41.362348 ] ] } },
{ "type": "Feature", "properties": { "cls": "separated", "highway": "cycleway", "name": "Touch Stone Loop" }, "geometry": { "type": "LineString", "coordinates": [ [ -81.563357, 41.363045 ], [ -81.563323, 41.362958 ], [ -81.563323, 41.362839 ], [ -81.563304, 41.362673 ], [ -81.563275, 41.362515 ], [ -81.563227, 41.362335 ], [ -81.563184, 41.362129 ], [ -81.563122, 41.361949 ], [ -81.562987, 41.361808 ], [ -81.562742, 41.361725 ], [ -81.562483, 41.361686 ], [ -81.562128, 41.361671 ], [ -81.562013, 41.361704 ], [ -81.561917, 41.361776 ], [ -81.561825, 41.361837 ], [ -81.561734, 41.361848 ], [ -81.561638, 41.361812 ], [ -81.561509, 41.361707 ], [ -81.561369, 41.361527 ], [ -81.561201, 41.361401 ], [ -81.561, 41.361325 ], [ -81.560822, 41.361326 ], [ -81.560649, 41.361423 ], [ -81.560558, 41.361592 ], [ -81.560438, 41.36165 ], [ -81.560318, 41.361563 ], [ -81.560385, 41.361441 ], [ -81.560491, 41.361318 ], [ -81.560558, 41.361109 ], [ -81.56076, 41.360713 ], [ -81.560894, 41.360554 ], [ -81.561105, 41.360475 ], [ -81.561297, 41.360385 ], [ -81.561441, 41.360266 ], [ -81.561475, 41.360162 ], [ -81.561317, 41.360223 ], [ -81.561201, 41.360273 ], [ -81.56111, 41.360324 ], [ -81.561033, 41.360291 ], [ -81.561124, 41.360111 ], [ -81.561321, 41.35992 ], [ -81.561513, 41.35978 ], [ -81.561643, 41.359589 ], [ -81.561576, 41.359351 ], [ -81.561436, 41.359088 ], [ -81.561326, 41.358922 ], [ -81.561201, 41.358839 ], [ -81.561345, 41.358814 ], [ -81.561705, 41.359062 ], [ -81.561965, 41.359174 ], [ -81.562272, 41.359398 ], [ -81.562406, 41.359495 ], [ -81.562512, 41.359524 ], [ -81.562747, 41.359498 ], [ -81.562997, 41.359452 ], [ -81.563093, 41.359387 ], [ -81.563127, 41.359322 ], [ -81.563151, 41.35916 ], [ -81.563232, 41.359077 ], [ -81.563323, 41.359023 ], [ -81.563405, 41.358882 ], [ -81.563448, 41.35877 ], [ -81.563547, 41.358777 ], [ -81.563746, 41.358875 ], [ -81.563904, 41.359016 ], [ -81.563967, 41.359174 ], [ -81.56388, 41.359322 ], [ -81.563727, 41.359517 ], [ -81.563554, 41.359596 ], [ -81.563415, 41.359643 ], [ -81.563304, 41.359736 ], [ -81.563309, 41.359862 ], [ -81.563213, 41.359953 ], [ -81.562896, 41.359931 ], [ -81.56257, 41.359844 ], [ -81.562281, 41.359798 ], [ -81.56219, 41.35987 ], [ -81.562574, 41.359974 ], [ -81.562887, 41.360122 ], [ -81.563136, 41.360298 ], [ -81.563271, 41.360504 ], [ -81.563419, 41.360608 ], [ -81.563506, 41.360702 ], [ -81.563429, 41.360702 ], [ -81.563266, 41.360616 ], [ -81.563117, 41.36058 ], [ -81.563007, 41.360626 ], [ -81.563002, 41.360695 ], [ -81.563136, 41.360713 ], [ -81.563199, 41.360738 ], [ -81.563256, 41.360951 ], [ -81.563328, 41.361174 ], [ -81.563443, 41.361257 ], [ -81.563664, 41.36125 ], [ -81.563991, 41.36121 ], [ -81.564255, 41.361178 ], [ -81.564447, 41.361214 ], [ -81.564644, 41.361189 ], [ -81.564898, 41.361153 ], [ -81.56511, 41.361127 ], [ -81.565167, 41.361041 ], [ -81.565191, 41.360936 ], [ -81.565253, 41.360904 ], [ -81.565383, 41.361012 ], [ -81.565542, 41.361217 ], [ -81.565542, 41.361394 ], [ -81.565446, 41.361491 ], [ -81.565234, 41.361617 ], [ -81.565028, 41.361693 ], [ -81.564903, 41.361772 ], [ -81.564893, 41.361902 ], [ -81.564922, 41.362154 ], [ -81.565014, 41.362378 ], [ -81.565085, 41.362525 ], [ -81.565277, 41.36268 ], [ -81.565426, 41.362889 ], [ -81.565666, 41.363149 ], [ -81.56568, 41.363353 ], [ -81.565758, 41.363509 ], [ -81.565978, 41.363603 ], [ -81.566027, 41.363722 ], [ -81.565916, 41.363816 ], [ -81.56594, 41.363902 ], [ -81.566199, 41.363924 ], [ -81.566401, 41.364053 ], [ -81.566608, 41.364349 ], [ -81.566704, 41.364554 ], [ -81.566713, 41.364659 ], [ -81.566704, 41.364835 ], [ -81.56666, 41.364936 ], [ -81.566492, 41.364987 ], [ -81.566396, 41.36508 ], [ -81.566363, 41.365232 ], [ -81.5663, 41.365354 ], [ -81.566243, 41.365416 ], [ -81.566021, 41.365441 ] ] } },
{ "type": "Feature", "properties": { "cls": "shared", "highway": "cycleway", "name": "Bedford Reservation All Purpose Trail" }, "geometry": { "type": "LineString", "coordinates": [ [ -81.567074, 41.363353 ], [ -81.567086, 41.363315 ], [ -81.567095, 41.363262 ], [ -81.567106, 41.363182 ], [ -81.567111, 41.363096 ], [ -81.567124, 41.36293 ], [ -81.567145, 41.362687 ], [ -81.567162, 41.362558 ], [ -81.567174, 41.362476 ], [ -81.5672, 41.362394 ], [ -81.567207, 41.362348 ] ] } },
{ "type": "Feature", "properties": { "cls": "separated", "highway": "cycleway", "name": null }, "geometry": { "type": "LineString", "coordinates": [ [ -81.564024, 41.363257 ], [ -81.563775, 41.363239 ], [ -81.563568, 41.363207 ], [ -81.563439, 41.363142 ], [ -81.563357, 41.363045 ] ] } },
{ "type": "Feature", "properties": { "cls": "separated", "highway": "cycleway", "name": null }, "geometry": { "type": "LineString", "coordinates": [ [ -81.564629, 41.36338 ], [ -81.564514, 41.363275 ], [ -81.564404, 41.363217 ], [ -81.564245, 41.363217 ], [ -81.564144, 41.363239 ], [ -81.564024, 41.363257 ] ] } },
{ "type": "Feature", "properties": { "cls": "separated", "highway": "cycleway", "name": null }, "geometry": { "type": "LineString", "coordinates": [ [ -81.564841, 41.363653 ], [ -81.564629, 41.36338 ] ] } },
{ "type": "Feature", "properties": { "cls": "shared", "highway": "cycleway", "name": "Bedford Reservation All Purpose Trail" }, "geometry": { "type": "LineString", "coordinates": [ [ -81.567074, 41.363353 ], [ -81.567045, 41.363402 ], [ -81.567008, 41.363486 ], [ -81.566969, 41.363591 ], [ -81.566932, 41.363701 ], [ -81.566914, 41.363791 ], [ -81.566902, 41.363874 ], [ -81.566902, 41.363906 ], [ -81.566903, 41.363945 ], [ -81.566921, 41.364037 ], [ -81.566926, 41.36409 ], [ -81.566925, 41.364156 ], [ -81.566908, 41.364328 ], [ -81.566897, 41.364413 ], [ -81.56688, 41.364487 ], [ -81.566849, 41.364649 ], [ -81.566804, 41.364903 ], [ -81.566785, 41.365011 ], [ -81.566774, 41.365121 ], [ -81.566766, 41.365166 ], [ -81.566752, 41.365233 ], [ -81.566737, 41.36528 ], [ -81.566718, 41.36532 ], [ -81.56669, 41.365361 ], [ -81.566657, 41.365393 ], [ -81.566617, 41.36542 ], [ -81.566574, 41.36544 ], [ -81.566533, 41.365451 ], [ -81.566484, 41.36546 ], [ -81.566407, 41.36547 ], [ -81.566353, 41.365476 ], [ -81.566242, 41.365482 ], [ -81.566113, 41.365485 ], [ -81.566018, 41.365492 ], [ -81.565912, 41.365504 ], [ -81.565824, 41.365509 ], [ -81.565742, 41.365507 ], [ -81.56564, 41.3655 ], [ -81.565527, 41.365495 ], [ -81.565435, 41.365495 ], [ -81.565405, 41.365501 ], [ -81.565385, 41.365513 ], [ -81.56538, 41.365537 ], [ -81.565383, 41.365567 ] ] } },
{ "type": "Feature", "properties": { "cls": "separated", "highway": "cycleway", "name": null }, "geometry": { "type": "MultiLineString", "coordinates": [ [ [ -81.566018, 41.365492 ], [ -81.566021, 41.365441 ], [ -81.566036, 41.365246 ], [ -81.566036, 41.364889 ], [ -81.565926, 41.364576 ], [ -81.56571, 41.364309 ], [ -81.565522, 41.364219 ], [ -81.565466, 41.364106 ], [ -81.565417, 41.363978 ], [ -81.565271, 41.363887 ] ], [ [ -81.565266, 41.363884 ], [ -81.565162, 41.363819 ], [ -81.564941, 41.363758 ], [ -81.564841, 41.363653 ] ] ] } },
{ "type": "Feature", "properties": { "cls": "shared", "highway": "cycleway", "name": "Bedford Reservation All Purpose Trail" }, "geometry": { "type": "LineString", "coordinates": [ [ -81.565383, 41.365567 ], [ -81.565386, 41.365599 ], [ -81.565388, 41.365631 ] ] } },
{ "type": "Feature", "properties": { "cls": "shared", "highway": "cycleway", "name": null }, "geometry": { "type": "LineString", "coordinates": [ [ -81.565693, 41.365994 ], [ -81.565653, 41.365995 ], [ -81.565603, 41.365997 ] ] } },
{ "type": "Feature", "properties": { "cls": "shared", "highway": "cycleway", "name": "Bedford Reservation All Purpose Trail" }, "geometry": { "type": "LineString", "coordinates": [ [ -81.555353, 41.373518 ], [ -81.555376, 41.37338 ], [ -81.555384, 41.373275 ], [ -81.555379, 41.373145 ], [ -81.555373, 41.372988 ], [ -81.555392, 41.372861 ], [ -81.555438, 41.372728 ], [ -81.555477, 41.372582 ], [ -81.555489, 41.372466 ], [ -81.55551, 41.372396 ], [ -81.555538, 41.372294 ], [ -81.555544, 41.372213 ], [ -81.555528, 41.372141 ], [ -81.555514, 41.372053 ], [ -81.555524, 41.371969 ], [ -81.55553, 41.371873 ], [ -81.555521, 41.371671 ], [ -81.555526, 41.371478 ], [ -81.555513, 41.371335 ], [ -81.555489, 41.371165 ], [ -81.555448, 41.370888 ], [ -81.555412, 41.370752 ], [ -81.555397, 41.370634 ], [ -81.555397, 41.370454 ], [ -81.555375, 41.370277 ], [ -81.55534, 41.370112 ], [ -81.55527, 41.369977 ], [ -81.555163, 41.369852 ], [ -81.555054, 41.369778 ], [ -81.554874, 41.369712 ], [ -81.554707, 41.369683 ], [ -81.554537, 41.369694 ], [ -81.554355, 41.369732 ], [ -81.554213, 41.369768 ], [ -81.554027, 41.369835 ], [ -81.553555, 41.370042 ], [ -81.553301, 41.370125 ], [ -81.55301, 41.370199 ], [ -81.552758, 41.370243 ], [ -81.552527, 41.370288 ], [ -81.552328, 41.370336 ], [ -81.552159, 41.370427 ], [ -81.55207, 41.370506 ], [ -81.551983, 41.370608 ], [ -81.551912, 41.370677 ], [ -81.551719, 41.37078 ], [ -81.551481, 41.370933 ], [ -81.551275, 41.371086 ], [ -81.551006, 41.371322 ], [ -81.550792, 41.371499 ], [ -81.550699, 41.371567 ], [ -81.550592, 41.371618 ], [ -81.55045, 41.371663 ], [ -81.550297, 41.371691 ], [ -81.550154, 41.3717 ], [ -81.549979, 41.371692 ], [ -81.549665, 41.371674 ], [ -81.549468, 41.371678 ], [ -81.549312, 41.3717 ], [ -81.549087, 41.371752 ], [ -81.548889, 41.371827 ], [ -81.548755, 41.371925 ], [ -81.548643, 41.372014 ], [ -81.548553, 41.372099 ], [ -81.548459, 41.372208 ], [ -81.548392, 41.372325 ], [ -81.548297, 41.372507 ], [ -81.548241, 41.372668 ], [ -81.548206, 41.37285 ], [ -81.548177, 41.373035 ], [ -81.548162, 41.373203 ], [ -81.54816, 41.373297 ], [ -81.548148, 41.373349 ], [ -81.548119, 41.373425 ], [ -81.548071, 41.37364 ], [ -81.548064, 41.373788 ], [ -81.548055, 41.373889 ], [ -81.548008, 41.373989 ], [ -81.547984, 41.374061 ], [ -81.547996, 41.374138 ], [ -81.54804, 41.374212 ], [ -81.548111, 41.3743 ], [ -81.548168, 41.374429 ], [ -81.548213, 41.374544 ], [ -81.548247, 41.374656 ], [ -81.548239, 41.374761 ], [ -81.548197, 41.37487 ], [ -81.548143, 41.375016 ], [ -81.548082, 41.375119 ], [ -81.548001, 41.375204 ], [ -81.547916, 41.375269 ], [ -81.54784, 41.375313 ], [ -81.547649, 41.375395 ], [ -81.547488, 41.375425 ], [ -81.547218, 41.375466 ], [ -81.546967, 41.375492 ], [ -81.546657, 41.375513 ], [ -81.546472, 41.375508 ], [ -81.54636, 41.37551 ], [ -81.54624, 41.375516 ], [ -81.546102, 41.375535 ], [ -81.545892, 41.375557 ], [ -81.545731, 41.375592 ], [ -81.545539, 41.375636 ], [ -81.54544, 41.375699 ], [ -81.545345, 41.375787 ], [ -81.545271, 41.375879 ], [ -81.545223, 41.375948 ], [ -81.545197, 41.376077 ] ] } },
{ "type": "Feature", "properties": { "cls": "shared", "highway": "cycleway", "name": "Wild Oaks Loop" }, "geometry": { "type": "LineString", "coordinates": [ [ -81.555353, 41.373518 ], [ -81.555231, 41.373525 ] ] } },
{ "type": "Feature", "properties": { "cls": "shared", "highway": "cycleway", "name": null }, "geometry": { "type": "LineString", "coordinates": [ [ -81.555231, 41.373525 ], [ -81.555187, 41.373537 ], [ -81.555166, 41.373543 ], [ -81.555143, 41.37355 ] ] } },
{ "type": "Feature", "properties": { "cls": "shared", "highway": "cycleway", "name": "Bedford Reservation All Purpose Trail" }, "geometry": { "type": "LineString", "coordinates": [ [ -81.545197, 41.376077 ], [ -81.545186, 41.376215 ] ] } },
{ "type": "Feature", "properties": { "cls": "shared", "highway": "cycleway", "name": "Bedford Reservation All Purpose Trail" }, "geometry": { "type": "LineString", "coordinates": [ [ -81.545186, 41.376215 ], [ -81.545188, 41.376298 ], [ -81.545227, 41.376401 ], [ -81.545275, 41.376485 ], [ -81.545385, 41.376609 ], [ -81.545495, 41.376687 ], [ -81.545684, 41.376796 ], [ -81.545813, 41.37685 ], [ -81.545967, 41.376906 ], [ -81.546125, 41.376937 ], [ -81.546301, 41.376964 ], [ -81.546438, 41.376964 ], [ -81.546654, 41.376939 ], [ -81.546848, 41.376913 ], [ -81.547164, 41.376903 ], [ -81.547441, 41.376896 ], [ -81.547622, 41.376897 ], [ -81.547741, 41.376904 ], [ -81.54784, 41.376921 ], [ -81.547932, 41.376975 ], [ -81.547997, 41.377043 ], [ -81.548103, 41.377194 ], [ -81.548136, 41.377237 ], [ -81.548156, 41.377295 ], [ -81.548162, 41.377366 ], [ -81.548173, 41.377434 ], [ -81.548197, 41.377508 ], [ -81.548226, 41.377617 ], [ -81.548236, 41.377661 ], [ -81.548247, 41.37768 ], [ -81.548277, 41.377688 ], [ -81.548322, 41.377689 ], [ -81.548381, 41.377688 ] ] } },
{ "type": "Feature", "properties": { "cls": "shared", "highway": "cycleway", "name": "Bedford Reservation All Purpose Trail" }, "geometry": { "type": "LineString", "coordinates": [ [ -81.548381, 41.377688 ], [ -81.548425, 41.377696 ], [ -81.548469, 41.377705 ] ] } },
{ "type": "Feature", "properties": { "cls": "shared", "highway": "cycleway", "name": "Bedford Reservation All Purpose Trail" }, "geometry": { "type": "LineString", "coordinates": [ [ -81.548469, 41.377705 ], [ -81.548524, 41.377716 ], [ -81.54858, 41.377738 ], [ -81.548605, 41.377766 ], [ -81.548614, 41.377805 ], [ -81.548612, 41.377886 ], [ -81.548597, 41.377969 ], [ -81.548565, 41.378047 ], [ -81.54849, 41.378153 ], [ -81.548461, 41.378209 ], [ -81.548446, 41.37837 ], [ -81.548423, 41.3785 ], [ -81.548384, 41.378669 ], [ -81.548339, 41.378811 ], [ -81.54826, 41.379003 ], [ -81.548155, 41.379186 ], [ -81.54806, 41.379359 ], [ -81.548018, 41.379462 ], [ -81.547993, 41.379593 ], [ -81.547967, 41.37972 ], [ -81.547927, 41.379906 ], [ -81.547898, 41.380125 ], [ -81.547875, 41.380317 ], [ -81.547883, 41.380478 ], [ -81.547862, 41.380603 ], [ -81.547848, 41.380723 ], [ -81.547827, 41.380783 ], [ -81.547792, 41.380826 ], [ -81.547697, 41.380914 ], [ -81.547647, 41.381 ], [ -81.547575, 41.381133 ], [ -81.5474, 41.381433 ], [ -81.547254, 41.381652 ], [ -81.547079, 41.381897 ], [ -81.546852, 41.382194 ], [ -81.546588, 41.382523 ], [ -81.546474, 41.382643 ], [ -81.546373, 41.382734 ], [ -81.546306, 41.382784 ] ] } },
{ "type": "Feature", "properties": { "cls": "shared", "highway": "cycleway", "name": "Bedford Reservation All Purpose Trail" }, "geometry": { "type": "LineString", "coordinates": [ [ -81.534598, 41.381896 ], [ -81.534562, 41.381844 ], [ -81.534554, 41.381766 ], [ -81.53453, 41.381651 ], [ -81.534475, 41.3815 ], [ -81.534408, 41.381279 ], [ -81.534368, 41.38112 ], [ -81.534323, 41.380897 ], [ -81.534312, 41.380691 ], [ -81.534323, 41.380602 ], [ -81.534372, 41.380487 ], [ -81.534443, 41.380379 ], [ -81.534499, 41.380253 ], [ -81.534506, 41.380192 ], [ -81.534499, 41.380125 ], [ -81.534479, 41.380094 ], [ -81.534445, 41.380066 ], [ -81.534391, 41.380056 ], [ -81.534334, 41.380067 ], [ -81.534284, 41.3801 ], [ -81.534188, 41.38019 ], [ -81.533478, 41.380783 ], [ -81.533204, 41.381009 ] ] } },
{ "type": "Feature", "properties": { "cls": "shared", "highway": "cycleway", "name": null }, "geometry": { "type": "LineString", "coordinates": [ [ -81.565603, 41.365997 ], [ -81.565484, 41.366008 ] ] } },
{ "type": "Feature", "properties": { "cls": "shared", "highway": "cycleway", "name": "Bedford Reservation All Purpose Trail" }, "geometry": { "type": "LineString", "coordinates": [ [ -81.565388, 41.365631 ], [ -81.565403, 41.365717 ], [ -81.565426, 41.3658 ], [ -81.565468, 41.365932 ], [ -81.565484, 41.366008 ], [ -81.565503, 41.366115 ], [ -81.565514, 41.366234 ], [ -81.565518, 41.3663 ], [ -81.565515, 41.366366 ], [ -81.565507, 41.366436 ], [ -81.565507, 41.366488 ], [ -81.565519, 41.366575 ], [ -81.56554, 41.366688 ], [ -81.565584, 41.366886 ], [ -81.565631, 41.367091 ], [ -81.565676, 41.367279 ], [ -81.565688, 41.367342 ], [ -81.565691, 41.367388 ], [ -81.565684, 41.367427 ], [ -81.565666, 41.367476 ], [ -81.565661, 41.367508 ], [ -81.565668, 41.367541 ], [ -81.565692, 41.367597 ], [ -81.565731, 41.367684 ], [ -81.565748, 41.367731 ], [ -81.565757, 41.367794 ], [ -81.565763, 41.367854 ], [ -81.565771, 41.367885 ], [ -81.565792, 41.367925 ], [ -81.565822, 41.367971 ], [ -81.565845, 41.368018 ], [ -81.565899, 41.368156 ], [ -81.565928, 41.368244 ], [ -81.565967, 41.36837 ], [ -81.56599, 41.368457 ], [ -81.566008, 41.368553 ], [ -81.566023, 41.368671 ], [ -81.566033, 41.368769 ], [ -81.566035, 41.368862 ], [ -81.566033, 41.368983 ], [ -81.56603, 41.369192 ], [ -81.566022, 41.369352 ], [ -81.566005, 41.369537 ], [ -81.56599, 41.369634 ], [ -81.565966, 41.369785 ], [ -81.565935, 41.369961 ], [ -81.565899, 41.370124 ], [ -81.565865, 41.37025 ], [ -81.565833, 41.370357 ], [ -81.565792, 41.370475 ], [ -81.565714, 41.370688 ], [ -81.565661, 41.370834 ], [ -81.565591, 41.371031 ], [ -81.565541, 41.37118 ], [ -81.565491, 41.371346 ], [ -81.565393, 41.371677 ], [ -81.565343, 41.371885 ], [ -81.565306, 41.372062 ], [ -81.565257, 41.372335 ], [ -81.565204, 41.372634 ], [ -81.565179, 41.372769 ], [ -81.565157, 41.372948 ], [ -81.565137, 41.373167 ], [ -81.565117, 41.373374 ], [ -81.565104, 41.373605 ], [ -81.5651, 41.373806 ], [ -81.565096, 41.374029 ], [ -81.565088, 41.374272 ], [ -81.565078, 41.374476 ], [ -81.565062, 41.374646 ], [ -81.565043, 41.37477 ], [ -81.56502, 41.374913 ], [ -81.564988, 41.375033 ], [ -81.564942, 41.375191 ], [ -81.564875, 41.375389 ], [ -81.564816, 41.375552 ], [ -81.564766, 41.375668 ], [ -81.564695, 41.375805 ], [ -81.564583, 41.375992 ], [ -81.56448, 41.376145 ], [ -81.564349, 41.376317 ], [ -81.564276, 41.376405 ], [ -81.564196, 41.376494 ], [ -81.564093, 41.376607 ], [ -81.563952, 41.37673 ], [ -81.56381, 41.376842 ], [ -81.56371, 41.37692 ], [ -81.56356, 41.377049 ], [ -81.563419, 41.377167 ], [ -81.563326, 41.377232 ], [ -81.563211, 41.377302 ], [ -81.563059, 41.377384 ], [ -81.562878, 41.37748 ], [ -81.562745, 41.377548 ], [ -81.562581, 41.377622 ], [ -81.562409, 41.377672 ], [ -81.562246, 41.377694 ], [ -81.562109, 41.377706 ], [ -81.561935, 41.377728 ], [ -81.561707, 41.377774 ], [ -81.561442, 41.377826 ], [ -81.561278, 41.377841 ], [ -81.561057, 41.377837 ], [ -81.560932, 41.377828 ], [ -81.560755, 41.377795 ], [ -81.560558, 41.377739 ], [ -81.560359, 41.377693 ], [ -81.560217, 41.377658 ], [ -81.559981, 41.377597 ], [ -81.559784, 41.377535 ], [ -81.559484, 41.377373 ], [ -81.559087, 41.377151 ], [ -81.558953, 41.377069 ], [ -81.558648, 41.376844 ], [ -81.558345, 41.376635 ], [ -81.558088, 41.376412 ], [ -81.558016, 41.376348 ], [ -81.557692, 41.376196 ], [ -81.557456, 41.376096 ], [ -81.55732, 41.376043 ], [ -81.557224, 41.375986 ], [ -81.557144, 41.375925 ], [ -81.557037, 41.375878 ], [ -81.556884, 41.375831 ], [ -81.556796, 41.375804 ], [ -81.556712, 41.375765 ], [ -81.556677, 41.375743 ], [ -81.556399, 41.375551 ], [ -81.556191, 41.375379 ], [ -81.555998, 41.375192 ], [ -81.555845, 41.375017 ], [ -81.555744, 41.374886 ], [ -81.555646, 41.374735 ], [ -81.555623, 41.374666 ], [ -81.5556, 41.37458 ], [ -81.555572, 41.374488 ], [ -81.555479, 41.374278 ], [ -81.555442, 41.374167 ], [ -81.555438, 41.374062 ], [ -81.555416, 41.373959 ], [ -81.555391, 41.373848 ], [ -81.55536, 41.373694 ], [ -81.555353, 41.373518 ] ] } },
{ "type": "Feature", "properties": { "cls": "shared", "highway": "cycleway", "name": "Mars Quarry" }, "geometry": { "type": "LineString", "coordinates": [ [ -81.56526, 41.372639 ], [ -81.565204, 41.372634 ] ] } },
{ "type": "Feature", "properties": { "cls": "shared", "highway": "cycleway", "name": "Mars Quarry" }, "geometry": { "type": "LineString", "coordinates": [ [ -81.565373, 41.372648 ], [ -81.56534, 41.372645 ], [ -81.565326, 41.372644 ], [ -81.565316, 41.372644 ], [ -81.56526, 41.372639 ] ] } },
{ "type": "Feature", "properties": { "cls": "shared", "highway": "path", "name": null }, "geometry": { "type": "LineString", "coordinates": [ [ -81.555744, 41.373031 ], [ -81.555922, 41.372916 ] ] } },
{ "type": "Feature", "properties": { "cls": "shared", "highway": "cycleway", "name": null }, "geometry": { "type": "LineString", "coordinates": [ [ -81.558806, 41.377174 ], [ -81.558953, 41.377069 ] ] } },
{ "type": "Feature", "properties": { "cls": "shared", "highway": "cycleway", "name": null }, "geometry": { "type": "LineString", "coordinates": [ [ -81.558735, 41.377224 ], [ -81.558771, 41.377199 ], [ -81.558806, 41.377174 ] ] } },
{ "type": "Feature", "properties": { "cls": "painted", "highway": "tertiary", "name": "Dunham Road" }, "geometry": { "type": "MultiLineString", "coordinates": [ [ [ -81.574981, 41.382303 ], [ -81.574975, 41.38203 ], [ -81.574976, 41.382015 ] ], [ [ -81.575612, 41.380048 ], [ -81.575636, 41.379999 ], [ -81.575935, 41.379427 ] ], [ [ -81.575969, 41.379362 ], [ -81.576091, 41.379119 ], [ -81.57618, 41.378895 ], [ -81.576231, 41.378717 ], [ -81.57627, 41.378563 ], [ -81.576308, 41.378262 ], [ -81.576334, 41.378093 ], [ -81.576358, 41.377935 ], [ -81.576389, 41.377805 ], [ -81.57644, 41.377651 ], [ -81.576509, 41.3775 ], [ -81.576594, 41.37735 ], [ -81.576686, 41.377224 ], [ -81.576696, 41.377211 ] ], [ [ -81.577096, 41.376816 ], [ -81.577133, 41.376784 ], [ -81.57884, 41.375615 ], [ -81.579056, 41.375458 ], [ -81.579215, 41.375318 ], [ -81.579352, 41.375167 ], [ -81.579457, 41.375037 ], [ -81.579568, 41.374859 ], [ -81.579655, 41.374677 ], [ -81.579708, 41.374507 ], [ -81.579742, 41.374379 ], [ -81.579753, 41.374315 ], [ -81.579761, 41.374203 ], [ -81.579761, 41.374038 ] ] ] } },
{ "type": "Feature", "properties": { "cls": "painted", "highway": "tertiary", "name": "Dunham Road" }, "geometry": { "type": "LineString", "coordinates": [ [ -81.575072, 41.391098 ], [ -81.575072, 41.391089 ], [ -81.575072, 41.391064 ], [ -81.575071, 41.391029 ] ] } },
{ "type": "Feature", "properties": { "cls": "shared", "highway": "path", "name": "Parallel Universe" }, "geometry": { "type": "LineString", "coordinates": [ [ -81.544037, 41.383094 ], [ -81.544258, 41.38285 ], [ -81.544499, 41.382598 ], [ -81.544913, 41.382531 ], [ -81.545139, 41.382354 ], [ -81.545416, 41.382319 ], [ -81.545532, 41.382213 ], [ -81.545369, 41.382111 ], [ -81.545547, 41.38202 ], [ -81.54603, 41.382083 ], [ -81.546419, 41.382031 ] ] } },
{ "type": "Feature", "properties": { "cls": "shared", "highway": "cycleway", "name": null }, "geometry": { "type": "LineString", "coordinates": [ [ -81.546306, 41.382784 ], [ -81.54624, 41.382733 ], [ -81.546154, 41.382673 ] ] } },
{ "type": "Feature", "properties": { "cls": "shared", "highway": "cycleway", "name": "Bedford Reservation All Purpose Trail" }, "geometry": { "type": "MultiLineString", "coordinates": [ [ [ -81.532365, 41.3817 ], [ -81.532043, 41.381965 ], [ -81.530814, 41.383003 ], [ -81.530438, 41.383327 ] ], [ [ -81.530276, 41.383466 ], [ -81.529908, 41.383782 ], [ -81.529733, 41.383947 ], [ -81.529711, 41.383974 ], [ -81.529705, 41.384005 ], [ -81.52971, 41.384039 ], [ -81.529709, 41.384045 ] ] ] } },
{ "type": "Feature", "properties": { "cls": "shared", "highway": "cycleway", "name": "Bedford Reservation All Purpose Trail" }, "geometry": { "type": "LineString", "coordinates": [ [ -81.538473, 41.384116 ], [ -81.538456, 41.384115 ], [ -81.538247, 41.384092 ], [ -81.537809, 41.383991 ], [ -81.537554, 41.383925 ], [ -81.537233, 41.38381 ], [ -81.536893, 41.383663 ], [ -81.536558, 41.383505 ], [ -81.536303, 41.383369 ], [ -81.536071, 41.383223 ], [ -81.535807, 41.383043 ], [ -81.535599, 41.382864 ], [ -81.535374, 41.38268 ], [ -81.534989, 41.382355 ], [ -81.53486, 41.382208 ], [ -81.53472, 41.382041 ], [ -81.534598, 41.381896 ] ] } },
{ "type": "Feature", "properties": { "cls": "shared", "highway": "cycleway", "name": "Bedford Reservation All Purpose Trail" }, "geometry": { "type": "LineString", "coordinates": [ [ -81.512161, 41.383309 ], [ -81.512015, 41.383303 ], [ -81.511746, 41.383278 ] ] } },
{ "type": "Feature", "properties": { "cls": "shared", "highway": "cycleway", "name": "Bedford Reservation All Purpose Trail" }, "geometry": { "type": "LineString", "coordinates": [ [ -81.518579, 41.383636 ], [ -81.517849, 41.383756 ], [ -81.517542, 41.383803 ], [ -81.517269, 41.38383 ], [ -81.516778, 41.383851 ], [ -81.516402, 41.383874 ], [ -81.516129, 41.383871 ], [ -81.515988, 41.383853 ], [ -81.515789, 41.383804 ], [ -81.515363, 41.383618 ], [ -81.515216, 41.38356 ], [ -81.514973, 41.38351 ], [ -81.514919, 41.383498 ], [ -81.514587, 41.383444 ], [ -81.51397, 41.383333 ], [ -81.513552, 41.383307 ], [ -81.513259, 41.383313 ] ] } },
{ "type": "Feature", "properties": { "cls": "shared", "highway": "cycleway", "name": "Bedford Reservation All Purpose Trail" }, "geometry": { "type": "LineString", "coordinates": [ [ -81.5189, 41.38358 ], [ -81.518579, 41.383636 ] ] } },
{ "type": "Feature", "properties": { "cls": "shared", "highway": "cycleway", "name": "Bedford Reservation All Purpose Trail" }, "geometry": { "type": "LineString", "coordinates": [ [ -81.546306, 41.382784 ], [ -81.546124, 41.382905 ], [ -81.54599, 41.383007 ], [ -81.54594, 41.383054 ], [ -81.545897, 41.383126 ], [ -81.545831, 41.383233 ], [ -81.545791, 41.383269 ], [ -81.545715, 41.383311 ], [ -81.545569, 41.383369 ], [ -81.545357, 41.383414 ], [ -81.545229, 41.383448 ], [ -81.545118, 41.383487 ], [ -81.544879, 41.383536 ], [ -81.544712, 41.383572 ], [ -81.544533, 41.383622 ], [ -81.544274, 41.383717 ], [ -81.544131, 41.383753 ], [ -81.543974, 41.383762 ], [ -81.543714, 41.383762 ], [ -81.543592, 41.383748 ], [ -81.543393, 41.383731 ], [ -81.543157, 41.383708 ], [ -81.543136, 41.383706 ], [ -81.542901, 41.383718 ], [ -81.54265, 41.383752 ], [ -81.542425, 41.383797 ], [ -81.542237, 41.383813 ], [ -81.542129, 41.383833 ], [ -81.542012, 41.38388 ], [ -81.541856, 41.383944 ], [ -81.541694, 41.384003 ], [ -81.541445, 41.384071 ], [ -81.541265, 41.384137 ], [ -81.541187, 41.384171 ], [ -81.541101, 41.384191 ], [ -81.540994, 41.384194 ], [ -81.540726, 41.384209 ], [ -81.540301, 41.384245 ], [ -81.540089, 41.384247 ], [ -81.539725, 41.384197 ] ] } },
{ "type": "Feature", "properties": { "cls": "shared", "highway": "cycleway", "name": "Bedford Reservation All Purpose Trail" }, "geometry": { "type": "LineString", "coordinates": [ [ -81.523348, 41.384522 ], [ -81.522924, 41.38437 ], [ -81.52247, 41.384164 ], [ -81.521944, 41.383931 ], [ -81.521638, 41.383816 ], [ -81.521129, 41.383671 ], [ -81.520873, 41.383601 ], [ -81.520579, 41.383539 ], [ -81.520377, 41.383513 ], [ -81.520152, 41.383497 ], [ -81.519809, 41.383486 ], [ -81.519522, 41.383496 ], [ -81.519168, 41.383537 ], [ -81.5189, 41.38358 ] ] } },
{ "type": "Feature", "properties": { "cls": "shared", "highway": "cycleway", "name": "Bedford Reservation All Purpose Trail" }, "geometry": { "type": "MultiLineString", "coordinates": [ [ [ -81.529401, 41.384149 ], [ -81.529286, 41.38421 ], [ -81.529162, 41.384249 ], [ -81.529049, 41.38427 ], [ -81.528931, 41.384285 ], [ -81.52877, 41.384275 ], [ -81.528641, 41.384249 ], [ -81.528405, 41.384181 ], [ -81.527451, 41.383875 ], [ -81.527162, 41.383792 ], [ -81.526959, 41.383755 ], [ -81.526663, 41.383753 ], [ -81.526494, 41.383759 ] ], [ [ -81.526086, 41.38381 ], [ -81.525956, 41.383856 ], [ -81.52587, 41.383901 ], [ -81.525819, 41.383938 ], [ -81.525795, 41.383973 ], [ -81.525785, 41.384015 ] ] ] } },
{ "type": "Feature", "properties": { "cls": "shared", "highway": "cycleway", "name": "Bedford Reservation All Purpose Trail" }, "geometry": { "type": "LineString", "coordinates": [ [ -81.529519, 41.384122 ], [ -81.529493, 41.384118 ], [ -81.529461, 41.38412 ], [ -81.529401, 41.384149 ] ] } },
{ "type": "Feature", "properties": { "cls": "shared", "highway": "cycleway", "name": "Bedford Reservation All Purpose Trail" }, "geometry": { "type": "LineString", "coordinates": [ [ -81.538585, 41.384125 ], [ -81.538527, 41.384121 ], [ -81.538473, 41.384116 ] ] } },
{ "type": "Feature", "properties": { "cls": "shared", "highway": "cycleway", "name": "Bedford Reservation All Purpose Trail" }, "geometry": { "type": "LineString", "coordinates": [ [ -81.539595, 41.384181 ], [ -81.539513, 41.384179 ], [ -81.539301, 41.384203 ], [ -81.539185, 41.384195 ], [ -81.538727, 41.384132 ], [ -81.538585, 41.384125 ] ] } },
{ "type": "Feature", "properties": { "cls": "shared", "highway": "cycleway", "name": "Bedford Reservation All Purpose Trail" }, "geometry": { "type": "LineString", "coordinates": [ [ -81.539725, 41.384197 ], [ -81.53966, 41.384189 ], [ -81.539595, 41.384181 ] ] } },
{ "type": "Feature", "properties": { "cls": "shared", "highway": "cycleway", "name": "Bedford Reservation All Purpose Trail" }, "geometry": { "type": "LineString", "coordinates": [ [ -81.525654, 41.384174 ], [ -81.525642, 41.384185 ], [ -81.525557, 41.384301 ], [ -81.525428, 41.384394 ], [ -81.525267, 41.384478 ], [ -81.52497, 41.384573 ], [ -81.524685, 41.384619 ], [ -81.524404, 41.384641 ], [ -81.524158, 41.384627 ] ] } },
{ "type": "Feature", "properties": { "cls": "shared", "highway": "cycleway", "name": "Bedford Reservation All Purpose Trail" }, "geometry": { "type": "LineString", "coordinates": [ [ -81.524039, 41.384618 ], [ -81.523873, 41.384601 ], [ -81.523505, 41.384563 ], [ -81.523348, 41.384522 ] ] } },
{ "type": "Feature", "properties": { "cls": "shared", "highway": "cycleway", "name": "Bedford Reservation All Purpose Trail" }, "geometry": { "type": "LineString", "coordinates": [ [ -81.524158, 41.384627 ], [ -81.52409, 41.384622 ], [ -81.524039, 41.384618 ] ] } },
{ "type": "Feature", "properties": { "cls": "shared", "highway": "footway", "name": "Forbes Woods Ridge Trail" }, "geometry": { "type": "MultiLineString", "coordinates": [ [ [ -81.504537, 41.373113 ], [ -81.504537, 41.373177 ], [ -81.504604, 41.373308 ] ], [ [ -81.504604, 41.373308 ], [ -81.504755, 41.373366 ], [ -81.504884, 41.373398 ], [ -81.505125, 41.373396 ], [ -81.505224, 41.373404 ], [ -81.505305, 41.37343 ], [ -81.505353, 41.373497 ], [ -81.505398, 41.373618 ], [ -81.505409, 41.373684 ], [ -81.505415, 41.373849 ], [ -81.505396, 41.373916 ], [ -81.50528, 41.374016 ], [ -81.505152, 41.374139 ], [ -81.505117, 41.374242 ], [ -81.505111, 41.374411 ], [ -81.505063, 41.374479 ], [ -81.504988, 41.374554 ], [ -81.504924, 41.374676 ], [ -81.504875, 41.374753 ], [ -81.504792, 41.374753 ], [ -81.504618, 41.374699 ], [ -81.504486, 41.37457 ], [ -81.504425, 41.374479 ], [ -81.504425, 41.37436 ], [ -81.504457, 41.374252 ], [ -81.504516, 41.374165 ], [ -81.50458, 41.374022 ], [ -81.504597, 41.373901 ], [ -81.504578, 41.373795 ], [ -81.50454, 41.373698 ], [ -81.504516, 41.37364 ], [ -81.504508, 41.373573 ], [ -81.504546, 41.373483 ], [ -81.50458, 41.373396 ], [ -81.504604, 41.373308 ] ] ] } },
{ "type": "Feature", "properties": { "cls": "shared", "highway": "path", "name": "Forbes Woods Ridge Trail" }, "geometry": { "type": "LineString", "coordinates": [ [ -81.504875, 41.374753 ], [ -81.50494, 41.374868 ], [ -81.504989, 41.374929 ], [ -81.505073, 41.374987 ], [ -81.505213, 41.375065 ], [ -81.505321, 41.37512 ], [ -81.505409, 41.375188 ], [ -81.505574, 41.375321 ], [ -81.505752, 41.375329 ] ] } },
{ "type": "Feature", "properties": { "cls": "shared", "highway": "cycleway", "name": "Bedford Reservation All Purpose Trail" }, "geometry": { "type": "LineString", "coordinates": [ [ -81.493537, 41.376568 ], [ -81.493944, 41.376696 ], [ -81.494384, 41.376823 ], [ -81.494794, 41.376994 ], [ -81.495212, 41.377201 ], [ -81.495878, 41.377656 ], [ -81.496212, 41.37792 ], [ -81.496272, 41.377966 ], [ -81.496519, 41.378129 ], [ -81.496782, 41.378282 ], [ -81.497052, 41.378399 ], [ -81.49727, 41.378478 ], [ -81.497479, 41.378542 ], [ -81.498026, 41.378634 ], [ -81.49827, 41.378655 ], [ -81.498568, 41.378655 ], [ -81.498938, 41.378667 ], [ -81.499241, 41.378683 ], [ -81.499536, 41.378717 ], [ -81.499896, 41.378781 ], [ -81.500218, 41.37885 ], [ -81.500505, 41.378922 ], [ -81.500944, 41.379083 ], [ -81.501172, 41.379148 ], [ -81.501298, 41.379174 ], [ -81.501666, 41.379208 ], [ -81.50195, 41.379268 ], [ -81.502087, 41.379321 ], [ -81.50231, 41.379429 ], [ -81.502516, 41.379546 ], [ -81.502656, 41.379621 ], [ -81.502827, 41.379703 ], [ -81.503039, 41.37978 ], [ -81.503253, 41.379853 ], [ -81.50343, 41.379896 ], [ -81.503611, 41.379943 ] ] } },
{ "type": "Feature", "properties": { "cls": "shared", "highway": "cycleway", "name": "Bedford Reservation All Purpose Trail" }, "geometry": { "type": "LineString", "coordinates": [ [ -81.511746, 41.383278 ], [ -81.511562, 41.383256 ], [ -81.511322, 41.383245 ], [ -81.511059, 41.383233 ], [ -81.51087, 41.383206 ], [ -81.510711, 41.383147 ], [ -81.510623, 41.383108 ], [ -81.510425, 41.383028 ], [ -81.510244, 41.382967 ], [ -81.510052, 41.38293 ], [ -81.509851, 41.382912 ], [ -81.509628, 41.382909 ], [ -81.509442, 41.382894 ], [ -81.509305, 41.382858 ], [ -81.509183, 41.382792 ], [ -81.509069, 41.382692 ], [ -81.50896, 41.38262 ], [ -81.508821, 41.382559 ], [ -81.50853, 41.38246 ], [ -81.508224, 41.382364 ], [ -81.507973, 41.38228 ], [ -81.507689, 41.382159 ], [ -81.507339, 41.381987 ], [ -81.507132, 41.381888 ], [ -81.506385, 41.381514 ], [ -81.505948, 41.381265 ], [ -81.505521, 41.380995 ], [ -81.505331, 41.380868 ], [ -81.505183, 41.380777 ], [ -81.505024, 41.380693 ], [ -81.504847, 41.380633 ], [ -81.504694, 41.380591 ], [ -81.504537, 41.380512 ], [ -81.504386, 41.380415 ], [ -81.504253, 41.380298 ], [ -81.504118, 41.380188 ], [ -81.5039, 41.38006 ], [ -81.503733, 41.379984 ], [ -81.503611, 41.379943 ] ] } },
{ "type": "Feature", "properties": { "cls": "shared", "highway": "cycleway", "name": null }, "geometry": { "type": "LineString", "coordinates": [ [ -81.489018, 41.374205 ], [ -81.489029, 41.37532 ] ] } },
{ "type": "Feature", "properties": { "cls": "shared", "highway": "cycleway", "name": null }, "geometry": { "type": "LineString", "coordinates": [ [ -81.489029, 41.37532 ], [ -81.489028, 41.375406 ], [ -81.489027, 41.375486 ] ] } },
{ "type": "Feature", "properties": { "cls": "shared", "highway": "cycleway", "name": "Richmond Road Connector" }, "geometry": { "type": "LineString", "coordinates": [ [ -81.488973, 41.37549 ], [ -81.489027, 41.375486 ] ] } },
{ "type": "Feature", "properties": { "cls": "shared", "highway": "cycleway", "name": null }, "geometry": { "type": "LineString", "coordinates": [ [ -81.490374, 41.375921 ], [ -81.490345, 41.375839 ] ] } },
{ "type": "Feature", "properties": { "cls": "separated", "highway": "cycleway", "name": "Bedford Reservation All Purpose Trail" }, "geometry": { "type": "LineString", "coordinates": [ [ -81.489027, 41.375486 ], [ -81.489096, 41.375497 ], [ -81.489467, 41.375523 ], [ -81.4897, 41.375565 ], [ -81.489912, 41.375656 ], [ -81.490098, 41.375801 ], [ -81.490264, 41.375879 ], [ -81.490374, 41.375921 ], [ -81.490604, 41.37599 ], [ -81.490945, 41.376054 ], [ -81.491814, 41.376306 ], [ -81.491986, 41.376358 ], [ -81.492168, 41.376378 ], [ -81.492463, 41.376372 ], [ -81.492664, 41.376376 ], [ -81.492876, 41.376396 ], [ -81.493056, 41.376431 ], [ -81.493319, 41.376499 ], [ -81.493537, 41.376568 ] ] } },
{ "type": "Feature", "properties": { "cls": "shared", "highway": "cycleway", "name": "South Chagrin Reservation All Purpose Trail" }, "geometry": { "type": "LineString", "coordinates": [ [ -81.48893, 41.379418 ], [ -81.488915, 41.379417 ] ] } }
]
}
