{
"type": "FeatureCollection",
"name": "188-arlington-river-legacy-park",
"crs": { "type": "name", "properties": { "name": "urn:ogc:def:crs:OGC:1.3:CRS84" } },
"xy_coordinate_resolution": 1e-06,
"features": [
{ "type": "Feature", "properties": { "cls": "shared", "highway": "cycleway", "name": "River Legacy Trail East" }, "geometry": { "type": "LineString", "coordinates": [ [ -97.067156, 32.795831 ], [ -97.067057, 32.79593 ], [ -97.066969, 32.796023 ], [ -97.066944, 32.796084 ], [ -97.066914, 32.796274 ], [ -97.066899, 32.796376 ], [ -97.066867, 32.796485 ], [ -97.066809, 32.796574 ], [ -97.066725, 32.796668 ], [ -97.066532, 32.796825 ], [ -97.066387, 32.796934 ], [ -97.066236, 32.797017 ], [ -97.066091, 32.797069 ], [ -97.065923, 32.797092 ], [ -97.065765, 32.797087 ], [ -97.065244, 32.797027 ], [ -97.065048, 32.797007 ], [ -97.064836, 32.797012 ], [ -97.064601, 32.797064 ], [ -97.064404, 32.797192 ], [ -97.064347, 32.797261 ], [ -97.064318, 32.797344 ], [ -97.064332, 32.797608 ], [ -97.064365, 32.797726 ], [ -97.064425, 32.797872 ], [ -97.064495, 32.797976 ], [ -97.064566, 32.798044 ], [ -97.064673, 32.798123 ], [ -97.065104, 32.79835 ], [ -97.065233, 32.798421 ], [ -97.065352, 32.798513 ], [ -97.065418, 32.798586 ], [ -97.065743, 32.79897 ], [ -97.065788, 32.799053 ], [ -97.06583, 32.799157 ], [ -97.065875, 32.799292 ], [ -97.065955, 32.799635 ], [ -97.065965, 32.799742 ], [ -97.065957, 32.799871 ], [ -97.065921, 32.800031 ], [ -97.065841, 32.800219 ], [ -97.065756, 32.800406 ], [ -97.065682, 32.800515 ], [ -97.065581, 32.800657 ], [ -97.065504, 32.800733 ], [ -97.064434, 32.801695 ], [ -97.064202, 32.801868 ], [ -97.06409, 32.801928 ], [ -97.063946, 32.801987 ], [ -97.063698, 32.802085 ], [ -97.063583, 32.802136 ], [ -97.063424, 32.802229 ], [ -97.063292, 32.802349 ], [ -97.06322, 32.802432 ], [ -97.063171, 32.802524 ], [ -97.063149, 32.802591 ], [ -97.063093, 32.80297 ], [ -97.063078, 32.80305 ], [ -97.062968, 32.803518 ], [ -97.062954, 32.803631 ], [ -97.062889, 32.804527 ], [ -97.062884, 32.805356 ], [ -97.062898, 32.805421 ], [ -97.062934, 32.80555 ], [ -97.062984, 32.80563 ], [ -97.06305, 32.805695 ], [ -97.063209, 32.805823 ], [ -97.063333, 32.805937 ], [ -97.063698, 32.806382 ], [ -97.063772, 32.806498 ], [ -97.064295, 32.807399 ], [ -97.064313, 32.807466 ], [ -97.064313, 32.80772 ], [ -97.064289, 32.807803 ], [ -97.064236, 32.807874 ], [ -97.064081, 32.808034 ], [ -97.064054, 32.808077 ], [ -97.064042, 32.808117 ], [ -97.06402, 32.808339 ], [ -97.063983, 32.808416 ], [ -97.063567, 32.808914 ], [ -97.06341, 32.809066 ], [ -97.063222, 32.80922 ], [ -97.062948, 32.809387 ], [ -97.062287, 32.809766 ], [ -97.062216, 32.809837 ], [ -97.062178, 32.809917 ], [ -97.062153, 32.810008 ], [ -97.06215, 32.810136 ], [ -97.062201, 32.810285 ] ] } },
{ "type": "Feature", "properties": { "cls": "shared", "highway": "cycleway", "name": "River Legacy Trail East" }, "geometry": { "type": "LineString", "coordinates": [ [ -97.062201, 32.810285 ], [ -97.062455, 32.810684 ] ] } },
{ "type": "Feature", "properties": { "cls": "shared", "highway": "cycleway", "name": "River Legacy Trail East" }, "geometry": { "type": "LineString", "coordinates": [ [ -97.062455, 32.810684 ], [ -97.062509, 32.810788 ], [ -97.062529, 32.810901 ], [ -97.062517, 32.810998 ], [ -97.062444, 32.811087 ], [ -97.062323, 32.811171 ], [ -97.061258, 32.811776 ], [ -97.061129, 32.811862 ], [ -97.061084, 32.811917 ], [ -97.061048, 32.81201 ], [ -97.061023, 32.8121 ], [ -97.061018, 32.812193 ], [ -97.061026, 32.812259 ], [ -97.061084, 32.812465 ], [ -97.061101, 32.81252 ], [ -97.06114, 32.812581 ], [ -97.061209, 32.812642 ], [ -97.061295, 32.812682 ], [ -97.061387, 32.812698 ], [ -97.061465, 32.812692 ], [ -97.061535, 32.812678 ], [ -97.061868, 32.812565 ], [ -97.061951, 32.812552 ], [ -97.062038, 32.812553 ], [ -97.062101, 32.81257 ], [ -97.062191, 32.812611 ], [ -97.062255, 32.812683 ], [ -97.062284, 32.812785 ], [ -97.062321, 32.812889 ], [ -97.062376, 32.812966 ], [ -97.062476, 32.813021 ], [ -97.062581, 32.813038 ], [ -97.06274, 32.813049 ], [ -97.062824, 32.813073 ], [ -97.062917, 32.813127 ], [ -97.062987, 32.813219 ], [ -97.063002, 32.8133 ], [ -97.062997, 32.813322 ], [ -97.06298, 32.813393 ], [ -97.062941, 32.813483 ], [ -97.062876, 32.813542 ], [ -97.062726, 32.813612 ], [ -97.062677, 32.813648 ], [ -97.062645, 32.813701 ] ] } },
{ "type": "Feature", "properties": { "cls": "shared", "highway": "cycleway", "name": null }, "geometry": { "type": "LineString", "coordinates": [ [ -97.062997, 32.813322 ], [ -97.06304, 32.813368 ], [ -97.063151, 32.813415 ], [ -97.063264, 32.813447 ], [ -97.063385, 32.813451 ], [ -97.063444, 32.813442 ], [ -97.063544, 32.813441 ], [ -97.063614, 32.813445 ], [ -97.063688, 32.813456 ], [ -97.063707, 32.813461 ] ] } },
{ "type": "Feature", "properties": { "cls": "shared", "highway": "cycleway", "name": "River Legacy Trail East" }, "geometry": { "type": "LineString", "coordinates": [ [ -97.062645, 32.813701 ], [ -97.062465, 32.813926 ] ] } },
{ "type": "Feature", "properties": { "cls": "shared", "highway": "cycleway", "name": "River Legacy Trail East" }, "geometry": { "type": "LineString", "coordinates": [ [ -97.062465, 32.813926 ], [ -97.062397, 32.814005 ], [ -97.062364, 32.814062 ], [ -97.062357, 32.814129 ], [ -97.062364, 32.814215 ], [ -97.062356, 32.814295 ], [ -97.062323, 32.814359 ], [ -97.062262, 32.814409 ], [ -97.062177, 32.814458 ], [ -97.062071, 32.814502 ], [ -97.061983, 32.814565 ], [ -97.061928, 32.814632 ], [ -97.061885, 32.814733 ], [ -97.061817, 32.815046 ], [ -97.06178, 32.815123 ], [ -97.061706, 32.815205 ], [ -97.061606, 32.815277 ], [ -97.06148, 32.815331 ], [ -97.061328, 32.815368 ], [ -97.061213, 32.815379 ], [ -97.061088, 32.815361 ], [ -97.06097, 32.815323 ], [ -97.060832, 32.815304 ], [ -97.060721, 32.815269 ], [ -97.060638, 32.815231 ] ] } },
{ "type": "Feature", "properties": { "cls": "shared", "highway": "cycleway", "name": "River Legacy Trail East" }, "geometry": { "type": "LineString", "coordinates": [ [ -97.060638, 32.815231 ], [ -97.060215, 32.815046 ] ] } },
{ "type": "Feature", "properties": { "cls": "shared", "highway": "cycleway", "name": "River Legacy Trail East" }, "geometry": { "type": "LineString", "coordinates": [ [ -97.060215, 32.815046 ], [ -97.06014, 32.815016 ], [ -97.060057, 32.815004 ], [ -97.059968, 32.815027 ], [ -97.059889, 32.815061 ], [ -97.059825, 32.815129 ], [ -97.059751, 32.815194 ], [ -97.059663, 32.815242 ], [ -97.059567, 32.815265 ], [ -97.059475, 32.815266 ], [ -97.059374, 32.815275 ], [ -97.059256, 32.815305 ], [ -97.059144, 32.815367 ], [ -97.059035, 32.815426 ], [ -97.058943, 32.815451 ], [ -97.058857, 32.815448 ], [ -97.058761, 32.815432 ], [ -97.058666, 32.815408 ], [ -97.058549, 32.8154 ], [ -97.058418, 32.815419 ] ] } },
{ "type": "Feature", "properties": { "cls": "shared", "highway": "cycleway", "name": "CentrePort Trail" }, "geometry": { "type": "LineString", "coordinates": [ [ -97.058162, 32.815463 ], [ -97.058195, 32.815455 ], [ -97.058327, 32.815436 ], [ -97.058418, 32.815419 ] ] } }
]
}
