{
"type": "FeatureCollection",
"name": "189-san-francisco-golden-gate-park",
"crs": { "type": "name", "properties": { "name": "urn:ogc:def:crs:OGC:1.3:CRS84" } },
"xy_coordinate_resolution": 1e-06,
"features": [
{ "type": "Feature", "properties": { "cls": "sharrow", "highway": "tertiary", "name": "Sunset Boulevard" }, "geometry": { "type": "LineString", "coordinates": [ [ -122.495958, 37.764714 ], [ -122.495997, 37.765267 ], [ -122.496007, 37.765407 ], [ -122.496011, 37.765466 ] ] } },
{ "type": "Feature", "properties": { "cls": "shared", "highway": "cycleway", "name": null }, "geometry": { "type": "LineString", "coordinates": [ [ -122.493268, 37.764833 ], [ -122.493269, 37.764846 ] ] } },
{ "type": "Feature", "properties": { "cls": "shared", "highway": "cycleway", "name": null }, "geometry": { "type": "LineString", "coordinates": [ [ -122.493269, 37.764846 ], [ -122.493255, 37.765103 ], [ -122.493241, 37.765189 ], [ -122.493227, 37.765398 ], [ -122.493222, 37.765438 ] ] } },
{ "type": "Feature", "properties": { "cls": "shared", "highway": "cycleway", "name": null }, "geometry": { "type": "LineString", "coordinates": [ [ -122.493222, 37.765438 ], [ -122.493217, 37.765468 ], [ -122.493211, 37.765505 ] ] } },
{ "type": "Feature", "properties": { "cls": "sharrow", "highway": "tertiary", "name": "Martin Luther King Junior Drive" }, "geometry": { "type": "LineString", "coordinates": [ [ -122.493217, 37.765468 ], [ -122.493482, 37.765489 ], [ -122.493707, 37.765504 ], [ -122.493887, 37.765516 ], [ -122.494068, 37.765528 ], [ -122.494248, 37.76554 ], [ -122.49443, 37.765549 ], [ -122.494621, 37.765554 ], [ -122.494798, 37.765555 ], [ -122.494972, 37.765549 ], [ -122.495146, 37.765542 ], [ -122.495322, 37.765532 ], [ -122.495492, 37.765519 ], [ -122.495651, 37.765504 ], [ -122.49582, 37.765485 ], [ -122.495882, 37.765479 ], [ -122.496011, 37.765466 ] ] } },
{ "type": "Feature", "properties": { "cls": "shared", "highway": "cycleway", "name": null }, "geometry": { "type": "LineString", "coordinates": [ [ -122.498319, 37.765139 ], [ -122.498316, 37.765193 ], [ -122.498315, 37.765225 ], [ -122.49817, 37.765305 ], [ -122.497763, 37.765514 ], [ -122.497309, 37.765754 ], [ -122.497001, 37.765946 ], [ -122.496396, 37.766331 ], [ -122.496072, 37.76642 ], [ -122.495728, 37.766459 ], [ -122.495401, 37.76648 ] ] } },
{ "type": "Feature", "properties": { "cls": "separated", "highway": "cycleway", "name": null }, "geometry": { "type": "Point", "coordinates": [ -122.510228, 37.764153 ] } },
{ "type": "Feature", "properties": { "cls": "shared", "highway": "pedestrian", "name": "Martin Luther King Junior Drive" }, "geometry": { "type": "LineString", "coordinates": [ [ -122.509447, 37.764162 ], [ -122.509449, 37.764188 ] ] } },
{ "type": "Feature", "properties": { "cls": "separated", "highway": "cycleway", "name": null }, "geometry": { "type": "MultiLineString", "coordinates": [ [ [ -122.510228, 37.764153 ], [ -122.509656, 37.764182 ] ], [ [ -122.509656, 37.764182 ], [ -122.509611, 37.764184 ] ] ] } },
{ "type": "Feature", "properties": { "cls": "shared", "highway": "footway", "name": null }, "geometry": { "type": "LineString", "coordinates": [ [ -122.509611, 37.764184 ], [ -122.509449, 37.764188 ] ] } },
{ "type": "Feature", "properties": { "cls": "shared", "highway": "footway", "name": null }, "geometry": { "type": "LineString", "coordinates": [ [ -122.509343, 37.764191 ], [ -122.509449, 37.764188 ] ] } },
{ "type": "Feature", "properties": { "cls": "shared", "highway": "footway", "name": null }, "geometry": { "type": "LineString", "coordinates": [ [ -122.509293, 37.764207 ], [ -122.509318, 37.764197 ], [ -122.509343, 37.764191 ] ] } },
{ "type": "Feature", "properties": { "cls": "shared", "highway": "path", "name": null }, "geometry": { "type": "LineString", "coordinates": [ [ -122.507305, 37.764473 ], [ -122.507731, 37.764412 ], [ -122.508437, 37.764275 ], [ -122.508833, 37.764281 ], [ -122.509126, 37.764246 ], [ -122.509293, 37.764207 ] ] } },
{ "type": "Feature", "properties": { "cls": "shared", "highway": "path", "name": null }, "geometry": { "type": "LineString", "coordinates": [ [ -122.507103, 37.76441 ], [ -122.507203, 37.764452 ], [ -122.507305, 37.764473 ] ] } },
{ "type": "Feature", "properties": { "cls": "shared", "highway": "pedestrian", "name": "Martin Luther King Junior Drive" }, "geometry": { "type": "LineString", "coordinates": [ [ -122.509449, 37.764188 ], [ -122.509452, 37.764238 ], [ -122.509447, 37.764264 ], [ -122.509442, 37.764293 ], [ -122.509437, 37.764311 ], [ -122.509432, 37.764329 ], [ -122.509425, 37.764346 ], [ -122.509418, 37.76436 ], [ -122.509407, 37.764377 ], [ -122.509393, 37.764393 ], [ -122.509378, 37.764408 ], [ -122.509361, 37.764421 ], [ -122.509344, 37.764432 ], [ -122.509326, 37.764443 ], [ -122.509308, 37.764454 ], [ -122.509289, 37.764463 ], [ -122.509271, 37.764472 ], [ -122.50925, 37.764482 ], [ -122.509229, 37.76449 ], [ -122.509207, 37.764499 ], [ -122.509006, 37.764572 ], [ -122.508711, 37.764682 ], [ -122.508546, 37.764743 ], [ -122.508453, 37.764778 ], [ -122.508347, 37.764817 ], [ -122.508248, 37.764853 ], [ -122.508139, 37.764893 ], [ -122.508013, 37.764939 ], [ -122.507974, 37.764953 ] ] } },
{ "type": "Feature", "properties": { "cls": "shared", "highway": "cycleway", "name": null }, "geometry": { "type": "LineString", "coordinates": [ [ -122.504607, 37.765212 ], [ -122.504844, 37.764908 ], [ -122.50485, 37.764836 ], [ -122.504846, 37.764785 ], [ -122.504853, 37.764766 ], [ -122.504863, 37.764739 ], [ -122.504893, 37.764705 ], [ -122.504924, 37.764681 ], [ -122.504967, 37.764673 ], [ -122.505022, 37.76467 ], [ -122.50508, 37.764694 ], [ -122.505108, 37.764673 ], [ -122.505167, 37.764546 ], [ -122.505181, 37.764415 ], [ -122.505179, 37.764344 ], [ -122.505196, 37.764319 ], [ -122.505241, 37.764309 ] ] } },
{ "type": "Feature", "properties": { "cls": "shared", "highway": "cycleway", "name": null }, "geometry": { "type": "LineString", "coordinates": [ [ -122.504607, 37.765212 ], [ -122.505097, 37.765142 ], [ -122.505214, 37.765119 ], [ -122.505286, 37.765094 ], [ -122.505395, 37.765034 ], [ -122.505562, 37.764947 ], [ -122.505667, 37.764896 ], [ -122.505778, 37.764861 ], [ -122.505777, 37.764857 ], [ -122.505854, 37.764842 ], [ -122.506092, 37.764794 ], [ -122.506209, 37.764746 ], [ -122.506452, 37.764675 ], [ -122.506762, 37.764584 ], [ -122.506921, 37.764538 ], [ -122.507002, 37.764508 ], [ -122.50705, 37.764479 ], [ -122.507077, 37.764453 ], [ -122.507103, 37.76441 ] ] } },
{ "type": "Feature", "properties": { "cls": "shared", "highway": "path", "name": null }, "geometry": { "type": "LineString", "coordinates": [ [ -122.496233, 37.765261 ], [ -122.496366, 37.765262 ], [ -122.496648, 37.765243 ], [ -122.49678, 37.76523 ], [ -122.496916, 37.765198 ], [ -122.497305, 37.765093 ], [ -122.497624, 37.76501 ], [ -122.498217, 37.764955 ], [ -122.498483, 37.764919 ], [ -122.49888, 37.764846 ], [ -122.499244, 37.764751 ], [ -122.499507, 37.764685 ], [ -122.499728, 37.76466 ], [ -122.499949, 37.764658 ], [ -122.500298, 37.764664 ], [ -122.500504, 37.764696 ], [ -122.500644, 37.76472 ], [ -122.500862, 37.764748 ], [ -122.500998, 37.76477 ], [ -122.501224, 37.764816 ], [ -122.501428, 37.764844 ], [ -122.50166, 37.764866 ], [ -122.501911, 37.764838 ], [ -122.502147, 37.764838 ], [ -122.502777, 37.764837 ], [ -122.503123, 37.764821 ], [ -122.503431, 37.764802 ], [ -122.504097, 37.764641 ], [ -122.504424, 37.764607 ], [ -122.504708, 37.764575 ], [ -122.505167, 37.764546 ], [ -122.505578, 37.764505 ], [ -122.50609, 37.764374 ], [ -122.506328, 37.764325 ], [ -122.506529, 37.764333 ], [ -122.506814, 37.764363 ], [ -122.507103, 37.76441 ] ] } },
{ "type": "Feature", "properties": { "cls": "shared", "highway": "cycleway", "name": "Martin Luther King Junior Drive" }, "geometry": { "type": "LineString", "coordinates": [ [ -122.498319, 37.765139 ], [ -122.49838, 37.76513 ], [ -122.49852, 37.765093 ], [ -122.498643, 37.765059 ], [ -122.498647, 37.765058 ], [ -122.498782, 37.765018 ], [ -122.498899, 37.764982 ], [ -122.499231, 37.764871 ], [ -122.499341, 37.764841 ], [ -122.499474, 37.764809 ], [ -122.499574, 37.764789 ], [ -122.499662, 37.764776 ], [ -122.499707, 37.764772 ], [ -122.499824, 37.764768 ], [ -122.499949, 37.76477 ], [ -122.500143, 37.76478 ], [ -122.5003, 37.764792 ], [ -122.500458, 37.764807 ], [ -122.500599, 37.764827 ], [ -122.500786, 37.764858 ], [ -122.500874, 37.764855 ] ] } },
{ "type": "Feature", "properties": { "cls": "shared", "highway": "cycleway", "name": null }, "geometry": { "type": "LineString", "coordinates": [ [ -122.504607, 37.765212 ], [ -122.504272, 37.7651 ], [ -122.503974, 37.76497 ], [ -122.50362, 37.76488 ], [ -122.503431, 37.764802 ] ] } },
{ "type": "Feature", "properties": { "cls": "shared", "highway": "pedestrian", "name": "Martin Luther King Junior Drive" }, "geometry": { "type": "LineString", "coordinates": [ [ -122.500874, 37.764855 ], [ -122.50101, 37.764876 ], [ -122.501044, 37.764882 ], [ -122.501245, 37.764918 ], [ -122.501481, 37.76496 ], [ -122.501781, 37.765016 ], [ -122.502117, 37.76508 ], [ -122.502395, 37.765134 ], [ -122.502647, 37.765183 ], [ -122.502811, 37.765217 ], [ -122.502962, 37.765251 ], [ -122.50354, 37.765394 ], [ -122.503587, 37.765406 ], [ -122.503713, 37.765436 ], [ -122.503883, 37.765471 ], [ -122.504043, 37.765499 ], [ -122.504075, 37.765504 ] ] } },
{ "type": "Feature", "properties": { "cls": "shared", "highway": "pedestrian", "name": "Martin Luther King Junior Drive" }, "geometry": { "type": "LineString", "coordinates": [ [ -122.507974, 37.764953 ], [ -122.507805, 37.765011 ], [ -122.507654, 37.76506 ], [ -122.50754, 37.765096 ], [ -122.507428, 37.76513 ], [ -122.507301, 37.765167 ], [ -122.507153, 37.765211 ], [ -122.507004, 37.765252 ], [ -122.506816, 37.765297 ], [ -122.506672, 37.765331 ], [ -122.506528, 37.765363 ], [ -122.506382, 37.765391 ], [ -122.506234, 37.765413 ], [ -122.506076, 37.765434 ], [ -122.505894, 37.765453 ], [ -122.505703, 37.76547 ], [ -122.505527, 37.765481 ], [ -122.505439, 37.765486 ], [ -122.505345, 37.76549 ], [ -122.50515, 37.765495 ], [ -122.504911, 37.765499 ] ] } },
{ "type": "Feature", "properties": { "cls": "painted", "highway": "unclassified", "name": "Martin Luther King Junior Drive" }, "geometry": { "type": "LineString", "coordinates": [ [ -122.498319, 37.765139 ], [ -122.498122, 37.765164 ], [ -122.497918, 37.7652 ], [ -122.497724, 37.76523 ], [ -122.497509, 37.765271 ], [ -122.497312, 37.765308 ], [ -122.497125, 37.765338 ], [ -122.496936, 37.765366 ], [ -122.496735, 37.765391 ], [ -122.496569, 37.765409 ], [ -122.496397, 37.765426 ], [ -122.496297, 37.765436 ], [ -122.496243, 37.765442 ], [ -122.496165, 37.76545 ] ] } },
{ "type": "Feature", "properties": { "cls": "shared", "highway": "cycleway", "name": null }, "geometry": { "type": "LineString", "coordinates": [ [ -122.504413, 37.76544 ], [ -122.504607, 37.765212 ] ] } },
{ "type": "Feature", "properties": { "cls": "shared", "highway": "pedestrian", "name": "Martin Luther King Junior Drive" }, "geometry": { "type": "LineString", "coordinates": [ [ -122.504911, 37.765499 ], [ -122.504729, 37.765502 ], [ -122.504565, 37.765505 ], [ -122.504531, 37.765506 ], [ -122.50448, 37.765509 ], [ -122.504434, 37.765515 ], [ -122.504388, 37.765522 ], [ -122.504346, 37.765528 ] ] } },
{ "type": "Feature", "properties": { "cls": "shared", "highway": "pedestrian", "name": "Martin Luther King Junior Drive" }, "geometry": { "type": "LineString", "coordinates": [ [ -122.504075, 37.765504 ], [ -122.504133, 37.765512 ], [ -122.504189, 37.765518 ], [ -122.504309, 37.765527 ], [ -122.504346, 37.765528 ] ] } },
{ "type": "Feature", "properties": { "cls": "shared", "highway": "cycleway", "name": null }, "geometry": { "type": "LineString", "coordinates": [ [ -122.504413, 37.76544 ], [ -122.504346, 37.765528 ], [ -122.504247, 37.765654 ] ] } },
{ "type": "Feature", "properties": { "cls": "shared", "highway": "pedestrian", "name": "Bernice Rodgers Way" }, "geometry": { "type": "LineString", "coordinates": [ [ -122.504346, 37.765528 ], [ -122.504376, 37.765567 ], [ -122.504406, 37.765598 ], [ -122.504442, 37.765625 ], [ -122.50448, 37.765645 ], [ -122.50466, 37.765732 ], [ -122.504859, 37.765828 ] ] } },
{ "type": "Feature", "properties": { "cls": "shared", "highway": "cycleway", "name": null }, "geometry": { "type": "LineString", "coordinates": [ [ -122.504139, 37.76574 ], [ -122.503202, 37.765625 ], [ -122.503079, 37.765626 ], [ -122.502866, 37.765659 ] ] } },
{ "type": "Feature", "properties": { "cls": "shared", "highway": "cycleway", "name": null }, "geometry": { "type": "LineString", "coordinates": [ [ -122.504139, 37.76574 ], [ -122.504176, 37.765722 ], [ -122.504247, 37.765654 ] ] } },
{ "type": "Feature", "properties": { "cls": "shared", "highway": "cycleway", "name": null }, "geometry": { "type": "LineString", "coordinates": [ [ -122.500501, 37.765715 ], [ -122.50056, 37.765722 ], [ -122.500644, 37.76573 ] ] } },
{ "type": "Feature", "properties": { "cls": "separated", "highway": "cycleway", "name": null }, "geometry": { "type": "Point", "coordinates": [ -122.510228, 37.764153 ] } },
{ "type": "Feature", "properties": { "cls": "shared", "highway": "cycleway", "name": null }, "geometry": { "type": "LineString", "coordinates": [ [ -122.493211, 37.765505 ], [ -122.493202, 37.765545 ], [ -122.493173, 37.765669 ], [ -122.493151, 37.76581 ], [ -122.493119, 37.766014 ], [ -122.493094, 37.766123 ] ] } },
{ "type": "Feature", "properties": { "cls": "shared", "highway": "cycleway", "name": null }, "geometry": { "type": "LineString", "coordinates": [ [ -122.493094, 37.766123 ], [ -122.493084, 37.766161 ], [ -122.493071, 37.766211 ], [ -122.493053, 37.766278 ] ] } },
{ "type": "Feature", "properties": { "cls": "shared", "highway": "cycleway", "name": null }, "geometry": { "type": "LineString", "coordinates": [ [ -122.494421, 37.766405 ], [ -122.493908, 37.766358 ], [ -122.493482, 37.766305 ], [ -122.493146, 37.766235 ], [ -122.493071, 37.766211 ], [ -122.49281, 37.766129 ], [ -122.492795, 37.766068 ] ] } },
{ "type": "Feature", "properties": { "cls": "shared", "highway": "cycleway", "name": null }, "geometry": { "type": "LineString", "coordinates": [ [ -122.492963, 37.766854 ], [ -122.493241, 37.766821 ], [ -122.493882, 37.76667 ], [ -122.493956, 37.766659 ], [ -122.494027, 37.766648 ], [ -122.49449, 37.766612 ], [ -122.494518, 37.766601 ], [ -122.494637, 37.766619 ], [ -122.494836, 37.766651 ], [ -122.495133, 37.766731 ], [ -122.495191, 37.766747 ], [ -122.495377, 37.766774 ], [ -122.495478, 37.766767 ], [ -122.495642, 37.766734 ], [ -122.495724, 37.766717 ], [ -122.495799, 37.766698 ], [ -122.49591, 37.766663 ], [ -122.496019, 37.766632 ], [ -122.496124, 37.766605 ], [ -122.496192, 37.766588 ], [ -122.496252, 37.766573 ], [ -122.496311, 37.766557 ], [ -122.496466, 37.766513 ], [ -122.496534, 37.766493 ], [ -122.496599, 37.766472 ], [ -122.496659, 37.766453 ], [ -122.496736, 37.766431 ], [ -122.496822, 37.766403 ], [ -122.496904, 37.766376 ], [ -122.497004, 37.766343 ], [ -122.497128, 37.766299 ], [ -122.497339, 37.766221 ], [ -122.497638, 37.766114 ], [ -122.49769, 37.766096 ], [ -122.497737, 37.766082 ], [ -122.497783, 37.766069 ], [ -122.497823, 37.766052 ], [ -122.497865, 37.766034 ], [ -122.497916, 37.766015 ], [ -122.497971, 37.765999 ], [ -122.498036, 37.765982 ], [ -122.498103, 37.765962 ], [ -122.498169, 37.765935 ], [ -122.498226, 37.765906 ], [ -122.498287, 37.765873 ], [ -122.498347, 37.765844 ], [ -122.498414, 37.765818 ], [ -122.498505, 37.765794 ], [ -122.498576, 37.765777 ], [ -122.498659, 37.765763 ], [ -122.498762, 37.76575 ], [ -122.499033, 37.765714 ], [ -122.499379, 37.76567 ], [ -122.500045, 37.765664 ], [ -122.500121, 37.76567 ], [ -122.500429, 37.765709 ], [ -122.500501, 37.765715 ] ] } },
{ "type": "Feature", "properties": { "cls": "shared", "highway": "cycleway", "name": null }, "geometry": { "type": "LineString", "coordinates": [ [ -122.494577, 37.766418 ], [ -122.494513, 37.766413 ], [ -122.494421, 37.766405 ] ] } },
{ "type": "Feature", "properties": { "cls": "shared", "highway": "cycleway", "name": null }, "geometry": { "type": "LineString", "coordinates": [ [ -122.494763, 37.766434 ], [ -122.494577, 37.766418 ] ] } },
{ "type": "Feature", "properties": { "cls": "shared", "highway": "cycleway", "name": null }, "geometry": { "type": "LineString", "coordinates": [ [ -122.494928, 37.766448 ], [ -122.494842, 37.766441 ], [ -122.494763, 37.766434 ] ] } },
{ "type": "Feature", "properties": { "cls": "shared", "highway": "cycleway", "name": null }, "geometry": { "type": "LineString", "coordinates": [ [ -122.49527, 37.766477 ], [ -122.494928, 37.766448 ] ] } },
{ "type": "Feature", "properties": { "cls": "shared", "highway": "cycleway", "name": null }, "geometry": { "type": "LineString", "coordinates": [ [ -122.495401, 37.76648 ], [ -122.495337, 37.766478 ], [ -122.49527, 37.766477 ] ] } },
{ "type": "Feature", "properties": { "cls": "shared", "highway": "cycleway", "name": null }, "geometry": { "type": "LineString", "coordinates": [ [ -122.493053, 37.766278 ], [ -122.493026, 37.766363 ], [ -122.492969, 37.76651 ], [ -122.492935, 37.766633 ], [ -122.492949, 37.766745 ], [ -122.492963, 37.766854 ] ] } },
{ "type": "Feature", "properties": { "cls": "shared", "highway": "cycleway", "name": null }, "geometry": { "type": "LineString", "coordinates": [ [ -122.493025, 37.766991 ], [ -122.492963, 37.766854 ] ] } },
{ "type": "Feature", "properties": { "cls": "shared", "highway": "cycleway", "name": null }, "geometry": { "type": "LineString", "coordinates": [ [ -122.493113, 37.767175 ], [ -122.493025, 37.766991 ] ] } },
{ "type": "Feature", "properties": { "cls": "shared", "highway": "pedestrian", "name": "Middle Drive West" }, "geometry": { "type": "LineString", "coordinates": [ [ -122.485655, 37.768334 ], [ -122.485731, 37.768328 ], [ -122.485983, 37.768305 ], [ -122.486211, 37.768282 ], [ -122.486431, 37.768258 ], [ -122.486655, 37.768228 ], [ -122.486876, 37.768197 ], [ -122.487067, 37.768167 ], [ -122.487248, 37.768136 ], [ -122.487422, 37.768105 ], [ -122.487597, 37.768071 ], [ -122.48775, 37.768041 ], [ -122.487898, 37.76801 ], [ -122.487978, 37.767995 ], [ -122.488036, 37.767979 ], [ -122.488162, 37.76795 ], [ -122.488285, 37.767918 ], [ -122.488394, 37.767889 ], [ -122.488531, 37.767846 ], [ -122.488596, 37.767824 ], [ -122.488654, 37.767804 ], [ -122.488776, 37.767757 ], [ -122.488887, 37.767711 ], [ -122.488915, 37.767699 ], [ -122.489193, 37.76758 ], [ -122.489521, 37.767432 ], [ -122.49008, 37.767172 ], [ -122.490443, 37.767002 ], [ -122.490527, 37.766963 ], [ -122.49066, 37.766903 ], [ -122.490869, 37.76681 ], [ -122.491047, 37.766735 ], [ -122.491221, 37.766664 ], [ -122.491399, 37.766594 ], [ -122.491577, 37.766524 ], [ -122.491944, 37.766385 ], [ -122.492114, 37.766324 ], [ -122.492247, 37.766282 ], [ -122.492351, 37.766252 ], [ -122.492439, 37.766227 ], [ -122.492525, 37.766204 ], [ -122.4926, 37.766183 ], [ -122.492705, 37.766155 ], [ -122.49281, 37.766129 ], [ -122.492897, 37.766108 ] ] } },
{ "type": "Feature", "properties": { "cls": "shared", "highway": "cycleway", "name": null }, "geometry": { "type": "LineString", "coordinates": [ [ -122.493175, 37.767307 ], [ -122.493113, 37.767175 ] ] } },
{ "type": "Feature", "properties": { "cls": "shared", "highway": "cycleway", "name": null }, "geometry": { "type": "LineString", "coordinates": [ [ -122.490463, 37.76774 ], [ -122.49069, 37.767686 ], [ -122.492273, 37.767201 ], [ -122.492397, 37.767143 ], [ -122.492788, 37.766961 ], [ -122.492897, 37.766894 ], [ -122.49291, 37.766886 ], [ -122.492963, 37.766854 ] ] } },
{ "type": "Feature", "properties": { "cls": "shared", "highway": "footway", "name": null }, "geometry": { "type": "LineString", "coordinates": [ [ -122.494683, 37.76876 ], [ -122.494718, 37.768739 ], [ -122.494753, 37.768715 ], [ -122.49482, 37.768679 ], [ -122.494965, 37.76862 ], [ -122.495075, 37.768567 ], [ -122.495178, 37.768512 ], [ -122.495265, 37.768457 ], [ -122.49534, 37.768393 ], [ -122.495408, 37.768325 ], [ -122.495469, 37.768252 ], [ -122.49552, 37.768177 ], [ -122.495571, 37.768081 ], [ -122.495606, 37.767997 ], [ -122.495638, 37.76791 ], [ -122.49566, 37.767819 ], [ -122.495665, 37.76774 ], [ -122.495662, 37.767657 ], [ -122.495649, 37.767564 ], [ -122.495623, 37.767459 ], [ -122.495582, 37.767356 ], [ -122.495527, 37.767249 ], [ -122.495464, 37.767159 ], [ -122.495364, 37.767034 ], [ -122.495271, 37.766913 ], [ -122.49525, 37.76687 ], [ -122.495191, 37.766747 ] ] } },
{ "type": "Feature", "properties": { "cls": "shared", "highway": "cycleway", "name": null }, "geometry": { "type": "LineString", "coordinates": [ [ -122.490196, 37.767846 ], [ -122.490463, 37.76774 ] ] } },
{ "type": "Feature", "properties": { "cls": "shared", "highway": "path", "name": null }, "geometry": { "type": "LineString", "coordinates": [ [ -122.491465, 37.769312 ], [ -122.492977, 37.768867 ], [ -122.494267, 37.768488 ], [ -122.494657, 37.768373 ], [ -122.49474, 37.768346 ], [ -122.494817, 37.768313 ], [ -122.494886, 37.768278 ], [ -122.494952, 37.768235 ], [ -122.495011, 37.768186 ], [ -122.495064, 37.76814 ], [ -122.495113, 37.768084 ], [ -122.495156, 37.768023 ], [ -122.49519, 37.767966 ], [ -122.495217, 37.767902 ], [ -122.495235, 37.767841 ], [ -122.495246, 37.767776 ], [ -122.49525, 37.767711 ], [ -122.495246, 37.767642 ], [ -122.495234, 37.767574 ], [ -122.495211, 37.767503 ], [ -122.495184, 37.767439 ], [ -122.495149, 37.767378 ], [ -122.495105, 37.767319 ], [ -122.495051, 37.767262 ], [ -122.494993, 37.76721 ], [ -122.494927, 37.767164 ], [ -122.494855, 37.767121 ], [ -122.494788, 37.76709 ], [ -122.494713, 37.76706 ], [ -122.494651, 37.767041 ], [ -122.494625, 37.767033 ], [ -122.494532, 37.767015 ], [ -122.494436, 37.767005 ], [ -122.494335, 37.767004 ], [ -122.494227, 37.76701 ], [ -122.494123, 37.767029 ], [ -122.494024, 37.767057 ] ] } },
{ "type": "Feature", "properties": { "cls": "shared", "highway": "path", "name": null }, "geometry": { "type": "LineString", "coordinates": [ [ -122.494024, 37.767057 ], [ -122.493175, 37.767307 ], [ -122.490907, 37.767976 ], [ -122.490841, 37.767996 ], [ -122.490771, 37.768022 ], [ -122.4907, 37.768053 ], [ -122.490631, 37.768091 ], [ -122.490571, 37.768132 ], [ -122.490519, 37.768175 ], [ -122.490467, 37.768224 ], [ -122.490422, 37.768277 ], [ -122.490381, 37.768334 ], [ -122.490348, 37.768394 ], [ -122.490325, 37.768449 ], [ -122.490307, 37.768503 ], [ -122.490293, 37.768567 ], [ -122.490288, 37.768634 ], [ -122.490291, 37.768702 ], [ -122.490302, 37.768766 ], [ -122.490318, 37.768827 ], [ -122.490347, 37.768895 ], [ -122.490386, 37.768971 ], [ -122.49044, 37.769041 ], [ -122.4905, 37.769105 ], [ -122.490575, 37.769164 ], [ -122.490655, 37.769218 ], [ -122.490745, 37.769263 ], [ -122.49084, 37.769299 ], [ -122.490947, 37.769326 ], [ -122.491052, 37.769342 ], [ -122.491152, 37.76935 ], [ -122.491256, 37.769349 ], [ -122.491364, 37.769334 ], [ -122.491465, 37.769312 ] ] } },
{ "type": "Feature", "properties": { "cls": "shared", "highway": "pedestrian", "name": "Middle Drive West" }, "geometry": { "type": "LineString", "coordinates": [ [ -122.485423, 37.768353 ], [ -122.485655, 37.768334 ] ] } },
{ "type": "Feature", "properties": { "cls": "shared", "highway": "cycleway", "name": null }, "geometry": { "type": "LineString", "coordinates": [ [ -122.500644, 37.76573 ], [ -122.500746, 37.765743 ], [ -122.50107, 37.76586 ], [ -122.50155, 37.766055 ], [ -122.501843, 37.766171 ], [ -122.501962, 37.766245 ], [ -122.502034, 37.766343 ], [ -122.502099, 37.766473 ] ] } },
{ "type": "Feature", "properties": { "cls": "shared", "highway": "pedestrian", "name": "Bernice Rodgers Way" }, "geometry": { "type": "LineString", "coordinates": [ [ -122.504859, 37.765828 ], [ -122.505007, 37.7659 ], [ -122.505226, 37.766002 ], [ -122.505375, 37.766075 ], [ -122.505496, 37.766138 ], [ -122.505635, 37.766218 ], [ -122.505764, 37.766301 ], [ -122.505901, 37.766394 ], [ -122.506037, 37.766488 ], [ -122.506182, 37.76659 ], [ -122.506315, 37.766685 ] ] } },
{ "type": "Feature", "properties": { "cls": "shared", "highway": "cycleway", "name": null }, "geometry": { "type": "LineString", "coordinates": [ [ -122.510228, 37.764153 ], [ -122.51022, 37.764215 ], [ -122.51021, 37.764289 ], [ -122.510186, 37.764395 ], [ -122.510105, 37.764669 ], [ -122.510073, 37.764848 ], [ -122.510083, 37.765545 ], [ -122.510138, 37.766473 ], [ -122.510187, 37.767005 ], [ -122.510258, 37.767628 ], [ -122.510275, 37.767753 ], [ -122.510402, 37.768415 ], [ -122.510464, 37.768642 ] ] } },
{ "type": "Feature", "properties": { "cls": "separated", "highway": "cycleway", "name": null }, "geometry": { "type": "LineString", "coordinates": [ [ -122.502099, 37.766473 ], [ -122.502203, 37.766614 ] ] } },
{ "type": "Feature", "properties": { "cls": "shared", "highway": "cycleway", "name": null }, "geometry": { "type": "LineString", "coordinates": [ [ -122.502499, 37.767413 ], [ -122.502443, 37.767154 ], [ -122.502424, 37.767078 ], [ -122.502406, 37.767009 ], [ -122.502389, 37.766946 ], [ -122.502253, 37.766702 ], [ -122.502241, 37.766669 ], [ -122.502203, 37.766614 ] ] } },
{ "type": "Feature", "properties": { "cls": "shared", "highway": "cycleway", "name": null }, "geometry": { "type": "LineString", "coordinates": [ [ -122.502499, 37.767413 ], [ -122.502522, 37.767528 ] ] } },
{ "type": "Feature", "properties": { "cls": "painted", "highway": "service", "name": null }, "geometry": { "type": "LineString", "coordinates": [ [ -122.498096, 37.768892 ], [ -122.498071, 37.768833 ], [ -122.498012, 37.768764 ], [ -122.497936, 37.768677 ], [ -122.497675, 37.768442 ], [ -122.497512, 37.768332 ], [ -122.497502, 37.76831 ] ] } },
{ "type": "Feature", "properties": { "cls": "separated", "highway": "cycleway", "name": "Chain of Lakes Drive West" }, "geometry": { "type": "LineString", "coordinates": [ [ -122.503819, 37.771051 ], [ -122.503863, 37.771033 ], [ -122.503902, 37.771013 ], [ -122.503937, 37.77099 ], [ -122.503961, 37.770969 ], [ -122.503986, 37.770935 ], [ -122.504011, 37.770894 ], [ -122.504033, 37.770851 ], [ -122.504048, 37.770812 ], [ -122.504059, 37.770765 ], [ -122.504062, 37.770725 ], [ -122.504062, 37.770681 ], [ -122.504053, 37.770631 ], [ -122.50404, 37.770586 ], [ -122.50402, 37.770533 ], [ -122.503987, 37.770462 ], [ -122.503943, 37.770376 ], [ -122.503802, 37.770112 ], [ -122.503766, 37.770047 ], [ -122.503723, 37.769982 ], [ -122.503671, 37.769917 ], [ -122.503617, 37.769859 ], [ -122.503554, 37.769799 ], [ -122.503474, 37.769728 ], [ -122.503394, 37.769664 ], [ -122.503337, 37.769624 ], [ -122.503288, 37.769599 ], [ -122.503231, 37.769577 ], [ -122.502702, 37.769396 ], [ -122.502639, 37.769374 ], [ -122.502582, 37.769349 ], [ -122.502528, 37.769318 ], [ -122.502483, 37.769281 ], [ -122.502449, 37.769241 ], [ -122.502427, 37.769193 ], [ -122.50242, 37.769149 ], [ -122.502426, 37.769097 ], [ -122.50244, 37.769049 ], [ -122.502462, 37.769003 ], [ -122.502493, 37.768959 ], [ -122.502526, 37.768924 ], [ -122.502577, 37.768875 ], [ -122.502629, 37.768834 ], [ -122.50268, 37.768798 ], [ -122.502716, 37.768767 ], [ -122.502746, 37.768737 ], [ -122.502767, 37.768704 ], [ -122.502778, 37.768671 ], [ -122.502777, 37.768635 ], [ -122.502764, 37.768597 ], [ -122.50274, 37.768562 ], [ -122.502704, 37.768518 ], [ -122.502652, 37.768463 ], [ -122.502591, 37.7684 ], [ -122.502516, 37.768326 ], [ -122.502435, 37.768257 ], [ -122.502043, 37.767944 ], [ -122.502009, 37.767911 ], [ -122.501984, 37.767882 ], [ -122.501964, 37.767856 ], [ -122.501946, 37.767826 ], [ -122.501922, 37.76778 ], [ -122.501888, 37.767713 ] ] } },
{ "type": "Feature", "properties": { "cls": "sharrow", "highway": "unclassified", "name": "Chain of Lakes Drive West" }, "geometry": { "type": "LineString", "coordinates": [ [ -122.50375, 37.771097 ], [ -122.503784, 37.771071 ], [ -122.503819, 37.771051 ] ] } },
{ "type": "Feature", "properties": { "cls": "sharrow", "highway": "unclassified", "name": "Chain of Lakes Drive West" }, "geometry": { "type": "LineString", "coordinates": [ [ -122.503472, 37.771567 ], [ -122.503485, 37.771532 ], [ -122.503504, 37.771493 ], [ -122.503521, 37.771456 ], [ -122.503558, 37.771385 ], [ -122.503589, 37.77133 ], [ -122.503623, 37.77127 ], [ -122.503662, 37.771209 ], [ -122.503695, 37.77116 ], [ -122.503721, 37.771127 ], [ -122.50375, 37.771097 ] ] } },
{ "type": "Feature", "properties": { "cls": "shared", "highway": "cycleway", "name": null }, "geometry": { "type": "LineString", "coordinates": [ [ -122.510464, 37.768642 ], [ -122.510476, 37.768671 ], [ -122.510493, 37.768712 ] ] } },
{ "type": "Feature", "properties": { "cls": "shared", "highway": "cycleway", "name": null }, "geometry": { "type": "LineString", "coordinates": [ [ -122.510493, 37.768712 ], [ -122.51053, 37.768904 ], [ -122.510624, 37.769436 ], [ -122.51069, 37.769934 ] ] } },
{ "type": "Feature", "properties": { "cls": "shared", "highway": "cycleway", "name": null }, "geometry": { "type": "LineString", "coordinates": [ [ -122.490196, 37.767846 ], [ -122.490028, 37.768041 ], [ -122.489927, 37.768205 ], [ -122.489844, 37.768488 ], [ -122.489853, 37.768666 ], [ -122.48986, 37.76881 ], [ -122.489922, 37.769081 ], [ -122.490187, 37.769346 ], [ -122.490476, 37.769598 ], [ -122.490919, 37.769693 ], [ -122.49139, 37.769693 ], [ -122.492295, 37.769465 ], [ -122.492937, 37.769325 ], [ -122.493061, 37.769301 ], [ -122.493174, 37.769286 ] ] } },
{ "type": "Feature", "properties": { "cls": "shared", "highway": "cycleway", "name": null }, "geometry": { "type": "LineString", "coordinates": [ [ -122.48177, 37.769904 ], [ -122.481933, 37.769816 ], [ -122.482112, 37.76972 ], [ -122.482276, 37.769652 ], [ -122.482462, 37.769575 ], [ -122.482593, 37.769521 ], [ -122.48267, 37.769493 ], [ -122.482774, 37.76947 ], [ -122.482895, 37.76945 ], [ -122.483037, 37.76944 ], [ -122.483144, 37.769422 ], [ -122.483256, 37.769397 ], [ -122.483328, 37.769361 ], [ -122.483445, 37.769287 ], [ -122.483507, 37.769247 ], [ -122.483568, 37.769209 ], [ -122.483753, 37.76913 ], [ -122.483857, 37.769086 ], [ -122.483946, 37.769071 ], [ -122.484173, 37.769032 ], [ -122.484331, 37.769005 ], [ -122.484485, 37.768967 ], [ -122.48465, 37.768926 ], [ -122.48472, 37.768909 ], [ -122.484789, 37.768904 ], [ -122.484994, 37.768894 ], [ -122.485374, 37.768886 ], [ -122.485591, 37.76886 ], [ -122.485757, 37.768841 ], [ -122.485823, 37.76884 ], [ -122.486119, 37.768834 ], [ -122.486198, 37.768832 ], [ -122.486387, 37.768798 ], [ -122.486562, 37.768755 ], [ -122.487022, 37.768639 ], [ -122.4872, 37.768594 ], [ -122.487414, 37.768554 ], [ -122.487884, 37.768463 ], [ -122.488257, 37.768371 ], [ -122.488663, 37.768272 ], [ -122.489059, 37.768185 ], [ -122.489141, 37.768167 ], [ -122.489382, 37.768114 ], [ -122.489723, 37.768019 ], [ -122.490048, 37.767912 ], [ -122.490196, 37.767846 ] ] } },
{ "type": "Feature", "properties": { "cls": "shared", "highway": "cycleway", "name": null }, "geometry": { "type": "LineString", "coordinates": [ [ -122.492977, 37.768867 ], [ -122.493037, 37.768996 ] ] } },
{ "type": "Feature", "properties": { "cls": "shared", "highway": "cycleway", "name": null }, "geometry": { "type": "LineString", "coordinates": [ [ -122.493037, 37.768996 ], [ -122.493135, 37.769203 ] ] } },
{ "type": "Feature", "properties": { "cls": "shared", "highway": "pedestrian", "name": "Overlook Drive" }, "geometry": { "type": "LineString", "coordinates": [ [ -122.479533, 37.769947 ], [ -122.479628, 37.769945 ], [ -122.479707, 37.769942 ], [ -122.479808, 37.769933 ], [ -122.479897, 37.769923 ], [ -122.47998, 37.769905 ], [ -122.480302, 37.769798 ], [ -122.480455, 37.769751 ], [ -122.480596, 37.76971 ], [ -122.480737, 37.769674 ], [ -122.480794, 37.769663 ], [ -122.480815, 37.769661 ], [ -122.480844, 37.769657 ], [ -122.480959, 37.769651 ], [ -122.481083, 37.769639 ], [ -122.481202, 37.769621 ], [ -122.481319, 37.769596 ], [ -122.481437, 37.769562 ], [ -122.48157, 37.76952 ], [ -122.481694, 37.769473 ], [ -122.482208, 37.769272 ], [ -122.482365, 37.76921 ], [ -122.482531, 37.769147 ], [ -122.482685, 37.769093 ], [ -122.48361, 37.768798 ], [ -122.483774, 37.768748 ], [ -122.483933, 37.768705 ], [ -122.484096, 37.768665 ], [ -122.484257, 37.768627 ], [ -122.484721, 37.768523 ], [ -122.484909, 37.76848 ], [ -122.485104, 37.768431 ], [ -122.485423, 37.768353 ] ] } },
{ "type": "Feature", "properties": { "cls": "shared", "highway": "cycleway", "name": null }, "geometry": { "type": "LineString", "coordinates": [ [ -122.493135, 37.769203 ], [ -122.493174, 37.769286 ] ] } },
{ "type": "Feature", "properties": { "cls": "shared", "highway": "cycleway", "name": "Officer James W. Bloesch Road" }, "geometry": { "type": "LineString", "coordinates": [ [ -122.493174, 37.769286 ], [ -122.493264, 37.769278 ], [ -122.493348, 37.769273 ], [ -122.49344, 37.769273 ], [ -122.493526, 37.769279 ], [ -122.493603, 37.769292 ], [ -122.493673, 37.769319 ], [ -122.493716, 37.769352 ], [ -122.493753, 37.769397 ], [ -122.493791, 37.769458 ], [ -122.493969, 37.769753 ], [ -122.494004, 37.769819 ] ] } },
{ "type": "Feature", "properties": { "cls": "separated", "highway": "cycleway", "name": null }, "geometry": { "type": "LineString", "coordinates": [ [ -122.481712, 37.770027 ], [ -122.48177, 37.769904 ] ] } },
{ "type": "Feature", "properties": { "cls": "sharrow", "highway": "tertiary", "name": "36th Avenue" }, "geometry": { "type": "LineString", "coordinates": [ [ -122.495462, 37.770511 ], [ -122.495459, 37.770481 ], [ -122.495447, 37.770451 ], [ -122.495431, 37.770428 ], [ -122.495391, 37.770373 ], [ -122.495359, 37.770317 ], [ -122.495338, 37.770265 ], [ -122.495321, 37.770209 ], [ -122.495308, 37.770147 ], [ -122.4953, 37.770058 ], [ -122.495302, 37.770016 ], [ -122.495312, 37.769974 ], [ -122.49533, 37.769928 ], [ -122.495356, 37.769882 ] ] } },
{ "type": "Feature", "properties": { "cls": "sharrow", "highway": "tertiary", "name": "36th Avenue" }, "geometry": { "type": "LineString", "coordinates": [ [ -122.494653, 37.77021 ], [ -122.494718, 37.770207 ], [ -122.494779, 37.770208 ], [ -122.494836, 37.770212 ], [ -122.494894, 37.770218 ], [ -122.494951, 37.77023 ], [ -122.495005, 37.770251 ], [ -122.495052, 37.770274 ], [ -122.495132, 37.770328 ], [ -122.495199, 37.770375 ], [ -122.495272, 37.770427 ], [ -122.495336, 37.770469 ], [ -122.495374, 37.770486 ], [ -122.495416, 37.770501 ], [ -122.495462, 37.770511 ] ] } },
{ "type": "Feature", "properties": { "cls": "shared", "highway": "cycleway", "name": null }, "geometry": { "type": "LineString", "coordinates": [ [ -122.458422, 37.767177 ], [ -122.458271, 37.767224 ], [ -122.457454, 37.76747 ], [ -122.45699, 37.767607 ], [ -122.456345, 37.767797 ], [ -122.45589, 37.767932 ], [ -122.455831, 37.767947 ], [ -122.45578, 37.767957 ], [ -122.455726, 37.767967 ] ] } },
{ "type": "Feature", "properties": { "cls": "shared", "highway": "cycleway", "name": null }, "geometry": { "type": "LineString", "coordinates": [ [ -122.455726, 37.767967 ], [ -122.455602, 37.767986 ] ] } },
{ "type": "Feature", "properties": { "cls": "shared", "highway": "cycleway", "name": null }, "geometry": { "type": "LineString", "coordinates": [ [ -122.455602, 37.767986 ], [ -122.455324, 37.768005 ], [ -122.455219, 37.768025 ], [ -122.455156, 37.768032 ], [ -122.455064, 37.76804 ] ] } },
{ "type": "Feature", "properties": { "cls": "shared", "highway": "cycleway", "name": null }, "geometry": { "type": "LineString", "coordinates": [ [ -122.455083, 37.76813 ], [ -122.455602, 37.767986 ] ] } },
{ "type": "Feature", "properties": { "cls": "separated", "highway": "cycleway", "name": "20th Avenue Entrance" }, "geometry": { "type": "LineString", "coordinates": [ [ -122.478322, 37.765494 ], [ -122.478322, 37.765496 ] ] } },
{ "type": "Feature", "properties": { "cls": "shared", "highway": "footway", "name": null }, "geometry": { "type": "LineString", "coordinates": [ [ -122.478407, 37.765505 ], [ -122.478322, 37.765507 ], [ -122.47825, 37.765509 ], [ -122.478249, 37.765498 ] ] } },
{ "type": "Feature", "properties": { "cls": "shared", "highway": "footway", "name": "20th Avenue Entrance" }, "geometry": { "type": "LineString", "coordinates": [ [ -122.478322, 37.765496 ], [ -122.478322, 37.765507 ], [ -122.47832, 37.76554 ], [ -122.478333, 37.765658 ], [ -122.478348, 37.76571 ], [ -122.478345, 37.765795 ], [ -122.478356, 37.765851 ] ] } },
{ "type": "Feature", "properties": { "cls": "painted", "highway": "unclassified", "name": "Transverse Drive" }, "geometry": { "type": "LineString", "coordinates": [ [ -122.478514, 37.766168 ], [ -122.478369, 37.766065 ], [ -122.478347, 37.766046 ], [ -122.478328, 37.766022 ], [ -122.478313, 37.766 ], [ -122.478278, 37.765927 ] ] } },
{ "type": "Feature", "properties": { "cls": "painted", "highway": "unclassified", "name": "Transverse Drive" }, "geometry": { "type": "LineString", "coordinates": [ [ -122.479666, 37.767777 ], [ -122.479662, 37.767721 ], [ -122.479649, 37.767663 ], [ -122.479626, 37.767609 ], [ -122.479584, 37.767532 ], [ -122.47951, 37.767405 ], [ -122.479438, 37.767285 ], [ -122.479377, 37.767185 ], [ -122.479312, 37.767089 ], [ -122.479241, 37.766988 ], [ -122.479157, 37.766869 ], [ -122.479073, 37.76676 ], [ -122.478985, 37.766649 ], [ -122.478879, 37.766525 ], [ -122.47882, 37.766453 ], [ -122.478767, 37.766392 ], [ -122.478718, 37.766339 ], [ -122.478663, 37.766288 ], [ -122.478597, 37.766232 ], [ -122.478514, 37.766168 ] ] } },
{ "type": "Feature", "properties": { "cls": "painted", "highway": "unclassified", "name": "Transverse Drive" }, "geometry": { "type": "LineString", "coordinates": [ [ -122.479533, 37.769947 ], [ -122.479403, 37.769761 ], [ -122.479352, 37.769685 ], [ -122.479302, 37.769604 ], [ -122.479256, 37.769528 ], [ -122.47921, 37.769448 ], [ -122.479167, 37.769367 ], [ -122.479132, 37.769284 ], [ -122.479109, 37.76921 ], [ -122.479093, 37.769137 ], [ -122.479082, 37.769061 ], [ -122.479082, 37.768992 ], [ -122.479086, 37.768928 ], [ -122.479098, 37.768865 ], [ -122.479119, 37.768791 ], [ -122.479147, 37.768717 ], [ -122.479181, 37.768645 ], [ -122.479228, 37.768559 ], [ -122.479276, 37.768478 ], [ -122.479568, 37.768012 ], [ -122.479609, 37.767945 ], [ -122.479637, 37.767891 ], [ -122.479657, 37.767835 ], [ -122.479666, 37.767777 ] ] } },
{ "type": "Feature", "properties": { "cls": "separated", "highway": "cycleway", "name": "5th Avenue Entrance" }, "geometry": { "type": "LineString", "coordinates": [ [ -122.462186, 37.766208 ], [ -122.462186, 37.766216 ] ] } },
{ "type": "Feature", "properties": { "cls": "painted", "highway": "unclassified", "name": "7th Avenue" }, "geometry": { "type": "LineString", "coordinates": [ [ -122.464347, 37.766121 ], [ -122.464349, 37.766137 ], [ -122.464359, 37.766189 ], [ -122.464384, 37.766353 ], [ -122.464398, 37.766441 ] ] } },
{ "type": "Feature", "properties": { "cls": "shared", "highway": "cycleway", "name": null }, "geometry": { "type": "LineString", "coordinates": [ [ -122.45973, 37.76636 ], [ -122.459712, 37.766373 ], [ -122.459445, 37.766593 ], [ -122.459228, 37.766757 ], [ -122.459037, 37.766905 ], [ -122.458875, 37.767003 ], [ -122.458706, 37.767077 ], [ -122.458628, 37.767105 ], [ -122.45859, 37.767119 ], [ -122.458422, 37.767177 ] ] } },
{ "type": "Feature", "properties": { "cls": "sharrow", "highway": "unclassified", "name": "Bowling Green Drive" }, "geometry": { "type": "LineString", "coordinates": [ [ -122.459531, 37.768545 ], [ -122.459569, 37.768471 ], [ -122.459605, 37.768413 ], [ -122.459633, 37.768368 ], [ -122.459671, 37.76832 ], [ -122.459697, 37.768288 ], [ -122.459755, 37.768226 ], [ -122.459808, 37.768175 ], [ -122.45987, 37.768119 ], [ -122.459946, 37.768061 ], [ -122.46016, 37.767912 ], [ -122.460241, 37.767856 ], [ -122.460311, 37.7678 ], [ -122.460396, 37.767732 ], [ -122.460431, 37.767703 ], [ -122.460478, 37.767663 ], [ -122.46055, 37.767595 ], [ -122.460694, 37.767453 ] ] } },
{ "type": "Feature", "properties": { "cls": "shared", "highway": "cycleway", "name": null }, "geometry": { "type": "LineString", "coordinates": [ [ -122.454975, 37.768046 ], [ -122.454908, 37.768051 ], [ -122.454842, 37.768062 ], [ -122.454777, 37.76807 ], [ -122.454703, 37.768076 ], [ -122.454457, 37.76809 ], [ -122.453572, 37.768141 ], [ -122.453486, 37.768151 ] ] } },
{ "type": "Feature", "properties": { "cls": "shared", "highway": "footway", "name": null }, "geometry": { "type": "LineString", "coordinates": [ [ -122.454974, 37.76819 ], [ -122.455028, 37.76816 ], [ -122.455083, 37.76813 ] ] } },
{ "type": "Feature", "properties": { "cls": "shared", "highway": "cycleway", "name": null }, "geometry": { "type": "LineString", "coordinates": [ [ -122.454974, 37.76819 ], [ -122.454947, 37.768238 ], [ -122.45493, 37.768262 ], [ -122.454922, 37.768275 ], [ -122.454892, 37.768346 ], [ -122.454869, 37.768422 ], [ -122.454847, 37.768505 ], [ -122.454828, 37.768596 ], [ -122.454816, 37.768677 ], [ -122.454807, 37.768757 ], [ -122.4548, 37.768836 ], [ -122.454794, 37.768921 ], [ -122.454791, 37.769004 ] ] } },
{ "type": "Feature", "properties": { "cls": "shared", "highway": "footway", "name": null }, "geometry": { "type": "LineString", "coordinates": [ [ -122.454791, 37.769004 ], [ -122.454795, 37.769068 ] ] } },
{ "type": "Feature", "properties": { "cls": "shared", "highway": "cycleway", "name": null }, "geometry": { "type": "LineString", "coordinates": [ [ -122.454795, 37.769068 ], [ -122.454803, 37.769151 ], [ -122.454817, 37.769237 ] ] } },
{ "type": "Feature", "properties": { "cls": "shared", "highway": "cycleway", "name": null }, "geometry": { "type": "LineString", "coordinates": [ [ -122.454817, 37.769237 ], [ -122.454835, 37.769314 ], [ -122.454859, 37.769391 ], [ -122.454898, 37.769495 ], [ -122.454942, 37.769595 ], [ -122.455054, 37.769818 ], [ -122.455106, 37.769923 ], [ -122.455156, 37.770032 ], [ -122.455207, 37.770147 ], [ -122.455258, 37.770261 ], [ -122.455277, 37.770366 ] ] } },
{ "type": "Feature", "properties": { "cls": "shared", "highway": "footway", "name": "Page Street" }, "geometry": { "type": "LineString", "coordinates": [ [ -122.453879, 37.770086 ], [ -122.454063, 37.770061 ] ] } },
{ "type": "Feature", "properties": { "cls": "separated", "highway": "cycleway", "name": "Page Street" }, "geometry": { "type": "LineString", "coordinates": [ [ -122.453842, 37.770092 ], [ -122.453879, 37.770086 ] ] } },
{ "type": "Feature", "properties": { "cls": "separated", "highway": "cycleway", "name": "Page Street" }, "geometry": { "type": "LineString", "coordinates": [ [ -122.453835, 37.770093 ], [ -122.453842, 37.770092 ] ] } },
{ "type": "Feature", "properties": { "cls": "painted", "highway": "service", "name": "Hagiwara Tea Garden Drive" }, "geometry": { "type": "LineString", "coordinates": [ [ -122.469576, 37.769738 ], [ -122.469637, 37.769607 ], [ -122.46977, 37.769321 ], [ -122.46978, 37.7693 ], [ -122.46982, 37.769214 ] ] } },
{ "type": "Feature", "properties": { "cls": "painted", "highway": "service", "name": "Hagiwara Tea Garden Drive" }, "geometry": { "type": "LineString", "coordinates": [ [ -122.46944, 37.769985 ], [ -122.46947, 37.769939 ], [ -122.469502, 37.769883 ], [ -122.46954, 37.769812 ], [ -122.469576, 37.769738 ] ] } },
{ "type": "Feature", "properties": { "cls": "shared", "highway": "footway", "name": null }, "geometry": { "type": "LineString", "coordinates": [ [ -122.48177, 37.769904 ], [ -122.48164, 37.769901 ], [ -122.481468, 37.769929 ], [ -122.481335, 37.769955 ], [ -122.481175, 37.769987 ], [ -122.480831, 37.770073 ], [ -122.480585, 37.770145 ], [ -122.480168, 37.77028 ], [ -122.479994, 37.770343 ] ] } },
{ "type": "Feature", "properties": { "cls": "separated", "highway": "unclassified", "name": "Transverse Drive" }, "geometry": { "type": "LineString", "coordinates": [ [ -122.479924, 37.770497 ], [ -122.479872, 37.770438 ], [ -122.479837, 37.770393 ], [ -122.479825, 37.770377 ], [ -122.479744, 37.770259 ], [ -122.479658, 37.77013 ], [ -122.479533, 37.769947 ] ] } },
{ "type": "Feature", "properties": { "cls": "sharrow", "highway": "tertiary", "name": "John F Kennedy Drive" }, "geometry": { "type": "LineString", "coordinates": [ [ -122.481712, 37.770027 ], [ -122.481559, 37.770038 ], [ -122.481401, 37.77006 ], [ -122.481241, 37.77009 ], [ -122.481063, 37.770133 ], [ -122.480887, 37.77018 ], [ -122.480697, 37.770234 ], [ -122.480559, 37.770275 ], [ -122.480428, 37.770318 ], [ -122.480298, 37.770362 ], [ -122.480087, 37.770436 ], [ -122.480061, 37.770445 ], [ -122.479924, 37.770497 ] ] } },
{ "type": "Feature", "properties": { "cls": "separated", "highway": "footway", "name": null }, "geometry": { "type": "LineString", "coordinates": [ [ -122.479994, 37.770343 ], [ -122.479905, 37.77037 ], [ -122.479837, 37.770393 ], [ -122.479746, 37.770425 ] ] } },
{ "type": "Feature", "properties": { "cls": "separated", "highway": "footway", "name": null }, "geometry": { "type": "LineString", "coordinates": [ [ -122.479746, 37.770425 ], [ -122.479679, 37.770449 ] ] } },
{ "type": "Feature", "properties": { "cls": "separated", "highway": "footway", "name": null }, "geometry": { "type": "LineString", "coordinates": [ [ -122.48012, 37.770552 ], [ -122.480061, 37.770445 ], [ -122.479994, 37.770343 ] ] } },
{ "type": "Feature", "properties": { "cls": "shared", "highway": "pedestrian", "name": "John F. Kennedy Promenade" }, "geometry": { "type": "LineString", "coordinates": [ [ -122.479924, 37.770497 ], [ -122.479827, 37.770533 ], [ -122.479816, 37.770538 ] ] } },
{ "type": "Feature", "properties": { "cls": "separated", "highway": "footway", "name": null }, "geometry": { "type": "LineString", "coordinates": [ [ -122.479679, 37.770449 ], [ -122.479338, 37.770583 ] ] } },
{ "type": "Feature", "properties": { "cls": "painted", "highway": "service", "name": "Music Concourse Drive" }, "geometry": { "type": "LineString", "coordinates": [ [ -122.468335, 37.768768 ], [ -122.46831, 37.768804 ], [ -122.46828, 37.76885 ], [ -122.468255, 37.768896 ], [ -122.468209, 37.768991 ] ] } },
{ "type": "Feature", "properties": { "cls": "painted", "highway": "service", "name": "Music Concourse Drive" }, "geometry": { "type": "LineString", "coordinates": [ [ -122.468209, 37.768991 ], [ -122.468197, 37.76902 ], [ -122.468175, 37.769072 ], [ -122.468151, 37.769136 ], [ -122.468129, 37.7692 ], [ -122.468109, 37.769259 ] ] } },
{ "type": "Feature", "properties": { "cls": "sharrow", "highway": "unclassified", "name": "Bowling Green Drive" }, "geometry": { "type": "LineString", "coordinates": [ [ -122.460305, 37.77038 ], [ -122.460318, 37.770264 ], [ -122.460322, 37.770224 ], [ -122.460343, 37.770029 ], [ -122.460345, 37.769998 ], [ -122.460349, 37.769959 ], [ -122.460354, 37.769893 ], [ -122.460356, 37.769836 ], [ -122.460356, 37.769776 ], [ -122.460349, 37.769718 ], [ -122.460335, 37.769672 ], [ -122.460317, 37.769625 ], [ -122.460291, 37.769583 ], [ -122.460242, 37.769525 ], [ -122.460194, 37.769476 ], [ -122.460135, 37.769427 ], [ -122.460066, 37.769378 ], [ -122.459969, 37.769315 ], [ -122.459859, 37.769245 ], [ -122.459742, 37.769176 ], [ -122.45962, 37.769102 ], [ -122.459579, 37.769076 ], [ -122.459544, 37.769049 ], [ -122.459515, 37.769017 ], [ -122.459492, 37.768981 ], [ -122.459474, 37.768942 ], [ -122.459462, 37.768898 ], [ -122.459459, 37.768852 ], [ -122.459463, 37.768802 ], [ -122.45947, 37.768738 ], [ -122.459485, 37.768672 ], [ -122.459507, 37.768601 ], [ -122.459531, 37.768545 ] ] } },
{ "type": "Feature", "properties": { "cls": "painted", "highway": "service", "name": "Music Concourse Drive" }, "geometry": { "type": "LineString", "coordinates": [ [ -122.468109, 37.769259 ], [ -122.468088, 37.769307 ], [ -122.468057, 37.769355 ], [ -122.468016, 37.769397 ], [ -122.467971, 37.769433 ], [ -122.467912, 37.769479 ], [ -122.467723, 37.769613 ], [ -122.467362, 37.769869 ], [ -122.467273, 37.769932 ], [ -122.466947, 37.770163 ], [ -122.46681, 37.77026 ], [ -122.466686, 37.770348 ], [ -122.466522, 37.770465 ], [ -122.466223, 37.770677 ], [ -122.46618, 37.770711 ], [ -122.466144, 37.770744 ], [ -122.466131, 37.770758 ], [ -122.466112, 37.77078 ], [ -122.466087, 37.770821 ], [ -122.466069, 37.770864 ], [ -122.466053, 37.770907 ], [ -122.466043, 37.770955 ], [ -122.466039, 37.771004 ], [ -122.466043, 37.77105 ], [ -122.466051, 37.771099 ], [ -122.466067, 37.771149 ] ] } },
{ "type": "Feature", "properties": { "cls": "sharrow", "highway": "tertiary", "name": "Nancy Pelosi Drive" }, "geometry": { "type": "LineString", "coordinates": [ [ -122.459744, 37.770539 ], [ -122.459813, 37.770504 ], [ -122.459876, 37.770477 ], [ -122.459985, 37.77044 ], [ -122.460067, 37.77042 ], [ -122.460144, 37.770404 ], [ -122.460225, 37.770391 ], [ -122.460305, 37.77038 ] ] } },
{ "type": "Feature", "properties": { "cls": "sharrow", "highway": "tertiary", "name": "Nancy Pelosi Drive" }, "geometry": { "type": "LineString", "coordinates": [ [ -122.459662, 37.770586 ], [ -122.459744, 37.770539 ] ] } },
{ "type": "Feature", "properties": { "cls": "sharrow", "highway": "tertiary", "name": "Nancy Pelosi Drive" }, "geometry": { "type": "LineString", "coordinates": [ [ -122.459605, 37.770628 ], [ -122.459662, 37.770586 ] ] } },
{ "type": "Feature", "properties": { "cls": "painted", "highway": "service", "name": "Hagiwara Tea Garden Drive" }, "geometry": { "type": "LineString", "coordinates": [ [ -122.467086, 37.771757 ], [ -122.467595, 37.771396 ], [ -122.467941, 37.771149 ], [ -122.468007, 37.771102 ], [ -122.468142, 37.771007 ], [ -122.468356, 37.770854 ], [ -122.468674, 37.770628 ], [ -122.468919, 37.770454 ], [ -122.468969, 37.770418 ], [ -122.469086, 37.770335 ], [ -122.469145, 37.770291 ], [ -122.469205, 37.770244 ], [ -122.469266, 37.770188 ], [ -122.469315, 37.770139 ], [ -122.469361, 37.770087 ], [ -122.469402, 37.770036 ], [ -122.46944, 37.769985 ] ] } },
{ "type": "Feature", "properties": { "cls": "sharrow", "highway": "tertiary", "name": "Nancy Pelosi Drive" }, "geometry": { "type": "LineString", "coordinates": [ [ -122.459222, 37.771178 ], [ -122.459227, 37.771165 ], [ -122.459246, 37.771127 ], [ -122.459285, 37.771042 ], [ -122.459322, 37.770968 ], [ -122.45936, 37.770899 ], [ -122.459401, 37.77083 ], [ -122.459452, 37.770766 ], [ -122.459512, 37.770704 ], [ -122.459573, 37.770651 ], [ -122.459605, 37.770628 ] ] } },
{ "type": "Feature", "properties": { "cls": "shared", "highway": "cycleway", "name": null }, "geometry": { "type": "LineString", "coordinates": [ [ -122.459104, 37.771212 ], [ -122.458984, 37.771153 ], [ -122.458899, 37.771093 ] ] } },
{ "type": "Feature", "properties": { "cls": "shared", "highway": "cycleway", "name": "Page Street" }, "geometry": { "type": "LineString", "coordinates": [ [ -122.454063, 37.770061 ], [ -122.454201, 37.770055 ], [ -122.454266, 37.770065 ], [ -122.45439, 37.770085 ], [ -122.455022, 37.770208 ], [ -122.455207, 37.770301 ], [ -122.45523, 37.770314 ], [ -122.455249, 37.770328 ], [ -122.455277, 37.770366 ] ] } },
{ "type": "Feature", "properties": { "cls": "shared", "highway": "cycleway", "name": null }, "geometry": { "type": "LineString", "coordinates": [ [ -122.455277, 37.770366 ], [ -122.455189, 37.770387 ], [ -122.455147, 37.7704 ], [ -122.455104, 37.770416 ], [ -122.455067, 37.77043 ], [ -122.455028, 37.770447 ], [ -122.454953, 37.77048 ], [ -122.45459, 37.770651 ], [ -122.454546, 37.77067 ], [ -122.454498, 37.770688 ], [ -122.45445, 37.770705 ], [ -122.454401, 37.77072 ], [ -122.454354, 37.770733 ], [ -122.454304, 37.770743 ], [ -122.454253, 37.770751 ], [ -122.454201, 37.770757 ] ] } },
{ "type": "Feature", "properties": { "cls": "shared", "highway": "cycleway", "name": null }, "geometry": { "type": "LineString", "coordinates": [ [ -122.455562, 37.770319 ], [ -122.455572, 37.770345 ], [ -122.455602, 37.770501 ], [ -122.455648, 37.770644 ], [ -122.455663, 37.770655 ], [ -122.455712, 37.770688 ], [ -122.455794, 37.770719 ], [ -122.455869, 37.770735 ], [ -122.456118, 37.770767 ], [ -122.456717, 37.770879 ] ] } },
{ "type": "Feature", "properties": { "cls": "separated", "highway": "cycleway", "name": null }, "geometry": { "type": "LineString", "coordinates": [ [ -122.45554, 37.770772 ], [ -122.455514, 37.770744 ], [ -122.455496, 37.770712 ], [ -122.455483, 37.770678 ], [ -122.455476, 37.770642 ] ] } },
{ "type": "Feature", "properties": { "cls": "shared", "highway": "cycleway", "name": null }, "geometry": { "type": "LineString", "coordinates": [ [ -122.454103, 37.771247 ], [ -122.45412, 37.771232 ], [ -122.454277, 37.771162 ], [ -122.454798, 37.770944 ], [ -122.454835, 37.770928 ], [ -122.454869, 37.770911 ], [ -122.454899, 37.770896 ], [ -122.454928, 37.77088 ], [ -122.454963, 37.770861 ], [ -122.454996, 37.770841 ], [ -122.455028, 37.770822 ], [ -122.455059, 37.770801 ], [ -122.455089, 37.770779 ], [ -122.455117, 37.770756 ], [ -122.455144, 37.770733 ], [ -122.455168, 37.770709 ], [ -122.455187, 37.770686 ], [ -122.455202, 37.770662 ], [ -122.455216, 37.770638 ], [ -122.45523, 37.770615 ], [ -122.455242, 37.770589 ], [ -122.455251, 37.770563 ], [ -122.45526, 37.770536 ], [ -122.455266, 37.770508 ], [ -122.455273, 37.770481 ], [ -122.455277, 37.770454 ], [ -122.45528, 37.770427 ], [ -122.455281, 37.7704 ], [ -122.455277, 37.770366 ] ] } },
{ "type": "Feature", "properties": { "cls": "shared", "highway": "pedestrian", "name": "John F. Kennedy Promenade" }, "geometry": { "type": "LineString", "coordinates": [ [ -122.455976, 37.770919 ], [ -122.455685, 37.770818 ], [ -122.455641, 37.770813 ], [ -122.455601, 37.770804 ], [ -122.455569, 37.770789 ], [ -122.45554, 37.770772 ] ] } },
{ "type": "Feature", "properties": { "cls": "separated", "highway": "cycleway", "name": "John F. Kennedy Drive" }, "geometry": { "type": "LineString", "coordinates": [ [ -122.455469, 37.770867 ], [ -122.455402, 37.770868 ], [ -122.455337, 37.770874 ] ] } },
{ "type": "Feature", "properties": { "cls": "shared", "highway": "pedestrian", "name": "John F. Kennedy Promenade" }, "geometry": { "type": "LineString", "coordinates": [ [ -122.455976, 37.770919 ], [ -122.455864, 37.770916 ], [ -122.455756, 37.770899 ], [ -122.455673, 37.770899 ], [ -122.455494, 37.770881 ], [ -122.455469, 37.770867 ] ] } },
{ "type": "Feature", "properties": { "cls": "shared", "highway": "pedestrian", "name": "John F. Kennedy Promenade" }, "geometry": { "type": "LineString", "coordinates": [ [ -122.455976, 37.770919 ], [ -122.456025, 37.770921 ], [ -122.45637, 37.770933 ], [ -122.456666, 37.770969 ] ] } },
{ "type": "Feature", "properties": { "cls": "sharrow", "highway": "tertiary", "name": "Transverse Drive" }, "geometry": { "type": "LineString", "coordinates": [ [ -122.479924, 37.770497 ], [ -122.480007, 37.770587 ], [ -122.480031, 37.770616 ], [ -122.480217, 37.770843 ], [ -122.480271, 37.770907 ], [ -122.480325, 37.770967 ], [ -122.480381, 37.771026 ], [ -122.480433, 37.771077 ], [ -122.480495, 37.771134 ], [ -122.480552, 37.77118 ], [ -122.480613, 37.771223 ], [ -122.480675, 37.77126 ], [ -122.480749, 37.771302 ], [ -122.480822, 37.771341 ], [ -122.480915, 37.771388 ], [ -122.481027, 37.771438 ], [ -122.481143, 37.771484 ], [ -122.481251, 37.771523 ] ] } },
{ "type": "Feature", "properties": { "cls": "shared", "highway": "pedestrian", "name": "John F. Kennedy Promenade" }, "geometry": { "type": "LineString", "coordinates": [ [ -122.473772, 37.771181 ], [ -122.473753, 37.771174 ], [ -122.473521, 37.771094 ], [ -122.472843, 37.770867 ] ] } },
{ "type": "Feature", "properties": { "cls": "shared", "highway": "pedestrian", "name": "John F. Kennedy Promenade" }, "geometry": { "type": "LineString", "coordinates": [ [ -122.472843, 37.770867 ], [ -122.472738, 37.770833 ], [ -122.472625, 37.7708 ], [ -122.472507, 37.77077 ], [ -122.472389, 37.770741 ], [ -122.472306, 37.770726 ], [ -122.472204, 37.770714 ], [ -122.472101, 37.770708 ], [ -122.472009, 37.770711 ], [ -122.471912, 37.770724 ], [ -122.471858, 37.770736 ], [ -122.471816, 37.770745 ], [ -122.471722, 37.770771 ], [ -122.471618, 37.770804 ], [ -122.471516, 37.770842 ], [ -122.47141, 37.770886 ], [ -122.471306, 37.770931 ], [ -122.471192, 37.770986 ], [ -122.471084, 37.771043 ], [ -122.470966, 37.771109 ], [ -122.470861, 37.771171 ], [ -122.470749, 37.771242 ], [ -122.470614, 37.77133 ], [ -122.470576, 37.771354 ] ] } },
{ "type": "Feature", "properties": { "cls": "shared", "highway": "pedestrian", "name": "John F. Kennedy Promenade" }, "geometry": { "type": "LineString", "coordinates": [ [ -122.479816, 37.770538 ], [ -122.479492, 37.770647 ], [ -122.47936, 37.770694 ], [ -122.479223, 37.770742 ], [ -122.479084, 37.770792 ], [ -122.478933, 37.770851 ], [ -122.477961, 37.771246 ], [ -122.477864, 37.771283 ], [ -122.477764, 37.771318 ], [ -122.477639, 37.771356 ], [ -122.477507, 37.771393 ], [ -122.477327, 37.771439 ], [ -122.477174, 37.771478 ], [ -122.47704, 37.771508 ], [ -122.476891, 37.771541 ], [ -122.476756, 37.771568 ], [ -122.476621, 37.771594 ], [ -122.476484, 37.771618 ], [ -122.476319, 37.771645 ], [ -122.476161, 37.771669 ], [ -122.476008, 37.771688 ], [ -122.475849, 37.771702 ], [ -122.47569, 37.771708 ], [ -122.47554, 37.771709 ], [ -122.475412, 37.771706 ], [ -122.475295, 37.771697 ], [ -122.475175, 37.77168 ], [ -122.475127, 37.77167 ], [ -122.475062, 37.771657 ], [ -122.474947, 37.771625 ], [ -122.474836, 37.771588 ], [ -122.47473, 37.771549 ], [ -122.47437, 37.771411 ], [ -122.474064, 37.771291 ] ] } },
{ "type": "Feature", "properties": { "cls": "shared", "highway": "footway", "name": null }, "geometry": { "type": "LineString", "coordinates": [ [ -122.473772, 37.771181 ], [ -122.47382, 37.771104 ] ] } },
{ "type": "Feature", "properties": { "cls": "shared", "highway": "pedestrian", "name": "John F. Kennedy Promenade" }, "geometry": { "type": "LineString", "coordinates": [ [ -122.473904, 37.771229 ], [ -122.473772, 37.771181 ] ] } },
{ "type": "Feature", "properties": { "cls": "shared", "highway": "footway", "name": null }, "geometry": { "type": "LineString", "coordinates": [ [ -122.473726, 37.771254 ], [ -122.473772, 37.771181 ] ] } },
{ "type": "Feature", "properties": { "cls": "shared", "highway": "pedestrian", "name": "John F. Kennedy Promenade" }, "geometry": { "type": "LineString", "coordinates": [ [ -122.474064, 37.771291 ], [ -122.474035, 37.77128 ], [ -122.474007, 37.771269 ], [ -122.473904, 37.771229 ] ] } },
{ "type": "Feature", "properties": { "cls": "shared", "highway": "footway", "name": null }, "geometry": { "type": "LineString", "coordinates": [ [ -122.473724, 37.771284 ], [ -122.473726, 37.771254 ] ] } },
{ "type": "Feature", "properties": { "cls": "shared", "highway": "footway", "name": null }, "geometry": { "type": "LineString", "coordinates": [ [ -122.481317, 37.771475 ], [ -122.481251, 37.771523 ] ] } },
{ "type": "Feature", "properties": { "cls": "shared", "highway": "pedestrian", "name": "John F. Kennedy Promenade" }, "geometry": { "type": "LineString", "coordinates": [ [ -122.455775, 37.770981 ], [ -122.455845, 37.770975 ], [ -122.455856, 37.770973 ], [ -122.455976, 37.770919 ] ] } },
{ "type": "Feature", "properties": { "cls": "shared", "highway": "cycleway", "name": null }, "geometry": { "type": "LineString", "coordinates": [ [ -122.456717, 37.770879 ], [ -122.456941, 37.770911 ], [ -122.457079, 37.770931 ], [ -122.457648, 37.771005 ], [ -122.457665, 37.771007 ], [ -122.458173, 37.771061 ], [ -122.458198, 37.771064 ], [ -122.458532, 37.771099 ], [ -122.458899, 37.771093 ] ] } },
{ "type": "Feature", "properties": { "cls": "shared", "highway": "pedestrian", "name": "John F. Kennedy Promenade" }, "geometry": { "type": "LineString", "coordinates": [ [ -122.456666, 37.770969 ], [ -122.456697, 37.770973 ], [ -122.456793, 37.770986 ], [ -122.45689, 37.771002 ] ] } },
{ "type": "Feature", "properties": { "cls": "shared", "highway": "pedestrian", "name": "Conservatory Drive East" }, "geometry": { "type": "LineString", "coordinates": [ [ -122.45689, 37.771002 ], [ -122.456876, 37.771069 ], [ -122.456862, 37.771106 ] ] } },
{ "type": "Feature", "properties": { "cls": "shared", "highway": "pedestrian", "name": "John F. Kennedy Promenade" }, "geometry": { "type": "LineString", "coordinates": [ [ -122.458207, 37.771174 ], [ -122.45782, 37.771124 ], [ -122.457603, 37.771096 ], [ -122.457378, 37.771067 ], [ -122.457083, 37.77103 ], [ -122.456989, 37.771017 ], [ -122.45689, 37.771002 ] ] } },
{ "type": "Feature", "properties": { "cls": "separated", "highway": "cycleway", "name": "John F. Kennedy Drive" }, "geometry": { "type": "LineString", "coordinates": [ [ -122.455337, 37.770874 ], [ -122.455213, 37.77094 ], [ -122.454176, 37.771367 ] ] } },
{ "type": "Feature", "properties": { "cls": "separated", "highway": "service", "name": "Conservatory Drive East" }, "geometry": { "type": "LineString", "coordinates": [ [ -122.456862, 37.771106 ], [ -122.456852, 37.771174 ], [ -122.456837, 37.771276 ] ] } },
{ "type": "Feature", "properties": { "cls": "shared", "highway": "pedestrian", "name": "John F. Kennedy Promenade" }, "geometry": { "type": "LineString", "coordinates": [ [ -122.459176, 37.771316 ], [ -122.459122, 37.771307 ], [ -122.459092, 37.771304 ], [ -122.458699, 37.771244 ], [ -122.458464, 37.77121 ], [ -122.458358, 37.771195 ], [ -122.458207, 37.771174 ] ] } },
{ "type": "Feature", "properties": { "cls": "separated", "highway": "cycleway", "name": null }, "geometry": { "type": "LineString", "coordinates": [ [ -122.454143, 37.77153 ], [ -122.454182, 37.771513 ], [ -122.454335, 37.771449 ], [ -122.45489, 37.771223 ], [ -122.455037, 37.771166 ], [ -122.455302, 37.771053 ], [ -122.455416, 37.771009 ], [ -122.455466, 37.770997 ], [ -122.455528, 37.770985 ], [ -122.455594, 37.77098 ], [ -122.455761, 37.770981 ], [ -122.455775, 37.770981 ] ] } },
{ "type": "Feature", "properties": { "cls": "separated", "highway": "cycleway", "name": "John F. Kennedy Drive" }, "geometry": { "type": "LineString", "coordinates": [ [ -122.454176, 37.771367 ], [ -122.454158, 37.771376 ], [ -122.454109, 37.771395 ] ] } },
{ "type": "Feature", "properties": { "cls": "shared", "highway": "cycleway", "name": null }, "geometry": { "type": "LineString", "coordinates": [ [ -122.510691, 37.76994 ], [ -122.510695, 37.769972 ], [ -122.510702, 37.770007 ] ] } },
{ "type": "Feature", "properties": { "cls": "shared", "highway": "cycleway", "name": null }, "geometry": { "type": "LineString", "coordinates": [ [ -122.510702, 37.770007 ], [ -122.510704, 37.770013 ] ] } },
{ "type": "Feature", "properties": { "cls": "shared", "highway": "cycleway", "name": null }, "geometry": { "type": "LineString", "coordinates": [ [ -122.510704, 37.770013 ], [ -122.51077, 37.770327 ] ] } },
{ "type": "Feature", "properties": { "cls": "shared", "highway": "cycleway", "name": null }, "geometry": { "type": "LineString", "coordinates": [ [ -122.51077, 37.770327 ], [ -122.510775, 37.770359 ] ] } },
{ "type": "Feature", "properties": { "cls": "shared", "highway": "cycleway", "name": null }, "geometry": { "type": "LineString", "coordinates": [ [ -122.510775, 37.770359 ], [ -122.510782, 37.770443 ], [ -122.510788, 37.770523 ] ] } },
{ "type": "Feature", "properties": { "cls": "shared", "highway": "cycleway", "name": null }, "geometry": { "type": "LineString", "coordinates": [ [ -122.510788, 37.770523 ], [ -122.510777, 37.770555 ] ] } },
{ "type": "Feature", "properties": { "cls": "shared", "highway": "cycleway", "name": null }, "geometry": { "type": "LineString", "coordinates": [ [ -122.510777, 37.770555 ], [ -122.510748, 37.770824 ], [ -122.510734, 37.770925 ], [ -122.510772, 37.771015 ], [ -122.51081, 37.771142 ], [ -122.510827, 37.771242 ] ] } },
{ "type": "Feature", "properties": { "cls": "shared", "highway": "cycleway", "name": null }, "geometry": { "type": "LineString", "coordinates": [ [ -122.510827, 37.771242 ], [ -122.510829, 37.771251 ] ] } },
{ "type": "Feature", "properties": { "cls": "sharrow", "highway": "tertiary", "name": "Chain of Lakes Drive East" }, "geometry": { "type": "LineString", "coordinates": [ [ -122.50274, 37.771197 ], [ -122.502795, 37.771226 ], [ -122.502856, 37.771257 ], [ -122.502944, 37.771301 ], [ -122.50304, 37.771346 ], [ -122.503149, 37.771394 ], [ -122.503238, 37.771434 ], [ -122.503318, 37.771468 ], [ -122.503354, 37.771483 ], [ -122.503388, 37.771498 ], [ -122.503411, 37.77151 ] ] } },
{ "type": "Feature", "properties": { "cls": "sharrow", "highway": "tertiary", "name": "Chain of Lakes Drive East" }, "geometry": { "type": "LineString", "coordinates": [ [ -122.503411, 37.77151 ], [ -122.50343, 37.771521 ], [ -122.503447, 37.771535 ], [ -122.503462, 37.771551 ], [ -122.503472, 37.771567 ], [ -122.503478, 37.771586 ], [ -122.503481, 37.7716 ] ] } },
{ "type": "Feature", "properties": { "cls": "sharrow", "highway": "tertiary", "name": "36th Avenue" }, "geometry": { "type": "LineString", "coordinates": [ [ -122.49597, 37.771941 ], [ -122.495961, 37.771923 ], [ -122.495947, 37.771902 ], [ -122.495932, 37.771884 ], [ -122.49585, 37.771802 ], [ -122.495775, 37.771728 ], [ -122.495744, 37.771693 ], [ -122.495725, 37.771661 ], [ -122.495714, 37.77163 ], [ -122.495704, 37.771583 ], [ -122.495702, 37.771535 ], [ -122.495693, 37.77116 ], [ -122.495686, 37.770893 ], [ -122.495684, 37.770841 ], [ -122.495681, 37.770806 ], [ -122.495675, 37.770771 ], [ -122.495666, 37.770742 ], [ -122.495651, 37.770712 ], [ -122.495628, 37.770682 ], [ -122.495596, 37.770645 ], [ -122.495557, 37.770604 ], [ -122.495509, 37.770555 ], [ -122.495462, 37.770511 ] ] } },
{ "type": "Feature", "properties": { "cls": "painted", "highway": "service", "name": "Music Concourse Drive" }, "geometry": { "type": "LineString", "coordinates": [ [ -122.466067, 37.771149 ], [ -122.466141, 37.77131 ] ] } },
{ "type": "Feature", "properties": { "cls": "shared", "highway": "pedestrian", "name": "Nancy Pelosi Drive" }, "geometry": { "type": "LineString", "coordinates": [ [ -122.459176, 37.771316 ], [ -122.459184, 37.771284 ], [ -122.459195, 37.771251 ], [ -122.459203, 37.771226 ], [ -122.459222, 37.771178 ] ] } },
{ "type": "Feature", "properties": { "cls": "shared", "highway": "pedestrian", "name": "John F. Kennedy Promenade" }, "geometry": { "type": "LineString", "coordinates": [ [ -122.462049, 37.771778 ], [ -122.461924, 37.771755 ], [ -122.461739, 37.771725 ], [ -122.460832, 37.771577 ], [ -122.460635, 37.771546 ], [ -122.459953, 37.771441 ], [ -122.45982, 37.77142 ], [ -122.45934, 37.771341 ], [ -122.459176, 37.771316 ] ] } },
{ "type": "Feature", "properties": { "cls": "painted", "highway": "service", "name": "Music Concourse Drive" }, "geometry": { "type": "LineString", "coordinates": [ [ -122.466296, 37.771482 ], [ -122.466329, 37.771508 ], [ -122.466352, 37.771526 ], [ -122.466412, 37.771568 ], [ -122.46647, 37.771601 ], [ -122.466533, 37.771634 ], [ -122.466592, 37.771661 ], [ -122.466655, 37.771685 ], [ -122.466725, 37.771706 ], [ -122.466802, 37.771724 ], [ -122.466873, 37.771734 ], [ -122.46694, 37.771738 ], [ -122.467086, 37.771757 ] ] } },
{ "type": "Feature", "properties": { "cls": "shared", "highway": "pedestrian", "name": "John F. Kennedy Promenade" }, "geometry": { "type": "LineString", "coordinates": [ [ -122.463252, 37.772082 ], [ -122.463052, 37.772028 ], [ -122.462851, 37.771976 ], [ -122.462352, 37.771849 ], [ -122.462315, 37.771841 ], [ -122.462182, 37.771808 ], [ -122.462049, 37.771778 ] ] } },
{ "type": "Feature", "properties": { "cls": "sharrow", "highway": "service", "name": "Conservatory Drive West" }, "geometry": { "type": "LineString", "coordinates": [ [ -122.461079, 37.772659 ], [ -122.46112, 37.772597 ], [ -122.46116, 37.772536 ], [ -122.461213, 37.772463 ], [ -122.461263, 37.772403 ], [ -122.461317, 37.772347 ], [ -122.461389, 37.772286 ], [ -122.461471, 37.772227 ], [ -122.461566, 37.772171 ], [ -122.461663, 37.77212 ], [ -122.461832, 37.772039 ], [ -122.461891, 37.772004 ], [ -122.46198, 37.771916 ], [ -122.462006, 37.771872 ], [ -122.462028, 37.771832 ], [ -122.462049, 37.771778 ] ] } },
{ "type": "Feature", "properties": { "cls": "shared", "highway": "pedestrian", "name": "John F. Kennedy Promenade" }, "geometry": { "type": "LineString", "coordinates": [ [ -122.464917, 37.772512 ], [ -122.46479, 37.772488 ], [ -122.464656, 37.772461 ], [ -122.464525, 37.772432 ], [ -122.464455, 37.772414 ], [ -122.464398, 37.7724 ], [ -122.464271, 37.772366 ], [ -122.464073, 37.77231 ], [ -122.463912, 37.772265 ], [ -122.46349, 37.772148 ], [ -122.463252, 37.772082 ] ] } },
{ "type": "Feature", "properties": { "cls": "shared", "highway": "pedestrian", "name": "John F. Kennedy Promenade" }, "geometry": { "type": "LineString", "coordinates": [ [ -122.465268, 37.772572 ], [ -122.46523, 37.772566 ], [ -122.465046, 37.772535 ], [ -122.464917, 37.772512 ] ] } },
{ "type": "Feature", "properties": { "cls": "shared", "highway": "pedestrian", "name": "John F. Kennedy Promenade" }, "geometry": { "type": "LineString", "coordinates": [ [ -122.467437, 37.772548 ], [ -122.466803, 37.772564 ], [ -122.466763, 37.772565 ], [ -122.466579, 37.772571 ] ] } },
{ "type": "Feature", "properties": { "cls": "shared", "highway": "pedestrian", "name": "John F. Kennedy Promenade" }, "geometry": { "type": "LineString", "coordinates": [ [ -122.465268, 37.772572 ], [ -122.465735, 37.772524 ], [ -122.465758, 37.772524 ], [ -122.465787, 37.772526 ], [ -122.465908, 37.772561 ], [ -122.465988, 37.77264 ] ] } },
{ "type": "Feature", "properties": { "cls": "shared", "highway": "footway", "name": null }, "geometry": { "type": "LineString", "coordinates": [ [ -122.481251, 37.771523 ], [ -122.481197, 37.77156 ] ] } },
{ "type": "Feature", "properties": { "cls": "shared", "highway": "path", "name": null }, "geometry": { "type": "LineString", "coordinates": [ [ -122.481197, 37.77156 ], [ -122.481161, 37.771594 ], [ -122.481125, 37.771636 ], [ -122.481091, 37.771679 ], [ -122.481053, 37.771734 ] ] } },
{ "type": "Feature", "properties": { "cls": "shared", "highway": "pedestrian", "name": "John F. Kennedy Promenade" }, "geometry": { "type": "LineString", "coordinates": [ [ -122.470576, 37.771354 ], [ -122.470549, 37.771372 ], [ -122.470347, 37.77151 ], [ -122.469988, 37.771756 ], [ -122.469814, 37.771877 ] ] } },
{ "type": "Feature", "properties": { "cls": "shared", "highway": "cycleway", "name": null }, "geometry": { "type": "LineString", "coordinates": [ [ -122.474035, 37.77128 ], [ -122.473987, 37.771348 ], [ -122.473969, 37.771379 ], [ -122.473896, 37.771537 ], [ -122.473766, 37.771691 ], [ -122.473595, 37.77183 ], [ -122.473465, 37.771964 ], [ -122.473368, 37.772065 ], [ -122.473191, 37.77228 ] ] } },
{ "type": "Feature", "properties": { "cls": "shared", "highway": "footway", "name": null }, "geometry": { "type": "LineString", "coordinates": [ [ -122.481053, 37.771734 ], [ -122.481034, 37.771773 ], [ -122.480992, 37.771862 ], [ -122.480971, 37.771905 ] ] } },
{ "type": "Feature", "properties": { "cls": "shared", "highway": "footway", "name": null }, "geometry": { "type": "LineString", "coordinates": [ [ -122.480971, 37.771905 ], [ -122.48096, 37.77193 ] ] } },
{ "type": "Feature", "properties": { "cls": "shared", "highway": "pedestrian", "name": "John F. Kennedy Promenade" }, "geometry": { "type": "LineString", "coordinates": [ [ -122.469814, 37.771877 ], [ -122.469704, 37.771953 ], [ -122.469635, 37.772001 ], [ -122.469502, 37.772087 ], [ -122.469385, 37.772155 ], [ -122.469261, 37.772222 ], [ -122.469146, 37.772276 ], [ -122.469021, 37.772326 ], [ -122.468911, 37.772362 ], [ -122.468801, 37.772395 ], [ -122.468682, 37.772424 ], [ -122.468566, 37.772447 ], [ -122.468378, 37.77248 ], [ -122.468318, 37.772489 ], [ -122.468273, 37.772495 ], [ -122.468239, 37.772499 ], [ -122.468184, 37.772507 ], [ -122.468077, 37.772519 ], [ -122.467998, 37.772526 ], [ -122.46785, 37.772535 ], [ -122.467708, 37.772541 ], [ -122.467572, 37.772545 ], [ -122.467437, 37.772548 ] ] } },
{ "type": "Feature", "properties": { "cls": "shared", "highway": "footway", "name": null }, "geometry": { "type": "LineString", "coordinates": [ [ -122.48096, 37.77193 ], [ -122.480937, 37.771977 ], [ -122.480902, 37.772032 ], [ -122.480713, 37.77233 ], [ -122.480698, 37.772358 ], [ -122.480689, 37.772389 ], [ -122.480687, 37.772427 ], [ -122.480699, 37.77251 ], [ -122.480715, 37.772627 ], [ -122.480717, 37.77264 ] ] } },
{ "type": "Feature", "properties": { "cls": "shared", "highway": "footway", "name": null }, "geometry": { "type": "LineString", "coordinates": [ [ -122.468253, 37.772374 ], [ -122.46826, 37.772418 ] ] } },
{ "type": "Feature", "properties": { "cls": "separated", "highway": "cycleway", "name": null }, "geometry": { "type": "LineString", "coordinates": [ [ -122.473191, 37.77228 ], [ -122.473048, 37.772268 ], [ -122.47286, 37.772251 ], [ -122.472595, 37.772227 ], [ -122.472369, 37.772224 ], [ -122.472147, 37.772272 ], [ -122.472018, 37.772327 ], [ -122.471852, 37.772455 ], [ -122.471734, 37.772544 ], [ -122.471691, 37.772599 ], [ -122.47161, 37.772667 ], [ -122.471551, 37.772699 ] ] } },
{ "type": "Feature", "properties": { "cls": "shared", "highway": "pedestrian", "name": "John F. Kennedy Promenade" }, "geometry": { "type": "LineString", "coordinates": [ [ -122.466476, 37.77253 ], [ -122.466457, 37.772531 ], [ -122.465991, 37.772541 ], [ -122.465943, 37.772548 ], [ -122.465908, 37.772561 ], [ -122.465876, 37.772583 ], [ -122.465862, 37.772601 ], [ -122.465845, 37.772685 ] ] } },
{ "type": "Feature", "properties": { "cls": "shared", "highway": "pedestrian", "name": "John F. Kennedy Promenade" }, "geometry": { "type": "LineString", "coordinates": [ [ -122.466579, 37.772571 ], [ -122.466469, 37.772602 ], [ -122.465988, 37.77264 ], [ -122.465845, 37.772685 ] ] } },
{ "type": "Feature", "properties": { "cls": "shared", "highway": "pedestrian", "name": "John F. Kennedy Promenade" }, "geometry": { "type": "LineString", "coordinates": [ [ -122.465845, 37.772685 ], [ -122.465756, 37.772682 ], [ -122.465717, 37.772677 ], [ -122.465428, 37.772638 ], [ -122.465268, 37.772572 ] ] } },
{ "type": "Feature", "properties": { "cls": "sharrow", "highway": "service", "name": "Conservatory Drive West" }, "geometry": { "type": "LineString", "coordinates": [ [ -122.460963, 37.772805 ], [ -122.461001, 37.772768 ], [ -122.461038, 37.772721 ], [ -122.461079, 37.772659 ] ] } },
{ "type": "Feature", "properties": { "cls": "shared", "highway": "pedestrian", "name": "8th Avenue" }, "geometry": { "type": "LineString", "coordinates": [ [ -122.465865, 37.772953 ], [ -122.465858, 37.772815 ], [ -122.465855, 37.772789 ], [ -122.465845, 37.772685 ] ] } },
{ "type": "Feature", "properties": { "cls": "separated", "highway": "cycleway", "name": null }, "geometry": { "type": "LineString", "coordinates": [ [ -122.467998, 37.772526 ], [ -122.468015, 37.772601 ], [ -122.468023, 37.772648 ], [ -122.46804, 37.772802 ], [ -122.468045, 37.773052 ], [ -122.468022, 37.773158 ], [ -122.468033, 37.773218 ] ] } },
{ "type": "Feature", "properties": { "cls": "sharrow", "highway": "service", "name": "Conservatory Drive West" }, "geometry": { "type": "LineString", "coordinates": [ [ -122.459041, 37.773228 ], [ -122.459147, 37.773209 ], [ -122.459253, 37.773193 ], [ -122.459266, 37.773192 ], [ -122.459608, 37.773147 ], [ -122.459823, 37.773119 ], [ -122.460396, 37.773036 ], [ -122.460511, 37.773015 ], [ -122.460614, 37.772988 ], [ -122.460714, 37.772953 ], [ -122.460776, 37.772927 ], [ -122.460795, 37.772918 ], [ -122.460844, 37.77289 ], [ -122.460873, 37.772874 ], [ -122.460919, 37.772842 ], [ -122.460963, 37.772805 ] ] } },
{ "type": "Feature", "properties": { "cls": "shared", "highway": "pedestrian", "name": "8th Avenue" }, "geometry": { "type": "LineString", "coordinates": [ [ -122.465882, 37.773171 ], [ -122.465865, 37.772953 ] ] } },
{ "type": "Feature", "properties": { "cls": "shared", "highway": "pedestrian", "name": "8th Avenue" }, "geometry": { "type": "LineString", "coordinates": [ [ -122.465892, 37.773316 ], [ -122.465882, 37.773171 ] ] } },
{ "type": "Feature", "properties": { "cls": "painted", "highway": "service", "name": "Arguello Boulevard" }, "geometry": { "type": "LineString", "coordinates": [ [ -122.459013, 37.773298 ], [ -122.459031, 37.773261 ], [ -122.459041, 37.773228 ] ] } },
{ "type": "Feature", "properties": { "cls": "shared", "highway": "path", "name": "Phil Arnold Trail" }, "geometry": { "type": "LineString", "coordinates": [ [ -122.455326, 37.77277 ], [ -122.455337, 37.772647 ], [ -122.455401, 37.772562 ], [ -122.455478, 37.772499 ], [ -122.455512, 37.772204 ], [ -122.455573, 37.771995 ], [ -122.455616, 37.771922 ], [ -122.455707, 37.771843 ], [ -122.456301, 37.771468 ], [ -122.456347, 37.771442 ], [ -122.456363, 37.771397 ], [ -122.456338, 37.77134 ], [ -122.456343, 37.771277 ], [ -122.456367, 37.771238 ], [ -122.456436, 37.771196 ], [ -122.456538, 37.771174 ], [ -122.456669, 37.771174 ], [ -122.45672, 37.7712 ], [ -122.456837, 37.771276 ] ] } },
{ "type": "Feature", "properties": { "cls": "separated", "highway": "service", "name": "Conservatory Drive East" }, "geometry": { "type": "LineString", "coordinates": [ [ -122.456837, 37.771276 ], [ -122.456835, 37.771313 ], [ -122.45683, 37.771373 ], [ -122.456838, 37.771439 ], [ -122.456837, 37.77148 ], [ -122.456827, 37.771523 ], [ -122.456807, 37.771566 ], [ -122.456772, 37.771607 ], [ -122.456735, 37.771641 ], [ -122.456649, 37.771712 ], [ -122.455827, 37.77236 ], [ -122.455779, 37.772405 ], [ -122.455736, 37.772459 ], [ -122.455705, 37.772506 ], [ -122.455679, 37.772562 ], [ -122.455672, 37.772602 ], [ -122.455675, 37.772647 ], [ -122.455686, 37.772689 ], [ -122.455705, 37.772735 ], [ -122.455732, 37.772793 ], [ -122.455763, 37.772855 ], [ -122.455799, 37.772918 ], [ -122.455849, 37.772989 ], [ -122.4559, 37.773059 ], [ -122.455958, 37.773133 ], [ -122.456019, 37.773206 ], [ -122.456077, 37.773269 ], [ -122.456135, 37.773323 ], [ -122.456199, 37.773374 ], [ -122.456232, 37.773395 ], [ -122.45626, 37.773414 ], [ -122.456332, 37.773449 ], [ -122.456364, 37.773464 ], [ -122.456506, 37.773514 ], [ -122.456613, 37.773544 ], [ -122.456719, 37.77357 ], [ -122.456837, 37.773591 ], [ -122.45696, 37.773606 ], [ -122.457078, 37.773616 ], [ -122.457185, 37.773617 ], [ -122.457289, 37.773608 ], [ -122.457404, 37.773594 ], [ -122.457523, 37.773575 ], [ -122.457666, 37.77355 ], [ -122.457809, 37.773524 ], [ -122.457958, 37.773491 ], [ -122.458104, 37.773459 ], [ -122.458792, 37.773288 ], [ -122.458885, 37.773265 ], [ -122.458962, 37.773246 ], [ -122.459041, 37.773228 ] ] } },
{ "type": "Feature", "properties": { "cls": "shared", "highway": "path", "name": "Phil Arnold Trail" }, "geometry": { "type": "LineString", "coordinates": [ [ -122.455917, 37.773496 ], [ -122.455878, 37.773465 ], [ -122.455848, 37.773412 ], [ -122.455839, 37.77332 ], [ -122.455807, 37.773257 ], [ -122.455717, 37.773147 ], [ -122.455583, 37.77305 ], [ -122.455412, 37.772944 ], [ -122.455353, 37.772863 ], [ -122.455326, 37.77277 ] ] } },
{ "type": "Feature", "properties": { "cls": "shared", "highway": "path", "name": "Phil Arnold Trail" }, "geometry": { "type": "LineString", "coordinates": [ [ -122.456322, 37.773652 ], [ -122.456114, 37.773597 ], [ -122.456028, 37.773558 ], [ -122.455954, 37.773525 ], [ -122.455917, 37.773496 ] ] } },
{ "type": "Feature", "properties": { "cls": "shared", "highway": "path", "name": "Phil Arnold Trail" }, "geometry": { "type": "LineString", "coordinates": [ [ -122.458867, 37.773322 ], [ -122.458477, 37.773443 ], [ -122.458315, 37.773519 ], [ -122.458124, 37.773594 ], [ -122.457995, 37.773719 ], [ -122.457835, 37.773881 ], [ -122.457537, 37.77394 ], [ -122.457204, 37.77402 ], [ -122.457036, 37.774024 ], [ -122.456996, 37.774014 ], [ -122.456965, 37.77399 ], [ -122.456926, 37.773922 ], [ -122.456876, 37.773885 ], [ -122.456824, 37.773879 ], [ -122.456783, 37.773876 ], [ -122.456722, 37.773835 ], [ -122.456652, 37.773808 ], [ -122.456581, 37.773791 ], [ -122.456477, 37.773782 ], [ -122.456389, 37.773684 ], [ -122.456361, 37.773664 ], [ -122.456322, 37.773652 ] ] } },
{ "type": "Feature", "properties": { "cls": "shared", "highway": "footway", "name": null }, "geometry": { "type": "LineString", "coordinates": [ [ -122.46826, 37.772418 ], [ -122.468273, 37.772495 ], [ -122.468285, 37.772582 ] ] } },
{ "type": "Feature", "properties": { "cls": "shared", "highway": "footway", "name": null }, "geometry": { "type": "LineString", "coordinates": [ [ -122.468285, 37.772582 ], [ -122.468288, 37.772608 ] ] } },
{ "type": "Feature", "properties": { "cls": "separated", "highway": "cycleway", "name": null }, "geometry": { "type": "LineString", "coordinates": [ [ -122.471551, 37.772699 ], [ -122.471585, 37.772797 ], [ -122.47162, 37.772897 ], [ -122.471628, 37.773038 ] ] } },
{ "type": "Feature", "properties": { "cls": "painted", "highway": "service", "name": "Arguello Boulevard" }, "geometry": { "type": "LineString", "coordinates": [ [ -122.458377, 37.774195 ], [ -122.458377, 37.774174 ], [ -122.45838, 37.774118 ], [ -122.458389, 37.774069 ], [ -122.458405, 37.774019 ], [ -122.45843, 37.773964 ], [ -122.458465, 37.773902 ], [ -122.458509, 37.773842 ], [ -122.458556, 37.773789 ], [ -122.458692, 37.773643 ], [ -122.458801, 37.773532 ], [ -122.458888, 37.773442 ], [ -122.458975, 37.773349 ], [ -122.459013, 37.773298 ] ] } }
]
}
