{
"type": "FeatureCollection",
"name": "191-willoughby-hills-north-chagrin-reservation",
"crs": { "type": "name", "properties": { "name": "urn:ogc:def:crs:OGC:1.3:CRS84" } },
"xy_coordinate_resolution": 1e-06,
"features": [
{ "type": "Feature", "properties": { "cls": "shared", "highway": "cycleway", "name": "North Chagrin Reservation All Purpose Trail" }, "geometry": { "type": "LineString", "coordinates": [ [ -81.418479, 41.550699 ], [ -81.418452, 41.550644 ], [ -81.418398, 41.550541 ] ] } },
{ "type": "Feature", "properties": { "cls": "shared", "highway": "cycleway", "name": "North Chagrin Reservation All Purpose Trail" }, "geometry": { "type": "LineString", "coordinates": [ [ -81.41855, 41.550863 ], [ -81.418479, 41.550699 ] ] } },
{ "type": "Feature", "properties": { "cls": "shared", "highway": "cycleway", "name": "North Chagrin Reservation All Purpose Trail" }, "geometry": { "type": "LineString", "coordinates": [ [ -81.418586, 41.551306 ], [ -81.41859, 41.551127 ], [ -81.418585, 41.55102 ], [ -81.418574, 41.550952 ], [ -81.41855, 41.550863 ] ] } },
{ "type": "Feature", "properties": { "cls": "shared", "highway": "cycleway", "name": "North Chagrin Reservation All Purpose Trail" }, "geometry": { "type": "LineString", "coordinates": [ [ -81.423783, 41.551655 ], [ -81.423824, 41.551645 ], [ -81.423845, 41.55163 ], [ -81.423855, 41.55161 ], [ -81.423847, 41.551572 ], [ -81.42383, 41.551544 ], [ -81.42381, 41.55153 ], [ -81.423777, 41.55152 ], [ -81.423739, 41.551529 ], [ -81.42371, 41.551553 ], [ -81.423699, 41.551583 ], [ -81.42371, 41.551616 ], [ -81.423739, 41.551644 ], [ -81.423783, 41.551655 ] ] } },
{ "type": "Feature", "properties": { "cls": "shared", "highway": "cycleway", "name": "North Chagrin Reservation All Purpose Trail" }, "geometry": { "type": "LineString", "coordinates": [ [ -81.423783, 41.551655 ], [ -81.423764, 41.551735 ], [ -81.423609, 41.552038 ], [ -81.423525, 41.552154 ], [ -81.423466, 41.552218 ], [ -81.42339, 41.552271 ], [ -81.423291, 41.552305 ], [ -81.42319, 41.552313 ], [ -81.423072, 41.552301 ], [ -81.422798, 41.552248 ], [ -81.422636, 41.55223 ], [ -81.422402, 41.552216 ], [ -81.422235, 41.552227 ], [ -81.422133, 41.552241 ], [ -81.422053, 41.55227 ], [ -81.421925, 41.552324 ], [ -81.421821, 41.552393 ], [ -81.421723, 41.552452 ], [ -81.421593, 41.552503 ], [ -81.421511, 41.552518 ], [ -81.421412, 41.552525 ], [ -81.421319, 41.552539 ], [ -81.421259, 41.552571 ], [ -81.421213, 41.55261 ], [ -81.421192, 41.552661 ], [ -81.421189, 41.552744 ], [ -81.421177, 41.552865 ], [ -81.421145, 41.552962 ], [ -81.421076, 41.553049 ], [ -81.421009, 41.553101 ], [ -81.420918, 41.553157 ], [ -81.420857, 41.553202 ], [ -81.420802, 41.55326 ], [ -81.420772, 41.553329 ], [ -81.420765, 41.553403 ], [ -81.420741, 41.553502 ], [ -81.42069, 41.553614 ], [ -81.420616, 41.553718 ], [ -81.420521, 41.553802 ], [ -81.420426, 41.553876 ], [ -81.420335, 41.553929 ], [ -81.420206, 41.553959 ], [ -81.420073, 41.553965 ], [ -81.419953, 41.553947 ], [ -81.419839, 41.553912 ], [ -81.419726, 41.553853 ], [ -81.419654, 41.553805 ], [ -81.419523, 41.5537 ], [ -81.419298, 41.553433 ], [ -81.419127, 41.553176 ], [ -81.419003, 41.552935 ], [ -81.418826, 41.552483 ], [ -81.418662, 41.552066 ], [ -81.418609, 41.551899 ], [ -81.418585, 41.551662 ], [ -81.418581, 41.551357 ], [ -81.418586, 41.551306 ] ] } },
{ "type": "Feature", "properties": { "cls": "shared", "highway": "cycleway", "name": "North Chagrin Reservation All Purpose Trail" }, "geometry": { "type": "LineString", "coordinates": [ [ -81.429396, 41.559884 ], [ -81.42932, 41.559843 ], [ -81.429217, 41.559773 ], [ -81.429103, 41.559681 ], [ -81.429001, 41.559589 ], [ -81.428919, 41.559491 ], [ -81.428845, 41.559394 ], [ -81.428797, 41.559294 ], [ -81.428762, 41.559203 ], [ -81.428734, 41.55908 ], [ -81.428725, 41.558939 ], [ -81.428733, 41.558788 ], [ -81.428758, 41.558593 ], [ -81.428815, 41.558181 ], [ -81.428844, 41.557895 ], [ -81.428861, 41.55763 ], [ -81.428876, 41.557229 ], [ -81.428887, 41.556781 ], [ -81.428888, 41.556474 ], [ -81.42889, 41.556276 ], [ -81.428876, 41.556132 ], [ -81.428844, 41.556014 ], [ -81.428792, 41.55586 ], [ -81.428737, 41.555745 ], [ -81.428635, 41.555598 ], [ -81.42854, 41.555484 ], [ -81.428433, 41.555377 ], [ -81.428329, 41.555296 ], [ -81.428175, 41.555203 ], [ -81.428017, 41.555126 ], [ -81.42786, 41.555059 ], [ -81.427703, 41.555007 ], [ -81.427524, 41.554964 ], [ -81.427368, 41.554933 ], [ -81.427192, 41.554912 ], [ -81.427091, 41.554902 ], [ -81.426734, 41.554871 ], [ -81.426514, 41.554851 ], [ -81.426353, 41.554819 ], [ -81.426191, 41.554773 ], [ -81.426029, 41.554709 ], [ -81.425894, 41.554643 ], [ -81.425767, 41.554566 ], [ -81.425638, 41.554469 ], [ -81.425538, 41.554369 ], [ -81.425444, 41.554265 ], [ -81.425359, 41.554133 ], [ -81.425318, 41.554042 ], [ -81.42528, 41.553935 ], [ -81.425237, 41.553771 ], [ -81.425182, 41.553575 ], [ -81.425128, 41.553439 ], [ -81.425042, 41.553287 ], [ -81.424916, 41.553116 ], [ -81.42465, 41.552819 ], [ -81.424549, 41.552695 ], [ -81.424451, 41.552557 ], [ -81.42439, 41.552458 ], [ -81.424333, 41.55231 ], [ -81.42429, 41.552055 ], [ -81.424262, 41.551913 ], [ -81.424235, 41.551846 ], [ -81.424184, 41.55179 ], [ -81.424109, 41.55173 ], [ -81.423989, 41.551658 ], [ -81.423855, 41.55161 ] ] } },
{ "type": "Feature", "properties": { "cls": "shared", "highway": "cycleway", "name": "North Chagrin Reservation All Purpose Trail" }, "geometry": { "type": "LineString", "coordinates": [ [ -81.429866, 41.560056 ], [ -81.429749, 41.560026 ], [ -81.429657, 41.559988 ], [ -81.429582, 41.559958 ], [ -81.429509, 41.559931 ], [ -81.429396, 41.559884 ] ] } },
{ "type": "Feature", "properties": { "cls": "shared", "highway": "cycleway", "name": "North Chagrin Reservation All Purpose Trail" }, "geometry": { "type": "LineString", "coordinates": [ [ -81.432872, 41.562607 ], [ -81.432808, 41.562519 ], [ -81.43274, 41.56239 ], [ -81.432678, 41.562234 ], [ -81.432622, 41.56205 ], [ -81.432597, 41.561982 ], [ -81.432568, 41.561895 ], [ -81.432499, 41.561761 ], [ -81.432477, 41.561695 ], [ -81.432477, 41.561599 ], [ -81.432458, 41.561542 ], [ -81.432303, 41.561404 ], [ -81.432271, 41.561334 ], [ -81.432243, 41.561103 ], [ -81.432231, 41.561021 ], [ -81.432236, 41.560888 ], [ -81.432204, 41.560753 ], [ -81.432102, 41.560527 ], [ -81.431984, 41.560386 ], [ -81.431876, 41.56029 ], [ -81.431777, 41.560235 ], [ -81.431691, 41.560194 ], [ -81.431566, 41.560158 ], [ -81.431509, 41.560147 ], [ -81.431462, 41.560144 ], [ -81.431417, 41.560147 ], [ -81.431356, 41.560142 ], [ -81.431281, 41.560131 ], [ -81.431183, 41.560101 ], [ -81.431043, 41.560056 ], [ -81.430932, 41.560029 ], [ -81.430769, 41.560004 ], [ -81.43053, 41.559983 ], [ -81.430231, 41.559966 ], [ -81.430023, 41.559945 ], [ -81.429771, 41.559902 ], [ -81.429639, 41.559875 ], [ -81.429573, 41.55986 ], [ -81.429516, 41.559851 ], [ -81.42947, 41.559854 ], [ -81.429432, 41.559865 ], [ -81.429396, 41.559884 ] ] } },
{ "type": "Feature", "properties": { "cls": "shared", "highway": "cycleway", "name": null }, "geometry": { "type": "LineString", "coordinates": [ [ -81.432593, 41.56233 ], [ -81.432445, 41.562297 ] ] } },
{ "type": "Feature", "properties": { "cls": "shared", "highway": "cycleway", "name": "North Chagrin Reservation All Purpose Trail" }, "geometry": { "type": "LineString", "coordinates": [ [ -81.433062, 41.562861 ], [ -81.432981, 41.562753 ], [ -81.432872, 41.562607 ] ] } },
{ "type": "Feature", "properties": { "cls": "shared", "highway": "cycleway", "name": null }, "geometry": { "type": "LineString", "coordinates": [ [ -81.439189, 41.560565 ], [ -81.439336, 41.560566 ] ] } },
{ "type": "Feature", "properties": { "cls": "shared", "highway": "cycleway", "name": null }, "geometry": { "type": "LineString", "coordinates": [ [ -81.439297, 41.562686 ], [ -81.439198, 41.562684 ] ] } },
{ "type": "Feature", "properties": { "cls": "shared", "highway": "footway", "name": null }, "geometry": { "type": "LineString", "coordinates": [ [ -81.439312, 41.569779 ], [ -81.439173, 41.569777 ] ] } },
{ "type": "Feature", "properties": { "cls": "shared", "highway": "cycleway", "name": "S.O.M. Center Road Connector Trail" }, "geometry": { "type": "LineString", "coordinates": [ [ -81.439197, 41.559996 ], [ -81.4391, 41.559994 ], [ -81.438434, 41.559966 ], [ -81.437939, 41.559967 ], [ -81.437193, 41.559953 ], [ -81.436588, 41.55995 ], [ -81.435544, 41.559928 ], [ -81.43388, 41.55989 ], [ -81.433002, 41.559883 ], [ -81.432223, 41.55988 ], [ -81.431761, 41.55987 ], [ -81.4317, 41.55987 ], [ -81.43167, 41.55988 ], [ -81.43163, 41.559912 ], [ -81.431598, 41.559944 ], [ -81.431522, 41.560038 ], [ -81.431462, 41.560144 ] ] } },
{ "type": "Feature", "properties": { "cls": "shared", "highway": "cycleway", "name": null }, "geometry": { "type": "LineString", "coordinates": [ [ -81.439155, 41.560134 ], [ -81.439138, 41.56008 ], [ -81.439126, 41.560046 ], [ -81.439107, 41.560016 ], [ -81.4391, 41.559994 ] ] } },
{ "type": "Feature", "properties": { "cls": "shared", "highway": "cycleway", "name": null }, "geometry": { "type": "LineString", "coordinates": [ [ -81.439206, 41.560063 ], [ -81.439189, 41.560088 ], [ -81.439155, 41.560134 ], [ -81.439023, 41.56035 ], [ -81.438997, 41.560396 ], [ -81.438986, 41.560428 ], [ -81.438988, 41.560456 ], [ -81.439002, 41.56049 ], [ -81.439029, 41.560522 ], [ -81.439063, 41.560544 ], [ -81.439106, 41.560558 ], [ -81.439142, 41.560563 ], [ -81.439189, 41.560565 ] ] } },
{ "type": "Feature", "properties": { "cls": "shared", "highway": "cycleway", "name": "Sanctuary Marsh Loop Trail" }, "geometry": { "type": "LineString", "coordinates": [ [ -81.436208, 41.561932 ], [ -81.436246, 41.562211 ], [ -81.436238, 41.562309 ], [ -81.436157, 41.562403 ], [ -81.436126, 41.562467 ], [ -81.436163, 41.562558 ], [ -81.436208, 41.562662 ], [ -81.436211, 41.562718 ], [ -81.436209, 41.562794 ], [ -81.436227, 41.562811 ] ] } },
{ "type": "Feature", "properties": { "cls": "shared", "highway": "cycleway", "name": null }, "geometry": { "type": "LineString", "coordinates": [ [ -81.439173, 41.569777 ], [ -81.439149, 41.569295 ], [ -81.439136, 41.568756 ], [ -81.439145, 41.568634 ], [ -81.439145, 41.568538 ], [ -81.439124, 41.56841 ], [ -81.439124, 41.568233 ], [ -81.439138, 41.568154 ], [ -81.439143, 41.568023 ], [ -81.43913, 41.567839 ], [ -81.439129, 41.567707 ], [ -81.439125, 41.567566 ], [ -81.439112, 41.567462 ], [ -81.439082, 41.567335 ], [ -81.439077, 41.567111 ], [ -81.439083, 41.566916 ], [ -81.439095, 41.566833 ], [ -81.439127, 41.566735 ], [ -81.439144, 41.566645 ], [ -81.439141, 41.566574 ], [ -81.439129, 41.566443 ], [ -81.43914, 41.566315 ], [ -81.439151, 41.566254 ], [ -81.439162, 41.566183 ], [ -81.439157, 41.566106 ], [ -81.439143, 41.565995 ], [ -81.43912, 41.565925 ], [ -81.439075, 41.565851 ], [ -81.439038, 41.565775 ], [ -81.439015, 41.56568 ], [ -81.439015, 41.565615 ], [ -81.439029, 41.565545 ], [ -81.43906, 41.565464 ], [ -81.439092, 41.565372 ], [ -81.439107, 41.565313 ], [ -81.439107, 41.565255 ], [ -81.439095, 41.56518 ], [ -81.4391, 41.565126 ], [ -81.439134, 41.565025 ], [ -81.439154, 41.564866 ], [ -81.439161, 41.564581 ], [ -81.439173, 41.564317 ], [ -81.439168, 41.564141 ], [ -81.439188, 41.563918 ], [ -81.439172, 41.563845 ], [ -81.439141, 41.563741 ], [ -81.43912, 41.563638 ], [ -81.43911, 41.563475 ], [ -81.439093, 41.563389 ], [ -81.439058, 41.563297 ], [ -81.439051, 41.563261 ], [ -81.439061, 41.563231 ], [ -81.439132, 41.563094 ], [ -81.439166, 41.562995 ], [ -81.439193, 41.562868 ], [ -81.439202, 41.562766 ], [ -81.439198, 41.562684 ], [ -81.439197, 41.562643 ], [ -81.439194, 41.562575 ], [ -81.439207, 41.562482 ], [ -81.439213, 41.562385 ], [ -81.43921, 41.562282 ], [ -81.439204, 41.562172 ], [ -81.439222, 41.561991 ], [ -81.439234, 41.561877 ], [ -81.439226, 41.561747 ], [ -81.439225, 41.561411 ], [ -81.439236, 41.560828 ], [ -81.43925, 41.560259 ], [ -81.439226, 41.560143 ], [ -81.439206, 41.560063 ], [ -81.439196, 41.560029 ], [ -81.439197, 41.559996 ], [ -81.439229, 41.559919 ] ] } },
{ "type": "Feature", "properties": { "cls": "shared", "highway": "cycleway", "name": null }, "geometry": { "type": "LineString", "coordinates": [ [ -81.438938, 41.563188 ], [ -81.438942, 41.563264 ] ] } },
{ "type": "Feature", "properties": { "cls": "shared", "highway": "cycleway", "name": "Parkview Drive Connector Trail" }, "geometry": { "type": "LineString", "coordinates": [ [ -81.435898, 41.565166 ], [ -81.435939, 41.565072 ], [ -81.435986, 41.564972 ], [ -81.436042, 41.564871 ], [ -81.436116, 41.56475 ], [ -81.436208, 41.564631 ], [ -81.436291, 41.56456 ], [ -81.436414, 41.564474 ], [ -81.436565, 41.56438 ], [ -81.436741, 41.5643 ], [ -81.436913, 41.56424 ], [ -81.437211, 41.564164 ], [ -81.437466, 41.564095 ], [ -81.43753, 41.564078 ], [ -81.437659, 41.564027 ], [ -81.437737, 41.563973 ], [ -81.437802, 41.563904 ], [ -81.437852, 41.563817 ], [ -81.43799, 41.563618 ], [ -81.438055, 41.56353 ], [ -81.43813, 41.563456 ], [ -81.438204, 41.563398 ], [ -81.438277, 41.563354 ], [ -81.438335, 41.563325 ], [ -81.438414, 41.563298 ], [ -81.438498, 41.563283 ], [ -81.438667, 41.563273 ], [ -81.438942, 41.563264 ], [ -81.439051, 41.563261 ] ] } },
{ "type": "Feature", "properties": { "cls": "shared", "highway": "cycleway", "name": "North Chagrin Reservation All Purpose Trail" }, "geometry": { "type": "LineString", "coordinates": [ [ -81.435626, 41.565133 ], [ -81.435537, 41.565129 ] ] } },
{ "type": "Feature", "properties": { "cls": "shared", "highway": "cycleway", "name": "North Chagrin Reservation All Purpose Trail" }, "geometry": { "type": "LineString", "coordinates": [ [ -81.434486, 41.56911 ], [ -81.434697, 41.56881 ], [ -81.434733, 41.568786 ], [ -81.434805, 41.568753 ], [ -81.434927, 41.568722 ], [ -81.434989, 41.56869 ], [ -81.435099, 41.568548 ], [ -81.43513, 41.568471 ], [ -81.435166, 41.568381 ], [ -81.435208, 41.568317 ], [ -81.435279, 41.56823 ], [ -81.435413, 41.568122 ], [ -81.435606, 41.568015 ], [ -81.435738, 41.567923 ], [ -81.435862, 41.567819 ], [ -81.43607, 41.567594 ], [ -81.436137, 41.5675 ], [ -81.436181, 41.567369 ], [ -81.436191, 41.567248 ], [ -81.436185, 41.567072 ], [ -81.436164, 41.566807 ], [ -81.436147, 41.566586 ], [ -81.436149, 41.566399 ], [ -81.436173, 41.56594 ], [ -81.436173, 41.565793 ], [ -81.436156, 41.565672 ], [ -81.43614, 41.565544 ], [ -81.436117, 41.565434 ], [ -81.436066, 41.565333 ], [ -81.435974, 41.565223 ], [ -81.435898, 41.565166 ], [ -81.435799, 41.565146 ], [ -81.435626, 41.565133 ] ] } },
{ "type": "Feature", "properties": { "cls": "shared", "highway": "cycleway", "name": "North Chagrin Reservation All Purpose Trail" }, "geometry": { "type": "LineString", "coordinates": [ [ -81.438355, 41.580586 ], [ -81.435468, 41.580536 ], [ -81.433827, 41.580505 ], [ -81.43269, 41.580497 ], [ -81.432207, 41.580345 ], [ -81.431778, 41.579968 ], [ -81.431456, 41.579534 ], [ -81.431278, 41.579114 ], [ -81.431151, 41.578996 ], [ -81.431131, 41.578953 ], [ -81.431128, 41.578907 ] ] } },
{ "type": "Feature", "properties": { "cls": "shared", "highway": "cycleway", "name": "North Chagrin Reservation All Purpose Trail" }, "geometry": { "type": "LineString", "coordinates": [ [ -81.435537, 41.565129 ], [ -81.435387, 41.565126 ], [ -81.435219, 41.565129 ], [ -81.435048, 41.565148 ], [ -81.434987, 41.565148 ], [ -81.434891, 41.565129 ], [ -81.434776, 41.565096 ], [ -81.434649, 41.565042 ], [ -81.434553, 41.565006 ], [ -81.434466, 41.564995 ], [ -81.434381, 41.564984 ], [ -81.434321, 41.564961 ], [ -81.434208, 41.564878 ], [ -81.434076, 41.564765 ], [ -81.433992, 41.564692 ], [ -81.433863, 41.564547 ], [ -81.43373, 41.564346 ], [ -81.433651, 41.564222 ], [ -81.433582, 41.564093 ], [ -81.433532, 41.563962 ], [ -81.433457, 41.563723 ], [ -81.433409, 41.563542 ], [ -81.433341, 41.56332 ], [ -81.433288, 41.563208 ], [ -81.433219, 41.563096 ], [ -81.433131, 41.562973 ], [ -81.433076, 41.56289 ], [ -81.433062, 41.562861 ] ] } },
{ "type": "Feature", "properties": { "cls": "shared", "highway": "cycleway", "name": null }, "geometry": { "type": "LineString", "coordinates": [ [ -81.434477, 41.565201 ], [ -81.4345, 41.565176 ], [ -81.434527, 41.565147 ] ] } },
{ "type": "Feature", "properties": { "cls": "shared", "highway": "cycleway", "name": "North Chagrin Reservation All Purpose Trail" }, "geometry": { "type": "LineString", "coordinates": [ [ -81.434342, 41.569282 ], [ -81.434411, 41.569199 ], [ -81.434486, 41.56911 ] ] } },
{ "type": "Feature", "properties": { "cls": "shared", "highway": "cycleway", "name": "North Chagrin Reservation All Purpose Trail" }, "geometry": { "type": "LineString", "coordinates": [ [ -81.431513, 41.578286 ], [ -81.431567, 41.57831 ], [ -81.431662, 41.578224 ], [ -81.431788, 41.577985 ], [ -81.431962, 41.577729 ], [ -81.432032, 41.577644 ], [ -81.432094, 41.577612 ], [ -81.43217, 41.577608 ], [ -81.432236, 41.577623 ], [ -81.432448, 41.577712 ], [ -81.432515, 41.577738 ], [ -81.432602, 41.577749 ], [ -81.4327, 41.577743 ], [ -81.432829, 41.577722 ], [ -81.433633, 41.577694 ], [ -81.433963, 41.577715 ], [ -81.434073, 41.577722 ], [ -81.434191, 41.577761 ], [ -81.434325, 41.577771 ], [ -81.434451, 41.577748 ], [ -81.434555, 41.577691 ], [ -81.434764, 41.577565 ], [ -81.434824, 41.577494 ], [ -81.435039, 41.576956 ], [ -81.435092, 41.576845 ], [ -81.435052, 41.576607 ], [ -81.435015, 41.57649 ], [ -81.435009, 41.576258 ], [ -81.434948, 41.575868 ], [ -81.43506, 41.575654 ], [ -81.435119, 41.575443 ], [ -81.435127, 41.575228 ], [ -81.4351, 41.575116 ], [ -81.4351, 41.575019 ], [ -81.435151, 41.574941 ], [ -81.435422, 41.574731 ], [ -81.435511, 41.574642 ], [ -81.435544, 41.574555 ], [ -81.435487, 41.574289 ], [ -81.435463, 41.574167 ], [ -81.435452, 41.573974 ], [ -81.435436, 41.57387 ], [ -81.435347, 41.573747 ], [ -81.435349, 41.573604 ], [ -81.435335, 41.573556 ], [ -81.435282, 41.573446 ], [ -81.435055, 41.573158 ], [ -81.434868, 41.572912 ], [ -81.434813, 41.572842 ], [ -81.434764, 41.572822 ], [ -81.434726, 41.572816 ], [ -81.434557, 41.5728 ], [ -81.434313, 41.572778 ], [ -81.433723, 41.572779 ], [ -81.433684, 41.572774 ], [ -81.43364, 41.572755 ], [ -81.43362, 41.572727 ], [ -81.433625, 41.572683 ], [ -81.433653, 41.572511 ], [ -81.433666, 41.572266 ], [ -81.433664, 41.571835 ], [ -81.433671, 41.571534 ], [ -81.433684, 41.571442 ], [ -81.433704, 41.571321 ], [ -81.433698, 41.571191 ], [ -81.43369, 41.570846 ], [ -81.433702, 41.570475 ], [ -81.433714, 41.570338 ], [ -81.433746, 41.570264 ], [ -81.433847, 41.570172 ], [ -81.43392, 41.570095 ], [ -81.433994, 41.569967 ], [ -81.434028, 41.569875 ], [ -81.434058, 41.569765 ], [ -81.434061, 41.569688 ], [ -81.434066, 41.569613 ], [ -81.434077, 41.569561 ], [ -81.434342, 41.569282 ] ] } },
{ "type": "Feature", "properties": { "cls": "shared", "highway": "cycleway", "name": "North Chagrin Reservation All Purpose Trail" }, "geometry": { "type": "LineString", "coordinates": [ [ -81.431408, 41.578238 ], [ -81.431463, 41.578264 ], [ -81.431513, 41.578286 ] ] } },
{ "type": "Feature", "properties": { "cls": "shared", "highway": "cycleway", "name": "North Chagrin Reservation All Purpose Trail" }, "geometry": { "type": "LineString", "coordinates": [ [ -81.431128, 41.578907 ], [ -81.431133, 41.578782 ], [ -81.431158, 41.578708 ], [ -81.431194, 41.578684 ], [ -81.43129, 41.57868 ], [ -81.431358, 41.578675 ], [ -81.431378, 41.578656 ], [ -81.431427, 41.578506 ], [ -81.431496, 41.5784 ], [ -81.431567, 41.57831 ] ] } },
{ "type": "Feature", "properties": { "cls": "shared", "highway": "cycleway", "name": "North Chagrin Reservation All Purpose Trail" }, "geometry": { "type": "LineString", "coordinates": [ [ -81.42872, 41.583615 ], [ -81.428714, 41.583575 ], [ -81.428591, 41.58331 ], [ -81.428564, 41.58326 ], [ -81.428545, 41.583151 ], [ -81.42844, 41.582828 ], [ -81.428387, 41.582662 ], [ -81.428349, 41.582485 ], [ -81.428344, 41.582389 ], [ -81.428325, 41.582343 ], [ -81.428277, 41.582297 ], [ -81.428101, 41.582227 ], [ -81.428027, 41.582186 ], [ -81.42799, 41.582132 ], [ -81.42795, 41.582053 ], [ -81.42779, 41.581927 ], [ -81.427767, 41.581884 ], [ -81.427751, 41.581698 ], [ -81.427704, 41.581551 ], [ -81.427631, 41.581426 ], [ -81.427539, 41.581332 ], [ -81.427458, 41.581216 ], [ -81.427424, 41.581201 ], [ -81.427377, 41.581198 ], [ -81.427252, 41.581207 ], [ -81.427183, 41.581183 ], [ -81.426979, 41.58104 ], [ -81.426842, 41.580918 ], [ -81.426775, 41.580848 ], [ -81.426724, 41.580714 ], [ -81.426643, 41.580549 ], [ -81.426614, 41.580477 ], [ -81.426608, 41.580452 ], [ -81.426587, 41.580374 ], [ -81.426609, 41.580275 ], [ -81.426614, 41.580173 ], [ -81.426582, 41.579969 ], [ -81.426579, 41.579831 ], [ -81.426622, 41.579713 ], [ -81.426696, 41.579589 ], [ -81.426737, 41.579466 ], [ -81.426834, 41.579355 ], [ -81.42692, 41.579295 ], [ -81.427137, 41.579139 ], [ -81.427255, 41.57901 ], [ -81.427325, 41.578958 ], [ -81.427452, 41.578905 ], [ -81.427612, 41.578797 ], [ -81.427722, 41.5787 ], [ -81.427801, 41.578645 ], [ -81.427869, 41.578626 ], [ -81.427964, 41.578631 ], [ -81.428056, 41.578659 ], [ -81.428162, 41.578674 ], [ -81.428263, 41.578666 ], [ -81.428495, 41.578603 ], [ -81.428762, 41.578589 ], [ -81.428858, 41.578567 ], [ -81.428945, 41.578547 ], [ -81.4292, 41.57853 ], [ -81.4297, 41.57852 ], [ -81.430023, 41.578503 ], [ -81.430302, 41.57858 ], [ -81.430387, 41.578589 ], [ -81.430481, 41.578585 ], [ -81.430717, 41.578532 ], [ -81.43093, 41.57847 ], [ -81.431135, 41.578353 ], [ -81.431265, 41.578248 ], [ -81.431321, 41.578231 ], [ -81.431391, 41.57823 ], [ -81.431408, 41.578238 ] ] } },
{ "type": "Feature", "properties": { "cls": "separated", "highway": "cycleway", "name": "North Chagrin Reservation All Purpose Trail" }, "geometry": { "type": "LineString", "coordinates": [ [ -81.42873, 41.583686 ], [ -81.428724, 41.583642 ], [ -81.42872, 41.583615 ] ] } },
{ "type": "Feature", "properties": { "cls": "shared", "highway": "cycleway", "name": "North Chagrin Reservation All Purpose Trail" }, "geometry": { "type": "LineString", "coordinates": [ [ -81.429237, 41.588091 ], [ -81.42911, 41.588078 ], [ -81.429039, 41.588062 ], [ -81.428957, 41.588022 ], [ -81.428819, 41.587888 ], [ -81.428734, 41.587757 ], [ -81.428658, 41.587543 ], [ -81.428455, 41.587223 ], [ -81.428438, 41.587058 ], [ -81.428231, 41.586466 ], [ -81.428205, 41.586269 ], [ -81.42821, 41.586193 ], [ -81.428285, 41.585934 ], [ -81.42829, 41.58588 ], [ -81.428239, 41.585784 ], [ -81.428237, 41.585729 ], [ -81.42832, 41.585378 ], [ -81.428473, 41.585234 ], [ -81.428521, 41.585192 ], [ -81.428558, 41.585122 ], [ -81.428591, 41.584983 ], [ -81.428636, 41.584885 ], [ -81.428663, 41.584791 ], [ -81.428687, 41.584624 ], [ -81.428693, 41.584331 ], [ -81.428693, 41.584213 ], [ -81.428714, 41.58398 ], [ -81.428742, 41.583806 ], [ -81.428745, 41.583754 ], [ -81.42873, 41.583686 ] ] } }
]
}
