{
"type": "FeatureCollection",
"name": "192-perth-kings-park",
"crs": { "type": "name", "properties": { "name": "urn:ogc:def:crs:OGC:1.3:CRS84" } },
"xy_coordinate_resolution": 1e-06,
"features": [
{ "type": "Feature", "properties": { "cls": "shared", "highway": "cycleway", "name": null }, "geometry": { "type": "LineString", "coordinates": [ [ 115.839931, -31.958955 ], [ 115.839822, -31.959024 ], [ 115.839767, -31.959062 ], [ 115.839749, -31.95909 ], [ 115.839744, -31.959121 ], [ 115.839762, -31.959156 ], [ 115.839991, -31.95936 ], [ 115.840453, -31.959722 ], [ 115.840689, -31.959955 ], [ 115.84134, -31.960922 ] ] } },
{ "type": "Feature", "properties": { "cls": "separated", "highway": "cycleway", "name": null }, "geometry": { "type": "LineString", "coordinates": [ [ 115.840959, -31.959569 ], [ 115.840994, -31.959492 ] ] } },
{ "type": "Feature", "properties": { "cls": "shared", "highway": "cycleway", "name": "Zamia Path" }, "geometry": { "type": "LineString", "coordinates": [ [ 115.825896, -31.969349 ], [ 115.826244, -31.969462 ], [ 115.826541, -31.96962 ], [ 115.826782, -31.969869 ], [ 115.827027, -31.970231 ], [ 115.827482, -31.970745 ], [ 115.827597, -31.970851 ] ] } },
{ "type": "Feature", "properties": { "cls": "separated", "highway": "cycleway", "name": "Serventy Path" }, "geometry": { "type": "LineString", "coordinates": [ [ 115.825631, -31.969326 ], [ 115.825716, -31.969404 ], [ 115.825805, -31.969452 ] ] } },
{ "type": "Feature", "properties": { "cls": "shared", "highway": "cycleway", "name": "Zamia Path" }, "geometry": { "type": "LineString", "coordinates": [ [ 115.823142, -31.967996 ], [ 115.823316, -31.96808 ], [ 115.823447, -31.968145 ], [ 115.824306, -31.968724 ], [ 115.824516, -31.968807 ], [ 115.82485, -31.969034 ], [ 115.825099, -31.96915 ], [ 115.825404, -31.969295 ], [ 115.82553, -31.969333 ], [ 115.825631, -31.969326 ] ] } },
{ "type": "Feature", "properties": { "cls": "shared", "highway": "path", "name": "Zamia Path" }, "geometry": { "type": "LineString", "coordinates": [ [ 115.836963, -31.966502 ], [ 115.836854, -31.966473 ], [ 115.836798, -31.966488 ], [ 115.836745, -31.966564 ], [ 115.836693, -31.966675 ], [ 115.836563, -31.967231 ], [ 115.836451, -31.967402 ], [ 115.836273, -31.967537 ], [ 115.836212, -31.967637 ], [ 115.835999, -31.967748 ], [ 115.835865, -31.967875 ], [ 115.835224, -31.968178 ], [ 115.834902, -31.968246 ], [ 115.834239, -31.968408 ], [ 115.833786, -31.968486 ], [ 115.83341, -31.968565 ], [ 115.833117, -31.968665 ], [ 115.832762, -31.96876 ], [ 115.832311, -31.969085 ], [ 115.832192, -31.969211 ], [ 115.83171, -31.969521 ], [ 115.831311, -31.969897 ], [ 115.831166, -31.970037 ], [ 115.830566, -31.970771 ], [ 115.830391, -31.970852 ], [ 115.828973, -31.970923 ], [ 115.82826, -31.970891 ], [ 115.827974, -31.970879 ], [ 115.827597, -31.970851 ], [ 115.827061, -31.970775 ], [ 115.826996, -31.970804 ] ] } },
{ "type": "Feature", "properties": { "cls": "shared", "highway": "cycleway", "name": "Lovekin Drive Path" }, "geometry": { "type": "LineString", "coordinates": [ [ 115.825631, -31.969326 ], [ 115.825753, -31.969264 ], [ 115.825863, -31.969184 ], [ 115.825987, -31.969048 ], [ 115.826323, -31.968677 ], [ 115.826698, -31.968261 ], [ 115.826871, -31.968067 ], [ 115.826913, -31.96802 ], [ 115.827245, -31.967662 ], [ 115.827472, -31.96737 ], [ 115.827677, -31.967056 ], [ 115.827782, -31.966881 ], [ 115.827924, -31.966294 ], [ 115.827954, -31.966171 ], [ 115.828027, -31.965816 ], [ 115.828139, -31.965166 ], [ 115.828225, -31.964803 ], [ 115.828357, -31.964364 ], [ 115.828436, -31.964175 ], [ 115.82852, -31.964037 ], [ 115.828748, -31.963776 ], [ 115.82906, -31.963435 ], [ 115.829254, -31.963244 ], [ 115.829359, -31.96315 ], [ 115.829523, -31.963021 ], [ 115.829685, -31.962892 ], [ 115.829904, -31.962733 ], [ 115.830236, -31.962534 ], [ 115.830398, -31.962448 ], [ 115.830574, -31.96238 ], [ 115.830901, -31.962258 ], [ 115.830984, -31.962228 ], [ 115.831081, -31.962193 ], [ 115.831579, -31.962038 ], [ 115.832287, -31.961819 ], [ 115.83298, -31.9616 ], [ 115.833378, -31.96148 ], [ 115.833706, -31.961385 ], [ 115.833819, -31.961357 ], [ 115.833947, -31.961326 ], [ 115.834286, -31.961261 ], [ 115.83461, -31.961204 ], [ 115.834687, -31.961189 ], [ 115.834992, -31.961143 ], [ 115.83521, -31.961127 ], [ 115.835531, -31.961127 ], [ 115.835952, -31.961142 ], [ 115.836054, -31.961146 ], [ 115.836444, -31.961161 ], [ 115.8367, -31.961169 ], [ 115.836987, -31.961163 ], [ 115.837297, -31.961117 ], [ 115.837738, -31.961035 ], [ 115.838021, -31.960993 ], [ 115.838288, -31.960984 ], [ 115.838723, -31.960981 ], [ 115.838928, -31.960985 ], [ 115.839349, -31.960993 ], [ 115.839726, -31.961014 ], [ 115.83974, -31.96104 ], [ 115.839745, -31.961124 ], [ 115.839731, -31.961216 ] ] } },
{ "type": "Feature", "properties": { "cls": "shared", "highway": "cycleway", "name": "Goanna Path" }, "geometry": { "type": "LineString", "coordinates": [ [ 115.829458, -31.963242 ], [ 115.829359, -31.96315 ], [ 115.828608, -31.962447 ], [ 115.827757, -31.961701 ] ] } },
{ "type": "Feature", "properties": { "cls": "shared", "highway": "cycleway", "name": null }, "geometry": { "type": "LineString", "coordinates": [ [ 115.827064, -31.961008 ], [ 115.826739, -31.961249 ], [ 115.826383, -31.96146 ], [ 115.826193, -31.961549 ], [ 115.826075, -31.961606 ], [ 115.825942, -31.961653 ], [ 115.82574, -31.961725 ], [ 115.82564, -31.961733 ], [ 115.825142, -31.962526 ], [ 115.824991, -31.962615 ], [ 115.824679, -31.962623 ], [ 115.824161, -31.962287 ], [ 115.824076, -31.962042 ], [ 115.824038, -31.961931 ] ] } },
{ "type": "Feature", "properties": { "cls": "shared", "highway": "cycleway", "name": "Goanna Path" }, "geometry": { "type": "LineString", "coordinates": [ [ 115.827757, -31.961701 ], [ 115.827676, -31.961637 ], [ 115.827087, -31.961056 ], [ 115.827064, -31.961008 ], [ 115.827022, -31.960921 ] ] } },
{ "type": "Feature", "properties": { "cls": "shared", "highway": "cycleway", "name": "May Drive Path" }, "geometry": { "type": "LineString", "coordinates": [ [ 115.823352, -31.962139 ], [ 115.82342, -31.962116 ], [ 115.823452, -31.962105 ], [ 115.823948, -31.961959 ], [ 115.824038, -31.961931 ], [ 115.824115, -31.961906 ], [ 115.824186, -31.961843 ], [ 115.824262, -31.961777 ], [ 115.82433, -31.961712 ], [ 115.824412, -31.961686 ], [ 115.824355, -31.961168 ], [ 115.824287, -31.960865 ], [ 115.824213, -31.960536 ], [ 115.824103, -31.960082 ], [ 115.824033, -31.959747 ], [ 115.82399, -31.959555 ] ] } },
{ "type": "Feature", "properties": { "cls": "shared", "highway": "cycleway", "name": "Winthrop Avenue Shared Path" }, "geometry": { "type": "LineString", "coordinates": [ [ 115.818135, -31.973139 ], [ 115.818142, -31.973129 ], [ 115.818167, -31.973113 ], [ 115.818218, -31.973097 ], [ 115.818258, -31.973091 ], [ 115.818258, -31.973071 ] ] } },
{ "type": "Feature", "properties": { "cls": "shared", "highway": "cycleway", "name": "Western Path" }, "geometry": { "type": "LineString", "coordinates": [ [ 115.818201, -31.973681 ], [ 115.818358, -31.973312 ], [ 115.818423, -31.973081 ], [ 115.818437, -31.973031 ] ] } },
{ "type": "Feature", "properties": { "cls": "shared", "highway": "cycleway", "name": null }, "geometry": { "type": "LineString", "coordinates": [ [ 115.818258, -31.973071 ], [ 115.818258, -31.973033 ], [ 115.818256, -31.972984 ] ] } },
{ "type": "Feature", "properties": { "cls": "shared", "highway": "cycleway", "name": "Poole Avenue Path" }, "geometry": { "type": "LineString", "coordinates": [ [ 115.818487, -31.972801 ], [ 115.81866, -31.972804 ], [ 115.818877, -31.97274 ], [ 115.819059, -31.972681 ], [ 115.819196, -31.972595 ], [ 115.820041, -31.97198 ], [ 115.821025, -31.971284 ], [ 115.821283, -31.9711 ], [ 115.82146, -31.970975 ], [ 115.821618, -31.970831 ], [ 115.821742, -31.970702 ], [ 115.821873, -31.970556 ], [ 115.821991, -31.970386 ], [ 115.822031, -31.970235 ] ] } },
{ "type": "Feature", "properties": { "cls": "shared", "highway": "cycleway", "name": "Monash Path" }, "geometry": { "type": "LineString", "coordinates": [ [ 115.818348, -31.970737 ], [ 115.818116, -31.970694 ] ] } },
{ "type": "Feature", "properties": { "cls": "shared", "highway": "cycleway", "name": "Winthrop Avenue Shared Path" }, "geometry": { "type": "MultiLineString", "coordinates": [ [ [ 115.818256, -31.972984 ], [ 115.818209, -31.972981 ], [ 115.818172, -31.972966 ], [ 115.81814, -31.97294 ], [ 115.818133, -31.972928 ] ], [ [ 115.818088, -31.966956 ], [ 115.818106, -31.96689 ], [ 115.818099, -31.966732 ], [ 115.818086, -31.96668 ] ] ] } },
{ "type": "Feature", "properties": { "cls": "shared", "highway": "cycleway", "name": "Western Path" }, "geometry": { "type": "LineString", "coordinates": [ [ 115.818437, -31.973031 ], [ 115.818487, -31.972801 ], [ 115.818483, -31.972694 ], [ 115.818416, -31.972488 ], [ 115.818363, -31.97228 ], [ 115.818396, -31.971671 ], [ 115.818371, -31.971018 ], [ 115.818337, -31.970825 ], [ 115.818348, -31.970737 ], [ 115.818376, -31.969841 ], [ 115.818323, -31.969111 ], [ 115.818313, -31.968462 ], [ 115.818411, -31.967895 ], [ 115.818336, -31.967272 ], [ 115.81833, -31.967166 ], [ 115.818372, -31.966184 ], [ 115.818408, -31.965827 ], [ 115.818396, -31.965446 ], [ 115.818502, -31.965051 ], [ 115.81867, -31.964652 ], [ 115.81913, -31.96379 ], [ 115.819304, -31.963587 ], [ 115.819389, -31.963331 ], [ 115.819494, -31.963145 ], [ 115.820893, -31.961921 ], [ 115.82199, -31.960961 ], [ 115.823657, -31.959504 ], [ 115.82385, -31.959441 ], [ 115.82393, -31.959481 ], [ 115.82399, -31.959555 ], [ 115.824131, -31.959539 ] ] } },
{ "type": "Feature", "properties": { "cls": "shared", "highway": "cycleway", "name": "May Drive Path" }, "geometry": { "type": "LineString", "coordinates": [ [ 115.822031, -31.970235 ], [ 115.822034, -31.970092 ], [ 115.822018, -31.969894 ], [ 115.822029, -31.969684 ], [ 115.822053, -31.969557 ], [ 115.822122, -31.969382 ], [ 115.82223, -31.969211 ], [ 115.822447, -31.969029 ], [ 115.822611, -31.968908 ], [ 115.82278, -31.96877 ], [ 115.822932, -31.968569 ], [ 115.823056, -31.968367 ], [ 115.823112, -31.968165 ], [ 115.823142, -31.967996 ], [ 115.82315, -31.967871 ], [ 115.823107, -31.967652 ], [ 115.823032, -31.967432 ], [ 115.822922, -31.967238 ], [ 115.822734, -31.967018 ], [ 115.82256, -31.966864 ], [ 115.82244, -31.966791 ], [ 115.822315, -31.966725 ], [ 115.822125, -31.966638 ], [ 115.821931, -31.966553 ], [ 115.821549, -31.966414 ], [ 115.821052, -31.966196 ], [ 115.820917, -31.96611 ], [ 115.820765, -31.966004 ], [ 115.820647, -31.965914 ], [ 115.820578, -31.965843 ], [ 115.820528, -31.965791 ], [ 115.820465, -31.965695 ], [ 115.8204, -31.965534 ], [ 115.820371, -31.965449 ], [ 115.820363, -31.965387 ], [ 115.820369, -31.965286 ], [ 115.8204, -31.965089 ], [ 115.820487, -31.964817 ], [ 115.820608, -31.964554 ], [ 115.820852, -31.964124 ], [ 115.821029, -31.963869 ], [ 115.821147, -31.963728 ], [ 115.821375, -31.963485 ], [ 115.82161, -31.963215 ], [ 115.822075, -31.962806 ], [ 115.82238, -31.962579 ], [ 115.822686, -31.962397 ], [ 115.822899, -31.962296 ], [ 115.823087, -31.962222 ], [ 115.823223, -31.962184 ], [ 115.823275, -31.962166 ] ] } },
{ "type": "Feature", "properties": { "cls": "shared", "highway": "cycleway", "name": "Aberdare Path" }, "geometry": { "type": "LineString", "coordinates": [ [ 115.820369, -31.965286 ], [ 115.820146, -31.965217 ], [ 115.81989, -31.965205 ], [ 115.819698, -31.965149 ], [ 115.819444, -31.964945 ], [ 115.819113, -31.964852 ], [ 115.81867, -31.964652 ] ] } },
{ "type": "Feature", "properties": { "cls": "shared", "highway": "cycleway", "name": null }, "geometry": { "type": "LineString", "coordinates": [ [ 115.81867, -31.964652 ], [ 115.818497, -31.964582 ], [ 115.818472, -31.964583 ] ] } },
{ "type": "Feature", "properties": { "cls": "shared", "highway": "cycleway", "name": "May Drive Path" }, "geometry": { "type": "LineString", "coordinates": [ [ 115.823275, -31.962166 ], [ 115.823291, -31.96216 ], [ 115.823352, -31.962139 ] ] } },
{ "type": "Feature", "properties": { "cls": "shared", "highway": "cycleway", "name": null }, "geometry": { "type": "LineString", "coordinates": [ [ 115.823907, -31.959096 ], [ 115.823874, -31.959188 ], [ 115.823858, -31.959346 ], [ 115.82385, -31.959441 ] ] } },
{ "type": "Feature", "properties": { "cls": "shared", "highway": "cycleway", "name": "May Drive Path" }, "geometry": { "type": "LineString", "coordinates": [ [ 115.839931, -31.958955 ], [ 115.840118, -31.959131 ], [ 115.840473, -31.959405 ], [ 115.840565, -31.959398 ], [ 115.840691, -31.959349 ], [ 115.840831, -31.959355 ], [ 115.84096, -31.959408 ], [ 115.840976, -31.959483 ] ] } },
{ "type": "Feature", "properties": { "cls": "shared", "highway": "cycleway", "name": "Marri Walk" }, "geometry": { "type": "LineString", "coordinates": [ [ 115.838634, -31.956525 ], [ 115.838615, -31.956662 ], [ 115.838638, -31.956929 ], [ 115.838699, -31.957183 ], [ 115.83886, -31.957754 ] ] } },
{ "type": "Feature", "properties": { "cls": "shared", "highway": "cycleway", "name": "Marri Walk" }, "geometry": { "type": "LineString", "coordinates": [ [ 115.839032, -31.955433 ], [ 115.838957, -31.955619 ], [ 115.838705, -31.956226 ], [ 115.838634, -31.956525 ] ] } },
{ "type": "Feature", "properties": { "cls": "shared", "highway": "cycleway", "name": null }, "geometry": { "type": "LineString", "coordinates": [ [ 115.84269, -31.953785 ], [ 115.842759, -31.953884 ], [ 115.842965, -31.954004 ], [ 115.843269, -31.954291 ], [ 115.843458, -31.954599 ] ] } },
{ "type": "Feature", "properties": { "cls": "shared", "highway": "cycleway", "name": "Kings Park Road PSP" }, "geometry": { "type": "LineString", "coordinates": [ [ 115.84269, -31.953785 ], [ 115.842909, -31.953873 ], [ 115.843109, -31.953926 ], [ 115.843258, -31.95396 ], [ 115.843367, -31.953944 ], [ 115.843368, -31.953944 ] ] } },
{ "type": "Feature", "properties": { "cls": "shared", "highway": "cycleway", "name": "Boomerang Path" }, "geometry": { "type": "LineString", "coordinates": [ [ 115.827649, -31.95809 ], [ 115.827607, -31.958556 ], [ 115.827492, -31.958983 ], [ 115.82731, -31.959444 ], [ 115.827184, -31.959968 ], [ 115.82706, -31.960196 ], [ 115.82693, -31.960649 ], [ 115.826973, -31.960776 ], [ 115.827022, -31.960921 ] ] } },
{ "type": "Feature", "properties": { "cls": "shared", "highway": "cycleway", "name": "Western Path" }, "geometry": { "type": "LineString", "coordinates": [ [ 115.824131, -31.959539 ], [ 115.824264, -31.959515 ], [ 115.824499, -31.959581 ], [ 115.824854, -31.959636 ], [ 115.825523, -31.959618 ], [ 115.825782, -31.959552 ], [ 115.82612, -31.959358 ], [ 115.826653, -31.959067 ], [ 115.827122, -31.958703 ], [ 115.827454, -31.958423 ], [ 115.827649, -31.95809 ] ] } },
{ "type": "Feature", "properties": { "cls": "shared", "highway": "cycleway", "name": "May Drive Path" }, "geometry": { "type": "LineString", "coordinates": [ [ 115.825942, -31.961653 ], [ 115.825887, -31.961553 ], [ 115.825817, -31.961446 ], [ 115.825929, -31.961404 ], [ 115.826051, -31.961324 ], [ 115.826155, -31.961294 ], [ 115.826534, -31.961101 ], [ 115.826869, -31.960868 ], [ 115.826973, -31.960776 ], [ 115.827388, -31.96039 ], [ 115.827508, -31.960232 ], [ 115.827565, -31.960119 ], [ 115.827786, -31.959883 ], [ 115.828723, -31.958434 ], [ 115.829018, -31.958052 ], [ 115.829217, -31.957831 ], [ 115.829363, -31.957686 ], [ 115.829641, -31.957428 ], [ 115.830275, -31.957022 ], [ 115.830944, -31.956681 ], [ 115.831322, -31.956518 ], [ 115.831869, -31.956322 ], [ 115.832171, -31.956228 ], [ 115.832219, -31.956068 ], [ 115.832274, -31.955972 ], [ 115.832353, -31.955881 ], [ 115.832466, -31.955816 ], [ 115.832666, -31.955774 ], [ 115.83284, -31.955766 ], [ 115.833024, -31.95585 ], [ 115.833186, -31.955987 ], [ 115.833314, -31.956041 ], [ 115.833632, -31.956022 ], [ 115.834192, -31.956007 ], [ 115.834793, -31.95604 ], [ 115.835693, -31.95621 ], [ 115.836158, -31.956307 ], [ 115.836561, -31.956429 ], [ 115.83692, -31.956557 ], [ 115.837167, -31.956677 ], [ 115.837583, -31.956875 ], [ 115.83791, -31.957057 ], [ 115.838253, -31.957278 ], [ 115.838532, -31.957474 ], [ 115.83886, -31.957754 ], [ 115.83916, -31.958013 ], [ 115.839436, -31.958302 ], [ 115.839624, -31.958545 ], [ 115.839671, -31.958606 ], [ 115.839728, -31.95868 ], [ 115.839931, -31.958955 ] ] } },
{ "type": "Feature", "properties": { "cls": "shared", "highway": "cycleway", "name": null }, "geometry": { "type": "LineString", "coordinates": [ [ 115.827649, -31.95809 ], [ 115.827617, -31.957638 ], [ 115.827448, -31.956826 ], [ 115.827459, -31.956693 ], [ 115.827641, -31.956463 ] ] } },
{ "type": "Feature", "properties": { "cls": "shared", "highway": "cycleway", "name": "Boomerang Path" }, "geometry": { "type": "LineString", "coordinates": [ [ 115.827641, -31.956463 ], [ 115.827859, -31.956373 ], [ 115.828521, -31.956029 ], [ 115.828883, -31.955943 ], [ 115.82947, -31.955635 ], [ 115.830101, -31.955388 ], [ 115.830386, -31.955301 ], [ 115.830692, -31.955236 ], [ 115.831287, -31.955173 ], [ 115.831605, -31.955095 ], [ 115.831888, -31.95496 ], [ 115.832047, -31.954882 ], [ 115.83233, -31.954695 ], [ 115.832621, -31.954454 ], [ 115.832912, -31.954151 ], [ 115.833108, -31.95401 ], [ 115.833317, -31.953935 ], [ 115.833623, -31.953877 ], [ 115.834063, -31.953794 ], [ 115.834619, -31.95361 ], [ 115.834864, -31.953492 ], [ 115.835096, -31.953317 ], [ 115.835268, -31.953233 ], [ 115.835803, -31.953075 ] ] } },
{ "type": "Feature", "properties": { "cls": "shared", "highway": "cycleway", "name": "Speargrass Path" }, "geometry": { "type": "LineString", "coordinates": [ [ 115.827641, -31.956463 ], [ 115.827881, -31.956192 ], [ 115.82823, -31.955805 ], [ 115.828421, -31.955484 ], [ 115.829116, -31.954849 ], [ 115.82964, -31.954465 ], [ 115.831056, -31.953234 ], [ 115.831363, -31.952969 ], [ 115.832274, -31.952178 ], [ 115.832884, -31.951668 ], [ 115.833478, -31.9512 ] ] } },
{ "type": "Feature", "properties": { "cls": "shared", "highway": "cycleway", "name": "Prionotes Path" }, "geometry": { "type": "LineString", "coordinates": [ [ 115.833828, -31.951077 ], [ 115.833863, -31.951076 ], [ 115.833903, -31.951079 ], [ 115.833937, -31.951085 ], [ 115.834001, -31.951112 ], [ 115.83407, -31.951149 ], [ 115.834465, -31.951554 ], [ 115.835189, -31.952297 ], [ 115.835803, -31.953075 ], [ 115.835883, -31.953282 ], [ 115.835905, -31.953546 ], [ 115.835879, -31.953891 ], [ 115.835799, -31.954296 ], [ 115.835651, -31.955029 ], [ 115.835634, -31.955535 ], [ 115.835693, -31.95621 ], [ 115.835695, -31.956329 ] ] } },
{ "type": "Feature", "properties": { "cls": "separated", "highway": "cycleway", "name": "Kings Park Road PSP" }, "geometry": { "type": "LineString", "coordinates": [ [ 115.840074, -31.953079 ], [ 115.840035, -31.953041 ], [ 115.839979, -31.952996 ], [ 115.839868, -31.952947 ], [ 115.83974, -31.952928 ], [ 115.839579, -31.952877 ], [ 115.83935, -31.952773 ], [ 115.839224, -31.952718 ], [ 115.839126, -31.952677 ], [ 115.839077, -31.952639 ], [ 115.838986, -31.952601 ], [ 115.83885, -31.952513 ], [ 115.838591, -31.95242 ], [ 115.838449, -31.952394 ], [ 115.838286, -31.952387 ], [ 115.838083, -31.952408 ], [ 115.837978, -31.95241 ], [ 115.83787, -31.95242 ], [ 115.83775, -31.95239 ], [ 115.83764, -31.952296 ], [ 115.837433, -31.952202 ], [ 115.837211, -31.952089 ], [ 115.837128, -31.952049 ], [ 115.837004, -31.951983 ], [ 115.836849, -31.951949 ], [ 115.836766, -31.95194 ], [ 115.836577, -31.95184 ], [ 115.836427, -31.951788 ], [ 115.836258, -31.951713 ], [ 115.836105, -31.951694 ], [ 115.836002, -31.951656 ], [ 115.835833, -31.951628 ], [ 115.835735, -31.951578 ], [ 115.835613, -31.951562 ], [ 115.835443, -31.95149 ], [ 115.835296, -31.95148 ], [ 115.834957, -31.951331 ], [ 115.834733, -31.951264 ], [ 115.834569, -31.951209 ], [ 115.834477, -31.951099 ], [ 115.834467, -31.951036 ] ] } },
{ "type": "Feature", "properties": { "cls": "shared", "highway": "cycleway", "name": "Kings Park Road PSP" }, "geometry": { "type": "LineString", "coordinates": [ [ 115.840074, -31.953079 ], [ 115.840106, -31.953099 ], [ 115.840155, -31.953124 ], [ 115.841355, -31.953547 ], [ 115.841596, -31.953605 ], [ 115.841779, -31.953659 ], [ 115.841973, -31.953692 ], [ 115.84269, -31.953785 ] ] } },
{ "type": "Feature", "properties": { "cls": "shared", "highway": "cycleway", "name": null }, "geometry": { "type": "LineString", "coordinates": [ [ 115.835803, -31.953075 ], [ 115.836017, -31.953059 ], [ 115.836541, -31.953082 ], [ 115.836837, -31.953001 ], [ 115.837019, -31.952989 ], [ 115.837196, -31.952992 ], [ 115.83754, -31.953067 ], [ 115.837809, -31.953155 ], [ 115.837924, -31.953158 ], [ 115.837965, -31.953161 ], [ 115.838775, -31.953222 ], [ 115.838888, -31.95318 ], [ 115.839124, -31.953066 ], [ 115.839338, -31.953059 ], [ 115.839594, -31.95307 ], [ 115.840049, -31.953101 ], [ 115.840074, -31.953079 ] ] } },
{ "type": "Feature", "properties": { "cls": "shared", "highway": "cycleway", "name": null }, "geometry": { "type": "LineString", "coordinates": [ [ 115.840106, -31.953099 ], [ 115.840129, -31.953036 ], [ 115.840131, -31.952986 ], [ 115.840129, -31.952939 ], [ 115.840086, -31.952901 ], [ 115.840056, -31.952862 ] ] } },
{ "type": "Feature", "properties": { "cls": "shared", "highway": "cycleway", "name": "Speargrass Path" }, "geometry": { "type": "LineString", "coordinates": [ [ 115.833478, -31.9512 ], [ 115.833641, -31.951129 ], [ 115.833708, -31.951105 ], [ 115.833786, -31.951083 ], [ 115.833828, -31.951077 ] ] } },
{ "type": "Feature", "properties": { "cls": "shared", "highway": "cycleway", "name": "Speargrass Path" }, "geometry": { "type": "LineString", "coordinates": [ [ 115.833478, -31.9512 ], [ 115.833677, -31.950889 ] ] } },
{ "type": "Feature", "properties": { "cls": "shared", "highway": "cycleway", "name": "Prionotes Path" }, "geometry": { "type": "LineString", "coordinates": [ [ 115.833925, -31.950884 ], [ 115.83407, -31.951149 ] ] } }
]
}
