{
"type": "FeatureCollection",
"name": "193-vancouver-stanley-park",
"crs": { "type": "name", "properties": { "name": "urn:ogc:def:crs:OGC:1.3:CRS84" } },
"xy_coordinate_resolution": 1e-06,
"features": [
{ "type": "Feature", "properties": { "cls": "separated", "highway": "cycleway", "name": "Seawall" }, "geometry": { "type": "LineString", "coordinates": [ [ -123.135902, 49.295207 ], [ -123.135894, 49.295166 ] ] } },
{ "type": "Feature", "properties": { "cls": "separated", "highway": "cycleway", "name": null }, "geometry": { "type": "LineString", "coordinates": [ [ -123.136479, 49.295054 ], [ -123.136313, 49.295115 ], [ -123.136138, 49.295164 ], [ -123.135998, 49.295193 ], [ -123.135902, 49.295207 ] ] } },
{ "type": "Feature", "properties": { "cls": "separated", "highway": "cycleway", "name": null }, "geometry": { "type": "LineString", "coordinates": [ [ -123.135897, 49.295241 ], [ -123.135994, 49.29524 ], [ -123.136082, 49.295222 ], [ -123.13624, 49.295181 ], [ -123.136456, 49.295105 ], [ -123.136505, 49.295082 ], [ -123.136611, 49.295045 ] ] } },
{ "type": "Feature", "properties": { "cls": "separated", "highway": "cycleway", "name": "Stanley Park Seawall Bike Path" }, "geometry": { "type": "LineString", "coordinates": [ [ -123.135902, 49.295207 ], [ -123.1359, 49.295221 ], [ -123.135897, 49.295241 ] ] } },
{ "type": "Feature", "properties": { "cls": "shared", "highway": "cycleway", "name": null }, "geometry": { "type": "LineString", "coordinates": [ [ -123.136445, 49.295132 ], [ -123.136426, 49.295173 ], [ -123.136391, 49.295241 ], [ -123.136289, 49.295407 ], [ -123.136247, 49.295434 ] ] } },
{ "type": "Feature", "properties": { "cls": "painted", "highway": "trunk", "name": "Stanley Park Causeway" }, "geometry": { "type": "LineString", "coordinates": [ [ -123.136908, 49.294965 ], [ -123.136909, 49.294927 ], [ -123.136906, 49.294888 ], [ -123.136901, 49.29485 ], [ -123.136893, 49.294811 ], [ -123.136882, 49.29477 ], [ -123.136869, 49.294732 ], [ -123.136854, 49.294694 ], [ -123.136837, 49.294657 ], [ -123.136816, 49.294619 ], [ -123.136797, 49.29459 ] ] } },
{ "type": "Feature", "properties": { "cls": "separated", "highway": "cycleway", "name": null }, "geometry": { "type": "LineString", "coordinates": [ [ -123.136994, 49.294752 ], [ -123.13661, 49.294996 ] ] } },
{ "type": "Feature", "properties": { "cls": "painted", "highway": "trunk_link", "name": null }, "geometry": { "type": "LineString", "coordinates": [ [ -123.136615, 49.294714 ], [ -123.136622, 49.294728 ], [ -123.136636, 49.294758 ], [ -123.136648, 49.294791 ], [ -123.136659, 49.294826 ], [ -123.136666, 49.294859 ], [ -123.136671, 49.294891 ], [ -123.136674, 49.294932 ], [ -123.136674, 49.294967 ], [ -123.136672, 49.295005 ], [ -123.136667, 49.29504 ], [ -123.136659, 49.295075 ], [ -123.136649, 49.29511 ] ] } },
{ "type": "Feature", "properties": { "cls": "separated", "highway": "cycleway", "name": null }, "geometry": { "type": "LineString", "coordinates": [ [ -123.136611, 49.295045 ], [ -123.136801, 49.294931 ], [ -123.137022, 49.294794 ] ] } },
{ "type": "Feature", "properties": { "cls": "separated", "highway": "cycleway", "name": null }, "geometry": { "type": "LineString", "coordinates": [ [ -123.13661, 49.294996 ], [ -123.136479, 49.295054 ] ] } },
{ "type": "Feature", "properties": { "cls": "shared", "highway": "footway", "name": null }, "geometry": { "type": "LineString", "coordinates": [ [ -123.136479, 49.295054 ], [ -123.136456, 49.295105 ], [ -123.136445, 49.295132 ] ] } },
{ "type": "Feature", "properties": { "cls": "painted", "highway": "trunk", "name": "Stanley Park Causeway" }, "geometry": { "type": "LineString", "coordinates": [ [ -123.136475, 49.295873 ], [ -123.136802, 49.295317 ], [ -123.136823, 49.295278 ], [ -123.136843, 49.29524 ], [ -123.136861, 49.295202 ], [ -123.136875, 49.295163 ], [ -123.136885, 49.295125 ], [ -123.136895, 49.295087 ], [ -123.136902, 49.295046 ], [ -123.136907, 49.295006 ], [ -123.136908, 49.294965 ] ] } },
{ "type": "Feature", "properties": { "cls": "painted", "highway": "trunk_link", "name": null }, "geometry": { "type": "LineString", "coordinates": [ [ -123.136649, 49.29511 ], [ -123.136626, 49.295171 ], [ -123.136595, 49.295233 ], [ -123.136566, 49.295283 ], [ -123.136201, 49.295909 ] ] } },
{ "type": "Feature", "properties": { "cls": "shared", "highway": "cycleway", "name": null }, "geometry": { "type": "LineString", "coordinates": [ [ -123.135897, 49.295241 ], [ -123.135977, 49.295259 ], [ -123.136078, 49.295363 ], [ -123.13614, 49.29539 ], [ -123.136247, 49.295434 ] ] } },
{ "type": "Feature", "properties": { "cls": "shared", "highway": "cycleway", "name": null }, "geometry": { "type": "LineString", "coordinates": [ [ -123.13588, 49.296052 ], [ -123.13613, 49.295637 ], [ -123.136247, 49.295434 ] ] } },
{ "type": "Feature", "properties": { "cls": "painted", "highway": "trunk_link", "name": null }, "geometry": { "type": "LineString", "coordinates": [ [ -123.136201, 49.295909 ], [ -123.136151, 49.295997 ], [ -123.136123, 49.296053 ], [ -123.136098, 49.296113 ], [ -123.136083, 49.296165 ], [ -123.13607, 49.296218 ], [ -123.136061, 49.296274 ], [ -123.136055, 49.296326 ] ] } },
{ "type": "Feature", "properties": { "cls": "shared", "highway": "cycleway", "name": null }, "geometry": { "type": "LineString", "coordinates": [ [ -123.13588, 49.296052 ], [ -123.135928, 49.296138 ], [ -123.135953, 49.296244 ], [ -123.135967, 49.296407 ], [ -123.135973, 49.296434 ], [ -123.135988, 49.296461 ], [ -123.136014, 49.29646 ] ] } },
{ "type": "Feature", "properties": { "cls": "separated", "highway": "cycleway", "name": "NB Stanley Park Causeway Bike Route" }, "geometry": { "type": "LineString", "coordinates": [ [ -123.136055, 49.296326 ], [ -123.136069, 49.29634 ], [ -123.136083, 49.296362 ], [ -123.136082, 49.296402 ], [ -123.136089, 49.296414 ] ] } },
{ "type": "Feature", "properties": { "cls": "separated", "highway": "cycleway", "name": null }, "geometry": { "type": "LineString", "coordinates": [ [ -123.136378, 49.296415 ], [ -123.136456, 49.296327 ] ] } },
{ "type": "Feature", "properties": { "cls": "painted", "highway": "trunk_link", "name": null }, "geometry": { "type": "LineString", "coordinates": [ [ -123.136055, 49.296326 ], [ -123.136051, 49.296388 ], [ -123.136053, 49.296458 ] ] } },
{ "type": "Feature", "properties": { "cls": "shared", "highway": "cycleway", "name": null }, "geometry": { "type": "LineString", "coordinates": [ [ -123.136073, 49.296457 ], [ -123.136121, 49.296455 ] ] } },
{ "type": "Feature", "properties": { "cls": "shared", "highway": "cycleway", "name": null }, "geometry": { "type": "LineString", "coordinates": [ [ -123.136014, 49.29646 ], [ -123.136053, 49.296458 ], [ -123.136073, 49.296457 ] ] } },
{ "type": "Feature", "properties": { "cls": "shared", "highway": "cycleway", "name": null }, "geometry": { "type": "LineString", "coordinates": [ [ -123.135953, 49.296244 ], [ -123.135916, 49.296271 ], [ -123.135576, 49.296841 ], [ -123.135534, 49.296918 ], [ -123.135484, 49.296939 ], [ -123.135434, 49.296963 ] ] } },
{ "type": "Feature", "properties": { "cls": "painted", "highway": "trunk_link", "name": null }, "geometry": { "type": "LineString", "coordinates": [ [ -123.136456, 49.296327 ], [ -123.136438, 49.296254 ], [ -123.136433, 49.296184 ], [ -123.136437, 49.296104 ], [ -123.136475, 49.295873 ] ] } },
{ "type": "Feature", "properties": { "cls": "painted", "highway": "trunk", "name": "Stanley Park Causeway" }, "geometry": { "type": "LineString", "coordinates": [ [ -123.136673, 49.297062 ], [ -123.136646, 49.297023 ], [ -123.136622, 49.296985 ], [ -123.136599, 49.296948 ], [ -123.136577, 49.296912 ], [ -123.136557, 49.296875 ], [ -123.136537, 49.296839 ], [ -123.136518, 49.296801 ], [ -123.1365, 49.296765 ], [ -123.136482, 49.296727 ], [ -123.136464, 49.296687 ], [ -123.136449, 49.296649 ], [ -123.136435, 49.296609 ], [ -123.136422, 49.296571 ], [ -123.13641, 49.296533 ], [ -123.136398, 49.296495 ], [ -123.136387, 49.296455 ], [ -123.136378, 49.296415 ] ] } },
{ "type": "Feature", "properties": { "cls": "painted", "highway": "trunk", "name": "Stanley Park Causeway" }, "geometry": { "type": "LineString", "coordinates": [ [ -123.136949, 49.297382 ], [ -123.136873, 49.297304 ], [ -123.13681, 49.297235 ], [ -123.136751, 49.297164 ], [ -123.136697, 49.297095 ], [ -123.136673, 49.297062 ] ] } },
{ "type": "Feature", "properties": { "cls": "shared", "highway": "cycleway", "name": "NB Stanley Park Causeway Bike Route" }, "geometry": { "type": "LineString", "coordinates": [ [ -123.136497, 49.297115 ], [ -123.136559, 49.297182 ], [ -123.136616, 49.297256 ], [ -123.136675, 49.297325 ], [ -123.13674, 49.297395 ], [ -123.136791, 49.297448 ] ] } },
{ "type": "Feature", "properties": { "cls": "painted", "highway": "trunk", "name": "Stanley Park Causeway" }, "geometry": { "type": "LineString", "coordinates": [ [ -123.137287, 49.297725 ], [ -123.137216, 49.297635 ], [ -123.137187, 49.297605 ], [ -123.137157, 49.297574 ], [ -123.137078, 49.297506 ], [ -123.137004, 49.297437 ], [ -123.136949, 49.297382 ] ] } },
{ "type": "Feature", "properties": { "cls": "shared", "highway": "cycleway", "name": "South Creek Trail" }, "geometry": { "type": "LineString", "coordinates": [ [ -123.136451, 49.297459 ], [ -123.136487, 49.297502 ], [ -123.136485, 49.29763 ], [ -123.136492, 49.297765 ] ] } },
{ "type": "Feature", "properties": { "cls": "shared", "highway": "cycleway", "name": "SB Stanley Park Causeway Bike Route" }, "geometry": { "type": "LineString", "coordinates": [ [ -123.138008, 49.29805 ], [ -123.137957, 49.298012 ], [ -123.137513, 49.297625 ], [ -123.137333, 49.297484 ], [ -123.137178, 49.297336 ], [ -123.137087, 49.297253 ], [ -123.137041, 49.297224 ], [ -123.13699, 49.297209 ] ] } },
{ "type": "Feature", "properties": { "cls": "separated", "highway": "cycleway", "name": "NB Stanley Park Causeway Bike Route" }, "geometry": { "type": "LineString", "coordinates": [ [ -123.136791, 49.297448 ], [ -123.136815, 49.297474 ], [ -123.136838, 49.2975 ], [ -123.13686, 49.297528 ], [ -123.136894, 49.297574 ], [ -123.136917, 49.297603 ], [ -123.136946, 49.29763 ], [ -123.136976, 49.297654 ], [ -123.137126, 49.297764 ], [ -123.13724, 49.297816 ], [ -123.137407, 49.297907 ] ] } },
{ "type": "Feature", "properties": { "cls": "shared", "highway": "cycleway", "name": null }, "geometry": { "type": "LineString", "coordinates": [ [ -123.136492, 49.297765 ], [ -123.13662, 49.297834 ], [ -123.136724, 49.297875 ], [ -123.136833, 49.297906 ], [ -123.136954, 49.297931 ], [ -123.137056, 49.29795 ], [ -123.137098, 49.297953 ], [ -123.137143, 49.297952 ], [ -123.1372, 49.297944 ], [ -123.137276, 49.297929 ], [ -123.13733, 49.297925 ], [ -123.137386, 49.297927 ], [ -123.137502, 49.297958 ] ] } },
{ "type": "Feature", "properties": { "cls": "painted", "highway": "trunk", "name": "Stanley Park Causeway" }, "geometry": { "type": "LineString", "coordinates": [ [ -123.137287, 49.297725 ], [ -123.137328, 49.297754 ], [ -123.137369, 49.297781 ], [ -123.137414, 49.297809 ], [ -123.137458, 49.297836 ], [ -123.137505, 49.297864 ], [ -123.13755, 49.29789 ], [ -123.137594, 49.297915 ], [ -123.137642, 49.29794 ], [ -123.137698, 49.29797 ], [ -123.137757, 49.298 ], [ -123.137797, 49.298019 ], [ -123.13784, 49.298039 ] ] } },
{ "type": "Feature", "properties": { "cls": "separated", "highway": "cycleway", "name": "Stanley Park Seawall Bike Path" }, "geometry": { "type": "LineString", "coordinates": [ [ -123.135897, 49.295241 ], [ -123.135851, 49.295352 ], [ -123.135817, 49.295427 ], [ -123.135756, 49.29557 ], [ -123.135701, 49.295757 ], [ -123.135647, 49.295901 ], [ -123.135561, 49.296077 ], [ -123.135447, 49.296229 ], [ -123.135233, 49.296446 ], [ -123.135083, 49.296562 ], [ -123.134897, 49.296687 ], [ -123.134823, 49.296727 ], [ -123.134656, 49.296802 ], [ -123.134505, 49.296869 ], [ -123.134395, 49.296907 ], [ -123.134211, 49.296945 ], [ -123.13404, 49.296962 ], [ -123.133818, 49.296982 ], [ -123.133598, 49.297003 ], [ -123.13327, 49.297018 ], [ -123.13312, 49.297018 ], [ -123.132896, 49.296975 ], [ -123.13258, 49.296906 ], [ -123.132505, 49.296898 ], [ -123.132436, 49.296898 ], [ -123.132353, 49.296909 ], [ -123.132291, 49.296928 ], [ -123.132237, 49.29695 ], [ -123.132095, 49.297053 ], [ -123.131981, 49.297124 ], [ -123.131795, 49.297241 ], [ -123.131409, 49.297456 ], [ -123.131141, 49.297598 ], [ -123.131006, 49.297655 ], [ -123.130895, 49.297687 ], [ -123.130824, 49.297705 ], [ -123.130738, 49.297724 ], [ -123.130597, 49.297738 ], [ -123.130509, 49.297738 ], [ -123.130436, 49.29774 ], [ -123.130271, 49.297725 ], [ -123.130116, 49.297689 ], [ -123.12999, 49.297635 ], [ -123.129824, 49.297534 ], [ -123.129741, 49.297436 ], [ -123.129622, 49.297234 ], [ -123.129479, 49.297013 ], [ -123.129298, 49.296774 ], [ -123.129109, 49.296564 ], [ -123.128897, 49.296357 ], [ -123.128703, 49.29623 ], [ -123.128465, 49.296132 ], [ -123.128377, 49.296097 ], [ -123.128254, 49.296061 ], [ -123.128144, 49.296036 ], [ -123.128059, 49.296025 ], [ -123.127982, 49.296024 ], [ -123.127911, 49.296027 ], [ -123.127828, 49.296041 ], [ -123.127727, 49.29606 ], [ -123.127661, 49.29608 ], [ -123.12761, 49.296105 ], [ -123.127555, 49.296144 ], [ -123.127499, 49.2962 ], [ -123.127456, 49.296241 ], [ -123.12733, 49.296405 ], [ -123.127246, 49.296523 ], [ -123.126882, 49.297032 ], [ -123.12676, 49.297171 ], [ -123.126691, 49.297243 ], [ -123.126616, 49.297305 ], [ -123.126537, 49.297362 ], [ -123.126466, 49.29741 ], [ -123.126388, 49.297457 ], [ -123.126236, 49.297538 ], [ -123.126105, 49.297601 ], [ -123.126006, 49.297636 ], [ -123.125888, 49.297681 ], [ -123.125735, 49.297721 ], [ -123.125575, 49.297752 ], [ -123.125352, 49.297782 ], [ -123.125278, 49.297798 ], [ -123.125196, 49.297823 ], [ -123.124946, 49.297866 ], [ -123.124842, 49.297874 ], [ -123.124583, 49.297885 ], [ -123.12423, 49.297879 ], [ -123.124129, 49.297894 ], [ -123.124038, 49.297908 ], [ -123.12384, 49.297877 ], [ -123.123537, 49.297834 ], [ -123.123235, 49.297779 ], [ -123.122948, 49.297754 ], [ -123.122767, 49.297773 ], [ -123.122582, 49.297801 ], [ -123.122462, 49.297831 ], [ -123.122332, 49.297885 ], [ -123.122238, 49.297975 ], [ -123.122028, 49.298156 ], [ -123.121826, 49.298279 ], [ -123.121565, 49.2984 ], [ -123.121371, 49.298461 ], [ -123.121229, 49.298483 ], [ -123.120968, 49.298503 ], [ -123.120757, 49.298476 ], [ -123.120549, 49.298449 ], [ -123.119797, 49.298352 ], [ -123.119042, 49.29824 ], [ -123.118645, 49.298195 ], [ -123.11834, 49.29817 ], [ -123.118102, 49.298163 ], [ -123.118023, 49.298172 ], [ -123.117974, 49.298178 ], [ -123.117868, 49.29821 ], [ -123.11773, 49.298269 ], [ -123.117652, 49.298308 ], [ -123.117554, 49.298369 ], [ -123.117435, 49.298471 ], [ -123.117336, 49.29859 ], [ -123.117252, 49.298687 ], [ -123.117156, 49.298843 ], [ -123.117112, 49.299028 ], [ -123.117071, 49.29924 ], [ -123.117027, 49.299425 ], [ -123.116952, 49.299626 ], [ -123.116906, 49.299741 ] ] } },
{ "type": "Feature", "properties": { "cls": "separated", "highway": "cycleway", "name": null }, "geometry": { "type": "LineString", "coordinates": [ [ -123.117926, 49.298272 ], [ -123.11773, 49.298269 ] ] } },
{ "type": "Feature", "properties": { "cls": "separated", "highway": "cycleway", "name": null }, "geometry": { "type": "LineString", "coordinates": [ [ -123.116906, 49.299741 ], [ -123.116913, 49.299796 ] ] } },
{ "type": "Feature", "properties": { "cls": "separated", "highway": "cycleway", "name": null }, "geometry": { "type": "LineString", "coordinates": [ [ -123.116913, 49.299796 ], [ -123.116918, 49.299834 ], [ -123.116945, 49.299864 ], [ -123.117029, 49.299957 ] ] } },
{ "type": "Feature", "properties": { "cls": "separated", "highway": "cycleway", "name": null }, "geometry": { "type": "LineString", "coordinates": [ [ -123.117029, 49.299957 ], [ -123.117302, 49.300059 ], [ -123.117453, 49.300086 ], [ -123.117572, 49.300093 ], [ -123.117697, 49.300087 ], [ -123.117815, 49.30008 ] ] } },
{ "type": "Feature", "properties": { "cls": "separated", "highway": "cycleway", "name": null }, "geometry": { "type": "LineString", "coordinates": [ [ -123.11792, 49.300058 ], [ -123.117962, 49.300032 ] ] } },
{ "type": "Feature", "properties": { "cls": "separated", "highway": "cycleway", "name": null }, "geometry": { "type": "LineString", "coordinates": [ [ -123.117815, 49.30008 ], [ -123.117864, 49.300078 ], [ -123.11792, 49.300058 ] ] } },
{ "type": "Feature", "properties": { "cls": "separated", "highway": "cycleway", "name": "Stanley Park Seawall Bike Path" }, "geometry": { "type": "LineString", "coordinates": [ [ -123.116906, 49.299741 ], [ -123.116859, 49.299859 ], [ -123.116744, 49.300154 ], [ -123.116742, 49.30017 ], [ -123.116719, 49.300304 ], [ -123.116733, 49.30046 ], [ -123.116772, 49.300551 ], [ -123.116844, 49.300634 ], [ -123.116914, 49.30069 ], [ -123.116964, 49.300713 ], [ -123.117007, 49.300721 ], [ -123.117066, 49.30073 ], [ -123.117176, 49.300745 ], [ -123.117201, 49.30074 ], [ -123.1174, 49.300679 ], [ -123.117513, 49.3006 ], [ -123.117627, 49.300491 ], [ -123.117737, 49.300349 ], [ -123.117865, 49.30016 ], [ -123.117962, 49.300032 ] ] } },
{ "type": "Feature", "properties": { "cls": "separated", "highway": "cycleway", "name": "Stanley Park Seawall Bike Path" }, "geometry": { "type": "LineString", "coordinates": [ [ -123.117962, 49.300032 ], [ -123.118081, 49.299923 ], [ -123.118218, 49.299838 ], [ -123.118487, 49.299702 ], [ -123.118842, 49.299565 ], [ -123.118947, 49.299541 ], [ -123.119153, 49.299522 ], [ -123.119282, 49.299511 ], [ -123.119406, 49.299515 ], [ -123.119636, 49.299521 ], [ -123.120173, 49.299605 ], [ -123.120784, 49.299699 ], [ -123.120916, 49.29972 ], [ -123.120957, 49.299728 ], [ -123.120974, 49.29973 ], [ -123.121299, 49.299784 ], [ -123.121832, 49.299945 ], [ -123.122224, 49.300111 ], [ -123.124159, 49.30084 ], [ -123.124803, 49.301159 ], [ -123.125178, 49.301459 ], [ -123.125479, 49.301707 ], [ -123.126171, 49.302309 ], [ -123.126355, 49.302425 ], [ -123.126498, 49.302481 ], [ -123.126526, 49.302492 ], [ -123.126726, 49.302527 ], [ -123.126896, 49.302541 ], [ -123.12699, 49.302512 ], [ -123.127185, 49.302487 ], [ -123.127662, 49.302444 ], [ -123.128019, 49.30245 ], [ -123.128476, 49.30251 ], [ -123.129001, 49.302598 ], [ -123.129482, 49.302681 ], [ -123.129608, 49.302722 ], [ -123.130407, 49.302966 ] ] } },
{ "type": "Feature", "properties": { "cls": "separated", "highway": "cycleway", "name": null }, "geometry": { "type": "LineString", "coordinates": [ [ -123.129482, 49.302681 ], [ -123.129623, 49.302662 ] ] } },
{ "type": "Feature", "properties": { "cls": "shared", "highway": "cycleway", "name": null }, "geometry": { "type": "LineString", "coordinates": [ [ -123.143989, 49.291449 ], [ -123.143998, 49.291455 ], [ -123.144058, 49.291513 ], [ -123.144154, 49.291606 ], [ -123.144339, 49.291716 ], [ -123.144521, 49.291828 ], [ -123.144625, 49.291855 ], [ -123.144643, 49.291861 ] ] } },
{ "type": "Feature", "properties": { "cls": "separated", "highway": "cycleway", "name": "Stanley Park Drive" }, "geometry": { "type": "LineString", "coordinates": [ [ -123.147322, 49.290989 ], [ -123.147251, 49.29095 ], [ -123.147249, 49.290949 ], [ -123.14715, 49.290893 ], [ -123.147097, 49.290866 ] ] } },
{ "type": "Feature", "properties": { "cls": "separated", "highway": "cycleway", "name": null }, "geometry": { "type": "LineString", "coordinates": [ [ -123.147405, 49.291002 ], [ -123.147364, 49.290996 ], [ -123.147322, 49.290989 ] ] } },
{ "type": "Feature", "properties": { "cls": "separated", "highway": "cycleway", "name": null }, "geometry": { "type": "LineString", "coordinates": [ [ -123.147322, 49.290989 ], [ -123.147443, 49.291067 ], [ -123.147852, 49.291388 ], [ -123.14813, 49.291618 ], [ -123.148196, 49.291702 ], [ -123.148241, 49.291781 ], [ -123.148263, 49.291831 ], [ -123.148275, 49.291919 ], [ -123.148278, 49.292003 ], [ -123.148281, 49.292103 ], [ -123.148263, 49.292224 ], [ -123.148251, 49.292274 ], [ -123.148229, 49.292364 ], [ -123.148194, 49.292464 ], [ -123.148123, 49.292648 ], [ -123.148071, 49.292797 ], [ -123.148042, 49.292917 ], [ -123.148037, 49.292944 ], [ -123.14803, 49.292986 ], [ -123.148019, 49.29314 ], [ -123.148007, 49.293264 ], [ -123.148008, 49.293418 ], [ -123.148011, 49.293487 ] ] } },
{ "type": "Feature", "properties": { "cls": "separated", "highway": "cycleway", "name": "Stanley Park Seawall Bike Path" }, "geometry": { "type": "LineString", "coordinates": [ [ -123.149687, 49.293767 ], [ -123.149699, 49.293731 ], [ -123.149701, 49.293696 ], [ -123.149711, 49.293629 ], [ -123.149725, 49.29349 ], [ -123.149739, 49.293241 ], [ -123.149738, 49.293189 ], [ -123.149724, 49.293138 ], [ -123.149631, 49.29295 ], [ -123.149549, 49.292833 ], [ -123.149449, 49.292717 ], [ -123.149103, 49.292403 ], [ -123.14875, 49.292089 ], [ -123.148374, 49.291781 ], [ -123.148081, 49.291535 ], [ -123.147984, 49.291458 ], [ -123.147424, 49.291016 ], [ -123.147405, 49.291002 ] ] } },
{ "type": "Feature", "properties": { "cls": "separated", "highway": "cycleway", "name": null }, "geometry": { "type": "LineString", "coordinates": [ [ -123.147956, 49.293559 ], [ -123.148011, 49.293487 ] ] } },
{ "type": "Feature", "properties": { "cls": "separated", "highway": "cycleway", "name": null }, "geometry": { "type": "LineString", "coordinates": [ [ -123.148011, 49.293487 ], [ -123.148032, 49.293558 ], [ -123.148017, 49.29381 ], [ -123.148036, 49.293942 ], [ -123.148045, 49.294002 ], [ -123.148062, 49.294062 ], [ -123.148084, 49.294134 ], [ -123.148118, 49.294207 ], [ -123.148172, 49.294317 ] ] } },
{ "type": "Feature", "properties": { "cls": "shared", "highway": "cycleway", "name": null }, "geometry": { "type": "LineString", "coordinates": [ [ -123.148032, 49.293558 ], [ -123.148072, 49.293642 ], [ -123.148089, 49.293694 ], [ -123.148106, 49.293731 ], [ -123.148119, 49.293789 ], [ -123.148131, 49.2939 ], [ -123.148131, 49.293948 ], [ -123.148144, 49.293989 ], [ -123.148217, 49.294097 ], [ -123.148278, 49.294181 ], [ -123.148286, 49.29421 ], [ -123.148294, 49.294273 ] ] } },
{ "type": "Feature", "properties": { "cls": "sharrow", "highway": "tertiary", "name": "Stanley Park Drive" }, "geometry": { "type": "LineString", "coordinates": [ [ -123.147956, 49.293559 ], [ -123.147949, 49.293864 ], [ -123.147964, 49.29398 ], [ -123.147994, 49.294097 ], [ -123.148115, 49.29436 ] ] } },
{ "type": "Feature", "properties": { "cls": "separated", "highway": "cycleway", "name": "Chilco Street" }, "geometry": { "type": "LineString", "coordinates": [ [ -123.138362, 49.293427 ], [ -123.13833, 49.293448 ], [ -123.13831, 49.293462 ] ] } },
{ "type": "Feature", "properties": { "cls": "separated", "highway": "cycleway", "name": null }, "geometry": { "type": "LineString", "coordinates": [ [ -123.137185, 49.294099 ], [ -123.137211, 49.29409 ] ] } },
{ "type": "Feature", "properties": { "cls": "separated", "highway": "cycleway", "name": null }, "geometry": { "type": "LineString", "coordinates": [ [ -123.138502, 49.29409 ], [ -123.138434, 49.294111 ], [ -123.13839, 49.294127 ], [ -123.138334, 49.294175 ], [ -123.138287, 49.294197 ], [ -123.138205, 49.294217 ], [ -123.138062, 49.29425 ], [ -123.137843, 49.294304 ], [ -123.137803, 49.294311 ], [ -123.137645, 49.294332 ], [ -123.137596, 49.294325 ], [ -123.137545, 49.294305 ], [ -123.137499, 49.294271 ] ] } },
{ "type": "Feature", "properties": { "cls": "separated", "highway": "cycleway", "name": "Chilco Bike Route" }, "geometry": { "type": "LineString", "coordinates": [ [ -123.136785, 49.294362 ], [ -123.136944, 49.294257 ], [ -123.137185, 49.294099 ] ] } },
{ "type": "Feature", "properties": { "cls": "separated", "highway": "cycleway", "name": "Chilco Bike Route" }, "geometry": { "type": "LineString", "coordinates": [ [ -123.136742, 49.294418 ], [ -123.136746, 49.294402 ], [ -123.136785, 49.294362 ] ] } },
{ "type": "Feature", "properties": { "cls": "separated", "highway": "cycleway", "name": null }, "geometry": { "type": "LineString", "coordinates": [ [ -123.137499, 49.294271 ], [ -123.137458, 49.294247 ], [ -123.137417, 49.294246 ], [ -123.137379, 49.294275 ], [ -123.137305, 49.294353 ], [ -123.137241, 49.294502 ], [ -123.137198, 49.294558 ], [ -123.137056, 49.294702 ], [ -123.136994, 49.294752 ] ] } },
{ "type": "Feature", "properties": { "cls": "separated", "highway": "cycleway", "name": null }, "geometry": { "type": "LineString", "coordinates": [ [ -123.137022, 49.294794 ], [ -123.137136, 49.294699 ], [ -123.137252, 49.294578 ], [ -123.137295, 49.294509 ], [ -123.137326, 49.29443 ], [ -123.137371, 49.294351 ], [ -123.137464, 49.294277 ], [ -123.137499, 49.294271 ] ] } },
{ "type": "Feature", "properties": { "cls": "separated", "highway": "cycleway", "name": "Stanley Park Seawall Bike Path" }, "geometry": { "type": "LineString", "coordinates": [ [ -123.148579, 49.294466 ], [ -123.148965, 49.294326 ], [ -123.149163, 49.294255 ], [ -123.149212, 49.294225 ], [ -123.14925, 49.2942 ], [ -123.149403, 49.294075 ], [ -123.149497, 49.293986 ], [ -123.1496, 49.293877 ], [ -123.149687, 49.293767 ] ] } },
{ "type": "Feature", "properties": { "cls": "separated", "highway": "cycleway", "name": null }, "geometry": { "type": "LineString", "coordinates": [ [ -123.148172, 49.294317 ], [ -123.148206, 49.294384 ] ] } },
{ "type": "Feature", "properties": { "cls": "separated", "highway": "cycleway", "name": "Stanley Park Seawall Bike Path" }, "geometry": { "type": "LineString", "coordinates": [ [ -123.149052, 49.295016 ], [ -123.148913, 49.294885 ], [ -123.148799, 49.294773 ], [ -123.148764, 49.294723 ], [ -123.148672, 49.294607 ], [ -123.148588, 49.294479 ], [ -123.148579, 49.294466 ] ] } },
{ "type": "Feature", "properties": { "cls": "separated", "highway": "cycleway", "name": null }, "geometry": { "type": "LineString", "coordinates": [ [ -123.148206, 49.294384 ], [ -123.148284, 49.294526 ], [ -123.148378, 49.294693 ], [ -123.148503, 49.294833 ], [ -123.148572, 49.294906 ], [ -123.148654, 49.29498 ], [ -123.148678, 49.294998 ], [ -123.148776, 49.295077 ], [ -123.14883, 49.295104 ], [ -123.148884, 49.295096 ], [ -123.149052, 49.295016 ] ] } },
{ "type": "Feature", "properties": { "cls": "sharrow", "highway": "tertiary", "name": "Stanley Park Drive" }, "geometry": { "type": "LineString", "coordinates": [ [ -123.148147, 49.294427 ], [ -123.148319, 49.294711 ], [ -123.148491, 49.294914 ], [ -123.148662, 49.29507 ], [ -123.148861, 49.295218 ], [ -123.148996, 49.295308 ], [ -123.149105, 49.295385 ] ] } },
{ "type": "Feature", "properties": { "cls": "separated", "highway": "cycleway", "name": "Stanley Park Seawall Bike Path" }, "geometry": { "type": "LineString", "coordinates": [ [ -123.149848, 49.295561 ], [ -123.149769, 49.295543 ], [ -123.149721, 49.295518 ], [ -123.149622, 49.295439 ], [ -123.149467, 49.295328 ], [ -123.149274, 49.295191 ], [ -123.149117, 49.295068 ], [ -123.149052, 49.295016 ] ] } },
{ "type": "Feature", "properties": { "cls": "shared", "highway": "cycleway", "name": "Stanley Park Seawall Bike Path" }, "geometry": { "type": "LineString", "coordinates": [ [ -123.151348, 49.295668 ], [ -123.151199, 49.295696 ] ] } },
{ "type": "Feature", "properties": { "cls": "separated", "highway": "cycleway", "name": "Stanley Park Seawall Bike Path" }, "geometry": { "type": "LineString", "coordinates": [ [ -123.152754, 49.295836 ], [ -123.152696, 49.295791 ], [ -123.152576, 49.295736 ], [ -123.152312, 49.29565 ], [ -123.152167, 49.295609 ], [ -123.1521, 49.295606 ], [ -123.152032, 49.295614 ], [ -123.15194, 49.295639 ], [ -123.151776, 49.29566 ], [ -123.151715, 49.295664 ], [ -123.151464, 49.295637 ], [ -123.151413, 49.295642 ], [ -123.151348, 49.295668 ] ] } },
{ "type": "Feature", "properties": { "cls": "separated", "highway": "cycleway", "name": "Stanley Park Seawall Bike Path" }, "geometry": { "type": "LineString", "coordinates": [ [ -123.150879, 49.295918 ], [ -123.150608, 49.295925 ], [ -123.150536, 49.295916 ], [ -123.150474, 49.295887 ], [ -123.150343, 49.295809 ], [ -123.150136, 49.29565 ], [ -123.150051, 49.295597 ], [ -123.149985, 49.295578 ], [ -123.149908, 49.295561 ], [ -123.149848, 49.295561 ] ] } },
{ "type": "Feature", "properties": { "cls": "separated", "highway": "cycleway", "name": "Stanley Park Seawall Bike Path" }, "geometry": { "type": "LineString", "coordinates": [ [ -123.151199, 49.295696 ], [ -123.151143, 49.295717 ], [ -123.151097, 49.295753 ], [ -123.150911, 49.295889 ], [ -123.150879, 49.295918 ] ] } },
{ "type": "Feature", "properties": { "cls": "shared", "highway": "cycleway", "name": "Bridle Path" }, "geometry": { "type": "LineString", "coordinates": [ [ -123.150879, 49.295918 ], [ -123.150899, 49.295925 ], [ -123.150935, 49.295953 ], [ -123.150963, 49.295993 ] ] } },
{ "type": "Feature", "properties": { "cls": "separated", "highway": "cycleway", "name": null }, "geometry": { "type": "LineString", "coordinates": [ [ -123.150529, 49.296009 ], [ -123.150399, 49.296004 ] ] } },
{ "type": "Feature", "properties": { "cls": "shared", "highway": "cycleway", "name": "Bridle Path" }, "geometry": { "type": "LineString", "coordinates": [ [ -123.150963, 49.295993 ], [ -123.15098, 49.296022 ], [ -123.151003, 49.29607 ] ] } },
{ "type": "Feature", "properties": { "cls": "separated", "highway": "cycleway", "name": null }, "geometry": { "type": "LineString", "coordinates": [ [ -123.15097, 49.296197 ], [ -123.150858, 49.296151 ], [ -123.150602, 49.296046 ], [ -123.150557, 49.29603 ], [ -123.150529, 49.296009 ], [ -123.150522, 49.295963 ], [ -123.150536, 49.295916 ] ] } },
{ "type": "Feature", "properties": { "cls": "separated", "highway": "cycleway", "name": "Rawlings Trail" }, "geometry": { "type": "LineString", "coordinates": [ [ -123.149066, 49.296185 ], [ -123.148492, 49.296113 ], [ -123.14755, 49.296178 ], [ -123.147313, 49.296186 ], [ -123.147246, 49.296188 ], [ -123.14703, 49.296169 ], [ -123.146835, 49.296115 ], [ -123.146726, 49.296076 ], [ -123.146669, 49.296049 ] ] } },
{ "type": "Feature", "properties": { "cls": "shared", "highway": "cycleway", "name": "Bridle Path" }, "geometry": { "type": "LineString", "coordinates": [ [ -123.151003, 49.29607 ], [ -123.151006, 49.296107 ], [ -123.151, 49.29614 ], [ -123.150985, 49.296171 ] ] } },
{ "type": "Feature", "properties": { "cls": "separated", "highway": "cycleway", "name": null }, "geometry": { "type": "LineString", "coordinates": [ [ -123.150725, 49.296146 ], [ -123.150738, 49.296196 ], [ -123.15092, 49.296278 ] ] } },
{ "type": "Feature", "properties": { "cls": "shared", "highway": "cycleway", "name": "Bridle Path" }, "geometry": { "type": "LineString", "coordinates": [ [ -123.150985, 49.296171 ], [ -123.15097, 49.296197 ], [ -123.150952, 49.296222 ], [ -123.150931, 49.296258 ] ] } },
{ "type": "Feature", "properties": { "cls": "separated", "highway": "cycleway", "name": "Rawlings Trail" }, "geometry": { "type": "LineString", "coordinates": [ [ -123.15064, 49.296546 ], [ -123.150311, 49.296397 ], [ -123.149736, 49.29629 ], [ -123.149066, 49.296185 ] ] } },
{ "type": "Feature", "properties": { "cls": "shared", "highway": "cycleway", "name": "Bridle Path" }, "geometry": { "type": "LineString", "coordinates": [ [ -123.150931, 49.296258 ], [ -123.15092, 49.296278 ], [ -123.150861, 49.296359 ], [ -123.15064, 49.296546 ] ] } },
{ "type": "Feature", "properties": { "cls": "sharrow", "highway": "unclassified", "name": "Lagoon Drive" }, "geometry": { "type": "LineString", "coordinates": [ [ -123.142126, 49.292975 ], [ -123.142182, 49.292985 ], [ -123.142596, 49.293025 ] ] } },
{ "type": "Feature", "properties": { "cls": "separated", "highway": "cycleway", "name": null }, "geometry": { "type": "LineString", "coordinates": [ [ -123.148579, 49.294466 ], [ -123.14852, 49.294392 ], [ -123.14847, 49.294318 ], [ -123.148434, 49.294295 ], [ -123.148391, 49.294279 ], [ -123.148365, 49.294272 ], [ -123.148327, 49.29427 ], [ -123.148294, 49.294273 ], [ -123.148272, 49.294284 ], [ -123.148218, 49.294322 ], [ -123.148084, 49.294432 ], [ -123.148017, 49.2945 ], [ -123.147992, 49.294552 ], [ -123.147988, 49.294597 ], [ -123.147974, 49.294642 ], [ -123.147936, 49.294675 ], [ -123.147852, 49.294706 ], [ -123.147726, 49.294795 ], [ -123.147609, 49.294865 ], [ -123.147137, 49.295092 ], [ -123.146646, 49.295313 ], [ -123.146473, 49.295373 ], [ -123.146258, 49.295445 ], [ -123.1461, 49.29549 ], [ -123.145944, 49.295511 ], [ -123.145739, 49.2955 ], [ -123.145635, 49.295351 ], [ -123.145597, 49.295309 ], [ -123.144815, 49.294856 ], [ -123.144467, 49.294615 ], [ -123.144056, 49.29435 ], [ -123.143829, 49.294182 ], [ -123.143657, 49.294087 ], [ -123.143501, 49.294007 ], [ -123.143346, 49.293941 ], [ -123.143085, 49.293843 ], [ -123.142432, 49.293651 ], [ -123.141754, 49.293689 ], [ -123.141281, 49.293717 ], [ -123.140958, 49.293728 ], [ -123.140892, 49.293733 ], [ -123.14054, 49.293786 ], [ -123.140136, 49.293853 ], [ -123.139864, 49.293897 ], [ -123.139467, 49.293954 ], [ -123.138838, 49.294016 ], [ -123.1386, 49.294069 ], [ -123.138502, 49.29409 ] ] } },
{ "type": "Feature", "properties": { "cls": "separated", "highway": "cycleway", "name": "NB Stanley Park Causeway Bike Route" }, "geometry": { "type": "LineString", "coordinates": [ [ -123.137407, 49.297907 ], [ -123.137502, 49.297958 ], [ -123.137871, 49.298131 ], [ -123.137938, 49.298162 ], [ -123.138463, 49.298359 ], [ -123.139334, 49.298683 ], [ -123.139541, 49.298772 ], [ -123.139766, 49.298832 ], [ -123.139808, 49.29885 ], [ -123.140278, 49.299051 ], [ -123.140756, 49.299284 ], [ -123.141608, 49.299755 ], [ -123.142014, 49.300066 ], [ -123.142177, 49.300177 ], [ -123.142394, 49.30034 ], [ -123.142695, 49.300566 ], [ -123.143244, 49.300984 ], [ -123.143649, 49.30137 ], [ -123.143667, 49.301387 ], [ -123.144054, 49.301816 ], [ -123.144441, 49.302442 ], [ -123.144802, 49.303108 ], [ -123.144817, 49.303136 ], [ -123.145007, 49.303489 ], [ -123.14505, 49.303647 ], [ -123.145123, 49.303914 ], [ -123.145177, 49.304205 ], [ -123.14518, 49.304245 ], [ -123.145221, 49.304818 ], [ -123.145185, 49.304901 ], [ -123.145178, 49.305091 ], [ -123.145219, 49.305188 ], [ -123.145219, 49.305192 ], [ -123.145201, 49.305636 ], [ -123.145105, 49.306296 ], [ -123.144956, 49.306905 ], [ -123.144726, 49.307624 ], [ -123.14432, 49.308543 ], [ -123.143943, 49.309185 ], [ -123.143932, 49.309202 ] ] } },
{ "type": "Feature", "properties": { "cls": "shared", "highway": "cycleway", "name": "Lake Trail" }, "geometry": { "type": "LineString", "coordinates": [ [ -123.143595, 49.30355 ], [ -123.143774, 49.303546 ], [ -123.144034, 49.303542 ], [ -123.144345, 49.303629 ], [ -123.144818, 49.303768 ], [ -123.144859, 49.30379 ], [ -123.144903, 49.303803 ], [ -123.144953, 49.303807 ] ] } },
{ "type": "Feature", "properties": { "cls": "shared", "highway": "cycleway", "name": "Lake Trail" }, "geometry": { "type": "LineString", "coordinates": [ [ -123.142163, 49.303867 ], [ -123.142316, 49.303796 ], [ -123.143374, 49.303555 ], [ -123.143595, 49.30355 ] ] } },
{ "type": "Feature", "properties": { "cls": "shared", "highway": "cycleway", "name": "Lake Trail" }, "geometry": { "type": "LineString", "coordinates": [ [ -123.142006, 49.303935 ], [ -123.142163, 49.303867 ] ] } },
{ "type": "Feature", "properties": { "cls": "separated", "highway": "cycleway", "name": "SB Stanley Park Causeway Bike Route" }, "geometry": { "type": "LineString", "coordinates": [ [ -123.143764, 49.30985 ], [ -123.143896, 49.30965 ], [ -123.14413, 49.30926 ], [ -123.144251, 49.30909 ], [ -123.144461, 49.308705 ], [ -123.144493, 49.308606 ], [ -123.144929, 49.307644 ], [ -123.145157, 49.30692 ], [ -123.145236, 49.306608 ], [ -123.145298, 49.306295 ], [ -123.145414, 49.305643 ], [ -123.145399, 49.305493 ], [ -123.145424, 49.305097 ], [ -123.145432, 49.304984 ], [ -123.145444, 49.304888 ], [ -123.145406, 49.304732 ], [ -123.145355, 49.30418 ], [ -123.145294, 49.303832 ], [ -123.145264, 49.303722 ], [ -123.14515, 49.30333 ], [ -123.145046, 49.303034 ], [ -123.144919, 49.302755 ], [ -123.144788, 49.302503 ], [ -123.144265, 49.301757 ], [ -123.143475, 49.300934 ], [ -123.142552, 49.300233 ], [ -123.142041, 49.29985 ], [ -123.141578, 49.299556 ], [ -123.141114, 49.299304 ], [ -123.139854, 49.298699 ], [ -123.138763, 49.298321 ], [ -123.138122, 49.298106 ], [ -123.138008, 49.29805 ] ] } },
{ "type": "Feature", "properties": { "cls": "shared", "highway": "cycleway", "name": "Lake Trail" }, "geometry": { "type": "LineString", "coordinates": [ [ -123.141147, 49.304322 ], [ -123.141233, 49.304304 ], [ -123.141453, 49.304201 ], [ -123.141775, 49.304047 ], [ -123.142006, 49.303935 ] ] } },
{ "type": "Feature", "properties": { "cls": "shared", "highway": "footway", "name": "Hanson Trail" }, "geometry": { "type": "LineString", "coordinates": [ [ -123.14254, 49.308079 ], [ -123.142693, 49.307958 ], [ -123.142933, 49.307784 ], [ -123.143156, 49.307674 ], [ -123.143285, 49.307607 ], [ -123.143373, 49.307507 ], [ -123.143416, 49.307313 ], [ -123.143417, 49.307196 ], [ -123.143451, 49.30708 ], [ -123.143514, 49.306938 ], [ -123.143529, 49.306767 ], [ -123.143501, 49.30664 ], [ -123.143443, 49.306515 ], [ -123.143343, 49.306418 ], [ -123.143148, 49.306422 ], [ -123.142893, 49.306484 ], [ -123.142537, 49.306612 ], [ -123.141715, 49.306882 ], [ -123.141406, 49.306951 ], [ -123.141204, 49.306951 ], [ -123.140667, 49.306875 ], [ -123.140452, 49.306873 ], [ -123.140149, 49.306976 ], [ -123.139447, 49.307293 ], [ -123.1389, 49.30748 ], [ -123.13874, 49.307499 ], [ -123.138559, 49.307491 ], [ -123.138402, 49.307461 ], [ -123.138143, 49.3074 ], [ -123.137549, 49.307229 ], [ -123.137478, 49.307205 ], [ -123.137389, 49.307182 ], [ -123.13723, 49.307175 ] ] } },
{ "type": "Feature", "properties": { "cls": "separated", "highway": "cycleway", "name": null }, "geometry": { "type": "LineString", "coordinates": [ [ -123.153024, 49.297256 ], [ -123.153015, 49.297168 ], [ -123.152119, 49.296685 ], [ -123.151285, 49.296276 ], [ -123.15114, 49.296276 ], [ -123.15097, 49.296197 ] ] } },
{ "type": "Feature", "properties": { "cls": "separated", "highway": "cycleway", "name": "Stanley Park Seawall Bike Path" }, "geometry": { "type": "LineString", "coordinates": [ [ -123.156723, 49.302096 ], [ -123.156768, 49.302048 ], [ -123.156848, 49.301982 ], [ -123.157096, 49.301815 ], [ -123.157147, 49.301793 ], [ -123.157222, 49.301778 ], [ -123.157447, 49.30176 ], [ -123.15763, 49.301719 ], [ -123.157732, 49.301674 ], [ -123.157923, 49.301583 ], [ -123.158124, 49.301483 ], [ -123.158252, 49.301434 ], [ -123.158392, 49.301397 ], [ -123.158571, 49.301358 ], [ -123.158647, 49.301331 ], [ -123.158683, 49.301302 ], [ -123.158721, 49.301266 ], [ -123.158745, 49.301217 ], [ -123.158754, 49.301162 ], [ -123.158751, 49.301108 ], [ -123.15873, 49.301061 ], [ -123.158688, 49.301011 ], [ -123.15864, 49.300974 ], [ -123.15854, 49.30092 ], [ -123.158501, 49.300881 ], [ -123.158383, 49.30067 ], [ -123.158288, 49.300499 ], [ -123.158243, 49.300365 ], [ -123.15822, 49.300297 ], [ -123.158225, 49.300257 ], [ -123.158238, 49.300213 ], [ -123.158266, 49.30017 ], [ -123.158334, 49.300114 ], [ -123.158361, 49.300064 ], [ -123.158345, 49.300011 ], [ -123.158302, 49.299968 ], [ -123.158223, 49.299891 ], [ -123.158197, 49.299823 ], [ -123.158201, 49.299776 ], [ -123.158256, 49.299672 ], [ -123.158277, 49.299541 ], [ -123.158259, 49.299379 ], [ -123.158229, 49.299239 ], [ -123.158106, 49.298928 ], [ -123.158035, 49.298687 ], [ -123.158001, 49.298521 ], [ -123.157986, 49.298296 ], [ -123.157951, 49.298205 ], [ -123.157816, 49.298065 ], [ -123.157685, 49.297951 ], [ -123.15753, 49.297828 ], [ -123.157296, 49.297666 ], [ -123.157139, 49.297587 ], [ -123.157009, 49.297531 ], [ -123.156869, 49.297487 ], [ -123.156731, 49.297458 ], [ -123.156608, 49.297444 ], [ -123.156481, 49.297443 ], [ -123.156288, 49.297459 ], [ -123.156066, 49.297487 ], [ -123.155833, 49.297526 ], [ -123.15554, 49.29759 ], [ -123.155287, 49.29768 ], [ -123.154932, 49.297733 ], [ -123.154707, 49.297751 ], [ -123.154525, 49.297742 ], [ -123.154387, 49.297712 ], [ -123.154243, 49.297655 ], [ -123.154063, 49.297552 ], [ -123.153902, 49.297436 ], [ -123.153765, 49.297307 ], [ -123.153561, 49.297058 ], [ -123.153453, 49.296903 ], [ -123.153408, 49.296838 ], [ -123.153243, 49.296539 ], [ -123.153127, 49.296428 ], [ -123.152978, 49.296248 ], [ -123.152882, 49.295987 ], [ -123.152798, 49.29587 ], [ -123.152754, 49.295836 ] ] } },
{ "type": "Feature", "properties": { "cls": "shared", "highway": "cycleway", "name": "Rawlings Trail" }, "geometry": { "type": "LineString", "coordinates": [ [ -123.153068, 49.303475 ], [ -123.153072, 49.30318 ], [ -123.153026, 49.302958 ], [ -123.153023, 49.302899 ], [ -123.153044, 49.302835 ], [ -123.153206, 49.30257 ], [ -123.153322, 49.302266 ], [ -123.153432, 49.302146 ], [ -123.153507, 49.301993 ], [ -123.153602, 49.301875 ], [ -123.153759, 49.301765 ], [ -123.153901, 49.301676 ], [ -123.154088, 49.301591 ], [ -123.1542, 49.301575 ], [ -123.154697, 49.301546 ], [ -123.154846, 49.3015 ], [ -123.155379, 49.301332 ], [ -123.155722, 49.301285 ], [ -123.155985, 49.301229 ], [ -123.156128, 49.301177 ], [ -123.156419, 49.300993 ], [ -123.156476, 49.300935 ], [ -123.156719, 49.300683 ], [ -123.157001, 49.300383 ], [ -123.157239, 49.300191 ], [ -123.157291, 49.300144 ], [ -123.157318, 49.30006 ], [ -123.157392, 49.299842 ], [ -123.157402, 49.299793 ], [ -123.157425, 49.299661 ], [ -123.157476, 49.299583 ], [ -123.157491, 49.299437 ], [ -123.157481, 49.299383 ], [ -123.157488, 49.29934 ], [ -123.157483, 49.299305 ], [ -123.157475, 49.299257 ], [ -123.157445, 49.298959 ], [ -123.157381, 49.298749 ], [ -123.157295, 49.298493 ], [ -123.157252, 49.298357 ], [ -123.157208, 49.298297 ], [ -123.157147, 49.298266 ], [ -123.157019, 49.298152 ], [ -123.156873, 49.29809 ], [ -123.15681, 49.29806 ], [ -123.156748, 49.298022 ], [ -123.156689, 49.297997 ], [ -123.156597, 49.297965 ], [ -123.156455, 49.29795 ], [ -123.156377, 49.297952 ], [ -123.156315, 49.297956 ], [ -123.156267, 49.297961 ], [ -123.156177, 49.297981 ], [ -123.156082, 49.298027 ], [ -123.155969, 49.298049 ], [ -123.155935, 49.298071 ], [ -123.155863, 49.298088 ], [ -123.155798, 49.298105 ], [ -123.155692, 49.298114 ], [ -123.155632, 49.298108 ], [ -123.155572, 49.298108 ], [ -123.155511, 49.298116 ], [ -123.155415, 49.29811 ], [ -123.155301, 49.298106 ], [ -123.155183, 49.298108 ], [ -123.155027, 49.298101 ], [ -123.154913, 49.298118 ], [ -123.154794, 49.298117 ], [ -123.154675, 49.298113 ], [ -123.154546, 49.298106 ], [ -123.154436, 49.298103 ], [ -123.154255, 49.298084 ], [ -123.153899, 49.298048 ], [ -123.153761, 49.298016 ], [ -123.153606, 49.297963 ], [ -123.153343, 49.297872 ], [ -123.152663, 49.297614 ], [ -123.152067, 49.297251 ], [ -123.151409, 49.29685 ], [ -123.150934, 49.296648 ], [ -123.15064, 49.296546 ] ] } },
{ "type": "Feature", "properties": { "cls": "shared", "highway": "cycleway", "name": "Lovers Walk" }, "geometry": { "type": "LineString", "coordinates": [ [ -123.148746, 49.300952 ], [ -123.148874, 49.300874 ], [ -123.149031, 49.30081 ], [ -123.149347, 49.300723 ], [ -123.150087, 49.300546 ], [ -123.150299, 49.30052 ], [ -123.150451, 49.300493 ], [ -123.150609, 49.300437 ], [ -123.150745, 49.300376 ], [ -123.151281, 49.300184 ], [ -123.151537, 49.300114 ], [ -123.151768, 49.300087 ], [ -123.151918, 49.300086 ], [ -123.152128, 49.300095 ], [ -123.152382, 49.300091 ], [ -123.152787, 49.300165 ], [ -123.153061, 49.30023 ], [ -123.153318, 49.300259 ], [ -123.153642, 49.300298 ], [ -123.153754, 49.300314 ], [ -123.153976, 49.30034 ], [ -123.154164, 49.300423 ], [ -123.154337, 49.300495 ], [ -123.15453, 49.300551 ], [ -123.154713, 49.300548 ], [ -123.154864, 49.300542 ], [ -123.155115, 49.300539 ], [ -123.155294, 49.300539 ], [ -123.155511, 49.300541 ], [ -123.155687, 49.300517 ], [ -123.155882, 49.300489 ], [ -123.155976, 49.300484 ], [ -123.156073, 49.300502 ], [ -123.156369, 49.300567 ], [ -123.156537, 49.300616 ], [ -123.156719, 49.300683 ] ] } },
{ "type": "Feature", "properties": { "cls": "shared", "highway": "cycleway", "name": "Lovers Walk" }, "geometry": { "type": "LineString", "coordinates": [ [ -123.148123, 49.302676 ], [ -123.14814, 49.302652 ], [ -123.148147, 49.302623 ], [ -123.148124, 49.302461 ], [ -123.148075, 49.302365 ], [ -123.148079, 49.302223 ], [ -123.148024, 49.302037 ], [ -123.148012, 49.301919 ], [ -123.148036, 49.301842 ], [ -123.14812, 49.301685 ], [ -123.148258, 49.301528 ], [ -123.14842, 49.301346 ], [ -123.148683, 49.301004 ], [ -123.148746, 49.300952 ] ] } },
{ "type": "Feature", "properties": { "cls": "shared", "highway": "cycleway", "name": "Bridle Path" }, "geometry": { "type": "LineString", "coordinates": [ [ -123.15064, 49.296546 ], [ -123.150009, 49.296987 ], [ -123.149787, 49.297136 ], [ -123.149547, 49.297227 ], [ -123.149216, 49.297336 ], [ -123.148995, 49.297412 ], [ -123.148947, 49.297421 ], [ -123.148807, 49.297441 ], [ -123.148457, 49.297439 ], [ -123.148192, 49.297447 ], [ -123.147947, 49.297488 ], [ -123.147596, 49.297576 ], [ -123.146822, 49.297634 ], [ -123.145715, 49.297773 ], [ -123.145516, 49.297836 ], [ -123.145446, 49.297865 ], [ -123.145346, 49.297931 ], [ -123.145292, 49.297985 ], [ -123.145187, 49.298158 ], [ -123.145153, 49.298406 ], [ -123.145147, 49.298511 ], [ -123.145126, 49.298617 ], [ -123.145039, 49.298723 ], [ -123.144835, 49.298972 ], [ -123.144757, 49.29904 ], [ -123.144623, 49.299273 ], [ -123.14444, 49.299445 ], [ -123.144409, 49.299487 ], [ -123.144339, 49.299612 ], [ -123.144288, 49.299787 ], [ -123.144273, 49.299899 ], [ -123.144283, 49.300021 ], [ -123.144399, 49.300312 ], [ -123.144676, 49.300915 ], [ -123.144702, 49.301072 ], [ -123.144697, 49.301133 ], [ -123.144667, 49.30125 ], [ -123.144661, 49.30133 ], [ -123.144701, 49.301434 ], [ -123.144933, 49.30191 ], [ -123.145052, 49.302091 ], [ -123.145235, 49.302289 ], [ -123.145507, 49.302483 ], [ -123.145675, 49.302625 ], [ -123.145842, 49.302811 ], [ -123.145909, 49.302914 ], [ -123.145994, 49.303062 ], [ -123.145998, 49.303598 ], [ -123.146039, 49.303705 ], [ -123.146076, 49.303816 ], [ -123.146103, 49.303978 ], [ -123.146104, 49.304134 ], [ -123.146101, 49.30442 ], [ -123.146124, 49.304686 ], [ -123.146196, 49.304912 ], [ -123.146167, 49.30521 ], [ -123.146196, 49.305459 ], [ -123.146268, 49.305612 ], [ -123.146382, 49.305744 ], [ -123.146537, 49.30587 ], [ -123.146707, 49.305956 ], [ -123.146829, 49.306075 ], [ -123.146937, 49.306182 ], [ -123.147049, 49.306264 ], [ -123.14721, 49.306337 ], [ -123.147377, 49.306383 ], [ -123.147535, 49.306455 ], [ -123.147697, 49.306567 ], [ -123.147903, 49.306881 ], [ -123.147931, 49.307033 ], [ -123.147916, 49.307208 ], [ -123.147835, 49.307395 ], [ -123.147728, 49.307568 ], [ -123.147586, 49.307714 ], [ -123.147484, 49.307839 ], [ -123.14724, 49.308001 ], [ -123.147141, 49.308048 ], [ -123.146854, 49.308163 ] ] } },
{ "type": "Feature", "properties": { "cls": "separated", "highway": "cycleway", "name": "Stanley Park Seawall Bike Path" }, "geometry": { "type": "LineString", "coordinates": [ [ -123.156387, 49.303025 ], [ -123.156428, 49.302846 ], [ -123.15651, 49.302603 ], [ -123.156599, 49.302357 ], [ -123.156707, 49.302112 ], [ -123.156723, 49.302096 ] ] } },
{ "type": "Feature", "properties": { "cls": "shared", "highway": "cycleway", "name": "Lovers Walk" }, "geometry": { "type": "LineString", "coordinates": [ [ -123.147201, 49.30348 ], [ -123.147344, 49.303298 ], [ -123.147521, 49.303087 ], [ -123.147847, 49.302864 ], [ -123.148123, 49.302676 ] ] } },
{ "type": "Feature", "properties": { "cls": "separated", "highway": "cycleway", "name": "Stanley Park Seawall Bike Path" }, "geometry": { "type": "LineString", "coordinates": [ [ -123.156358, 49.303163 ], [ -123.156366, 49.303119 ], [ -123.156387, 49.303025 ] ] } },
{ "type": "Feature", "properties": { "cls": "shared", "highway": "cycleway", "name": "Lake Trail" }, "geometry": { "type": "LineString", "coordinates": [ [ -123.145609, 49.303716 ], [ -123.145727, 49.303681 ], [ -123.145843, 49.303667 ], [ -123.145922, 49.303667 ], [ -123.146039, 49.303705 ], [ -123.1461, 49.303723 ], [ -123.146421, 49.303753 ], [ -123.146545, 49.30375 ], [ -123.146653, 49.303722 ], [ -123.14687, 49.303628 ], [ -123.147057, 49.303539 ], [ -123.147201, 49.30348 ] ] } },
{ "type": "Feature", "properties": { "cls": "separated", "highway": "cycleway", "name": null }, "geometry": { "type": "LineString", "coordinates": [ [ -123.138008, 49.29805 ], [ -123.13784, 49.298039 ] ] } },
{ "type": "Feature", "properties": { "cls": "shared", "highway": "cycleway", "name": "Beaver Lake Trail" }, "geometry": { "type": "LineString", "coordinates": [ [ -123.141147, 49.304322 ], [ -123.141107, 49.304388 ], [ -123.141033, 49.304493 ], [ -123.140957, 49.304575 ], [ -123.140874, 49.304655 ], [ -123.140808, 49.304695 ], [ -123.14063, 49.30474 ], [ -123.140191, 49.304834 ], [ -123.139965, 49.304881 ], [ -123.139851, 49.304914 ], [ -123.139573, 49.305017 ], [ -123.13925, 49.305148 ], [ -123.139105, 49.305195 ], [ -123.13898, 49.305224 ], [ -123.138841, 49.305244 ], [ -123.138689, 49.305247 ], [ -123.138513, 49.305218 ], [ -123.138325, 49.305151 ], [ -123.13826, 49.305063 ], [ -123.138143, 49.305008 ], [ -123.138066, 49.305078 ], [ -123.137973, 49.305161 ], [ -123.13765, 49.305456 ], [ -123.137478, 49.305789 ], [ -123.137172, 49.306001 ], [ -123.136946, 49.306104 ], [ -123.136866, 49.306128 ] ] } },
{ "type": "Feature", "properties": { "cls": "separated", "highway": "cycleway", "name": "Stanley Park Seawall Bike Path" }, "geometry": { "type": "LineString", "coordinates": [ [ -123.135658, 49.307021 ], [ -123.135672, 49.307039 ], [ -123.135691, 49.307089 ], [ -123.135664, 49.307218 ], [ -123.135608, 49.307382 ], [ -123.135613, 49.307514 ], [ -123.135635, 49.307659 ], [ -123.135675, 49.307815 ], [ -123.13574, 49.308075 ], [ -123.135805, 49.308235 ], [ -123.135866, 49.308365 ], [ -123.135976, 49.308526 ], [ -123.136096, 49.308669 ], [ -123.136284, 49.308902 ], [ -123.136453, 49.309139 ], [ -123.136526, 49.309269 ], [ -123.136569, 49.309422 ], [ -123.136605, 49.309598 ], [ -123.136704, 49.309783 ], [ -123.136761, 49.309862 ], [ -123.13685, 49.309935 ], [ -123.137228, 49.310217 ], [ -123.137378, 49.310387 ], [ -123.137566, 49.310605 ], [ -123.137778, 49.310847 ], [ -123.138271, 49.311258 ], [ -123.13864, 49.311546 ], [ -123.138812, 49.311701 ], [ -123.138956, 49.311869 ], [ -123.139088, 49.312059 ], [ -123.139222, 49.312254 ], [ -123.139395, 49.312575 ], [ -123.139498, 49.312763 ] ] } },
{ "type": "Feature", "properties": { "cls": "shared", "highway": "cycleway", "name": "Avison Trail" }, "geometry": { "type": "LineString", "coordinates": [ [ -123.142314, 49.310861 ], [ -123.142174, 49.310822 ], [ -123.142058, 49.310755 ], [ -123.141965, 49.310635 ], [ -123.141932, 49.310537 ], [ -123.141929, 49.310431 ], [ -123.141967, 49.310135 ], [ -123.141983, 49.310077 ], [ -123.142173, 49.30983 ], [ -123.142247, 49.309781 ], [ -123.142399, 49.309652 ], [ -123.14269, 49.309411 ], [ -123.142714, 49.30936 ], [ -123.142704, 49.309298 ], [ -123.142666, 49.309245 ], [ -123.1426, 49.309218 ], [ -123.142517, 49.309195 ], [ -123.142485, 49.309166 ], [ -123.142452, 49.309023 ], [ -123.142412, 49.308931 ], [ -123.142326, 49.308823 ], [ -123.142211, 49.308725 ], [ -123.142071, 49.308577 ], [ -123.141991, 49.308529 ], [ -123.141899, 49.308524 ], [ -123.141805, 49.308546 ], [ -123.141679, 49.308596 ], [ -123.141563, 49.308668 ], [ -123.141482, 49.308724 ], [ -123.141435, 49.308783 ], [ -123.141387, 49.308902 ], [ -123.141359, 49.309016 ], [ -123.141311, 49.309087 ], [ -123.141172, 49.309219 ], [ -123.141119, 49.309317 ], [ -123.141076, 49.309518 ], [ -123.14102, 49.309662 ], [ -123.140905, 49.309841 ], [ -123.140821, 49.31012 ], [ -123.140771, 49.310324 ], [ -123.140721, 49.310497 ], [ -123.140681, 49.310694 ], [ -123.140629, 49.311097 ], [ -123.140627, 49.311133 ], [ -123.140635, 49.311177 ], [ -123.140635, 49.311385 ], [ -123.140672, 49.311477 ], [ -123.140696, 49.311757 ], [ -123.140694, 49.311846 ], [ -123.140672, 49.311905 ], [ -123.140641, 49.311944 ], [ -123.140602, 49.311973 ], [ -123.140514, 49.312013 ], [ -123.140417, 49.312035 ], [ -123.140343, 49.312046 ], [ -123.140249, 49.312052 ], [ -123.140174, 49.312046 ], [ -123.140044, 49.311997 ], [ -123.13991, 49.312038 ], [ -123.139824, 49.312051 ], [ -123.139752, 49.312048 ], [ -123.139638, 49.312019 ], [ -123.139539, 49.311982 ], [ -123.139442, 49.311939 ], [ -123.139296, 49.311841 ], [ -123.139211, 49.311767 ], [ -123.139123, 49.311727 ], [ -123.139003, 49.311702 ], [ -123.138968, 49.311673 ], [ -123.13873, 49.311451 ], [ -123.138539, 49.311301 ], [ -123.138327, 49.311189 ], [ -123.138214, 49.311107 ], [ -123.138122, 49.311008 ], [ -123.138048, 49.310932 ], [ -123.137991, 49.310852 ], [ -123.137961, 49.310693 ], [ -123.137953, 49.310649 ], [ -123.137923, 49.310604 ], [ -123.137891, 49.310584 ], [ -123.137763, 49.310544 ] ] } },
{ "type": "Feature", "properties": { "cls": "shared", "highway": "cycleway", "name": null }, "geometry": { "type": "LineString", "coordinates": [ [ -123.137775, 49.310283 ], [ -123.137769, 49.310344 ], [ -123.137783, 49.310512 ], [ -123.137763, 49.310544 ] ] } },
{ "type": "Feature", "properties": { "cls": "separated", "highway": "cycleway", "name": "Avison Trail" }, "geometry": { "type": "LineString", "coordinates": [ [ -123.137763, 49.310544 ], [ -123.137647, 49.310531 ], [ -123.137581, 49.310504 ], [ -123.137378, 49.310387 ], [ -123.137311, 49.310381 ] ] } },
{ "type": "Feature", "properties": { "cls": "shared", "highway": "cycleway", "name": null }, "geometry": { "type": "LineString", "coordinates": [ [ -123.137763, 49.310544 ], [ -123.137779, 49.310651 ], [ -123.137804, 49.310806 ], [ -123.137778, 49.310847 ], [ -123.137763, 49.310853 ] ] } },
{ "type": "Feature", "properties": { "cls": "separated", "highway": "cycleway", "name": null }, "geometry": { "type": "LineString", "coordinates": [ [ -123.14559, 49.30373 ], [ -123.145609, 49.303716 ] ] } },
{ "type": "Feature", "properties": { "cls": "shared", "highway": "cycleway", "name": "Lake Trail" }, "geometry": { "type": "LineString", "coordinates": [ [ -123.144953, 49.303807 ], [ -123.145046, 49.30382 ] ] } },
{ "type": "Feature", "properties": { "cls": "shared", "highway": "cycleway", "name": "Lake Trail" }, "geometry": { "type": "LineString", "coordinates": [ [ -123.145046, 49.30382 ], [ -123.145068, 49.303838 ], [ -123.145076, 49.303861 ], [ -123.145067, 49.303882 ], [ -123.145048, 49.303898 ], [ -123.145014, 49.303908 ], [ -123.144979, 49.303908 ], [ -123.144952, 49.303899 ], [ -123.14493, 49.30388 ], [ -123.144923, 49.303858 ], [ -123.144931, 49.303837 ], [ -123.144951, 49.303821 ], [ -123.144976, 49.303812 ], [ -123.14559, 49.30373 ] ] } },
{ "type": "Feature", "properties": { "cls": "separated", "highway": "cycleway", "name": "Stanley Park Seawall Bike Path" }, "geometry": { "type": "LineString", "coordinates": [ [ -123.155957, 49.30784 ], [ -123.155931, 49.307807 ], [ -123.155869, 49.307677 ], [ -123.155848, 49.307563 ], [ -123.155857, 49.307451 ], [ -123.155863, 49.307375 ], [ -123.155879, 49.307203 ], [ -123.155903, 49.307007 ], [ -123.155951, 49.306713 ], [ -123.156033, 49.306358 ], [ -123.1561, 49.3061 ], [ -123.156278, 49.305825 ], [ -123.156289, 49.305742 ], [ -123.156168, 49.305543 ], [ -123.156139, 49.305442 ], [ -123.156146, 49.305362 ], [ -123.156178, 49.305027 ], [ -123.156203, 49.304728 ], [ -123.156245, 49.304497 ], [ -123.156306, 49.304216 ], [ -123.156306, 49.304014 ], [ -123.156305, 49.303656 ], [ -123.156314, 49.303458 ], [ -123.15633, 49.303339 ], [ -123.156337, 49.303296 ], [ -123.156358, 49.303163 ] ] } },
{ "type": "Feature", "properties": { "cls": "shared", "highway": "cycleway", "name": "Rawlings Trail" }, "geometry": { "type": "LineString", "coordinates": [ [ -123.146854, 49.308163 ], [ -123.14717, 49.308167 ], [ -123.14735, 49.308152 ], [ -123.147556, 49.308132 ], [ -123.147651, 49.308138 ], [ -123.147831, 49.30812 ], [ -123.148213, 49.308134 ], [ -123.148619, 49.308181 ], [ -123.148707, 49.308202 ], [ -123.148763, 49.308255 ], [ -123.148914, 49.308359 ], [ -123.149018, 49.308425 ], [ -123.149122, 49.308473 ], [ -123.149229, 49.30852 ], [ -123.149315, 49.308548 ], [ -123.149388, 49.308564 ], [ -123.149508, 49.308591 ], [ -123.149617, 49.308618 ], [ -123.149706, 49.308656 ], [ -123.149804, 49.308718 ], [ -123.149898, 49.308793 ], [ -123.149975, 49.308873 ], [ -123.150155, 49.308941 ], [ -123.150327, 49.309007 ], [ -123.150512, 49.30905 ], [ -123.150604, 49.309069 ], [ -123.150656, 49.309076 ], [ -123.150712, 49.309075 ], [ -123.150781, 49.309054 ], [ -123.150858, 49.309001 ], [ -123.150976, 49.30892 ], [ -123.151108, 49.308846 ], [ -123.151212, 49.308788 ], [ -123.151285, 49.30874 ], [ -123.15134, 49.308696 ], [ -123.151371, 49.308629 ], [ -123.151343, 49.308531 ], [ -123.151355, 49.308507 ], [ -123.151415, 49.30846 ], [ -123.151498, 49.308427 ], [ -123.151961, 49.308251 ], [ -123.152346, 49.30816 ], [ -123.152411, 49.30811 ], [ -123.152486, 49.307938 ], [ -123.152635, 49.307647 ], [ -123.152733, 49.307494 ], [ -123.152942, 49.307325 ], [ -123.153053, 49.307075 ], [ -123.153085, 49.306954 ], [ -123.153083, 49.30685 ], [ -123.153078, 49.306702 ], [ -123.153148, 49.306563 ], [ -123.153261, 49.306441 ], [ -123.153314, 49.306274 ], [ -123.153335, 49.305803 ], [ -123.153374, 49.305647 ], [ -123.153266, 49.305199 ], [ -123.153245, 49.304838 ], [ -123.153285, 49.304691 ], [ -123.153295, 49.304487 ], [ -123.153246, 49.304241 ], [ -123.153068, 49.303475 ] ] } },
{ "type": "Feature", "properties": { "cls": "shared", "highway": "cycleway", "name": "Prospect Point Trail" }, "geometry": { "type": "LineString", "coordinates": [ [ -123.146854, 49.308163 ], [ -123.146706, 49.30825 ], [ -123.146363, 49.308435 ], [ -123.146201, 49.308634 ], [ -123.146166, 49.308836 ], [ -123.146208, 49.309038 ], [ -123.146333, 49.309429 ], [ -123.146351, 49.309571 ], [ -123.146615, 49.309765 ], [ -123.14673, 49.309853 ], [ -123.146806, 49.309972 ], [ -123.146845, 49.310096 ], [ -123.146844, 49.310324 ], [ -123.146766, 49.31055 ], [ -123.146687, 49.310702 ], [ -123.146574, 49.310834 ], [ -123.146387, 49.310901 ], [ -123.146231, 49.310925 ], [ -123.146081, 49.31092 ], [ -123.146003, 49.310905 ], [ -123.145925, 49.310897 ], [ -123.145798, 49.310906 ], [ -123.14569, 49.310942 ], [ -123.145578, 49.311024 ], [ -123.145468, 49.311162 ], [ -123.145405, 49.311283 ], [ -123.145369, 49.311428 ], [ -123.145354, 49.311538 ], [ -123.145359, 49.311664 ], [ -123.145361, 49.311751 ], [ -123.145358, 49.311839 ], [ -123.145307, 49.311955 ], [ -123.144844, 49.311897 ], [ -123.144446, 49.311896 ], [ -123.14398, 49.31195 ], [ -123.143489, 49.312149 ], [ -123.143346, 49.31222 ], [ -123.143192, 49.312354 ], [ -123.143173, 49.312379 ] ] } },
{ "type": "Feature", "properties": { "cls": "separated", "highway": "cycleway", "name": "Stanley Park Seawall Bike Path" }, "geometry": { "type": "LineString", "coordinates": [ [ -123.142557, 49.313948 ], [ -123.142718, 49.313916 ], [ -123.142876, 49.313867 ], [ -123.143081, 49.313786 ], [ -123.143222, 49.313741 ], [ -123.143492, 49.313685 ], [ -123.143673, 49.313669 ], [ -123.144004, 49.313667 ], [ -123.144144, 49.313656 ], [ -123.144483, 49.313568 ], [ -123.144585, 49.313529 ], [ -123.144693, 49.313504 ], [ -123.144932, 49.313465 ], [ -123.145186, 49.313426 ], [ -123.145352, 49.313404 ], [ -123.145518, 49.313399 ], [ -123.145587, 49.313379 ], [ -123.145766, 49.31328 ], [ -123.145911, 49.313205 ], [ -123.146004, 49.313169 ], [ -123.146145, 49.313143 ], [ -123.146333, 49.313124 ], [ -123.146751, 49.313099 ], [ -123.146974, 49.313082 ], [ -123.147185, 49.313049 ], [ -123.147445, 49.313001 ], [ -123.147694, 49.312928 ], [ -123.147957, 49.312849 ], [ -123.148184, 49.312816 ], [ -123.148496, 49.312784 ], [ -123.148661, 49.312748 ], [ -123.148978, 49.312669 ], [ -123.14912, 49.312641 ], [ -123.149353, 49.312633 ], [ -123.149583, 49.312637 ], [ -123.149818, 49.312601 ], [ -123.150006, 49.312536 ], [ -123.150185, 49.31243 ], [ -123.150365, 49.312321 ], [ -123.150611, 49.312206 ], [ -123.15095, 49.312084 ], [ -123.151128, 49.312013 ], [ -123.151337, 49.311926 ], [ -123.151485, 49.311843 ], [ -123.151683, 49.311714 ], [ -123.151949, 49.311491 ], [ -123.152107, 49.311383 ], [ -123.15228, 49.311275 ], [ -123.152325, 49.311207 ], [ -123.152404, 49.311046 ], [ -123.152419, 49.310884 ], [ -123.152426, 49.310766 ], [ -123.152412, 49.310636 ], [ -123.152383, 49.31046 ], [ -123.152394, 49.310349 ], [ -123.15243, 49.310257 ], [ -123.152483, 49.310171 ], [ -123.152547, 49.310106 ], [ -123.152636, 49.310026 ], [ -123.152757, 49.309966 ], [ -123.152932, 49.309904 ], [ -123.15318, 49.30984 ], [ -123.153339, 49.309801 ], [ -123.153573, 49.30969 ], [ -123.153764, 49.309572 ], [ -123.154007, 49.30944 ], [ -123.154118, 49.309371 ], [ -123.154219, 49.309269 ], [ -123.154296, 49.309146 ], [ -123.154358, 49.309039 ], [ -123.154439, 49.308945 ], [ -123.154546, 49.308844 ], [ -123.154667, 49.308747 ], [ -123.154776, 49.308673 ], [ -123.154895, 49.308602 ], [ -123.155027, 49.308543 ], [ -123.155119, 49.308517 ], [ -123.155258, 49.308498 ], [ -123.15538, 49.308498 ], [ -123.155489, 49.308511 ], [ -123.155593, 49.308538 ], [ -123.155747, 49.308593 ], [ -123.155834, 49.308608 ], [ -123.155929, 49.308604 ], [ -123.155989, 49.30859 ], [ -123.156043, 49.308561 ], [ -123.156051, 49.308529 ], [ -123.156047, 49.308457 ], [ -123.156032, 49.308428 ], [ -123.15602, 49.308394 ], [ -123.156026, 49.308333 ], [ -123.156069, 49.30823 ], [ -123.156073, 49.308177 ], [ -123.156065, 49.308154 ], [ -123.156016, 49.3081 ], [ -123.155996, 49.308041 ], [ -123.155996, 49.30792 ], [ -123.155988, 49.307879 ], [ -123.155957, 49.30784 ] ] } },
{ "type": "Feature", "properties": { "cls": "separated", "highway": "cycleway", "name": "Stanley Park Seawall Bike Path" }, "geometry": { "type": "LineString", "coordinates": [ [ -123.130407, 49.302966 ], [ -123.130594, 49.303084 ] ] } },
{ "type": "Feature", "properties": { "cls": "separated", "highway": "cycleway", "name": "Stanley Park Seawall Bike Path" }, "geometry": { "type": "LineString", "coordinates": [ [ -123.130594, 49.303084 ], [ -123.130741, 49.303224 ], [ -123.130745, 49.303228 ], [ -123.130953, 49.303483 ], [ -123.131022, 49.30359 ] ] } },
{ "type": "Feature", "properties": { "cls": "separated", "highway": "cycleway", "name": null }, "geometry": { "type": "LineString", "coordinates": [ [ -123.131575, 49.303826 ], [ -123.131458, 49.303766 ], [ -123.130953, 49.303483 ] ] } },
{ "type": "Feature", "properties": { "cls": "shared", "highway": "cycleway", "name": "NB Stanley Park Causeway Bike Route" }, "geometry": { "type": "LineString", "coordinates": [ [ -123.136089, 49.296414 ], [ -123.136111, 49.296442 ], [ -123.136121, 49.296455 ], [ -123.136186, 49.29664 ], [ -123.136238, 49.296767 ], [ -123.136368, 49.296973 ], [ -123.136427, 49.297043 ], [ -123.136497, 49.297115 ] ] } },
{ "type": "Feature", "properties": { "cls": "separated", "highway": "cycleway", "name": null }, "geometry": { "type": "LineString", "coordinates": [ [ -123.135576, 49.296841 ], [ -123.135444, 49.296856 ], [ -123.135272, 49.296859 ], [ -123.135159, 49.296866 ], [ -123.135066, 49.29687 ] ] } },
{ "type": "Feature", "properties": { "cls": "separated", "highway": "cycleway", "name": null }, "geometry": { "type": "LineString", "coordinates": [ [ -123.135066, 49.29687 ], [ -123.135054, 49.296878 ], [ -123.134992, 49.296915 ] ] } },
{ "type": "Feature", "properties": { "cls": "separated", "highway": "cycleway", "name": "Stanley Park Seawall Bike Path" }, "geometry": { "type": "LineString", "coordinates": [ [ -123.131022, 49.30359 ], [ -123.131169, 49.303691 ], [ -123.131268, 49.303856 ], [ -123.131487, 49.304133 ], [ -123.131559, 49.304255 ], [ -123.131629, 49.304346 ], [ -123.131682, 49.304419 ], [ -123.13178, 49.30451 ], [ -123.131898, 49.304663 ], [ -123.132004, 49.304842 ], [ -123.132071, 49.304988 ], [ -123.132154, 49.305131 ], [ -123.132329, 49.305299 ], [ -123.132464, 49.305443 ], [ -123.132578, 49.305597 ], [ -123.132672, 49.305695 ], [ -123.132834, 49.305802 ], [ -123.133235, 49.306 ], [ -123.134006, 49.306366 ], [ -123.134331, 49.306529 ], [ -123.134518, 49.306606 ], [ -123.134931, 49.306781 ], [ -123.135101, 49.306843 ], [ -123.135429, 49.306912 ], [ -123.135538, 49.306941 ], [ -123.135604, 49.306959 ], [ -123.135617, 49.306974 ] ] } },
{ "type": "Feature", "properties": { "cls": "separated", "highway": "cycleway", "name": "Stanley Park Seawall" }, "geometry": { "type": "LineString", "coordinates": [ [ -123.135617, 49.306974 ], [ -123.135658, 49.307021 ] ] } },
{ "type": "Feature", "properties": { "cls": "shared", "highway": "cycleway", "name": "NB Lions Gate Bridge Bike Route" }, "geometry": { "type": "LineString", "coordinates": [ [ -123.14159, 49.311998 ], [ -123.14151, 49.312111 ], [ -123.140454, 49.313261 ] ] } },
{ "type": "Feature", "properties": { "cls": "shared", "highway": "cycleway", "name": "SB Lions Gate Bridge Bike Route" }, "geometry": { "type": "LineString", "coordinates": [ [ -123.140646, 49.31331 ], [ -123.141739, 49.312123 ], [ -123.141818, 49.312057 ], [ -123.141852, 49.312031 ] ] } },
{ "type": "Feature", "properties": { "cls": "shared", "highway": "footway", "name": "Hanson Trail" }, "geometry": { "type": "LineString", "coordinates": [ [ -123.14254, 49.308079 ], [ -123.142424, 49.308195 ], [ -123.142685, 49.308323 ], [ -123.142922, 49.308448 ], [ -123.142956, 49.308576 ], [ -123.142949, 49.308641 ], [ -123.14293, 49.308666 ], [ -123.142943, 49.308688 ] ] } },
{ "type": "Feature", "properties": { "cls": "separated", "highway": "cycleway", "name": "NB Stanley Park Causeway Bike Route" }, "geometry": { "type": "LineString", "coordinates": [ [ -123.143932, 49.309202 ], [ -123.143898, 49.309211 ], [ -123.143868, 49.30922 ] ] } },
{ "type": "Feature", "properties": { "cls": "separated", "highway": "cycleway", "name": "NB Stanley Park Causeway Bike Route" }, "geometry": { "type": "LineString", "coordinates": [ [ -123.143868, 49.30922 ], [ -123.143834, 49.309259 ], [ -123.143829, 49.309303 ], [ -123.143608, 49.309648 ] ] } },
{ "type": "Feature", "properties": { "cls": "separated", "highway": "cycleway", "name": "NB Stanley Park Causeway Bike Route" }, "geometry": { "type": "LineString", "coordinates": [ [ -123.143608, 49.309648 ], [ -123.143603, 49.309678 ], [ -123.143599, 49.309707 ] ] } },
{ "type": "Feature", "properties": { "cls": "separated", "highway": "cycleway", "name": "SB Stanley Park Causeway Bike Route" }, "geometry": { "type": "LineString", "coordinates": [ [ -123.143735, 49.309934 ], [ -123.143749, 49.309893 ], [ -123.143764, 49.30985 ] ] } },
{ "type": "Feature", "properties": { "cls": "separated", "highway": "cycleway", "name": "NB Stanley Park Causeway Bike Route" }, "geometry": { "type": "LineString", "coordinates": [ [ -123.143599, 49.309707 ], [ -123.143595, 49.309737 ], [ -123.143113, 49.310345 ], [ -123.143079, 49.310388 ], [ -123.142833, 49.310665 ], [ -123.14282, 49.31068 ], [ -123.142426, 49.311107 ], [ -123.142381, 49.311156 ], [ -123.142149, 49.311418 ], [ -123.142139, 49.311429 ], [ -123.141966, 49.311532 ], [ -123.14182, 49.311622 ], [ -123.141719, 49.311684 ] ] } },
{ "type": "Feature", "properties": { "cls": "separated", "highway": "cycleway", "name": "Avison Trail" }, "geometry": { "type": "LineString", "coordinates": [ [ -123.142397, 49.310842 ], [ -123.142314, 49.310861 ] ] } },
{ "type": "Feature", "properties": { "cls": "separated", "highway": "cycleway", "name": "SB Stanley Park Causeway Bike Route" }, "geometry": { "type": "LineString", "coordinates": [ [ -123.142086, 49.311792 ], [ -123.142238, 49.311622 ], [ -123.142301, 49.311508 ], [ -123.142783, 49.31098 ], [ -123.143225, 49.3105 ], [ -123.143325, 49.310421 ], [ -123.143478, 49.310243 ], [ -123.143642, 49.310029 ], [ -123.143735, 49.309934 ] ] } },
{ "type": "Feature", "properties": { "cls": "separated", "highway": "cycleway", "name": "Avison Trail" }, "geometry": { "type": "LineString", "coordinates": [ [ -123.142314, 49.310861 ], [ -123.142398, 49.310988 ] ] } },
{ "type": "Feature", "properties": { "cls": "separated", "highway": "cycleway", "name": null }, "geometry": { "type": "LineString", "coordinates": [ [ -123.142398, 49.310988 ], [ -123.14263, 49.311269 ] ] } },
{ "type": "Feature", "properties": { "cls": "shared", "highway": "cycleway", "name": null }, "geometry": { "type": "LineString", "coordinates": [ [ -123.142973, 49.311418 ], [ -123.143677, 49.311687 ], [ -123.14398, 49.31195 ] ] } },
{ "type": "Feature", "properties": { "cls": "shared", "highway": "cycleway", "name": null }, "geometry": { "type": "LineString", "coordinates": [ [ -123.14263, 49.311269 ], [ -123.142665, 49.31134 ], [ -123.142683, 49.311406 ], [ -123.142676, 49.311465 ], [ -123.142681, 49.31157 ], [ -123.142781, 49.312314 ] ] } },
{ "type": "Feature", "properties": { "cls": "shared", "highway": "cycleway", "name": "NB Stanley Park Causeway Bike Route" }, "geometry": { "type": "LineString", "coordinates": [ [ -123.141719, 49.311684 ], [ -123.141623, 49.311818 ], [ -123.141608, 49.311899 ], [ -123.14162, 49.311931 ], [ -123.14159, 49.311998 ] ] } },
{ "type": "Feature", "properties": { "cls": "separated", "highway": "cycleway", "name": "SB Stanley Park Causeway Bike Route" }, "geometry": { "type": "LineString", "coordinates": [ [ -123.142005, 49.311935 ], [ -123.142086, 49.311792 ] ] } },
{ "type": "Feature", "properties": { "cls": "separated", "highway": "cycleway", "name": "SB Stanley Park Causeway Bike Route" }, "geometry": { "type": "LineString", "coordinates": [ [ -123.14198, 49.31195 ], [ -123.142005, 49.311935 ] ] } },
{ "type": "Feature", "properties": { "cls": "shared", "highway": "cycleway", "name": "SB Stanley Park Causeway Bike Route" }, "geometry": { "type": "LineString", "coordinates": [ [ -123.141959, 49.311962 ], [ -123.14198, 49.31195 ] ] } },
{ "type": "Feature", "properties": { "cls": "shared", "highway": "cycleway", "name": null }, "geometry": { "type": "LineString", "coordinates": [ [ -123.14198, 49.31195 ], [ -123.142002, 49.311965 ] ] } },
{ "type": "Feature", "properties": { "cls": "separated", "highway": "cycleway", "name": "SB Stanley Park Causeway Bike Route" }, "geometry": { "type": "LineString", "coordinates": [ [ -123.141891, 49.312019 ], [ -123.141959, 49.311962 ] ] } },
{ "type": "Feature", "properties": { "cls": "shared", "highway": "cycleway", "name": null }, "geometry": { "type": "LineString", "coordinates": [ [ -123.141608, 49.311899 ], [ -123.141535, 49.311983 ], [ -123.141459, 49.312059 ], [ -123.141414, 49.312108 ], [ -123.141412, 49.312132 ] ] } },
{ "type": "Feature", "properties": { "cls": "separated", "highway": "cycleway", "name": "SB Stanley Park Causeway Bike Route" }, "geometry": { "type": "LineString", "coordinates": [ [ -123.141852, 49.312031 ], [ -123.141891, 49.312019 ] ] } },
{ "type": "Feature", "properties": { "cls": "shared", "highway": "cycleway", "name": null }, "geometry": { "type": "LineString", "coordinates": [ [ -123.141707, 49.312246 ], [ -123.141862, 49.312101 ], [ -123.141934, 49.312056 ] ] } },
{ "type": "Feature", "properties": { "cls": "shared", "highway": "cycleway", "name": null }, "geometry": { "type": "LineString", "coordinates": [ [ -123.141412, 49.312132 ], [ -123.141685, 49.312244 ], [ -123.141707, 49.312246 ] ] } },
{ "type": "Feature", "properties": { "cls": "painted", "highway": "tertiary", "name": "Stanley Park Drive" }, "geometry": { "type": "LineString", "coordinates": [ [ -123.14319, 49.312426 ], [ -123.143273, 49.312442 ], [ -123.143359, 49.312453 ], [ -123.1438, 49.312496 ], [ -123.144204, 49.312533 ], [ -123.14429, 49.312537 ] ] } },
{ "type": "Feature", "properties": { "cls": "shared", "highway": "cycleway", "name": null }, "geometry": { "type": "LineString", "coordinates": [ [ -123.142002, 49.311965 ], [ -123.141934, 49.312056 ], [ -123.141923, 49.312094 ], [ -123.141875, 49.312188 ], [ -123.141827, 49.312312 ], [ -123.141958, 49.312388 ], [ -123.142071, 49.312504 ], [ -123.142107, 49.31257 ], [ -123.142143, 49.312636 ], [ -123.142245, 49.312791 ], [ -123.142379, 49.31305 ], [ -123.142548, 49.313171 ], [ -123.142572, 49.313176 ], [ -123.142624, 49.31319 ], [ -123.142705, 49.313214 ] ] } },
{ "type": "Feature", "properties": { "cls": "separated", "highway": "cycleway", "name": "Stanley Park Seawall Bike Path" }, "geometry": { "type": "LineString", "coordinates": [ [ -123.139498, 49.312763 ], [ -123.139732, 49.312953 ], [ -123.139818, 49.313014 ], [ -123.139954, 49.313073 ], [ -123.14015, 49.313139 ], [ -123.140377, 49.313161 ], [ -123.140784, 49.313253 ], [ -123.141004, 49.313376 ], [ -123.141177, 49.313537 ], [ -123.141237, 49.313694 ], [ -123.141279, 49.313858 ] ] } },
{ "type": "Feature", "properties": { "cls": "separated", "highway": "cycleway", "name": "Stanley Park Seawall Bike Path" }, "geometry": { "type": "LineString", "coordinates": [ [ -123.141279, 49.313858 ], [ -123.141261, 49.313877 ] ] } },
{ "type": "Feature", "properties": { "cls": "separated", "highway": "cycleway", "name": "Stanley Park Seawall Bike Path" }, "geometry": { "type": "LineString", "coordinates": [ [ -123.142053, 49.313971 ], [ -123.142149, 49.313952 ], [ -123.142236, 49.313949 ], [ -123.14236, 49.313956 ], [ -123.142557, 49.313948 ] ] } }
]
}
