{
"type": "FeatureCollection",
"name": "201-sintra-sintra-cascais-natural-park",
"crs": { "type": "name", "properties": { "name": "urn:ogc:def:crs:OGC:1.3:CRS84" } },
"xy_coordinate_resolution": 1e-06,
"features": [
{ "type": "Feature", "properties": { "cls": "sharrow", "highway": "residential", "name": "Avenida Rei Humberto II de Itália" }, "geometry": { "type": "LineString", "coordinates": [ [ -9.420641, 38.693441 ], [ -9.420709, 38.693206 ], [ -9.420801, 38.692889 ], [ -9.420915, 38.692495 ], [ -9.420948, 38.692388 ], [ -9.420975, 38.692301 ] ] } },
{ "type": "Feature", "properties": { "cls": "sharrow", "highway": "residential", "name": "Avenida Rei Humberto II de Itália" }, "geometry": { "type": "LineString", "coordinates": [ [ -9.420641, 38.693441 ], [ -9.420587, 38.693525 ], [ -9.420564, 38.693595 ], [ -9.420558, 38.693688 ], [ -9.420587, 38.693814 ], [ -9.420799, 38.694134 ], [ -9.420927, 38.694285 ], [ -9.42093, 38.694305 ] ] } },
{ "type": "Feature", "properties": { "cls": "sharrow", "highway": "tertiary", "name": "Avenida Dom Carlos I" }, "geometry": { "type": "LineString", "coordinates": [ [ -9.420954, 38.694393 ], [ -9.420841, 38.694467 ], [ -9.420808, 38.694485 ], [ -9.420639, 38.694579 ] ] } },
{ "type": "Feature", "properties": { "cls": "sharrow", "highway": "tertiary", "name": "Avenida Dom Carlos I" }, "geometry": { "type": "LineString", "coordinates": [ [ -9.419411, 38.69537 ], [ -9.419406, 38.695347 ], [ -9.419417, 38.695268 ], [ -9.419454, 38.695206 ], [ -9.419511, 38.695145 ], [ -9.419617, 38.695075 ], [ -9.419714, 38.69502 ], [ -9.419938, 38.694899 ], [ -9.420076, 38.694825 ], [ -9.420245, 38.694724 ], [ -9.420395, 38.694668 ], [ -9.420639, 38.694579 ] ] } },
{ "type": "Feature", "properties": { "cls": "painted", "highway": "tertiary", "name": "Volta do Duche" }, "geometry": { "type": "LineString", "coordinates": [ [ -9.389764, 38.796697 ], [ -9.389628, 38.796629 ], [ -9.389573, 38.796612 ], [ -9.389516, 38.796598 ], [ -9.38949, 38.796598 ], [ -9.389378, 38.796601 ], [ -9.389036, 38.796597 ], [ -9.388966, 38.79659 ], [ -9.388855, 38.796569 ], [ -9.388154, 38.796416 ], [ -9.38809, 38.796409 ], [ -9.388049, 38.796406 ], [ -9.387993, 38.796407 ], [ -9.387921, 38.796416 ], [ -9.387701, 38.796456 ], [ -9.387481, 38.796496 ], [ -9.387415, 38.796502 ], [ -9.387292, 38.796501 ], [ -9.387151, 38.796495 ], [ -9.387016, 38.79649 ], [ -9.38687, 38.796478 ], [ -9.386681, 38.796472 ], [ -9.386611, 38.796476 ], [ -9.386584, 38.796484 ], [ -9.38655, 38.796499 ], [ -9.386491, 38.796544 ], [ -9.386453, 38.796589 ], [ -9.386417, 38.796644 ], [ -9.3864, 38.796698 ], [ -9.386385, 38.796752 ], [ -9.386388, 38.796795 ], [ -9.38639, 38.796837 ], [ -9.386399, 38.796867 ], [ -9.386433, 38.7969 ], [ -9.386504, 38.796956 ], [ -9.386587, 38.796994 ], [ -9.386878, 38.797121 ], [ -9.387109, 38.79718 ], [ -9.38731, 38.797222 ], [ -9.387633, 38.797291 ], [ -9.387721, 38.79733 ], [ -9.387768, 38.797363 ], [ -9.387825, 38.797412 ], [ -9.387857, 38.797452 ], [ -9.387927, 38.797554 ], [ -9.387962, 38.797612 ], [ -9.388147, 38.797934 ], [ -9.388168, 38.797973 ], [ -9.388224, 38.798077 ], [ -9.388245, 38.798125 ], [ -9.388254, 38.798157 ], [ -9.388267, 38.798215 ], [ -9.388262, 38.798319 ], [ -9.388243, 38.798399 ], [ -9.388216, 38.798458 ] ] } },
{ "type": "Feature", "properties": { "cls": "painted", "highway": "primary", "name": "Avenida Heliodoro Salgado" }, "geometry": { "type": "LineString", "coordinates": [ [ -9.381677, 38.802647 ], [ -9.381683, 38.802668 ], [ -9.381684, 38.802698 ], [ -9.381625, 38.802935 ], [ -9.381551, 38.803216 ], [ -9.381518, 38.803342 ] ] } },
{ "type": "Feature", "properties": { "cls": "shared", "highway": "path", "name": "Praceta Doutor Arnaldo Sampaio" }, "geometry": { "type": "LineString", "coordinates": [ [ -9.382102, 38.803796 ], [ -9.381765, 38.803818 ] ] } },
{ "type": "Feature", "properties": { "cls": "separated", "highway": "cycleway", "name": null }, "geometry": { "type": "LineString", "coordinates": [ [ -9.421994, 38.691121 ], [ -9.422109, 38.690895 ], [ -9.422185, 38.690793 ], [ -9.422296, 38.690685 ], [ -9.422409, 38.690598 ], [ -9.422559, 38.690517 ], [ -9.422944, 38.690338 ], [ -9.423112, 38.690268 ], [ -9.423278, 38.69023 ], [ -9.423438, 38.690217 ], [ -9.423616, 38.690219 ], [ -9.423743, 38.690232 ], [ -9.424762, 38.690396 ], [ -9.424909, 38.690408 ], [ -9.425133, 38.690421 ], [ -9.425559, 38.690436 ], [ -9.426116, 38.690435 ], [ -9.426451, 38.690433 ], [ -9.427173, 38.690426 ], [ -9.427458, 38.690443 ], [ -9.427683, 38.690482 ], [ -9.427944, 38.690544 ], [ -9.428014, 38.69055 ], [ -9.428061, 38.690549 ], [ -9.428301, 38.690631 ], [ -9.428358, 38.690652 ], [ -9.428421, 38.690698 ], [ -9.428466, 38.69072 ], [ -9.4289, 38.690862 ], [ -9.429098, 38.690928 ], [ -9.429278, 38.691 ], [ -9.429511, 38.691103 ], [ -9.42977, 38.691225 ], [ -9.429831, 38.691254 ], [ -9.429882, 38.691281 ], [ -9.429961, 38.691324 ], [ -9.430131, 38.691416 ], [ -9.430375, 38.691541 ], [ -9.430486, 38.6916 ], [ -9.430685, 38.691693 ], [ -9.430875, 38.691759 ], [ -9.431005, 38.691793 ], [ -9.431097, 38.691809 ], [ -9.431146, 38.691813 ], [ -9.431346, 38.69182 ], [ -9.43149, 38.691825 ], [ -9.43153, 38.691823 ], [ -9.431566, 38.691816 ], [ -9.431618, 38.691803 ], [ -9.431665, 38.691792 ], [ -9.43173, 38.691781 ], [ -9.431774, 38.691777 ], [ -9.431831, 38.691775 ], [ -9.431895, 38.691778 ], [ -9.431942, 38.691785 ], [ -9.432002, 38.691802 ], [ -9.432258, 38.691917 ], [ -9.432542, 38.691955 ], [ -9.432852, 38.692021 ], [ -9.433128, 38.692111 ], [ -9.433455, 38.692259 ], [ -9.433708, 38.692419 ], [ -9.433772, 38.692472 ], [ -9.433781, 38.692481 ], [ -9.433893, 38.692573 ], [ -9.434016, 38.692691 ], [ -9.434028, 38.692702 ], [ -9.43447, 38.693124 ], [ -9.434565, 38.693207 ], [ -9.434713, 38.693333 ], [ -9.434831, 38.693438 ], [ -9.435244, 38.693744 ], [ -9.435463, 38.693883 ], [ -9.435514, 38.693904 ], [ -9.435683, 38.693975 ], [ -9.435821, 38.694051 ], [ -9.435949, 38.694174 ], [ -9.436066, 38.694325 ], [ -9.436092, 38.694352 ], [ -9.436121, 38.694375 ], [ -9.436635, 38.69472 ], [ -9.436959, 38.694955 ], [ -9.437312, 38.695203 ], [ -9.437409, 38.695231 ], [ -9.437492, 38.695258 ], [ -9.437542, 38.695286 ], [ -9.437581, 38.695312 ], [ -9.437651, 38.695367 ], [ -9.437703, 38.695398 ], [ -9.437784, 38.695433 ], [ -9.438017, 38.695509 ], [ -9.438537, 38.695652 ], [ -9.438906, 38.69575 ], [ -9.439544, 38.695913 ], [ -9.439683, 38.695926 ], [ -9.439839, 38.69594 ], [ -9.439867, 38.695941 ], [ -9.439893, 38.695941 ], [ -9.440283, 38.695948 ], [ -9.440796, 38.695896 ], [ -9.440896, 38.695886 ], [ -9.440939, 38.695873 ], [ -9.440967, 38.69585 ], [ -9.441005, 38.6958 ], [ -9.441024, 38.69578 ], [ -9.441044, 38.695765 ], [ -9.441114, 38.695738 ], [ -9.441192, 38.69573 ], [ -9.441402, 38.695759 ] ] } },
{ "type": "Feature", "properties": { "cls": "sharrow", "highway": "residential", "name": "Avenida Rei Humberto II de Itália" }, "geometry": { "type": "LineString", "coordinates": [ [ -9.421093, 38.694348 ], [ -9.421037, 38.694262 ], [ -9.421026, 38.694244 ], [ -9.420936, 38.694079 ], [ -9.420726, 38.693771 ], [ -9.420668, 38.693675 ], [ -9.420641, 38.693597 ], [ -9.420644, 38.69353 ], [ -9.420641, 38.693441 ] ] } },
{ "type": "Feature", "properties": { "cls": "sharrow", "highway": "residential", "name": "Avenida Rei Humberto II de Itália" }, "geometry": { "type": "LineString", "coordinates": [ [ -9.42093, 38.694305 ], [ -9.420964, 38.69438 ] ] } },
{ "type": "Feature", "properties": { "cls": "sharrow", "highway": "tertiary", "name": "Rotunda João Paulo II" }, "geometry": { "type": "LineString", "coordinates": [ [ -9.421093, 38.694348 ], [ -9.421073, 38.694344 ], [ -9.421052, 38.694343 ], [ -9.421032, 38.694345 ], [ -9.421012, 38.69435 ], [ -9.420994, 38.694358 ], [ -9.420978, 38.694368 ], [ -9.420964, 38.69438 ], [ -9.420954, 38.694393 ] ] } },
{ "type": "Feature", "properties": { "cls": "sharrow", "highway": "tertiary", "name": "Rotunda João Paulo II" }, "geometry": { "type": "LineString", "coordinates": [ [ -9.421114, 38.694355 ], [ -9.421103, 38.694351 ], [ -9.421093, 38.694348 ] ] } },
{ "type": "Feature", "properties": { "cls": "sharrow", "highway": "tertiary", "name": "Rotunda João Paulo II" }, "geometry": { "type": "LineString", "coordinates": [ [ -9.420954, 38.694393 ], [ -9.420948, 38.694404 ], [ -9.420944, 38.694416 ], [ -9.420942, 38.694427 ], [ -9.420942, 38.694439 ], [ -9.420944, 38.69445 ], [ -9.420948, 38.694462 ], [ -9.420954, 38.694473 ], [ -9.420961, 38.694483 ], [ -9.42097, 38.694492 ], [ -9.420971, 38.694493 ] ] } },
{ "type": "Feature", "properties": { "cls": "sharrow", "highway": "tertiary", "name": "Avenida Dom Carlos I" }, "geometry": { "type": "LineString", "coordinates": [ [ -9.420639, 38.694579 ], [ -9.420852, 38.694541 ], [ -9.420917, 38.694529 ] ] } },
{ "type": "Feature", "properties": { "cls": "separated", "highway": "cycleway", "name": "Ciclovia Boca do Inferno - Bairro do Rosário" }, "geometry": { "type": "LineString", "coordinates": [ [ -9.431346, 38.69182 ], [ -9.431337, 38.691861 ], [ -9.431328, 38.691902 ], [ -9.431323, 38.691931 ] ] } },
{ "type": "Feature", "properties": { "cls": "painted", "highway": "primary", "name": "Avenida da República" }, "geometry": { "type": "LineString", "coordinates": [ [ -9.437811, 38.695557 ], [ -9.437605, 38.695508 ] ] } },
{ "type": "Feature", "properties": { "cls": "separated", "highway": "cycleway", "name": "Ciclovia do Guincho" }, "geometry": { "type": "LineString", "coordinates": [ [ -9.441591, 38.695822 ], [ -9.441402, 38.695759 ] ] } },
{ "type": "Feature", "properties": { "cls": "separated", "highway": "cycleway", "name": "Ciclovia do Guincho" }, "geometry": { "type": "MultiLineString", "coordinates": [ [ [ -9.44236, 38.695851 ], [ -9.442112, 38.695866 ], [ -9.442026, 38.695876 ] ], [ [ -9.4417, 38.695913 ], [ -9.441609, 38.695924 ] ] ] } },
{ "type": "Feature", "properties": { "cls": "painted", "highway": "residential", "name": "Rua do Golfe" }, "geometry": { "type": "LineString", "coordinates": [ [ -9.447467, 38.695955 ], [ -9.447462, 38.696 ], [ -9.447468, 38.696085 ] ] } },
{ "type": "Feature", "properties": { "cls": "separated", "highway": "cycleway", "name": "Ciclovia do Guincho" }, "geometry": { "type": "LineString", "coordinates": [ [ -9.471444, 38.70129 ], [ -9.471233, 38.7012 ], [ -9.467932, 38.699921 ], [ -9.467636, 38.699805 ], [ -9.467584, 38.699786 ], [ -9.467305, 38.69967 ], [ -9.467108, 38.69959 ], [ -9.466763, 38.69943 ], [ -9.46629, 38.699117 ], [ -9.465516, 38.698546 ], [ -9.465122, 38.698333 ], [ -9.464646, 38.698121 ], [ -9.463647, 38.697712 ], [ -9.463482, 38.697645 ], [ -9.463411, 38.697616 ], [ -9.463173, 38.697518 ], [ -9.461812, 38.696959 ], [ -9.461434, 38.696776 ], [ -9.461415, 38.696767 ], [ -9.461104, 38.69657 ], [ -9.460722, 38.696316 ], [ -9.460245, 38.696034 ], [ -9.460035, 38.695923 ], [ -9.459792, 38.695827 ], [ -9.459567, 38.695756 ], [ -9.459186, 38.695663 ], [ -9.458496, 38.695575 ], [ -9.457977, 38.695533 ], [ -9.457338, 38.695504 ], [ -9.457194, 38.695509 ], [ -9.456808, 38.695522 ], [ -9.456526, 38.695542 ], [ -9.456434, 38.695548 ], [ -9.456008, 38.695586 ], [ -9.455782, 38.695599 ], [ -9.455552, 38.695602 ], [ -9.454675, 38.695565 ], [ -9.454134, 38.695541 ], [ -9.453973, 38.695534 ], [ -9.45375, 38.695524 ], [ -9.453591, 38.695517 ], [ -9.453247, 38.695515 ], [ -9.451004, 38.695501 ], [ -9.450753, 38.695505 ], [ -9.450502, 38.695522 ], [ -9.450026, 38.695588 ], [ -9.449337, 38.695746 ], [ -9.449229, 38.695774 ], [ -9.448875, 38.69587 ], [ -9.448671, 38.695925 ], [ -9.448414, 38.695967 ], [ -9.448288, 38.695988 ], [ -9.447899, 38.696006 ], [ -9.447648, 38.696003 ], [ -9.447462, 38.696 ], [ -9.447321, 38.695991 ], [ -9.447181, 38.695987 ], [ -9.445536, 38.69593 ], [ -9.442948, 38.695846 ], [ -9.44236, 38.695851 ] ] } },
{ "type": "Feature", "properties": { "cls": "painted", "highway": "residential", "name": null }, "geometry": { "type": "LineString", "coordinates": [ [ -9.449128, 38.704287 ], [ -9.449105, 38.704268 ], [ -9.449086, 38.704262 ], [ -9.449052, 38.704257 ], [ -9.449031, 38.704261 ] ] } },
{ "type": "Feature", "properties": { "cls": "painted", "highway": "residential", "name": null }, "geometry": { "type": "LineString", "coordinates": [ [ -9.449122, 38.704378 ], [ -9.449137, 38.704355 ], [ -9.449144, 38.704328 ], [ -9.449128, 38.704287 ] ] } },
{ "type": "Feature", "properties": { "cls": "painted", "highway": "residential", "name": null }, "geometry": { "type": "LineString", "coordinates": [ [ -9.448966, 38.704476 ], [ -9.449003, 38.704451 ], [ -9.44905, 38.70442 ], [ -9.449122, 38.704378 ] ] } },
{ "type": "Feature", "properties": { "cls": "painted", "highway": "residential", "name": "Rua Bicuda" }, "geometry": { "type": "LineString", "coordinates": [ [ -9.448958, 38.704503 ], [ -9.448973, 38.704482 ], [ -9.449003, 38.704451 ] ] } },
{ "type": "Feature", "properties": { "cls": "painted", "highway": "residential", "name": "Rua Bicuda" }, "geometry": { "type": "MultiLineString", "coordinates": [ [ [ -9.449167, 38.707197 ], [ -9.44915, 38.706996 ], [ -9.449139, 38.706758 ] ], [ [ -9.449073, 38.705841 ], [ -9.449067, 38.705776 ], [ -9.449044, 38.705693 ], [ -9.449021, 38.70561 ], [ -9.448842, 38.70522 ] ] ] } },
{ "type": "Feature", "properties": { "cls": "painted", "highway": "residential", "name": "Rua da Galinhola" }, "geometry": { "type": "LineString", "coordinates": [ [ -9.449147, 38.707203 ], [ -9.449167, 38.707197 ] ] } },
{ "type": "Feature", "properties": { "cls": "shared", "highway": "cycleway", "name": null }, "geometry": { "type": "LineString", "coordinates": [ [ -9.465013, 38.71036 ], [ -9.464978, 38.710366 ], [ -9.46494, 38.710367 ], [ -9.464903, 38.710368 ], [ -9.464856, 38.710359 ], [ -9.464796, 38.710334 ], [ -9.464765, 38.710313 ], [ -9.464649, 38.710234 ], [ -9.464589, 38.710199 ], [ -9.464506, 38.71017 ], [ -9.464412, 38.710166 ] ] } },
{ "type": "Feature", "properties": { "cls": "separated", "highway": "cycleway", "name": "Ciclovia do Guincho" }, "geometry": { "type": "LineString", "coordinates": [ [ -9.474621, 38.727714 ], [ -9.474548, 38.72741 ], [ -9.474358, 38.72694 ], [ -9.474287, 38.726727 ], [ -9.474256, 38.726614 ], [ -9.47424, 38.726492 ], [ -9.474255, 38.726332 ], [ -9.474279, 38.726171 ], [ -9.474509, 38.725339 ], [ -9.474562, 38.725149 ], [ -9.474586, 38.725062 ], [ -9.474595, 38.725031 ], [ -9.474671, 38.724836 ], [ -9.474764, 38.724642 ], [ -9.474894, 38.724484 ], [ -9.47504, 38.72433 ], [ -9.475233, 38.724189 ], [ -9.475435, 38.724054 ], [ -9.476145, 38.723646 ], [ -9.477218, 38.723038 ], [ -9.477386, 38.722936 ], [ -9.477528, 38.722842 ], [ -9.477607, 38.722774 ], [ -9.477678, 38.722702 ], [ -9.477725, 38.722631 ], [ -9.47776, 38.722561 ], [ -9.477788, 38.722485 ], [ -9.477808, 38.722408 ], [ -9.477815, 38.722289 ], [ -9.477807, 38.722189 ], [ -9.477803, 38.722047 ], [ -9.477789, 38.721942 ], [ -9.477741, 38.721557 ], [ -9.47774, 38.721435 ], [ -9.477749, 38.721316 ], [ -9.477773, 38.721166 ], [ -9.477776, 38.72115 ], [ -9.477835, 38.720975 ], [ -9.477939, 38.720746 ], [ -9.478081, 38.720537 ], [ -9.478312, 38.720221 ], [ -9.478601, 38.719805 ], [ -9.478991, 38.719242 ], [ -9.47977, 38.718107 ], [ -9.480098, 38.717628 ], [ -9.480305, 38.717331 ], [ -9.480621, 38.716973 ], [ -9.480803, 38.71677 ], [ -9.481174, 38.716427 ], [ -9.482292, 38.715571 ], [ -9.482525, 38.715372 ], [ -9.482816, 38.714987 ], [ -9.482995, 38.71475 ], [ -9.483142, 38.714463 ], [ -9.483242, 38.714246 ], [ -9.483639, 38.713505 ], [ -9.483901, 38.713028 ], [ -9.483969, 38.712902 ], [ -9.484251, 38.712325 ], [ -9.48438, 38.712051 ], [ -9.484467, 38.711837 ], [ -9.484618, 38.71145 ], [ -9.484682, 38.711234 ], [ -9.484777, 38.710829 ], [ -9.484806, 38.710622 ], [ -9.484843, 38.710305 ], [ -9.484838, 38.710109 ], [ -9.484837, 38.709826 ], [ -9.484799, 38.709645 ], [ -9.484744, 38.709395 ], [ -9.484716, 38.709292 ], [ -9.484682, 38.709183 ], [ -9.484519, 38.708792 ], [ -9.484222, 38.708284 ], [ -9.484041, 38.708057 ], [ -9.483894, 38.707882 ], [ -9.483637, 38.707637 ], [ -9.483223, 38.707318 ], [ -9.482733, 38.706952 ], [ -9.482314, 38.706697 ], [ -9.48182, 38.706427 ], [ -9.481056, 38.706033 ], [ -9.479857, 38.70541 ], [ -9.479361, 38.705131 ], [ -9.479299, 38.70509 ], [ -9.479111, 38.704968 ], [ -9.47881, 38.704725 ], [ -9.478648, 38.704566 ], [ -9.478022, 38.703963 ], [ -9.4778, 38.703769 ], [ -9.477621, 38.703652 ], [ -9.477411, 38.703524 ], [ -9.477226, 38.703423 ], [ -9.476813, 38.70325 ], [ -9.476187, 38.703053 ], [ -9.475643, 38.702901 ], [ -9.475137, 38.702712 ], [ -9.473117, 38.701938 ], [ -9.471444, 38.70129 ] ] } },
{ "type": "Feature", "properties": { "cls": "separated", "highway": "cycleway", "name": "Ciclovia Bicuda - Guincho" }, "geometry": { "type": "MultiLineString", "coordinates": [ [ [ -9.466077, 38.721714 ], [ -9.465908, 38.721245 ], [ -9.465831, 38.721003 ], [ -9.465818, 38.720961 ], [ -9.465778, 38.72086 ], [ -9.465677, 38.720431 ], [ -9.465587, 38.720241 ], [ -9.465359, 38.719891 ], [ -9.464861, 38.719238 ], [ -9.464314, 38.718503 ], [ -9.463887, 38.717928 ], [ -9.463707, 38.717751 ], [ -9.463447, 38.717582 ], [ -9.46324, 38.717482 ], [ -9.463092, 38.71744 ], [ -9.462893, 38.717411 ], [ -9.462554, 38.717408 ], [ -9.462039, 38.717415 ], [ -9.461915, 38.717414 ], [ -9.461839, 38.717399 ], [ -9.461797, 38.717379 ], [ -9.461767, 38.71736 ], [ -9.461743, 38.717338 ], [ -9.461696, 38.717288 ], [ -9.461645, 38.717219 ], [ -9.461617, 38.717177 ], [ -9.461595, 38.717156 ], [ -9.461571, 38.717138 ], [ -9.461557, 38.717129 ], [ -9.461524, 38.71712 ], [ -9.461485, 38.717118 ], [ -9.461451, 38.717124 ], [ -9.461405, 38.717132 ], [ -9.461379, 38.717133 ], [ -9.461344, 38.71713 ], [ -9.461275, 38.717114 ], [ -9.460875, 38.716976 ], [ -9.46062, 38.716886 ], [ -9.459944, 38.716677 ], [ -9.45988, 38.716654 ] ], [ [ -9.458892, 38.71577 ], [ -9.458763, 38.715599 ], [ -9.458343, 38.715027 ], [ -9.457997, 38.714564 ], [ -9.457918, 38.714464 ], [ -9.457518, 38.714018 ], [ -9.457232, 38.713715 ] ], [ [ -9.457181, 38.713662 ], [ -9.457066, 38.71354 ], [ -9.456755, 38.713256 ], [ -9.456619, 38.713135 ], [ -9.456493, 38.713014 ], [ -9.456386, 38.712878 ], [ -9.456323, 38.712764 ], [ -9.456176, 38.712467 ], [ -9.45602, 38.712151 ], [ -9.455956, 38.712026 ], [ -9.455905, 38.711944 ], [ -9.45582, 38.711842 ], [ -9.455755, 38.711779 ], [ -9.455675, 38.711717 ], [ -9.455583, 38.711655 ], [ -9.455467, 38.711596 ], [ -9.455356, 38.711552 ], [ -9.455261, 38.711524 ], [ -9.455172, 38.711503 ], [ -9.455078, 38.711488 ], [ -9.455008, 38.711479 ], [ -9.454891, 38.711469 ], [ -9.454732, 38.711461 ], [ -9.454449, 38.711451 ], [ -9.454043, 38.711432 ], [ -9.453684, 38.711401 ], [ -9.453411, 38.711369 ], [ -9.453171, 38.711333 ], [ -9.453015, 38.711305 ], [ -9.452857, 38.711269 ], [ -9.452708, 38.711219 ], [ -9.452536, 38.711145 ], [ -9.452117, 38.710948 ], [ -9.451944, 38.710862 ], [ -9.451916, 38.710843 ], [ -9.451896, 38.71082 ], [ -9.451877, 38.710787 ], [ -9.451837, 38.710723 ], [ -9.451789, 38.71069 ], [ -9.451714, 38.710668 ], [ -9.451612, 38.710666 ], [ -9.451571, 38.710661 ], [ -9.451528, 38.710645 ], [ -9.451492, 38.710629 ], [ -9.451107, 38.710448 ], [ -9.4508, 38.710299 ], [ -9.45052, 38.710173 ], [ -9.450106, 38.70998 ], [ -9.449792, 38.709835 ], [ -9.449697, 38.709799 ], [ -9.44961, 38.709775 ], [ -9.449525, 38.709757 ], [ -9.449416, 38.709739 ], [ -9.449317, 38.709744 ] ] ] } },
{ "type": "Feature", "properties": { "cls": "shared", "highway": "path", "name": null }, "geometry": { "type": "LineString", "coordinates": [ [ -9.466077, 38.721714 ], [ -9.466103, 38.72181 ] ] } },
{ "type": "Feature", "properties": { "cls": "shared", "highway": "path", "name": null }, "geometry": { "type": "LineString", "coordinates": [ [ -9.466103, 38.72181 ], [ -9.466218, 38.722153 ], [ -9.466396, 38.722718 ], [ -9.466588, 38.723293 ], [ -9.466803, 38.723908 ], [ -9.466924, 38.724182 ], [ -9.467128, 38.724538 ], [ -9.467313, 38.724825 ], [ -9.467645, 38.725331 ], [ -9.467863, 38.725681 ], [ -9.468088, 38.726147 ], [ -9.468203, 38.726451 ], [ -9.468238, 38.726543 ], [ -9.468256, 38.72659 ], [ -9.468281, 38.726702 ], [ -9.468314, 38.726751 ], [ -9.468405, 38.726847 ], [ -9.468421, 38.726876 ], [ -9.46843, 38.72694 ], [ -9.468408, 38.726996 ], [ -9.468367, 38.727133 ], [ -9.468361, 38.727223 ], [ -9.468415, 38.727953 ], [ -9.468453, 38.72847 ], [ -9.46853, 38.728849 ], [ -9.468603, 38.729066 ], [ -9.468631, 38.729126 ], [ -9.468748, 38.729378 ], [ -9.468903, 38.729623 ], [ -9.469204, 38.730044 ], [ -9.4693, 38.730131 ], [ -9.469416, 38.73017 ], [ -9.469468, 38.730176 ], [ -9.469542, 38.730174 ], [ -9.469632, 38.730148 ] ] } },
{ "type": "Feature", "properties": { "cls": "separated", "highway": "cycleway", "name": "Ciclovia do Guincho" }, "geometry": { "type": "LineString", "coordinates": [ [ -9.474646, 38.728075 ], [ -9.474648, 38.727988 ], [ -9.474641, 38.727856 ], [ -9.47463, 38.727777 ], [ -9.474621, 38.727714 ] ] } },
{ "type": "Feature", "properties": { "cls": "separated", "highway": "cycleway", "name": "Ciclovia do Guincho" }, "geometry": { "type": "LineString", "coordinates": [ [ -9.474643, 38.72816 ], [ -9.474646, 38.728075 ] ] } },
{ "type": "Feature", "properties": { "cls": "separated", "highway": "cycleway", "name": null }, "geometry": { "type": "LineString", "coordinates": [ [ -9.474756, 38.72817 ], [ -9.474707, 38.728168 ], [ -9.474643, 38.72816 ] ] } },
{ "type": "Feature", "properties": { "cls": "separated", "highway": "cycleway", "name": "Ciclovia do Guincho" }, "geometry": { "type": "LineString", "coordinates": [ [ -9.474643, 38.72816 ], [ -9.47464, 38.728253 ], [ -9.47461, 38.72843 ], [ -9.474593, 38.7285 ], [ -9.474518, 38.728699 ], [ -9.474436, 38.72883 ], [ -9.474351, 38.728944 ], [ -9.474206, 38.729094 ], [ -9.474067, 38.72921 ], [ -9.473941, 38.729294 ], [ -9.473847, 38.729349 ], [ -9.473807, 38.729369 ] ] } },
{ "type": "Feature", "properties": { "cls": "separated", "highway": "cycleway", "name": null }, "geometry": { "type": "LineString", "coordinates": [ [ -9.468579, 38.729133 ], [ -9.468631, 38.729126 ] ] } },
{ "type": "Feature", "properties": { "cls": "separated", "highway": "cycleway", "name": "Ciclovia do Guincho" }, "geometry": { "type": "LineString", "coordinates": [ [ -9.473807, 38.729369 ], [ -9.473773, 38.729386 ], [ -9.47374, 38.729397 ], [ -9.473682, 38.729411 ] ] } },
{ "type": "Feature", "properties": { "cls": "separated", "highway": "cycleway", "name": "Passadiço da Ciclovia do Guincho" }, "geometry": { "type": "LineString", "coordinates": [ [ -9.473682, 38.729411 ], [ -9.473542, 38.729448 ], [ -9.473261, 38.729519 ], [ -9.472943, 38.729572 ], [ -9.472181, 38.729694 ], [ -9.471344, 38.729862 ], [ -9.470879, 38.729916 ], [ -9.47059, 38.729943 ], [ -9.470315, 38.729969 ], [ -9.47008, 38.730009 ], [ -9.469823, 38.730089 ], [ -9.469632, 38.730148 ] ] } },
{ "type": "Feature", "properties": { "cls": "shared", "highway": "cycleway", "name": null }, "geometry": { "type": "LineString", "coordinates": [ [ -9.458945, 38.813226 ], [ -9.458843, 38.813192 ], [ -9.458769, 38.813153 ], [ -9.458664, 38.813088 ], [ -9.458552, 38.813009 ], [ -9.458165, 38.812738 ], [ -9.457413, 38.812224 ], [ -9.457339, 38.812199 ], [ -9.457276, 38.812131 ], [ -9.456613, 38.811676 ], [ -9.456309, 38.811462 ], [ -9.455886, 38.811167 ], [ -9.455594, 38.810923 ], [ -9.454863, 38.810243 ], [ -9.454267, 38.809729 ], [ -9.453744, 38.809261 ], [ -9.453378, 38.808924 ], [ -9.451785, 38.807506 ], [ -9.451659, 38.807406 ], [ -9.451518, 38.807273 ], [ -9.451419, 38.807263 ], [ -9.451398, 38.807248 ], [ -9.451367, 38.807216 ], [ -9.451348, 38.807138 ], [ -9.451189, 38.807006 ], [ -9.451035, 38.806888 ], [ -9.450836, 38.806711 ], [ -9.450658, 38.80656 ], [ -9.450712, 38.806526 ] ] } },
{ "type": "Feature", "properties": { "cls": "shared", "highway": "footway", "name": null }, "geometry": { "type": "LineString", "coordinates": [ [ -9.463731, 38.815663 ], [ -9.46377, 38.815631 ], [ -9.463802, 38.815605 ] ] } },
{ "type": "Feature", "properties": { "cls": "shared", "highway": "cycleway", "name": null }, "geometry": { "type": "LineString", "coordinates": [ [ -9.465665, 38.818757 ], [ -9.465643, 38.818747 ], [ -9.465638, 38.818732 ], [ -9.465629, 38.818711 ], [ -9.465698, 38.818423 ], [ -9.465766, 38.818172 ], [ -9.46582, 38.817918 ], [ -9.46591, 38.817617 ], [ -9.465931, 38.817516 ], [ -9.465947, 38.817443 ], [ -9.465886, 38.817291 ], [ -9.465664, 38.81709 ], [ -9.465357, 38.816854 ], [ -9.465023, 38.816628 ], [ -9.46471, 38.816371 ], [ -9.464305, 38.8161 ], [ -9.463768, 38.8157 ], [ -9.463731, 38.815663 ], [ -9.463687, 38.815615 ], [ -9.463506, 38.815478 ], [ -9.463171, 38.815233 ], [ -9.462976, 38.815109 ], [ -9.462671, 38.814905 ], [ -9.462563, 38.814836 ], [ -9.462524, 38.814804 ], [ -9.462302, 38.814603 ], [ -9.461933, 38.814304 ], [ -9.461918, 38.814291 ], [ -9.461722, 38.814154 ], [ -9.461351, 38.813882 ], [ -9.461102, 38.813729 ], [ -9.460915, 38.813636 ], [ -9.460732, 38.813585 ], [ -9.460068, 38.813473 ] ] } },
{ "type": "Feature", "properties": { "cls": "shared", "highway": "cycleway", "name": null }, "geometry": { "type": "LineString", "coordinates": [ [ -9.466686, 38.818761 ], [ -9.467121, 38.81882 ], [ -9.468744, 38.819046 ], [ -9.469486, 38.819141 ], [ -9.470543, 38.819269 ], [ -9.471451, 38.819327 ], [ -9.472086, 38.819344 ], [ -9.472316, 38.819351 ], [ -9.472693, 38.819367 ], [ -9.472845, 38.819362 ], [ -9.473023, 38.819318 ], [ -9.473221, 38.819204 ], [ -9.473431, 38.818977 ], [ -9.474004, 38.818195 ], [ -9.474295, 38.817753 ], [ -9.474407, 38.817676 ], [ -9.474613, 38.817709 ], [ -9.474791, 38.817745 ], [ -9.47488, 38.817731 ], [ -9.474957, 38.817719 ], [ -9.475076, 38.81766 ], [ -9.475154, 38.817579 ], [ -9.475189, 38.817543 ], [ -9.475229, 38.817442 ], [ -9.475433, 38.816951 ], [ -9.475509, 38.816765 ], [ -9.475465, 38.816754 ] ] } },
{ "type": "Feature", "properties": { "cls": "shared", "highway": "cycleway", "name": null }, "geometry": { "type": "LineString", "coordinates": [ [ -9.46632, 38.818714 ], [ -9.466686, 38.818761 ] ] } },
{ "type": "Feature", "properties": { "cls": "shared", "highway": "cycleway", "name": null }, "geometry": { "type": "LineString", "coordinates": [ [ -9.46632, 38.818714 ], [ -9.466243, 38.818705 ], [ -9.466149, 38.818696 ], [ -9.466109, 38.818694 ], [ -9.466051, 38.818702 ], [ -9.466011, 38.818725 ], [ -9.465965, 38.818748 ], [ -9.465921, 38.818762 ], [ -9.465867, 38.818767 ], [ -9.46582, 38.818762 ], [ -9.465762, 38.818803 ], [ -9.465746, 38.818794 ] ] } },
{ "type": "Feature", "properties": { "cls": "shared", "highway": "cycleway", "name": null }, "geometry": { "type": "LineString", "coordinates": [ [ -9.458486, 38.836264 ], [ -9.458465, 38.836287 ], [ -9.457909, 38.835954 ], [ -9.457682, 38.835818 ], [ -9.456931, 38.835351 ], [ -9.456621, 38.835167 ], [ -9.455672, 38.834587 ], [ -9.454919, 38.834127 ], [ -9.454445, 38.833837 ], [ -9.452829, 38.832843 ], [ -9.452702, 38.832786 ], [ -9.451097, 38.832312 ], [ -9.450313, 38.832093 ], [ -9.44998, 38.831992 ], [ -9.449736, 38.831918 ], [ -9.449183, 38.831729 ], [ -9.448634, 38.831532 ], [ -9.448307, 38.831414 ], [ -9.44817, 38.831364 ], [ -9.447883, 38.831255 ], [ -9.447644, 38.831166 ], [ -9.447317, 38.831068 ], [ -9.446922, 38.830953 ], [ -9.446484, 38.830849 ], [ -9.445564, 38.830654 ], [ -9.445102, 38.83055 ], [ -9.443704, 38.830245 ], [ -9.443181, 38.830125 ], [ -9.442791, 38.830036 ], [ -9.442404, 38.829948 ], [ -9.442103, 38.82988 ], [ -9.441999, 38.829856 ], [ -9.441449, 38.829665 ], [ -9.441331, 38.829624 ], [ -9.440863, 38.829434 ], [ -9.440527, 38.829309 ], [ -9.440228, 38.829194 ], [ -9.440148, 38.829174 ], [ -9.439697, 38.829059 ], [ -9.439338, 38.828972 ], [ -9.439306, 38.828965 ], [ -9.439173, 38.82892 ], [ -9.439192, 38.828883 ] ] } }
]
}
