{"type": "FeatureCollection", "features": [{"type": "Feature", "properties": {"status": "unchanged", "cls": "shared", "counted": true, "way": 956549959, "name": "", "m": 37}, "geometry": {"type": "LineString", "coordinates": [[-9.17224, 38.724319], [-9.172297, 38.724313], [-9.172354, 38.724307], [-9.172411, 38.724301], [-9.172468, 38.724295], [-9.172525, 38.724289], [-9.172582, 38.724283], [-9.172639, 38.724278], [-9.172664, 38.724275]]}}, {"type": "Feature", "properties": {"status": "unchanged", "cls": "shared", "counted": true, "way": 691625561, "name": "Corredor Verde do Vale de Alc\u00e2ntara", "m": 118}, "geometry": {"type": "LineString", "coordinates": [[-9.170922, 38.727914], [-9.170938, 38.72787], [-9.170953, 38.727827], [-9.170954, 38.727823], [-9.170968, 38.727779], [-9.170977, 38.727749], [-9.170993, 38.727706], [-9.17101, 38.727662], [-9.171027, 38.727619], [-9.171044, 38.727576], [-9.171061, 38.727533], [-9.171064, 38.727524], [-9.171061, 38.727479], [-9.171061, 38.727479], [-9.171084, 38.727437], [-9.171108, 38.727396], [-9.171111, 38.72739], [-9.171127, 38.727347], [-9.171144, 38.727304], [-9.17115, 38.727288], [-9.171158, 38.727243], [-9.171166, 38.727199], [-9.171171, 38.727166], [-9.171173, 38.72712], [-9.171174, 38.727075], [-9.171175, 38.727039], [-9.171166, 38.726994], [-9.171158, 38.726953], [-9.171148, 38.726915], [-9.171156, 38.726895], [-9.17116, 38.726883]]}}, {"type": "Feature", "properties": {"status": "unchanged", "cls": "shared", "counted": true, "way": 671236895, "name": "Corredor Verde do Vale de Alc\u00e2ntara", "m": 105}, "geometry": {"type": "LineString", "coordinates": [[-9.170502, 38.728806], [-9.170522, 38.728763], [-9.170542, 38.728721], [-9.170562, 38.728678], [-9.170582, 38.728636], [-9.170602, 38.728594], [-9.170622, 38.728551], [-9.170642, 38.728509], [-9.170662, 38.728466], [-9.170682, 38.728424], [-9.170702, 38.728382], [-9.170722, 38.728339], [-9.170742, 38.728297], [-9.170762, 38.728254], [-9.170782, 38.728212], [-9.170802, 38.72817], [-9.170822, 38.728127], [-9.170842, 38.728085], [-9.170862, 38.728042], [-9.170882, 38.728], [-9.170902, 38.727958], [-9.170922, 38.727915], [-9.170922, 38.727914]]}}, {"type": "Feature", "properties": {"status": "added", "cls": "sharrow", "counted": false, "way": 165741156, "name": "Rua Padre Jos\u00e9 Gallea", "m": 3}, "geometry": {"type": "LineString", "coordinates": [[-9.174371, 38.729385], [-9.174375, 38.729358]]}}, {"type": "Feature", "properties": {"status": "unchanged", "cls": "separated", "counted": true, "way": 171138506, "name": "Pista do Panor\u00e2mico", "m": 710}, "geometry": {"type": "LineString", "coordinates": [[-9.18282, 38.728438], [-9.182877, 38.72843], [-9.182913, 38.728425], [-9.182968, 38.728414], [-9.183024, 38.728403], [-9.183032, 38.728401], [-9.183083, 38.72838], [-9.183131, 38.728361], [-9.183173, 38.72833], [-9.183215, 38.728299], [-9.183257, 38.728268], [-9.183262, 38.728265], [-9.1833, 38.72823], [-9.183338, 38.728196], [-9.183375, 38.728162], [-9.183413, 38.728128], [-9.183451, 38.728094], [-9.183488, 38.728059], [-9.183488, 38.728059], [-9.18353, 38.728028], [-9.183572, 38.727997], [-9.183614, 38.727966], [-9.183656, 38.727935], [-9.183683, 38.727915], [-9.183729, 38.727889], [-9.183776, 38.727862], [-9.183794, 38.727852], [-9.183844, 38.727829], [-9.183894, 38.727807], [-9.183912, 38.727799], [-9.183969, 38.727794], [-9.184012, 38.72779], [-9.18407, 38.727789], [-9.184113, 38.727789], [-9.18417, 38.727796], [-9.184205, 38.7278], [-9.184261, 38.727813], [-9.184298, 38.727821], [-9.184348, 38.727843], [-9.184398, 38.727865], [-9.184448, 38.727887], [-9.184499, 38.727909], [-9.184549, 38.727932], [-9.184599, 38.727954], [-9.184649, 38.727976], [-9.184656, 38.727979], [-9.184706, 38.728001], [-9.184756, 38.728023], [-9.184807, 38.728045], [-9.184857, 38.728067], [-9.184907, 38.728089], [-9.18495, 38.728108], [-9.184994, 38.728137], [-9.185039, 38.728166], [-9.185083, 38.728195], [-9.185127, 38.728224], [-9.185171, 38.728253], [-9.185201, 38.728274], [-9.185253, 38.728294], [-9.185304, 38.728314], [-9.185333, 38.728325], [-9.185388, 38.728338], [-9.185444, 38.72835], [-9.185468, 38.728356], [-9.185525, 38.728355], [-9.185583, 38.728355], [-9.185614, 38.728354], [-9.185669, 38.728343], [-9.18571, 38.728334], [-9.185763, 38.728317], [-9.185811, 38.728301], [-9.185856, 38.728273], [-9.185901, 38.728244], [-9.185946, 38.728216], [-9.185991, 38.728188], [-9.186036, 38.72816], [-9.186081, 38.728131], [-9.186126, 38.728103], [-9.186171, 38.728075], [-9.186186, 38.728065], [-9.186221, 38.728044], [-9.186272, 38.728022], [-9.186322, 38.727999], [-9.186372, 38.727977], [-9.186397, 38.727966], [-9.186454, 38.727959], [-9.186511, 38.727951], [-9.186568, 38.727944], [-9.186587, 38.727941], [-9.186643, 38.72795], [-9.1867, 38.727959], [-9.186756, 38.727968], [-9.186813, 38.727976], [-9.186818, 38.727977], [-9.186867, 38.728002], [-9.186915, 38.728026], [-9.186963, 38.728051], [-9.186968, 38.728054], [-9.187004, 38.728089], [-9.187039, 38.728125], [-9.187074, 38.72816], [-9.18711, 38.728196], [-9.187145, 38.728232], [-9.187176, 38.728262], [-9.18721, 38.728298], [-9.187244, 38.728335], [-9.187274, 38.728367], [-9.187306, 38.728404], [-9.187338, 38.728442], [-9.18737, 38.728479], [-9.187373, 38.728483], [-9.187406, 38.72852], [-9.187439, 38.728558], [-9.187472, 38.728595], [-9.187505, 38.728632], [-9.187537, 38.728669], [-9.187569, 38.728705], [-9.18761, 38.728737], [-9.18765, 38.728769], [-9.187691, 38.728801], [-9.1877, 38.728808], [-9.187749, 38.728832], [-9.187798, 38.728855], [-9.187848, 38.728879], [-9.187875, 38.728892], [-9.187932, 38.728899], [-9.187989, 38.728907], [-9.188017, 38.72891], [-9.188074, 38.72891], [-9.188132, 38.72891], [-9.188156, 38.72891], [-9.18821, 38.728894], [-9.188263, 38.728878], [-9.188311, 38.728863], [-9.188364, 38.728845], [-9.188417, 38.728827], [-9.18847, 38.728809], [-9.188523, 38.728791], [-9.188576, 38.728773], [-9.188629, 38.728756], [-9.188681, 38.728738], [-9.188734, 38.72872], [-9.188755, 38.728713], [-9.188807, 38.728694], [-9.188859, 38.728674], [-9.188911, 38.728655], [-9.188963, 38.728636], [-9.188995, 38.728624], [-9.189042, 38.728598], [-9.189089, 38.728572], [-9.189131, 38.728549], [-9.189166, 38.728513], [-9.189201, 38.728478], [-9.189216, 38.728462], [-9.189239, 38.72842], [-9.189262, 38.728379], [-9.189285, 38.728337], [-9.189286, 38.728334], [-9.189294, 38.728289], [-9.189303, 38.728244], [-9.189303, 38.728244], [-9.189304, 38.728198], [-9.189304, 38.728185], [-9.1893, 38.728144]]}}, {"type": "Feature", "properties": {"status": "unchanged", "cls": "separated", "counted": true, "way": 529716800, "name": "Pista do Panor\u00e2mico", "m": 564}, "geometry": {"type": "LineString", "coordinates": [[-9.181414, 38.72977], [-9.18142, 38.729752], [-9.181422, 38.729734], [-9.181422, 38.729715], [-9.181417, 38.729689], [-9.181409, 38.729664], [-9.181385, 38.729623], [-9.181384, 38.729621], [-9.181353, 38.729583], [-9.181331, 38.729556], [-9.181298, 38.72952], [-9.181273, 38.729492], [-9.181237, 38.729457], [-9.181209, 38.729429], [-9.181178, 38.729401], [-9.181147, 38.729375], [-9.181103, 38.729347], [-9.181058, 38.729318], [-9.181013, 38.72929], [-9.180972, 38.729264], [-9.18093, 38.729233], [-9.180887, 38.729202], [-9.180845, 38.729171], [-9.180803, 38.729141], [-9.180762, 38.729111], [-9.180721, 38.729079], [-9.18068, 38.729048], [-9.180639, 38.729016], [-9.180598, 38.728984], [-9.180558, 38.728953], [-9.180517, 38.728921], [-9.180476, 38.728889], [-9.180436, 38.728857], [-9.180395, 38.728825], [-9.180357, 38.728795], [-9.180318, 38.728762], [-9.180279, 38.728729], [-9.180261, 38.728713], [-9.180223, 38.728679], [-9.180186, 38.728644], [-9.180171, 38.728631], [-9.18015, 38.728602], [-9.18014, 38.728557], [-9.18014, 38.728556], [-9.180136, 38.728511], [-9.180131, 38.728466], [-9.180129, 38.728437], [-9.180126, 38.728392], [-9.180123, 38.728347], [-9.18012, 38.728301], [-9.180119, 38.728294], [-9.18012, 38.728249], [-9.180122, 38.728204], [-9.180123, 38.728159], [-9.180124, 38.728113], [-9.180126, 38.728068], [-9.180127, 38.728023], [-9.180128, 38.727978], [-9.18013, 38.727933], [-9.180131, 38.727887], [-9.180131, 38.727878], [-9.180144, 38.727834], [-9.180158, 38.72779], [-9.180171, 38.727746], [-9.180175, 38.727733], [-9.180196, 38.727691], [-9.180218, 38.727649], [-9.180239, 38.727607], [-9.180243, 38.7276], [-9.18028, 38.727565], [-9.180317, 38.727531], [-9.180334, 38.727514], [-9.180377, 38.727484], [-9.18042, 38.727453], [-9.180437, 38.727441], [-9.180484, 38.727415], [-9.180522, 38.727394], [-9.180573, 38.727373], [-9.180616, 38.727355], [-9.180669, 38.727339], [-9.180702, 38.727329], [-9.180759, 38.727324], [-9.180799, 38.72732], [-9.180856, 38.727321], [-9.180914, 38.727323], [-9.180931, 38.727323], [-9.180976, 38.727331], [-9.181021, 38.72734], [-9.181073, 38.727358], [-9.181119, 38.727374], [-9.181165, 38.727401], [-9.181166, 38.727402], [-9.181216, 38.727425], [-9.181265, 38.727447], [-9.181308, 38.727477], [-9.181348, 38.727504], [-9.18139, 38.727534], [-9.181433, 38.727564], [-9.181476, 38.727594], [-9.181519, 38.727625], [-9.181562, 38.727655], [-9.181604, 38.727685], [-9.181647, 38.727715], [-9.18169, 38.727746], [-9.181733, 38.727776], [-9.181776, 38.727806], [-9.181818, 38.727836], [-9.181861, 38.727867], [-9.181904, 38.727897], [-9.181927, 38.727913], [-9.181972, 38.727942], [-9.182016, 38.727971], [-9.18206, 38.728], [-9.182104, 38.728029], [-9.182149, 38.728058], [-9.182193, 38.728087], [-9.182237, 38.728116], [-9.182269, 38.728137], [-9.182313, 38.728167], [-9.182356, 38.728197], [-9.182399, 38.728226], [-9.182443, 38.728256], [-9.182486, 38.728286], [-9.182529, 38.728316], [-9.182557, 38.728335], [-9.182604, 38.728362], [-9.18265, 38.728389], [-9.182696, 38.728416], [-9.182708, 38.728422], [-9.182764, 38.72843], [-9.18282, 38.728438]]}}, {"type": "Feature", "properties": {"status": "unchanged", "cls": "separated", "counted": true, "way": 529716803, "name": "Pista do Panor\u00e2mico", "m": 133}, "geometry": {"type": "LineString", "coordinates": [[-9.180268, 38.730506], [-9.180299, 38.730468], [-9.180302, 38.730464], [-9.18034, 38.73043], [-9.180341, 38.730429], [-9.180384, 38.730399], [-9.180427, 38.730369], [-9.180431, 38.730367], [-9.180477, 38.730339], [-9.180523, 38.730312], [-9.180534, 38.730306], [-9.180583, 38.730282], [-9.180632, 38.730259], [-9.180636, 38.730256], [-9.180686, 38.730234], [-9.180736, 38.730211], [-9.180786, 38.730188], [-9.180835, 38.730166], [-9.180885, 38.730143], [-9.180935, 38.73012], [-9.180985, 38.730098], [-9.181004, 38.730089], [-9.181056, 38.730071], [-9.181109, 38.730052], [-9.181161, 38.730033], [-9.181214, 38.730015], [-9.181253, 38.730001], [-9.181291, 38.729967], [-9.18133, 38.729934], [-9.181352, 38.729915], [-9.181378, 38.729875], [-9.18138, 38.729871], [-9.181394, 38.729828], [-9.181409, 38.729784], [-9.181414, 38.72977]]}}, {"type": "Feature", "properties": {"status": "unchanged", "cls": "shared", "counted": true, "way": 180625992, "name": "", "m": 12}, "geometry": {"type": "LineString", "coordinates": [[-9.201774, 38.717586], [-9.201737, 38.71762], [-9.201699, 38.717655], [-9.201682, 38.71767]]}}, {"type": "Feature", "properties": {"status": "unchanged", "cls": "shared", "counted": true, "way": 207473752, "name": "", "m": 24}, "geometry": {"type": "LineString", "coordinates": [[-9.201604, 38.71774], [-9.201591, 38.717754], [-9.201547, 38.717724], [-9.201504, 38.717694], [-9.201461, 38.717665], [-9.201418, 38.717635], [-9.201403, 38.717625]]}}, {"type": "Feature", "properties": {"status": "unchanged", "cls": "separated", "counted": true, "way": 529716799, "name": "Pista do Panor\u00e2mico", "m": 431}, "geometry": {"type": "LineString", "coordinates": [[-9.1893, 38.728144], [-9.18928, 38.728102], [-9.189259, 38.72806], [-9.189251, 38.728042], [-9.189227, 38.728001], [-9.189203, 38.72796], [-9.189202, 38.727958], [-9.189176, 38.727917], [-9.189151, 38.727876], [-9.189126, 38.727836], [-9.189101, 38.727795], [-9.1891, 38.727794], [-9.189075, 38.727753], [-9.18905, 38.727712], [-9.189026, 38.727671], [-9.189001, 38.727631], [-9.188976, 38.72759], [-9.188951, 38.727549], [-9.188926, 38.727508], [-9.188902, 38.727467], [-9.188877, 38.727426], [-9.188852, 38.727386], [-9.188827, 38.727345], [-9.188802, 38.727304], [-9.188778, 38.727263], [-9.188759, 38.727232], [-9.188734, 38.727191], [-9.188709, 38.72715], [-9.188684, 38.72711], [-9.188659, 38.727069], [-9.188658, 38.727068], [-9.188637, 38.727026], [-9.188616, 38.726983], [-9.188606, 38.726964], [-9.188593, 38.72692], [-9.188585, 38.726894], [-9.188578, 38.726849], [-9.188574, 38.726826], [-9.188582, 38.726781], [-9.188589, 38.726744], [-9.188604, 38.726701], [-9.188612, 38.726678], [-9.188647, 38.726642], [-9.188681, 38.726606], [-9.188687, 38.7266], [-9.188733, 38.726573], [-9.188779, 38.726546], [-9.188808, 38.726528], [-9.188859, 38.726508], [-9.188875, 38.726502], [-9.18893, 38.726489], [-9.188945, 38.726486], [-9.189003, 38.726486], [-9.189048, 38.726486], [-9.189105, 38.726492], [-9.18915, 38.726497], [-9.189204, 38.726511], [-9.189231, 38.726518], [-9.18928, 38.726541], [-9.189311, 38.726555], [-9.189354, 38.726586], [-9.189376, 38.726602], [-9.189409, 38.726639], [-9.189427, 38.72666], [-9.18945, 38.726702], [-9.189471, 38.726741], [-9.189486, 38.726785], [-9.1895, 38.726827], [-9.189512, 38.726871], [-9.189524, 38.726915], [-9.189536, 38.726959], [-9.189547, 38.727004], [-9.189559, 38.727048], [-9.189571, 38.727092], [-9.189581, 38.72713], [-9.18959, 38.727175], [-9.189599, 38.72722], [-9.189608, 38.727264], [-9.189618, 38.727309], [-9.189627, 38.727354], [-9.189629, 38.727365], [-9.189639, 38.72741], [-9.18965, 38.727454], [-9.18966, 38.727499], [-9.18966, 38.727501], [-9.189672, 38.727545], [-9.189683, 38.72759], [-9.189689, 38.727613], [-9.189706, 38.727657], [-9.189724, 38.7277], [-9.189739, 38.727738], [-9.189761, 38.72778], [-9.189783, 38.727822], [-9.189795, 38.727845], [-9.189821, 38.727886], [-9.189832, 38.727904], [-9.189858, 38.727945], [-9.189872, 38.727968], [-9.189903, 38.728006], [-9.189934, 38.728044], [-9.18995, 38.728064], [-9.189987, 38.728098], [-9.189996, 38.728107]]}}, {"type": "Feature", "properties": {"status": "added", "cls": "separated", "counted": true, "way": 1561516375, "name": "Estrada do Outeiro-Norte", "m": 861}, "geometry": {"type": "LineString", "coordinates": [[-9.203919, 38.730123], [-9.20393, 38.730078], [-9.203941, 38.730034], [-9.203952, 38.72999], [-9.203964, 38.729945], [-9.203975, 38.729901], [-9.203985, 38.729862], [-9.203995, 38.729817], [-9.204005, 38.729773], [-9.204015, 38.729728], [-9.204025, 38.729684], [-9.204035, 38.729639], [-9.204045, 38.729595], [-9.204055, 38.72955], [-9.204065, 38.729505], [-9.204075, 38.729461], [-9.204085, 38.729416], [-9.204095, 38.729372], [-9.204105, 38.729327], [-9.204115, 38.729283], [-9.204125, 38.729238], [-9.204135, 38.729194], [-9.204145, 38.729149], [-9.204155, 38.729105], [-9.204165, 38.72906], [-9.204175, 38.729016], [-9.204185, 38.728971], [-9.204195, 38.728927], [-9.204201, 38.728899], [-9.204214, 38.728855], [-9.204228, 38.728811], [-9.204241, 38.728767], [-9.204254, 38.728723], [-9.204267, 38.728679], [-9.204281, 38.728635], [-9.204294, 38.728591], [-9.204307, 38.728547], [-9.204321, 38.728503], [-9.204327, 38.728481], [-9.20434, 38.728436], [-9.204352, 38.728392], [-9.204365, 38.728348], [-9.204378, 38.728304], [-9.20439, 38.72826], [-9.204403, 38.728216], [-9.204416, 38.728172], [-9.204423, 38.728147], [-9.204435, 38.728103], [-9.204447, 38.728058], [-9.20446, 38.728014], [-9.204472, 38.72797], [-9.204484, 38.727926], [-9.204497, 38.727882], [-9.204509, 38.727838], [-9.204521, 38.727793], [-9.204522, 38.727793], [-9.204523, 38.727747], [-9.204525, 38.727702], [-9.204526, 38.727674], [-9.204516, 38.727629], [-9.204505, 38.727585], [-9.204505, 38.727583], [-9.204484, 38.727541], [-9.204468, 38.72751], [-9.204441, 38.72747], [-9.204419, 38.727438], [-9.204388, 38.7274], [-9.204382, 38.727393], [-9.204341, 38.727362], [-9.204325, 38.72735], [-9.204286, 38.727316], [-9.204277, 38.727308], [-9.204228, 38.727284], [-9.2042, 38.72727], [-9.204147, 38.727252], [-9.204133, 38.727247], [-9.204078, 38.727234], [-9.204047, 38.727227], [-9.203993, 38.727218], [-9.203936, 38.727213], [-9.203926, 38.727212], [-9.203869, 38.727211], [-9.203835, 38.72721], [-9.203779, 38.727218], [-9.203757, 38.727221], [-9.203701, 38.727233], [-9.203645, 38.727245], [-9.20359, 38.727256], [-9.203534, 38.727268], [-9.203478, 38.72728], [-9.203423, 38.727292], [-9.203367, 38.727303], [-9.203312, 38.727315], [-9.203256, 38.727327], [-9.2032, 38.727338], [-9.203145, 38.72735], [-9.203089, 38.727362], [-9.203033, 38.727373], [-9.20301, 38.727378], [-9.202953, 38.727386], [-9.202896, 38.727393], [-9.20284, 38.727401], [-9.202783, 38.727409], [-9.202726, 38.727416], [-9.202669, 38.727424], [-9.202612, 38.727431], [-9.202556, 38.727439], [-9.202499, 38.727446], [-9.202442, 38.727454], [-9.202385, 38.727461], [-9.202329, 38.727469], [-9.202272, 38.727476], [-9.202215, 38.727484], [-9.202196, 38.727486], [-9.202139, 38.727493], [-9.202082, 38.727499], [-9.202025, 38.727506], [-9.201968, 38.727512], [-9.201911, 38.727518], [-9.201896, 38.72752], [-9.201838, 38.72752], [-9.201781, 38.72752], [-9.201723, 38.72752], [-9.201666, 38.72752], [-9.201608, 38.72752], [-9.20155, 38.72752], [-9.201527, 38.72752], [-9.20147, 38.727515], [-9.20142, 38.727511], [-9.201364, 38.7275], [-9.201308, 38.72749], [-9.201252, 38.72748], [-9.201198, 38.727464], [-9.201144, 38.727449], [-9.20109, 38.727433], [-9.201036, 38.727418], [-9.200982, 38.727403], [-9.200928, 38.727387], [-9.2009, 38.727379], [-9.200849, 38.727358], [-9.200799, 38.727337], [-9.200748, 38.727316], [-9.200697, 38.727294], [-9.200646, 38.727273], [-9.200621, 38.727263], [-9.200572, 38.727239], [-9.200523, 38.727215], [-9.200474, 38.727191], [-9.200425, 38.727167], [-9.200377, 38.727143], [-9.200328, 38.72712], [-9.200324, 38.727118], [-9.200282, 38.727087], [-9.20024, 38.727056], [-9.200198, 38.727025], [-9.200156, 38.726994], [-9.200129, 38.726973], [-9.200092, 38.726938], [-9.200055, 38.726903], [-9.200019, 38.726868], [-9.199982, 38.726834], [-9.199945, 38.726799], [-9.199939, 38.726793], [-9.199909, 38.726755], [-9.199878, 38.726717], [-9.199848, 38.726678], [-9.199817, 38.72664], [-9.199787, 38.726602], [-9.199756, 38.726563], [-9.199754, 38.726561], [-9.19973, 38.72652], [-9.199707, 38.726479], [-9.199683, 38.726438], [-9.199659, 38.726396], [-9.199635, 38.726355], [-9.199611, 38.726314], [-9.199588, 38.726273], [-9.199572, 38.726246], [-9.199555, 38.726202], [-9.199539, 38.726159], [-9.199522, 38.726116], [-9.199505, 38.726072], [-9.199489, 38.726029], [-9.199473, 38.72599], [-9.199457, 38.725946], [-9.199441, 38.725903], [-9.199425, 38.725859], [-9.199409, 38.725816], [-9.199393, 38.725773], [-9.199377, 38.725729], [-9.199374, 38.725722]]}}, {"type": "Feature", "properties": {"status": "unchanged", "cls": "separated", "counted": true, "way": 529716798, "name": "Pista do Panor\u00e2mico", "m": 76}, "geometry": {"type": "LineString", "coordinates": [[-9.189996, 38.728107], [-9.190038, 38.728138], [-9.19008, 38.728169], [-9.190122, 38.7282], [-9.190164, 38.728231], [-9.190205, 38.728262], [-9.190247, 38.728293], [-9.190289, 38.728324], [-9.190331, 38.728355], [-9.190373, 38.728387], [-9.190414, 38.728418], [-9.19042, 38.728422], [-9.190464, 38.72845], [-9.190508, 38.728479], [-9.190511, 38.728481], [-9.19056, 38.728505], [-9.190592, 38.728519], [-9.190649, 38.728525], [-9.190672, 38.728527]]}}, {"type": "Feature", "properties": {"status": "unchanged", "cls": "separated", "counted": true, "way": 976381232, "name": "Ciclovia Parque de Campismo", "m": 24}, "geometry": {"type": "LineString", "coordinates": [[-9.203641, 38.738952], [-9.203697, 38.738941], [-9.203753, 38.738929], [-9.203809, 38.738918], [-9.203865, 38.738907], [-9.203913, 38.738898]]}}, {"type": "Feature", "properties": {"status": "unchanged", "cls": "separated", "counted": true, "way": 976381232, "name": "Ciclovia Parque de Campismo", "m": 13}, "geometry": {"type": "LineString", "coordinates": [[-9.203965, 38.738887], [-9.20402, 38.738873], [-9.204074, 38.738858], [-9.204106, 38.73885]]}}, {"type": "Feature", "properties": {"status": "unchanged", "cls": "separated", "counted": true, "way": 976381232, "name": "Ciclovia Parque de Campismo", "m": 183}, "geometry": {"type": "LineString", "coordinates": [[-9.204149, 38.738838], [-9.204198, 38.738815], [-9.204247, 38.738791], [-9.204296, 38.738768], [-9.204334, 38.73875], [-9.204373, 38.738717], [-9.204412, 38.738684], [-9.204452, 38.738651], [-9.204466, 38.738639], [-9.204487, 38.738613], [-9.204518, 38.738574], [-9.204548, 38.738536], [-9.204557, 38.738525], [-9.204585, 38.738485], [-9.204614, 38.738446], [-9.204642, 38.738407], [-9.204659, 38.738384], [-9.204682, 38.738343], [-9.204706, 38.738301], [-9.20473, 38.73826], [-9.204754, 38.738219], [-9.204778, 38.738178], [-9.204797, 38.738143], [-9.204822, 38.738103], [-9.204847, 38.738062], [-9.204872, 38.738021], [-9.204897, 38.737981], [-9.204922, 38.73794], [-9.204947, 38.737899], [-9.204972, 38.737858], [-9.204997, 38.737818], [-9.205022, 38.737777], [-9.205047, 38.737736], [-9.205072, 38.737695], [-9.205097, 38.737655], [-9.205122, 38.737614], [-9.205147, 38.737573], [-9.205172, 38.737532], [-9.205197, 38.737492], [-9.205222, 38.737451], [-9.205224, 38.737448]]}}, {"type": "Feature", "properties": {"status": "unchanged", "cls": "separated", "counted": true, "way": 976381232, "name": "Ciclovia Parque de Campismo", "m": 928}, "geometry": {"type": "LineString", "coordinates": [[-9.208341, 38.732557], [-9.208367, 38.732517], [-9.208392, 38.732476], [-9.208418, 38.732436], [-9.208444, 38.732395], [-9.208469, 38.732355], [-9.208495, 38.732314], [-9.20852, 38.732274], [-9.208546, 38.732233], [-9.208571, 38.732192], [-9.208597, 38.732152], [-9.208622, 38.732111], [-9.208648, 38.732071], [-9.208673, 38.73203], [-9.208699, 38.73199], [-9.208725, 38.731949], [-9.20875, 38.731909], [-9.208776, 38.731868], [-9.208801, 38.731828], [-9.208827, 38.731787], [-9.208852, 38.731747], [-9.208878, 38.731706], [-9.208903, 38.731666], [-9.208912, 38.731652], [-9.208922, 38.731607], [-9.208933, 38.731563], [-9.208943, 38.731518], [-9.208953, 38.731474], [-9.208963, 38.731429], [-9.208973, 38.731385], [-9.208983, 38.73134], [-9.20899, 38.731312], [-9.208987, 38.731267], [-9.208984, 38.731222], [-9.208981, 38.731176], [-9.208979, 38.731131], [-9.208976, 38.731086], [-9.208973, 38.731041], [-9.208972, 38.731025], [-9.20896, 38.73098], [-9.208947, 38.730936], [-9.208935, 38.730892], [-9.208922, 38.730848], [-9.208917, 38.730827], [-9.2089, 38.730784], [-9.208898, 38.730778], [-9.208881, 38.730735], [-9.208871, 38.730709], [-9.208853, 38.730666], [-9.208834, 38.730623], [-9.208816, 38.73058], [-9.208797, 38.730538], [-9.208778, 38.730495], [-9.20876, 38.730452], [-9.208741, 38.730409], [-9.208722, 38.730366], [-9.208704, 38.730324], [-9.208685, 38.730281], [-9.208681, 38.730272], [-9.208671, 38.730228], [-9.208661, 38.730183], [-9.208652, 38.730139], [-9.208642, 38.730094], [-9.208632, 38.73005], [-9.208623, 38.730011], [-9.208628, 38.729966], [-9.208634, 38.729921], [-9.208639, 38.729876], [-9.208644, 38.729831], [-9.208646, 38.729812], [-9.208653, 38.729767], [-9.20866, 38.729722], [-9.208662, 38.729706], [-9.208682, 38.729663], [-9.208702, 38.729621], [-9.208722, 38.729578], [-9.208742, 38.729536], [-9.208762, 38.729494], [-9.208768, 38.729481], [-9.208787, 38.729459], [-9.208819, 38.729421], [-9.208851, 38.729384], [-9.208883, 38.729346], [-9.208915, 38.729309], [-9.208947, 38.729271], [-9.208979, 38.729234], [-9.209011, 38.729196], [-9.209043, 38.729159], [-9.209075, 38.729121], [-9.209095, 38.729098], [-9.20912, 38.729057], [-9.209145, 38.729016], [-9.209169, 38.728976], [-9.209194, 38.728935], [-9.209219, 38.728894], [-9.209237, 38.728864], [-9.209248, 38.72882], [-9.209259, 38.728776], [-9.20927, 38.728731], [-9.209281, 38.728687], [-9.209292, 38.728643], [-9.209302, 38.728601], [-9.2093, 38.728556], [-9.209298, 38.728511], [-9.209296, 38.728465], [-9.209295, 38.72844], [-9.209286, 38.728396], [-9.209278, 38.728351], [-9.209269, 38.728306], [-9.20926, 38.728262], [-9.209251, 38.728217], [-9.209243, 38.728174], [-9.209237, 38.728158], [-9.209222, 38.728115], [-9.209206, 38.728071], [-9.209191, 38.728028], [-9.209176, 38.727984], [-9.20916, 38.727941], [-9.209145, 38.727897], [-9.209134, 38.727868], [-9.209118, 38.727825], [-9.209102, 38.727781], [-9.209086, 38.727738], [-9.20907, 38.727694], [-9.209054, 38.727651], [-9.209038, 38.727607], [-9.209022, 38.727564], [-9.209006, 38.727521], [-9.20899, 38.727477], [-9.208974, 38.727434], [-9.208958, 38.72739], [-9.208942, 38.727347], [-9.208926, 38.727303], [-9.20891, 38.72726], [-9.208894, 38.727217], [-9.208878, 38.727173], [-9.208862, 38.72713], [-9.208846, 38.727086], [-9.208829, 38.727043], [-9.208813, 38.726999], [-9.20881, 38.72699], [-9.208796, 38.726946], [-9.208782, 38.726902], [-9.208769, 38.726858], [-9.208755, 38.726815], [-9.208741, 38.726771], [-9.208727, 38.726727], [-9.208714, 38.726683], [-9.2087, 38.726639], [-9.208686, 38.726595], [-9.208672, 38.726551], [-9.208659, 38.726507], [-9.208645, 38.726463], [-9.208631, 38.726419], [-9.208617, 38.726375], [-9.208604, 38.726332], [-9.20859, 38.726288], [-9.208576, 38.726244], [-9.208562, 38.7262], [-9.208549, 38.726156], [-9.208535, 38.726112], [-9.208521, 38.726068], [-9.208507, 38.726024], [-9.208494, 38.72598], [-9.20848, 38.725936], [-9.208466, 38.725892], [-9.208452, 38.725849], [-9.208439, 38.725805], [-9.208425, 38.725761], [-9.208411, 38.725717], [-9.208397, 38.725673], [-9.208384, 38.725629], [-9.20837, 38.725585], [-9.208356, 38.725541], [-9.208342, 38.725497], [-9.208334, 38.725469], [-9.208328, 38.725424], [-9.208322, 38.725379], [-9.208319, 38.725356], [-9.208313, 38.725311], [-9.20831, 38.725293], [-9.208296, 38.725249], [-9.208281, 38.725205], [-9.208266, 38.725162], [-9.208252, 38.725118], [-9.208237, 38.725074], [-9.208222, 38.72503], [-9.208208, 38.724987], [-9.208193, 38.724943], [-9.208178, 38.724899], [-9.208164, 38.724855], [-9.208149, 38.724812], [-9.208134, 38.724768], [-9.20812, 38.724724], [-9.208109, 38.724691], [-9.208052, 38.7247], [-9.207996, 38.724709], [-9.20794, 38.724719], [-9.207937, 38.724719]]}}, {"type": "Feature", "properties": {"status": "added", "cls": "sharrow", "counted": false, "way": 683278285, "name": "Rua Padre Domingos Maur\u00edcio dos Santos", "m": 0}, "geometry": {"type": "LineString", "coordinates": [[-9.175243, 38.73112], [-9.175242, 38.73112]]}}, {"type": "Feature", "properties": {"status": "unchanged", "cls": "separated", "counted": true, "way": 529716804, "name": "Pista do Panor\u00e2mico", "m": 263}, "geometry": {"type": "LineString", "coordinates": [[-9.180207, 38.73207], [-9.180229, 38.732095], [-9.180262, 38.732123], [-9.180304, 38.732154], [-9.180313, 38.73216], [-9.180346, 38.732175], [-9.180376, 38.732183], [-9.180433, 38.732188], [-9.180459, 38.732191], [-9.180516, 38.732184], [-9.180567, 38.732178], [-9.180624, 38.732172], [-9.180672, 38.732166], [-9.180725, 38.732154], [-9.180775, 38.732134], [-9.180822, 38.732107], [-9.180844, 38.732095], [-9.180873, 38.732066], [-9.180902, 38.732037], [-9.180909, 38.732027], [-9.180918, 38.731988], [-9.180927, 38.731943], [-9.18093, 38.731927], [-9.180924, 38.731882], [-9.180924, 38.731877], [-9.180914, 38.731839], [-9.180897, 38.731798], [-9.18087, 38.731758], [-9.180853, 38.731731], [-9.180815, 38.731697], [-9.180776, 38.731663], [-9.180738, 38.73163], [-9.180699, 38.731596], [-9.180661, 38.731562], [-9.180623, 38.731529], [-9.180611, 38.731518], [-9.18057, 38.731486], [-9.18053, 38.731454], [-9.180489, 38.731422], [-9.180449, 38.73139], [-9.180437, 38.731381], [-9.180397, 38.731349], [-9.180357, 38.731316], [-9.180322, 38.731289], [-9.180287, 38.731253], [-9.180283, 38.731249], [-9.180256, 38.731213], [-9.180236, 38.73117], [-9.180235, 38.731167], [-9.180224, 38.731123], [-9.180224, 38.731122], [-9.180218, 38.731077], [-9.180213, 38.731032], [-9.180211, 38.731017], [-9.180203, 38.730972], [-9.180194, 38.730928], [-9.180189, 38.7309], [-9.180186, 38.730855], [-9.180184, 38.730827], [-9.180192, 38.730783], [-9.180199, 38.730743], [-9.180207, 38.730699], [-9.180212, 38.730667], [-9.180222, 38.730623], [-9.180233, 38.730578], [-9.180237, 38.730563], [-9.18026, 38.730521], [-9.180268, 38.730506]]}}, {"type": "Feature", "properties": {"status": "unchanged", "cls": "separated", "counted": true, "way": 1080606319, "name": "Pista do Panor\u00e2mico", "m": 11}, "geometry": {"type": "LineString", "coordinates": [[-9.180151, 38.731984], [-9.180169, 38.731999], [-9.180186, 38.732037], [-9.180195, 38.732055], [-9.180207, 38.73207]]}}, {"type": "Feature", "properties": {"status": "unchanged", "cls": "separated", "counted": true, "way": 92161645, "name": "", "m": 57}, "geometry": {"type": "LineString", "coordinates": [[-9.18212, 38.742939], [-9.182064, 38.742933], [-9.182033, 38.742929], [-9.182003, 38.742948], [-9.181953, 38.74295], [-9.181928, 38.742938], [-9.181911, 38.74292], [-9.181905, 38.742888], [-9.181878, 38.742867], [-9.181849, 38.74286], [-9.18182, 38.742862], [-9.181778, 38.742883], [-9.181753, 38.742891], [-9.181729, 38.742894], [-9.181676, 38.742875], [-9.181624, 38.742857], [-9.181571, 38.742838], [-9.181565, 38.742836]]}}, {"type": "Feature", "properties": {"status": "unchanged", "cls": "separated", "counted": true, "way": 92161645, "name": "", "m": 644}, "geometry": {"type": "LineString", "coordinates": [[-9.177833, 38.740963], [-9.177787, 38.740936], [-9.177741, 38.740909], [-9.177694, 38.740882], [-9.177648, 38.740855], [-9.177602, 38.740828], [-9.177556, 38.740801], [-9.17751, 38.740774], [-9.177463, 38.740747], [-9.177417, 38.74072], [-9.177371, 38.740693], [-9.177325, 38.740666], [-9.177279, 38.740639], [-9.177232, 38.740612], [-9.177186, 38.740585], [-9.17714, 38.740558], [-9.177094, 38.740531], [-9.177048, 38.740504], [-9.177001, 38.740477], [-9.176955, 38.74045], [-9.176909, 38.740423], [-9.176863, 38.740396], [-9.176817, 38.740369], [-9.176771, 38.740342], [-9.176724, 38.740315], [-9.176678, 38.740289], [-9.176653, 38.740274], [-9.176607, 38.740247], [-9.176561, 38.74022], [-9.176514, 38.740192], [-9.176468, 38.740165], [-9.176422, 38.740138], [-9.176376, 38.740111], [-9.17633, 38.740084], [-9.176284, 38.740057], [-9.176238, 38.74003], [-9.176192, 38.740003], [-9.176146, 38.739976], [-9.1761, 38.739949], [-9.176053, 38.739922], [-9.176007, 38.739894], [-9.175961, 38.739867], [-9.175915, 38.73984], [-9.175869, 38.739813], [-9.175823, 38.739786], [-9.175777, 38.739759], [-9.175731, 38.739732], [-9.175685, 38.739705], [-9.175639, 38.739678], [-9.175592, 38.739651], [-9.175546, 38.739624], [-9.1755, 38.739597], [-9.175454, 38.739569], [-9.175408, 38.739542], [-9.175406, 38.739541], [-9.175361, 38.739514], [-9.175315, 38.739487], [-9.175269, 38.73946], [-9.175223, 38.739432], [-9.175177, 38.739405], [-9.175131, 38.739378], [-9.175085, 38.739351], [-9.175039, 38.739323], [-9.174993, 38.739296], [-9.174947, 38.739269], [-9.174901, 38.739242], [-9.174855, 38.739214], [-9.174809, 38.739187], [-9.174779, 38.739169], [-9.174735, 38.739139], [-9.174692, 38.73911], [-9.174648, 38.73908], [-9.174604, 38.739051], [-9.174561, 38.739021], [-9.174517, 38.738992], [-9.174474, 38.738962], [-9.174473, 38.738962], [-9.174427, 38.738935], [-9.174381, 38.738908], [-9.174334, 38.738881], [-9.174288, 38.738854], [-9.174242, 38.738827], [-9.174196, 38.7388], [-9.174161, 38.73878], [-9.174113, 38.738756], [-9.174064, 38.738731], [-9.174016, 38.738707], [-9.173968, 38.738682], [-9.173929, 38.738663], [-9.17388, 38.738639], [-9.173832, 38.738615], [-9.173783, 38.738591], [-9.173734, 38.738567], [-9.173688, 38.738544], [-9.17364, 38.738519], [-9.173591, 38.738495], [-9.173573, 38.738485], [-9.17353, 38.738455], [-9.173487, 38.738425], [-9.173465, 38.738409], [-9.173427, 38.738376], [-9.173388, 38.738342], [-9.173373, 38.738329], [-9.173343, 38.73829], [-9.173313, 38.738252], [-9.173283, 38.738213], [-9.173253, 38.738174], [-9.173223, 38.738136], [-9.173215, 38.738126], [-9.173188, 38.738086], [-9.17316, 38.738047], [-9.173133, 38.738007], [-9.173105, 38.737967], [-9.173077, 38.737928], [-9.17305, 38.737888], [-9.173022, 38.737848], [-9.173014, 38.737837], [-9.172987, 38.737797], [-9.17296, 38.737757], [-9.172934, 38.737717], [-9.172907, 38.737677], [-9.17288, 38.737637], [-9.172853, 38.737597], [-9.172827, 38.737558], [-9.172801, 38.737518], [-9.172774, 38.737478], [-9.172748, 38.737437], [-9.172741, 38.737427], [-9.172718, 38.737386], [-9.172694, 38.737344], [-9.172673, 38.737307], [-9.172651, 38.737265], [-9.172629, 38.737223], [-9.172606, 38.737182], [-9.172584, 38.73714], [-9.172562, 38.737098], [-9.17254, 38.737056], [-9.172538, 38.737054]]}}, {"type": "Feature", "properties": {"status": "unchanged", "cls": "separated", "counted": true, "way": 166102399, "name": "", "m": 88}, "geometry": {"type": "LineString", "coordinates": [[-9.182047, 38.74249], [-9.18205, 38.742535], [-9.182051, 38.742543], [-9.182099, 38.742568], [-9.182104, 38.742571], [-9.182155, 38.742592], [-9.182205, 38.742614], [-9.182255, 38.742636], [-9.182306, 38.742658], [-9.182356, 38.74268], [-9.182407, 38.742701], [-9.182457, 38.742723], [-9.182508, 38.742745], [-9.182558, 38.742767], [-9.182609, 38.742789], [-9.182659, 38.74281], [-9.18271, 38.742832], [-9.18276, 38.742854], [-9.18281, 38.742876], [-9.182861, 38.742897], [-9.182879, 38.742905]]}}, {"type": "Feature", "properties": {"status": "unchanged", "cls": "separated", "counted": true, "way": 507133721, "name": "", "m": 3}, "geometry": {"type": "LineString", "coordinates": [[-9.182879, 38.742905], [-9.182845, 38.742914]]}}, {"type": "Feature", "properties": {"status": "unchanged", "cls": "separated", "counted": true, "way": 164086066, "name": "", "m": 24}, "geometry": {"type": "LineString", "coordinates": [[-9.182845, 38.742914], [-9.182793, 38.742933], [-9.182741, 38.742952], [-9.182689, 38.742971], [-9.182637, 38.742991], [-9.182595, 38.743006]]}}, {"type": "Feature", "properties": {"status": "unchanged", "cls": "separated", "counted": true, "way": 164086086, "name": "", "m": 54}, "geometry": {"type": "LineString", "coordinates": [[-9.182595, 38.743006], [-9.182543, 38.743025], [-9.182491, 38.743044], [-9.182438, 38.743063], [-9.182403, 38.743075], [-9.182371, 38.743081], [-9.182329, 38.743051], [-9.182314, 38.743007], [-9.182308, 38.74299], [-9.182286, 38.742977], [-9.182231, 38.742991], [-9.182224, 38.742993], [-9.182167, 38.742999], [-9.182165, 38.742999], [-9.182139, 38.742972], [-9.18212, 38.742939]]}}, {"type": "Feature", "properties": {"status": "unchanged", "cls": "separated", "counted": true, "way": 169794598, "name": "Estrada do Barcal", "m": 809}, "geometry": {"type": "LineString", "coordinates": [[-9.193662, 38.739973], [-9.193712, 38.739951], [-9.193762, 38.739928], [-9.193812, 38.739906], [-9.193862, 38.739884], [-9.193912, 38.739861], [-9.193951, 38.739843], [-9.194007, 38.739833], [-9.194063, 38.739822], [-9.194114, 38.739812], [-9.194171, 38.739806], [-9.194228, 38.739799], [-9.194235, 38.739798], [-9.194293, 38.739798], [-9.19434, 38.739798], [-9.194397, 38.739804], [-9.194452, 38.739809], [-9.194507, 38.739822], [-9.194562, 38.739835], [-9.194587, 38.73984], [-9.194637, 38.739862], [-9.194688, 38.739884], [-9.194696, 38.739887], [-9.194744, 38.739912], [-9.194792, 38.739937], [-9.19484, 38.739962], [-9.194854, 38.73997], [-9.1949, 38.739997], [-9.194947, 38.740024], [-9.19495, 38.740026], [-9.194993, 38.740056], [-9.195034, 38.740084], [-9.195073, 38.740118], [-9.195112, 38.740151], [-9.195151, 38.740185], [-9.195184, 38.740214], [-9.19523, 38.74024], [-9.195276, 38.740267], [-9.195296, 38.740279], [-9.195346, 38.7403], [-9.195397, 38.740322], [-9.195417, 38.74033], [-9.195471, 38.740347], [-9.195524, 38.740363], [-9.195556, 38.740372], [-9.195612, 38.740383], [-9.195668, 38.740393], [-9.195698, 38.740398], [-9.195755, 38.740403], [-9.195812, 38.740408], [-9.195843, 38.740411], [-9.1959, 38.74041], [-9.195958, 38.740409], [-9.195987, 38.740409], [-9.196044, 38.740402], [-9.196101, 38.740395], [-9.196158, 38.740388], [-9.196182, 38.740385], [-9.196236, 38.740369], [-9.19629, 38.740353], [-9.196343, 38.740337], [-9.196352, 38.740335], [-9.196405, 38.740316], [-9.196457, 38.740297], [-9.196491, 38.740285], [-9.196538, 38.740259], [-9.196585, 38.740233], [-9.196632, 38.740207], [-9.196633, 38.740207], [-9.196675, 38.740176], [-9.196717, 38.740145], [-9.196745, 38.740125], [-9.196781, 38.740089], [-9.196817, 38.740054], [-9.196824, 38.740047], [-9.196856, 38.740009], [-9.196887, 38.739972], [-9.196919, 38.739934], [-9.19695, 38.739896], [-9.196982, 38.739858], [-9.196994, 38.739843], [-9.197025, 38.739805], [-9.197056, 38.739766], [-9.197086, 38.739728], [-9.197117, 38.73969], [-9.197148, 38.739652], [-9.197173, 38.73962], [-9.19721, 38.739586], [-9.197248, 38.739551], [-9.197285, 38.739517], [-9.197298, 38.739505], [-9.197341, 38.739475], [-9.197384, 38.739445], [-9.197428, 38.739415], [-9.197471, 38.739385], [-9.197514, 38.739355], [-9.197541, 38.739336], [-9.197595, 38.73932], [-9.197649, 38.739303], [-9.197702, 38.739286], [-9.197748, 38.739272], [-9.197801, 38.739254], [-9.197854, 38.739236], [-9.197906, 38.739218], [-9.197933, 38.739208], [-9.197987, 38.739191], [-9.19804, 38.739174], [-9.198093, 38.739156], [-9.198146, 38.739139], [-9.198199, 38.739122], [-9.198246, 38.739107], [-9.198299, 38.739088], [-9.198351, 38.739069], [-9.198403, 38.739051], [-9.198456, 38.739032], [-9.198508, 38.739013], [-9.198543, 38.739001], [-9.198593, 38.738978], [-9.198642, 38.738956], [-9.198692, 38.738933], [-9.198742, 38.73891], [-9.198792, 38.738887], [-9.198811, 38.738878], [-9.198858, 38.738851], [-9.198904, 38.738825], [-9.198951, 38.738798], [-9.198997, 38.738771], [-9.199044, 38.738745], [-9.19909, 38.738718], [-9.199109, 38.738707], [-9.199157, 38.738682], [-9.199204, 38.738657], [-9.199252, 38.738632], [-9.199298, 38.738608], [-9.199344, 38.73858], [-9.199389, 38.738553], [-9.199435, 38.738526], [-9.199481, 38.738498], [-9.199483, 38.738497], [-9.199526, 38.738467], [-9.199569, 38.738437], [-9.199612, 38.738407], [-9.19965, 38.738381], [-9.199691, 38.73835], [-9.199733, 38.738318], [-9.199774, 38.738287], [-9.199815, 38.738256], [-9.199815, 38.738256], [-9.199853, 38.738221], [-9.19989, 38.738187], [-9.199927, 38.738152], [-9.199964, 38.738118], [-9.200002, 38.738083], [-9.200039, 38.738049], [-9.200076, 38.738014], [-9.200113, 38.73798], [-9.200151, 38.737945], [-9.200188, 38.737911], [-9.200225, 38.737876], [-9.200262, 38.737842], [-9.200299, 38.737807], [-9.200308, 38.737799], [-9.20034, 38.737762], [-9.200372, 38.737724], [-9.200394, 38.737697], [-9.200425, 38.737659], [-9.200456, 38.737621], [-9.200487, 38.737583], [-9.200495, 38.737574], [-9.200524, 38.737535], [-9.200553, 38.737496], [-9.200582, 38.737457], [-9.200611, 38.737418], [-9.200627, 38.737396], [-9.200653, 38.737356], [-9.200679, 38.737316], [-9.200705, 38.737276], [-9.200731, 38.737235], [-9.200757, 38.737195], [-9.200783, 38.737155], [-9.20081, 38.737114], [-9.200836, 38.737074], [-9.20084, 38.737067], [-9.200853, 38.737038]]}}, {"type": "Feature", "properties": {"status": "added", "cls": "separated", "counted": true, "way": 1491627936, "name": "", "m": 160}, "geometry": {"type": "LineString", "coordinates": [[-9.20115, 38.739816], [-9.201166, 38.739773], [-9.201181, 38.739729], [-9.201184, 38.739722], [-9.201205, 38.739693], [-9.201249, 38.739663], [-9.201292, 38.739634], [-9.201336, 38.739604], [-9.201379, 38.739574], [-9.201406, 38.739556], [-9.201443, 38.739521], [-9.201457, 38.739509], [-9.201486, 38.739474], [-9.201499, 38.739429], [-9.2015, 38.739424], [-9.20151, 38.73938], [-9.201512, 38.739374], [-9.20153, 38.739331], [-9.201543, 38.739302], [-9.201577, 38.739266], [-9.20161, 38.739233], [-9.201649, 38.7392], [-9.201689, 38.739168], [-9.201702, 38.739156], [-9.201748, 38.739129], [-9.201794, 38.739101], [-9.20184, 38.739074], [-9.201866, 38.739058], [-9.201912, 38.739031], [-9.201926, 38.739024], [-9.201967, 38.738992], [-9.20199, 38.738974], [-9.202018, 38.738935], [-9.202047, 38.738896], [-9.202054, 38.738887], [-9.202107, 38.738905], [-9.202116, 38.738909], [-9.202143, 38.738917], [-9.202175, 38.738955], [-9.20219, 38.738973], [-9.202223, 38.738996], [-9.202253, 38.739002], [-9.2023, 38.738999]]}}, {"type": "Feature", "properties": {"status": "unchanged", "cls": "separated", "counted": true, "way": 1013437864, "name": "Estrada do Barcal", "m": 296}, "geometry": {"type": "LineString", "coordinates": [[-9.190459, 38.7404], [-9.190501, 38.740369], [-9.190543, 38.740338], [-9.19057, 38.740319], [-9.190618, 38.740294], [-9.190666, 38.740269], [-9.190714, 38.740243], [-9.190762, 38.740218], [-9.19081, 38.740193], [-9.190852, 38.740171], [-9.190907, 38.740157], [-9.190961, 38.740143], [-9.191016, 38.740129], [-9.191071, 38.740115], [-9.191125, 38.740101], [-9.191167, 38.74009], [-9.191224, 38.740081], [-9.19128, 38.740072], [-9.191337, 38.740063], [-9.191349, 38.740061], [-9.191406, 38.740055], [-9.191463, 38.740049], [-9.19152, 38.740043], [-9.191558, 38.740039], [-9.191616, 38.740041], [-9.191673, 38.740044], [-9.191731, 38.740046], [-9.191788, 38.740048], [-9.191818, 38.74005], [-9.191875, 38.740055], [-9.191928, 38.74006], [-9.191982, 38.740075], [-9.192037, 38.740089], [-9.192044, 38.740091], [-9.192099, 38.740106], [-9.192153, 38.74012], [-9.192208, 38.740135], [-9.192259, 38.740149], [-9.192314, 38.740161], [-9.192369, 38.740174], [-9.192425, 38.740187], [-9.192433, 38.740189], [-9.19249, 38.740195], [-9.192547, 38.740202], [-9.192584, 38.740206], [-9.192642, 38.74021], [-9.192699, 38.740214], [-9.192744, 38.740217], [-9.192802, 38.740214], [-9.192846, 38.740212], [-9.192903, 38.740207], [-9.192946, 38.740202], [-9.193, 38.740186], [-9.193053, 38.74017], [-9.193107, 38.740154], [-9.193161, 38.740138], [-9.193215, 38.740122], [-9.193269, 38.740106], [-9.193322, 38.74009], [-9.193373, 38.740075], [-9.193425, 38.740056], [-9.193478, 38.740038], [-9.19353, 38.740019], [-9.193583, 38.740001], [-9.193635, 38.739983], [-9.193662, 38.739973]]}}, {"type": "Feature", "properties": {"status": "unchanged", "cls": "separated", "counted": true, "way": 205835100, "name": "", "m": 331}, "geometry": {"type": "LineString", "coordinates": [[-9.20115, 38.739816], [-9.201128, 38.739858], [-9.20111, 38.739892], [-9.201065, 38.73992], [-9.20102, 38.739948], [-9.200975, 38.739976], [-9.200973, 38.739978], [-9.200927, 38.740005], [-9.200881, 38.740032], [-9.200874, 38.740036], [-9.200831, 38.740066], [-9.200787, 38.740095], [-9.200774, 38.740104], [-9.200737, 38.740138], [-9.2007, 38.740173], [-9.200662, 38.740207], [-9.200625, 38.740242], [-9.200588, 38.740276], [-9.200568, 38.740294], [-9.200536, 38.740331], [-9.200503, 38.740368], [-9.20047, 38.740405], [-9.200438, 38.740442], [-9.200405, 38.74048], [-9.200372, 38.740517], [-9.200344, 38.740549], [-9.200309, 38.740585], [-9.200274, 38.740621], [-9.200239, 38.740657], [-9.200211, 38.740686], [-9.200168, 38.740716], [-9.200142, 38.740734], [-9.200094, 38.740759], [-9.200058, 38.740777], [-9.20001, 38.740801], [-9.199961, 38.740825], [-9.199913, 38.74085], [-9.199864, 38.740874], [-9.199816, 38.740898], [-9.199767, 38.740923], [-9.199757, 38.740928], [-9.199709, 38.740954], [-9.199662, 38.74098], [-9.199615, 38.741006], [-9.199609, 38.741009], [-9.199564, 38.741037], [-9.199518, 38.741065], [-9.199473, 38.741093], [-9.199463, 38.741099], [-9.19942, 38.74113], [-9.199378, 38.741161], [-9.199336, 38.741191], [-9.199293, 38.741222], [-9.199288, 38.741225], [-9.199249, 38.741258], [-9.199209, 38.741291], [-9.19917, 38.741324], [-9.19913, 38.741357], [-9.199124, 38.741362], [-9.199088, 38.741397], [-9.199051, 38.741432], [-9.199015, 38.741467], [-9.198978, 38.741502], [-9.198942, 38.741537], [-9.198934, 38.741545], [-9.198898, 38.74158], [-9.198863, 38.741616], [-9.198827, 38.741652], [-9.198792, 38.741687], [-9.198757, 38.741723], [-9.198749, 38.741731], [-9.198714, 38.741766], [-9.198679, 38.741802], [-9.198644, 38.741838], [-9.198608, 38.741874], [-9.198573, 38.74191], [-9.198538, 38.741945], [-9.198537, 38.741946]]}}, {"type": "Feature", "properties": {"status": "unchanged", "cls": "separated", "counted": true, "way": 598503049, "name": "", "m": 22}, "geometry": {"type": "LineString", "coordinates": [[-9.198537, 38.741946], [-9.198502, 38.741982], [-9.198467, 38.742018], [-9.198432, 38.742054], [-9.198397, 38.74209], [-9.198386, 38.742101]]}}, {"type": "Feature", "properties": {"status": "unchanged", "cls": "separated", "counted": true, "way": 598503048, "name": "", "m": 1454}, "geometry": {"type": "LineString", "coordinates": [[-9.198386, 38.742101], [-9.19835, 38.742136], [-9.198314, 38.742172], [-9.198278, 38.742207], [-9.198242, 38.742242], [-9.198207, 38.742278], [-9.198171, 38.742313], [-9.198135, 38.742348], [-9.19813, 38.742353], [-9.198092, 38.742387], [-9.198054, 38.742421], [-9.198016, 38.742455], [-9.198002, 38.742469], [-9.197962, 38.742502], [-9.197923, 38.742535], [-9.197908, 38.742547], [-9.197865, 38.742578], [-9.197823, 38.742609], [-9.197781, 38.742639], [-9.197743, 38.742667], [-9.197699, 38.742696], [-9.197655, 38.742725], [-9.197611, 38.742755], [-9.197567, 38.742784], [-9.197556, 38.742791], [-9.19751, 38.742817], [-9.197463, 38.742844], [-9.197416, 38.74287], [-9.197393, 38.742884], [-9.197345, 38.742909], [-9.197296, 38.742934], [-9.197257, 38.742954], [-9.197208, 38.742978], [-9.197159, 38.743001], [-9.19711, 38.743024], [-9.1971, 38.743029], [-9.19705, 38.743051], [-9.197011, 38.743068], [-9.19696, 38.743088], [-9.196908, 38.743108], [-9.196857, 38.743128], [-9.196817, 38.743144], [-9.196765, 38.743162], [-9.196712, 38.74318], [-9.196666, 38.743196], [-9.196613, 38.743213], [-9.19656, 38.74323], [-9.196529, 38.74324], [-9.196474, 38.743254], [-9.196419, 38.743268], [-9.196365, 38.743282], [-9.196318, 38.743294], [-9.196262, 38.743305], [-9.196206, 38.743317], [-9.196151, 38.743328], [-9.196095, 38.74334], [-9.196074, 38.743344], [-9.196018, 38.743353], [-9.195961, 38.743362], [-9.195954, 38.743364], [-9.195897, 38.743371], [-9.19584, 38.743379], [-9.19581, 38.743383], [-9.195753, 38.74339], [-9.195696, 38.743397], [-9.19564, 38.743404], [-9.195583, 38.743411], [-9.195526, 38.743419], [-9.195469, 38.743426], [-9.195412, 38.743433], [-9.195355, 38.74344], [-9.195298, 38.743447], [-9.195242, 38.743454], [-9.195227, 38.743456], [-9.19517, 38.743463], [-9.195113, 38.74347], [-9.195056, 38.743477], [-9.194999, 38.743484], [-9.194942, 38.743491], [-9.194885, 38.743498], [-9.194828, 38.743505], [-9.194806, 38.743507], [-9.194749, 38.743514], [-9.194692, 38.74352], [-9.194635, 38.743527], [-9.194578, 38.743533], [-9.194521, 38.743539], [-9.194464, 38.743546], [-9.194407, 38.743552], [-9.19435, 38.743559], [-9.194293, 38.743565], [-9.194236, 38.743571], [-9.194179, 38.743578], [-9.194122, 38.743584], [-9.194076, 38.743589], [-9.194019, 38.743596], [-9.193962, 38.743602], [-9.193905, 38.743608], [-9.193848, 38.743614], [-9.193791, 38.74362], [-9.193734, 38.743626], [-9.193677, 38.743633], [-9.19362, 38.743639], [-9.193563, 38.743645], [-9.193506, 38.743651], [-9.193449, 38.743657], [-9.193392, 38.743663], [-9.193335, 38.743669], [-9.193278, 38.743676], [-9.193221, 38.743682], [-9.193163, 38.743688], [-9.193106, 38.743694], [-9.193049, 38.7437], [-9.192992, 38.743706], [-9.192935, 38.743712], [-9.192921, 38.743714], [-9.192864, 38.74372], [-9.192807, 38.743726], [-9.19275, 38.743733], [-9.192693, 38.743739], [-9.192636, 38.743745], [-9.192579, 38.743751], [-9.192522, 38.743758], [-9.192465, 38.743764], [-9.192408, 38.74377], [-9.192351, 38.743776], [-9.192294, 38.743782], [-9.192237, 38.743789], [-9.192221, 38.74379], [-9.192164, 38.743796], [-9.192107, 38.743802], [-9.19205, 38.743808], [-9.191993, 38.743814], [-9.191936, 38.74382], [-9.191905, 38.743823], [-9.191848, 38.74383], [-9.191791, 38.743836], [-9.191734, 38.743842], [-9.191682, 38.743848], [-9.191625, 38.743854], [-9.191568, 38.74386], [-9.191511, 38.743866], [-9.191454, 38.743872], [-9.191397, 38.743879], [-9.19134, 38.743885], [-9.191283, 38.743891], [-9.191226, 38.743897], [-9.191169, 38.743903], [-9.191112, 38.743909], [-9.191055, 38.743915], [-9.190998, 38.743921], [-9.190943, 38.743927], [-9.190886, 38.743933], [-9.190828, 38.743939], [-9.190771, 38.743945], [-9.19074, 38.743948], [-9.190683, 38.743954], [-9.190626, 38.74396], [-9.190569, 38.743966], [-9.190512, 38.743972], [-9.190455, 38.743978], [-9.190398, 38.743984], [-9.190341, 38.74399], [-9.190284, 38.743996], [-9.190227, 38.744002], [-9.19017, 38.744008], [-9.190113, 38.744014], [-9.190056, 38.74402], [-9.189999, 38.744026], [-9.189942, 38.744032], [-9.189885, 38.744038], [-9.189828, 38.744044], [-9.189771, 38.74405], [-9.189713, 38.744056], [-9.189656, 38.744062], [-9.189599, 38.744068], [-9.189572, 38.744071], [-9.189515, 38.744077], [-9.189458, 38.744083], [-9.189401, 38.744089], [-9.189344, 38.744095], [-9.189287, 38.744101], [-9.18923, 38.744107], [-9.189173, 38.744113], [-9.189116, 38.744119], [-9.189058, 38.744125], [-9.189034, 38.744128], [-9.188977, 38.744134], [-9.18892, 38.74414], [-9.188863, 38.744147], [-9.188806, 38.744153], [-9.188749, 38.744159], [-9.188692, 38.744165], [-9.188635, 38.744172], [-9.18862, 38.744173], [-9.188563, 38.744179], [-9.188506, 38.744185], [-9.188449, 38.74419], [-9.188392, 38.744196], [-9.188335, 38.744202], [-9.188278, 38.744207], [-9.188221, 38.744213], [-9.188209, 38.744214], [-9.188151, 38.744219], [-9.188094, 38.744223], [-9.188037, 38.744228], [-9.18799, 38.744232], [-9.187932, 38.744236], [-9.187875, 38.744239], [-9.187817, 38.744243], [-9.187808, 38.744244], [-9.187751, 38.744245], [-9.187693, 38.744246], [-9.187636, 38.744248], [-9.187578, 38.744249], [-9.187521, 38.74425], [-9.187511, 38.744251], [-9.187453, 38.744251], [-9.187396, 38.744252], [-9.187338, 38.744253], [-9.187283, 38.744254], [-9.187226, 38.744251], [-9.187168, 38.744249], [-9.187111, 38.744247], [-9.187053, 38.744245], [-9.186996, 38.744243], [-9.186938, 38.74424], [-9.186921, 38.74424], [-9.186863, 38.744235], [-9.186806, 38.744231], [-9.186749, 38.744227], [-9.186691, 38.744223], [-9.186644, 38.744219], [-9.186587, 38.744213], [-9.18653, 38.744207], [-9.186473, 38.744201], [-9.186416, 38.744194], [-9.186359, 38.744188], [-9.186326, 38.744185], [-9.186269, 38.744176], [-9.186213, 38.744168], [-9.186156, 38.74416], [-9.186099, 38.744152], [-9.186081, 38.744149], [-9.186025, 38.74414], [-9.185968, 38.74413], [-9.185912, 38.744121], [-9.185856, 38.744112], [-9.185801, 38.744101], [-9.185745, 38.74409], [-9.185689, 38.744079], [-9.185633, 38.744068], [-9.185578, 38.744057], [-9.185522, 38.744045], [-9.185466, 38.744033], [-9.185411, 38.744021], [-9.185356, 38.744009], [-9.185301, 38.743998], [-9.185245, 38.743986], [-9.18519, 38.743974], [-9.185134, 38.743962], [-9.185078, 38.74395], [-9.185023, 38.743938], [-9.184967, 38.743926], [-9.184912, 38.743915], [-9.184856, 38.743903], [-9.184801, 38.743891], [-9.184745, 38.743879], [-9.184715, 38.743873], [-9.184659, 38.743861], [-9.184603, 38.743849], [-9.184548, 38.743838], [-9.184492, 38.743826], [-9.184436, 38.743815], [-9.184381, 38.743803], [-9.18433, 38.743792], [-9.184274, 38.743781], [-9.184218, 38.743769], [-9.184163, 38.743757], [-9.184107, 38.743746], [-9.1841, 38.743744], [-9.184049, 38.743731], [-9.184033, 38.743719], [-9.184026, 38.743702], [-9.184026, 38.743679], [-9.184022, 38.743634], [-9.18402, 38.743605], [-9.184011, 38.743561], [-9.184006, 38.743535], [-9.183988, 38.743492], [-9.183984, 38.743482], [-9.183961, 38.74344], [-9.183954, 38.743428], [-9.183929, 38.743388], [-9.183927, 38.743386], [-9.183893, 38.743349], [-9.183882, 38.743336], [-9.183846, 38.743301], [-9.183836, 38.743291], [-9.183793, 38.743261], [-9.183792, 38.743261], [-9.183742, 38.74324], [-9.183691, 38.743218], [-9.18364, 38.743197], [-9.183589, 38.743176], [-9.183538, 38.743155], [-9.183487, 38.743134], [-9.183454, 38.74312], [-9.183402, 38.743101], [-9.183349, 38.743082], [-9.183297, 38.743063], [-9.183245, 38.743044], [-9.183193, 38.743025], [-9.183184, 38.743022], [-9.183132, 38.743002], [-9.18308, 38.742982], [-9.183028, 38.742963], [-9.182977, 38.742943], [-9.182925, 38.742923], [-9.182879, 38.742905]]}}, {"type": "Feature", "properties": {"status": "unchanged", "cls": "shared", "counted": true, "way": 43323399, "name": "Ponte Pedonal e Cicl\u00e1vel acesso norte a Monsanto", "m": 59}, "geometry": {"type": "LineString", "coordinates": [[-9.189744, 38.743877], [-9.189753, 38.743922], [-9.189762, 38.743967], [-9.189772, 38.744011], [-9.189781, 38.744056], [-9.18979, 38.7441], [-9.189799, 38.744145], [-9.189809, 38.74419], [-9.189818, 38.744234], [-9.189827, 38.744279], [-9.189836, 38.744324], [-9.189846, 38.744368], [-9.189852, 38.7444]]}}, {"type": "Feature", "properties": {"status": "added", "cls": "sharrow", "counted": false, "way": 35571889, "name": "Rua 5", "m": 2}, "geometry": {"type": "LineString", "coordinates": [[-9.16819, 38.727866], [-9.168175, 38.727876]]}}, {"type": "Feature", "properties": {"status": "added", "cls": "sharrow", "counted": false, "way": 145019601, "name": "Rua 2", "m": 127}, "geometry": {"type": "LineString", "coordinates": [[-9.166565, 38.726883], [-9.166605, 38.726915], [-9.166645, 38.726948], [-9.166684, 38.726981], [-9.166724, 38.727013], [-9.166764, 38.727046], [-9.166804, 38.727079], [-9.166844, 38.727111], [-9.166883, 38.727144], [-9.166923, 38.727177], [-9.166963, 38.727209], [-9.167003, 38.727242], [-9.167022, 38.727258], [-9.167063, 38.727289], [-9.167105, 38.72732], [-9.167146, 38.727351], [-9.167188, 38.727383], [-9.16723, 38.727414], [-9.167271, 38.727445], [-9.1673, 38.727467], [-9.167339, 38.7275], [-9.167378, 38.727534], [-9.167417, 38.727567], [-9.167456, 38.7276], [-9.167495, 38.727634], [-9.167534, 38.727667], [-9.167572, 38.727701], [-9.167581, 38.727708]]}}, {"type": "Feature", "properties": {"status": "added", "cls": "sharrow", "counted": false, "way": 35571894, "name": "Rua 6", "m": 0}, "geometry": {"type": "LineString", "coordinates": [[-9.167581, 38.727708], [-9.167581, 38.727708]]}}, {"type": "Feature", "properties": {"status": "added", "cls": "sharrow", "counted": false, "way": 186640385, "name": "Rua 7", "m": 10}, "geometry": {"type": "LineString", "coordinates": [[-9.168602, 38.7282], [-9.168639, 38.72817], [-9.168678, 38.728136], [-9.168678, 38.728136]]}}, {"type": "Feature", "properties": {"status": "added", "cls": "sharrow", "counted": false, "way": 186640369, "name": "Rua 2", "m": 1}, "geometry": {"type": "LineString", "coordinates": [[-9.167589, 38.727715], [-9.167581, 38.727708]]}}, {"type": "Feature", "properties": {"status": "added", "cls": "sharrow", "counted": false, "way": 35571871, "name": "Rua 12", "m": 216}, "geometry": {"type": "LineString", "coordinates": [[-9.169877, 38.727571], [-9.169845, 38.727608], [-9.169813, 38.727646], [-9.169781, 38.727683], [-9.169749, 38.727721], [-9.169717, 38.727759], [-9.169685, 38.727796], [-9.169653, 38.727834], [-9.169622, 38.727871], [-9.169605, 38.727891], [-9.169571, 38.727927], [-9.169537, 38.727964], [-9.169503, 38.728], [-9.169469, 38.728037], [-9.169435, 38.728073], [-9.169401, 38.72811], [-9.169367, 38.728146], [-9.169333, 38.728183], [-9.169333, 38.728183], [-9.1693, 38.72822], [-9.169266, 38.728256], [-9.169233, 38.728293], [-9.169199, 38.72833], [-9.169166, 38.728367], [-9.169133, 38.728404], [-9.169099, 38.72844], [-9.16907, 38.728473], [-9.169031, 38.728507], [-9.169016, 38.728519], [-9.168978, 38.728552], [-9.168939, 38.728586], [-9.1689, 38.728619], [-9.168861, 38.728652], [-9.168822, 38.728686], [-9.168788, 38.728714], [-9.168748, 38.728746], [-9.168707, 38.728778], [-9.168667, 38.728811], [-9.168626, 38.728843], [-9.168586, 38.728875], [-9.168545, 38.728907], [-9.168513, 38.728932], [-9.168471, 38.728963], [-9.168429, 38.728994], [-9.168386, 38.729024], [-9.168344, 38.729055], [-9.168307, 38.729082]]}}, {"type": "Feature", "properties": {"status": "added", "cls": "sharrow", "counted": false, "way": 35571893, "name": "Rua 10", "m": 36}, "geometry": {"type": "LineString", "coordinates": [[-9.168299, 38.728424], [-9.16834, 38.728392], [-9.168381, 38.72836], [-9.168384, 38.728358], [-9.168426, 38.728327], [-9.168469, 38.728297], [-9.168511, 38.728266], [-9.168553, 38.728235], [-9.168596, 38.728205], [-9.168602, 38.7282]]}}, {"type": "Feature", "properties": {"status": "unchanged", "cls": "shared", "counted": true, "way": 963358128, "name": "Corredor Verde do Vale de Alc\u00e2ntara", "m": 87}, "geometry": {"type": "LineString", "coordinates": [[-9.169976, 38.729438], [-9.170009, 38.72942], [-9.170052, 38.729391], [-9.170055, 38.729389], [-9.170074, 38.729357], [-9.170086, 38.729313], [-9.170087, 38.729312], [-9.170095, 38.729267], [-9.170096, 38.729258], [-9.170113, 38.729215], [-9.170114, 38.729212], [-9.170137, 38.72918], [-9.170158, 38.729153], [-9.170206, 38.729128], [-9.170212, 38.729125], [-9.170261, 38.729101], [-9.170297, 38.729083], [-9.170334, 38.729048], [-9.170337, 38.729045], [-9.170371, 38.729009], [-9.170386, 38.728994], [-9.170416, 38.728956], [-9.170429, 38.728938], [-9.170456, 38.728898], [-9.17047, 38.728876], [-9.170489, 38.728833], [-9.170502, 38.728806]]}}, {"type": "Feature", "properties": {"status": "added", "cls": "sharrow", "counted": false, "way": 186640364, "name": "Rua 8", "m": 24}, "geometry": {"type": "LineString", "coordinates": [[-9.168175, 38.727876], [-9.168134, 38.727907], [-9.168092, 38.727938], [-9.16805, 38.72797], [-9.168008, 38.728001], [-9.167978, 38.728024]]}}, {"type": "Feature", "properties": {"status": "added", "cls": "sharrow", "counted": false, "way": 37766352, "name": "Rua Miguel \u00c2ngelo de Blasco", "m": 46}, "geometry": {"type": "LineString", "coordinates": [[-9.170961, 38.73404], [-9.170954, 38.734084], [-9.170948, 38.734129], [-9.170941, 38.734174], [-9.170934, 38.734219], [-9.17093, 38.734246], [-9.170929, 38.734291], [-9.170928, 38.734336], [-9.170927, 38.734381], [-9.170926, 38.734427], [-9.170925, 38.734452]]}}, {"type": "Feature", "properties": {"status": "unchanged", "cls": "separated", "counted": true, "way": 424010628, "name": "", "m": 14}, "geometry": {"type": "LineString", "coordinates": [[-9.172421, 38.736589], [-9.172412, 38.736569], [-9.172359, 38.736587], [-9.172306, 38.736605], [-9.17229, 38.736611]]}}, {"type": "Feature", "properties": {"status": "unchanged", "cls": "shared", "counted": true, "way": 163798439, "name": "", "m": 50}, "geometry": {"type": "LineString", "coordinates": [[-9.172294, 38.736633], [-9.172347, 38.736614], [-9.1724, 38.736596], [-9.172421, 38.736589], [-9.172477, 38.736579], [-9.172533, 38.73657], [-9.17259, 38.736561], [-9.172646, 38.736551], [-9.172702, 38.736542], [-9.172759, 38.736533], [-9.172815, 38.736523], [-9.172851, 38.736517]]}}, {"type": "Feature", "properties": {"status": "unchanged", "cls": "separated", "counted": true, "way": 529707748, "name": "", "m": 56}, "geometry": {"type": "LineString", "coordinates": [[-9.172538, 38.737054], [-9.172519, 38.737011], [-9.172499, 38.736969], [-9.172479, 38.736926], [-9.172459, 38.736884], [-9.172439, 38.736842], [-9.172431, 38.736825], [-9.172413, 38.736782], [-9.172396, 38.736739], [-9.172378, 38.736695], [-9.172364, 38.736661], [-9.172385, 38.736637], [-9.17242, 38.736617], [-9.172421, 38.736589]]}}, {"type": "Feature", "properties": {"status": "removed", "cls": "separated", "counted": true, "way": 205835100, "name": "", "m": 56}, "geometry": {"type": "LineString", "coordinates": [[-9.20164, 38.73946], [-9.201598, 38.739491], [-9.201558, 38.739521], [-9.201529, 38.73956], [-9.201501, 38.7396], [-9.201473, 38.739639], [-9.201463, 38.739652], [-9.201421, 38.739683], [-9.201379, 38.739714], [-9.201337, 38.739745], [-9.201296, 38.739776], [-9.201254, 38.739807], [-9.201212, 38.739838]]}}]}